{"type": "FeatureCollection", "features": [{"type": "Feature", "properties": {"diocese": "Tarentaise", "province": "XXVIII_Tarentaise", "source": "164_Tarentaise.txt"}, "geometry": {"type": "Polygon", "coordinates": [[[6.234283817393479, 45.600705100307856], [6.236143137062438, 45.59782672272615], [6.238002456731397, 45.594948345144445], [6.239861776400355, 45.59206996756274], [6.241721096069316, 45.58919158998104], [6.243580415738274, 45.58631321239934], [6.245439735407235, 45.58343483481762], [6.247299055076194, 45.58055645723592], [6.249158374745155, 45.57767807965422], [6.251017694414111, 45.57479970207252], [6.252877014083072, 45.571921324490816], [6.252877014083072, 45.571921324490816], [6.263403531040261, 45.57750973339338], [6.27393004799745, 45.58309814229595], [6.284456564954635, 45.58868655119852], [6.294983081911825, 45.594274960101096], [6.305509598869014, 45.59986336900368], [6.316036115826201, 45.60545177790624], [6.326562632783386, 45.611040186808815], [6.337089149740576, 45.61662859571139], [6.347615666697765, 45.62221700461396], [6.358142183654953, 45.62780541351653], [6.358142183654953, 45.62780541351653], [6.359162821635472, 45.62505710629948], [6.3601834596159925, 45.622308799082425], [6.361204097596511, 45.61956049186538], [6.362224735577032, 45.61681218464832], [6.363245373557554, 45.61406387743127], [6.364266011538074, 45.61131557021421], [6.365286649518595, 45.60856726299716], [6.366307287499115, 45.605818955780116], [6.3673279254796356, 45.60307064856306], [6.368348563460156, 45.60032234134601], [6.368348563460156, 45.60032234134601], [6.363980533486918, 45.59624270999442], [6.359612503513683, 45.59216307864282], [6.355244473540445, 45.588083447291226], [6.350876443567211, 45.584003815939624], [6.346508413593973, 45.57992418458804], [6.342140383620739, 45.575844553236436], [6.3377723536475035, 45.57176492188484], [6.333404323674266, 45.56768529053325], [6.32903629370103, 45.56360565918165], [6.324668263727794, 45.55952602783006], [6.324668263727794, 45.55952602783006], [6.327483215662806, 45.556246220438524], [6.330298167597819, 45.55296641304699], [6.333113119532834, 45.54968660565546], [6.335928071467846, 45.54640679826392], [6.338743023402861, 45.54312699087238], [6.341557975337874, 45.53984718348085], [6.344372927272888, 45.53656737608932], [6.347187879207901, 45.53328756869779], [6.350002831142914, 45.53000776130626], [6.352817783077928, 45.526727953914715], [6.352817783077928, 45.526727953914715], [6.352167640666108, 45.522117302444066], [6.3515174982542835, 45.51750665097342], [6.350867355842464, 45.51289599950276], [6.350217213430643, 45.50828534803211], [6.3495670710188215, 45.503674696561454], [6.348916928607, 45.499064045090805], [6.348266786195179, 45.49445339362015], [6.347616643783358, 45.489842742149506], [6.346966501371538, 45.48523209067885], [6.346316358959713, 45.4806214392082], [6.346316358959713, 45.4806214392082], [6.342460234167254, 45.476009987638584], [6.338604109374785, 45.471398536068975], [6.334747984582323, 45.46678708449938], [6.330891859789858, 45.46217563292977], [6.327035734997395, 45.45756418136016], [6.323179610204932, 45.45295272979056], [6.3193234854124665, 45.448341278220944], [6.315467360620005, 45.44372982665134], [6.311611235827538, 45.43911837508173], [6.3077551110350765, 45.434506923512124], [6.3077551110350765, 45.434506923512124], [6.31313556708594, 45.43158348222779], [6.318516023136809, 45.428660040943456], [6.3238964791876775, 45.42573659965911], [6.329276935238541, 45.42281315837478], [6.334657391289408, 45.41988971709044], [6.340037847340273, 45.4169662758061], [6.345418303391142, 45.414042834521766], [6.350798759442009, 45.41111939323743], [6.356179215492874, 45.40819595195308], [6.361559671543741, 45.40527251066875], [6.361559671543741, 45.40527251066875], [6.360526449473561, 45.401459740245414], [6.359493227403384, 45.397646969822084], [6.358460005333207, 45.39383419939875], [6.357426783263026, 45.390021428975416], [6.356393561192849, 45.386208658552086], [6.355360339122674, 45.38239588812875], [6.354327117052495, 45.37858311770542], [6.353293894982317, 45.37477034728209], [6.35226067291214, 45.37095757685876], [6.351227450841961, 45.36714480643542], [6.351227450841961, 45.36714480643542], [6.353396024985271, 45.361204879100924], [6.355564599128579, 45.35526495176642], [6.357733173271889, 45.34932502443193], [6.359901747415195, 45.34338509709743], [6.362070321558505, 45.33744516976293], [6.3642388957018134, 45.33150524242844], [6.366407469845123, 45.32556531509394], [6.368576043988432, 45.319625387759444], [6.3707446181317415, 45.31368546042495], [6.372913192275048, 45.307745533090454], [6.372913192275048, 45.307745533090454], [6.37714357736189, 45.306948612193466], [6.381373962448729, 45.30615169129648], [6.385604347535569, 45.30535477039949], [6.389834732622411, 45.30455784950251], [6.394065117709248, 45.30376092860552], [6.398295502796092, 45.30296400770853], [6.4025258878829305, 45.30216708681155], [6.406756272969773, 45.30137016591456], [6.410986658056613, 45.300573245017574], [6.415217043143452, 45.299776324120586], [6.415217043143452, 45.299776324120586], [6.417899312928956, 45.294191266353884], [6.420581582714458, 45.28860620858717], [6.423263852499963, 45.28302115082046], [6.425946122285467, 45.27743609305376], [6.428628392070969, 45.27185103528704], [6.4313106618564735, 45.266265977520334], [6.433992931641978, 45.260680919753625], [6.436675201427482, 45.255095861986916], [6.439357471212984, 45.24951080422021], [6.442039740998485, 45.2439257464535], [6.442039740998485, 45.2439257464535], [6.4446064409087676, 45.244901679651115], [6.447173140819048, 45.24587761284872], [6.4497398407293325, 45.246853546046346], [6.452306540639613, 45.247829479243954], [6.454873240549894, 45.24880541244158], [6.4574399404601746, 45.24978134563919], [6.460006640370455, 45.25075727883681], [6.462573340280738, 45.251733212034424], [6.465140040191017, 45.25270914523204], [6.467706740101299, 45.25368507842966], [6.467706740101299, 45.25368507842966], [6.471936098396789, 45.252356154611725], [6.476165456692282, 45.25102723079379], [6.480394814987774, 45.24969830697585], [6.484624173283265, 45.24836938315792], [6.488853531578755, 45.247040459339985], [6.4930828898742465, 45.245711535522055], [6.497312248169738, 45.24438261170411], [6.50154160646523, 45.243053687886174], [6.505770964760721, 45.24172476406824], [6.510000323056213, 45.2403958402503], [6.510000323056213, 45.2403958402503], [6.514748852862555, 45.24225895260049], [6.5194973826689, 45.24412206495066], [6.524245912475244, 45.24598517730083], [6.528994442281588, 45.247848289651], [6.53374297208793, 45.24971140200118], [6.538491501894276, 45.251574514351354], [6.543240031700618, 45.25343762670153], [6.547988561506962, 45.25530073905171], [6.552737091313306, 45.257163851401884], [6.55748562111965, 45.25902696375206], [6.55748562111965, 45.25902696375206], [6.564791359914757, 45.25698954372733], [6.57209709870987, 45.2549521237026], [6.579402837504979, 45.25291470367787], [6.586708576300092, 45.250877283653146], [6.5940143150951975, 45.24883986362842], [6.6013200538903085, 45.246802443603684], [6.6086257926854195, 45.24476502357896], [6.615931531480529, 45.24272760355422], [6.623237270275638, 45.240690183529495], [6.630543009070749, 45.23865276350476], [6.630543009070749, 45.23865276350476], [6.633624009867534, 45.240338143708684], [6.636705010664322, 45.242023523912614], [6.639786011461107, 45.24370890411654], [6.6428670122578914, 45.24539428432046], [6.645948013054676, 45.247079664524385], [6.649029013851466, 45.24876504472831], [6.652110014648253, 45.25045042493223], [6.6551910154450376, 45.252135805136156], [6.658272016241824, 45.25382118534008], [6.661353017038609, 45.255506565544], [6.661353017038609, 45.255506565544], [6.666368109049621, 45.26260083960341], [6.67138320106063, 45.269695113662806], [6.676398293071642, 45.2767893877222], [6.681413385082653, 45.283883661781594], [6.6864284770936635, 45.29097793584099], [6.691443569104672, 45.29807220990039], [6.696458661115685, 45.30516648395979], [6.7014737531266935, 45.312260758019185], [6.706488845137706, 45.31935503207858], [6.711503937148716, 45.32644930613798], [6.711503937148716, 45.32644930613798], [6.717149450359502, 45.328755987012734], [6.7227949635702835, 45.33106266788749], [6.728440476781069, 45.33336934876223], [6.734085989991852, 45.335676029636986], [6.7397315032026395, 45.33798271051174], [6.745377016413423, 45.340289391386484], [6.751022529624207, 45.34259607226124], [6.756668042834992, 45.344902753136], [6.762313556045774, 45.347209434010736], [6.767959069256557, 45.34951611488549], [6.767959069256557, 45.34951611488549], [6.76976057032825, 45.35270841638396], [6.771562071399943, 45.35590071788244], [6.773363572471636, 45.35909301938092], [6.7751650735433255, 45.3622853208794], [6.77696657461502, 45.365477622377874], [6.778768075686713, 45.368669923876354], [6.780569576758404, 45.37186222537483], [6.782371077830096, 45.375054526873306], [6.784172578901789, 45.378246828371786], [6.78597407997348, 45.381439129870266], [6.78597407997348, 45.381439129870266], [6.7922582331040395, 45.381618014161376], [6.798542386234603, 45.38179689845249], [6.804826539365163, 45.38197578274361], [6.811110692495724, 45.382154667034726], [6.817394845626287, 45.382333551325836], [6.823678998756847, 45.38251243561695], [6.829963151887407, 45.38269131990807], [6.836247305017968, 45.38287020419918], [6.842531458148532, 45.3830490884903], [6.848815611279091, 45.38322797278141], [6.848815611279091, 45.38322797278141], [6.850612320939318, 45.38393773983126], [6.852409030599542, 45.384647506881095], [6.85420574025977, 45.38535727393093], [6.856002449919995, 45.38606704098076], [6.857799159580219, 45.3867768080306], [6.859595869240449, 45.38748657508044], [6.861392578900675, 45.38819634213028], [6.863189288560902, 45.38890610918011], [6.864985998221126, 45.38961587622995], [6.866782707881354, 45.390325643279795], [6.866782707881354, 45.390325643279795], [6.868576166158796, 45.38935079822228], [6.87036962443624, 45.38837595316478], [6.872163082713678, 45.38740110810726], [6.873956540991122, 45.38642626304975], [6.875749999268564, 45.385451417992236], [6.8775434575460075, 45.38447657293474], [6.879336915823448, 45.383501727877224], [6.881130374100891, 45.382526882819704], [6.882923832378333, 45.3815520377622], [6.884717290655777, 45.38057719270469], [6.884717290655777, 45.38057719270469], [6.884452953042544, 45.376498640181865], [6.884188615429313, 45.37242008765904], [6.883924277816082, 45.36834153513622], [6.883659940202849, 45.36426298261339], [6.8833956025896175, 45.36018443009058], [6.883131264976386, 45.35610587756774], [6.8828669273631515, 45.35202732504493], [6.88260258974992, 45.3479487725221], [6.882338252136689, 45.34387021999927], [6.882073914523456, 45.339791667476455], [6.882073914523456, 45.339791667476455], [6.886946056893713, 45.339260880724865], [6.8918181992639695, 45.33873009397328], [6.896690341634223, 45.3381993072217], [6.901562484004478, 45.33766852047011], [6.906434626374734, 45.33713773371852], [6.911306768744989, 45.33660694696694], [6.916178911115244, 45.336076160215356], [6.921051053485499, 45.33554537346377], [6.925923195855756, 45.335014586712184], [6.930795338226011, 45.334483799960594], [6.930795338226011, 45.334483799960594], [6.933752041896131, 45.33820839242118], [6.9367087455662535, 45.34193298488175], [6.939665449236376, 45.34565757734232], [6.942622152906496, 45.34938216980291], [6.9455788565766206, 45.35310676226349], [6.948535560246741, 45.356831354724065], [6.9514922639168635, 45.36055594718464], [6.954448967586988, 45.36428053964523], [6.957405671257108, 45.3680051321058], [6.9603623749272305, 45.37172972456637], [6.9603623749272305, 45.37172972456637], [6.9644658960673755, 45.371642090663805], [6.968569417207519, 45.37155445676123], [6.9726729383476655, 45.37146682285866], [6.976776459487812, 45.371379188956084], [6.980879980627957, 45.37129155505352], [6.984983501768101, 45.371203921150936], [6.989087022908246, 45.37111628724837], [6.993190544048394, 45.371028653345796], [6.997294065188537, 45.37094101944322], [7.001397586328682, 45.37085338554065], [7.001397586328682, 45.37085338554065], [7.0141233136950145, 45.37678417701394], [7.026849041061347, 45.382714968487214], [7.039574768427677, 45.3886457599605], [7.052300495794011, 45.39457655143378], [7.065026223160345, 45.400507342907055], [7.0777519505266735, 45.406438134380345], [7.090477677893006, 45.41236892585362], [7.10320340525934, 45.4182997173269], [7.115929132625672, 45.424230508800186], [7.128654859992002, 45.43016130027346], [7.128654859992002, 45.43016130027346], [7.121570395097315, 45.4334860021014], [7.116233981033856, 45.437730356776065], [7.1122122444786875, 45.44267800501762], [7.1090718121088745, 45.44811258754622], [7.106379310601479, 45.453817745082006], [7.103701366633565, 45.45957711834514], [7.1006046068821895, 45.46517434805576], [7.096655658024423, 45.47039307493403], [7.091421146737327, 45.475016939700105], [7.084467699697958, 45.47882958307411], [7.084467699697958, 45.4788295830741], [7.08028269730092, 45.48022390719844], [7.075447145252369, 45.4809994078994], [7.070265199149809, 45.48140157910304], [7.06504101459074, 45.48167591473537], [7.060078747172662, 45.482067908722414], [7.055682552493076, 45.48282305499021], [7.052156586149488, 45.484186847464784], [7.049805003739397, 45.48640478007215], [7.048931960860301, 45.489722346738354], [7.049841613109702, 45.49438504138941], [7.049841613109708, 45.494385041389414], [7.049043534440598, 45.49730696543812], [7.046599325838175, 45.499469427311176], [7.0428379441316995, 45.501047172465206], [7.038088346150431, 45.5022149463568], [7.032679488723632, 45.50314749444262], [7.026940328680556, 45.50401956217927], [7.02119982285047, 45.505005895023366], [7.01578692806263, 45.506281238431534], [7.011030601146297, 45.5080203378604], [7.007259798930731, 45.51039793876658], [7.00725979893074, 45.51039793876658], [7.002487353942234, 45.51583369300133], [6.998392951215953, 45.52159380936943], [6.994990724616741, 45.52762119477416], [6.992294808009444, 45.53385875611882], [6.990319335258903, 45.54024940030671], [6.989078440229969, 45.54673603424112], [6.988586256787482, 45.55326156482535], [6.9888569187962855, 45.55976889896268], [6.98990456012123, 45.56620094355642], [6.991743314627151, 45.572500605509866], [6.991743314627147, 45.572500605509866], [6.98845232087468, 45.57567984037835], [6.985155079570539, 45.578824003188174], [6.982012604248915, 45.581970062009795], [6.979185908443995, 45.58515498491372], [6.97683600568997, 45.58841573997039], [6.975123909521029, 45.59178929525031], [6.974210633471364, 45.59531261882393], [6.974257191075161, 45.59902267876176], [6.975424595866613, 45.60295644313426], [6.977873861379907, 45.60715088001191], [6.977873861379914, 45.60715088001191], [6.977774806297749, 45.61088393882766], [6.979564161551513, 45.61472154170535], [6.982589567465533, 45.61859488781475], [6.986198664364132, 45.62243517632566], [6.989739092571629, 45.626173606407896], [6.99255849241235, 45.62974137723121], [6.99400450421062, 45.63306968796544], [6.99342476829076, 45.63608973778036], [6.990166924977093, 45.638732725845756], [6.983578614593945, 45.64092985133145], [6.983578614593933, 45.64092985133144], [6.979821495750116, 45.64434575399182], [6.97592337938465, 45.64742972990365], [6.971850264218494, 45.65012635413852], [6.967568148972623, 45.652380201768054], [6.963043032367992, 45.654135847863856], [6.95824091312557, 45.65533786749753], [6.953127789966324, 45.65593083574068], [6.947669661611213, 45.65585932766495], [6.941832526781212, 45.655067918341906], [6.93558238419728, 45.65350118284318], [6.935582384197284, 45.65350118284318], [6.930676047998819, 45.65333165095536], [6.926190374159992, 45.65410394916568], [6.922157713689652, 45.65567507653706], [6.918610417596662, 45.65790203213243], [6.915580836889886, 45.66064181501467], [6.913101322578182, 45.66375142424673], [6.9112042256704065, 45.66708785889152], [6.909921897175421, 45.670508118011945], [6.909286688102084, 45.67386920067092], [6.9093309494592585, 45.677028105931385], [6.909330949459257, 45.677028105931385], [6.901767427161893, 45.6783319766903], [6.893832863514344, 45.67929989911256], [6.885722414849111, 45.680134478895], [6.877631237498699, 45.68103832173446], [6.869754487795614, 45.682214033327796], [6.862287322072355, 45.68386421937183], [6.855424896661431, 45.686191485563405], [6.8493623678953455, 45.689398437599365], [6.8442948921066, 45.693687681176556], [6.840417625627699, 45.6992618219918], [6.8404176256277065, 45.6992618219918], [6.837063641958439, 45.70287595591658], [6.833127022241245, 45.706285237992915], [6.828865194930907, 45.70957610427703], [6.824535588482199, 45.71283499082518], [6.820395631349895, 45.716148333693546], [6.816702751988773, 45.71960256893838], [6.813714378853605, 45.7232841326159], [6.811687940399166, 45.72727946078234], [6.810880865080234, 45.73167498949391], [6.811550581351586, 45.73655715480684], [6.811550581351582, 45.736557154806846], [6.804626940390264, 45.73564850101724], [6.797703299428948, 45.73473984722763], [6.790779658467631, 45.73383119343802], [6.7838560175063165, 45.73292253964842], [6.776932376545, 45.732013885858805], [6.7700087355836835, 45.7311052320692], [6.763085094622369, 45.73019657827959], [6.756161453661051, 45.72928792448999], [6.749237812699736, 45.72837927070037], [6.742314171738418, 45.72747061691077], [6.742314171738418, 45.72747061691077], [6.736503356062707, 45.72358188829774], [6.730692540386993, 45.71969315968471], [6.724881724711283, 45.715804431071675], [6.719070909035569, 45.71191570245865], [6.7132600933598585, 45.70802697384562], [6.707449277684146, 45.70413824523259], [6.701638462008432, 45.70024951661956], [6.695827646332722, 45.69636078800653], [6.69001683065701, 45.6924720593935], [6.684206014981296, 45.688583330780475], [6.684206014981296, 45.688583330780475], [6.682029303944585, 45.68870885582918], [6.6798525929078725, 45.68883438087787], [6.67767588187116, 45.68895990592657], [6.675499170834447, 45.68908543097528], [6.673322459797733, 45.68921095602398], [6.671145748761022, 45.68933648107269], [6.66896903772431, 45.68946200612139], [6.666792326687599, 45.68958753117008], [6.664615615650886, 45.68971305621879], [6.66243890461417, 45.68983858126749], [6.66243890461417, 45.68983858126749], [6.659730237241398, 45.69535422652654], [6.65702156986862, 45.7008698717856], [6.654312902495844, 45.70638551704465], [6.651604235123068, 45.7119011623037], [6.648895567750291, 45.717416807562756], [6.646186900377517, 45.72293245282181], [6.643478233004741, 45.72844809808086], [6.640769565631963, 45.73396374333991], [6.638060898259189, 45.739479388598966], [6.6353522308864115, 45.74499503385802], [6.6353522308864115, 45.74499503385802], [6.625369528561121, 45.740980289680465], [6.615386826235829, 45.73696554550291], [6.6054041239105405, 45.73295080132535], [6.595421421585247, 45.728936057147806], [6.585438719259958, 45.72492131297025], [6.575456016934668, 45.72090656879269], [6.565473314609374, 45.716891824615146], [6.555490612284084, 45.712877080437586], [6.545507909958792, 45.70886233626003], [6.535525207633501, 45.70484759208247], [6.535525207633501, 45.70484759208247], [6.5268212862350765, 45.70534750527086], [6.518117364836648, 45.70584741845923], [6.509413443438223, 45.706347331647606], [6.500709522039799, 45.706847244835984], [6.49200560064137, 45.707347158024355], [6.483301679242945, 45.707847071212726], [6.474597757844517, 45.7083469844011], [6.465893836446092, 45.70884689758948], [6.4571899150476675, 45.70934681077785], [6.448485993649239, 45.70984672396623], [6.448485993649239, 45.70984672396623], [6.4421350249152205, 45.707838985218665], [6.4357840561812, 45.70583124647109], [6.429433087447178, 45.70382350772352], [6.4230821187131575, 45.70181576897595], [6.416731149979135, 45.69980803022838], [6.410380181245113, 45.6978002914808], [6.404029212511093, 45.695792552733245], [6.397678243777074, 45.69378481398567], [6.391327275043052, 45.6917770752381], [6.3849763063090315, 45.68976933649053], [6.3849763063090315, 45.68976933649053], [6.380448141424566, 45.69240032611338], [6.375919976540102, 45.69503131573623], [6.371391811655636, 45.69766230535908], [6.366863646771172, 45.70029329498194], [6.362335481886708, 45.702924284604784], [6.357807317002242, 45.705555274227635], [6.35327915211778, 45.70818626385049], [6.3487509872333145, 45.71081725347334], [6.344222822348849, 45.71344824309619], [6.339694657464385, 45.716079232719046], [6.339694657464385, 45.716079232719046], [6.337697255192124, 45.71545276831927], [6.3356998529198645, 45.71482630391949], [6.333702450647602, 45.714199839519715], [6.3317050483753405, 45.713573375119935], [6.329707646103081, 45.71294691072016], [6.327710243830818, 45.7123204463204], [6.3257128415585555, 45.71169398192062], [6.323715439286294, 45.711067517520846], [6.321718037014035, 45.710441053121066], [6.319720634741772, 45.70981458872129], [6.319720634741772, 45.70981458872129], [6.317353161113251, 45.704798613454], [6.3149856874847305, 45.69978263818671], [6.31261821385621, 45.69476666291942], [6.310250740227687, 45.689750687652136], [6.307883266599166, 45.68473471238484], [6.305515792970645, 45.679718737117554], [6.3031483193421245, 45.67470276185026], [6.300780845713604, 45.66968678658298], [6.298413372085079, 45.66467081131569], [6.29604589845656, 45.6596548360484], [6.29604589845656, 45.6596548360484], [6.290605203496373, 45.65940243555633], [6.285164508536186, 45.65915003506426], [6.279723813575998, 45.658897634572185], [6.274283118615809, 45.65864523408012], [6.268842423655624, 45.65839283358804], [6.263401728695436, 45.658140433095966], [6.257961033735249, 45.6578880326039], [6.252520338775062, 45.65763563211183], [6.247079643814871, 45.657383231619754], [6.241638948854684, 45.65713083112768], [6.241638948854684, 45.65713083112768], [6.238730837854222, 45.65374491230328], [6.235822726853758, 45.650358993478896], [6.232914615853295, 45.64697307465449], [6.230006504852833, 45.64358715583009], [6.227098393852371, 45.6402012370057], [6.224190282851909, 45.636815318181306], [6.221282171851444, 45.6334293993569], [6.218374060850982, 45.63004348053251], [6.215465949850518, 45.62665756170811], [6.212557838850055, 45.623271642883715], [6.212557838850055, 45.623271642883715], [6.2147304367043965, 45.62101498862613], [6.216903034558738, 45.61875833436854], [6.219075632413082, 45.61650168011096], [6.221248230267424, 45.61424502585337], [6.223420828121766, 45.61198837159578], [6.225593425976108, 45.60973171733819], [6.227766023830453, 45.60747506308061], [6.229938621684795, 45.60521840882303], [6.232111219539135, 45.60296175456544], [6.234283817393479, 45.600705100307856]]]}}]}