{"type": "FeatureCollection", "features": [{"type": "Feature", "properties": {"diocese": "Arras", "province": "VIII_Cambrai", "source": "51_Arras.txt"}, "geometry": {"type": "Polygon", "coordinates": [[[2.904143114571235, 50.70351056162237], [2.9009296996336333, 50.69965879217373], [2.897716284696029, 50.69580702272509], [2.8945028697584267, 50.691955253276454], [2.891289454820823, 50.68810348382782], [2.8880760398832206, 50.68425171437918], [2.8848626249456166, 50.68039994493054], [2.8816492100080127, 50.6765481754819], [2.8784357950704105, 50.67269640603327], [2.8752223801328065, 50.66884463658463], [2.8720089651952043, 50.66499286713599], [2.8720089651952043, 50.66499286713599], [2.868032136908568, 50.66428256694491], [2.864055308621934, 50.66357226675383], [2.860078480335296, 50.66286196656276], [2.8561016520486597, 50.66215166637168], [2.8521248237620243, 50.661441366180604], [2.8481479954753874, 50.660731065989516], [2.8441711671887533, 50.66002076579844], [2.8401943389021156, 50.65931046560736], [2.8362175106154797, 50.65860016541629], [2.832240682328845, 50.657889865225215], [2.832240682328845, 50.657889865225215], [2.830184860786875, 50.65585009794995], [2.8281290392449057, 50.65381033067469], [2.8260732177029357, 50.651770563399424], [2.8240173961609663, 50.64973079612415], [2.8219615746189963, 50.6476910288489], [2.8199057530770246, 50.645651261573626], [2.8178499315350547, 50.643611494298376], [2.8157941099930857, 50.641571727023106], [2.8137382884511157, 50.63953195974785], [2.8116824669091454, 50.63749219247258], [2.8116824669091454, 50.63749219247258], [2.806168646288904, 50.637756806813115], [2.8006548256686608, 50.638021421153645], [2.795141005048421, 50.638286035494176], [2.789627184428178, 50.63855064983471], [2.7841133638079345, 50.63881526417524], [2.7785995431876933, 50.63907987851577], [2.7730857225674534, 50.63934449285631], [2.76757190194721, 50.63960910719684], [2.7620580813269666, 50.63987372153737], [2.756544260706725, 50.64013833587791], [2.756544260706725, 50.64013833587791], [2.75243663260175, 50.63809806201418], [2.7483290044967754, 50.63605778815046], [2.744221376391799, 50.63401751428674], [2.740113748286824, 50.63197724042301], [2.7360061201818495, 50.629936966559285], [2.731898492076875, 50.627896692695565], [2.7277908639718995, 50.62585641883184], [2.723683235866923, 50.62381614496812], [2.7195756077619486, 50.62177587110439], [2.7154679796569736, 50.61973559724067], [2.7154679796569736, 50.61973559724067], [2.701107492057483, 50.62097329640917], [2.686747004457994, 50.62221099557765], [2.6723865168585053, 50.62344869474616], [2.658026029259014, 50.62468639391465], [2.6436655416595216, 50.62592409308315], [2.6293050540600342, 50.62716179225165], [2.6149445664605433, 50.62839949142015], [2.600584078861053, 50.629637190588646], [2.5862235912615654, 50.63087488975714], [2.571863103662075, 50.63211258892563], [2.571863103662075, 50.63211258892563], [2.5709628269260176, 50.630782417749636], [2.5700625501899617, 50.62945224657363], [2.569162273453906, 50.62812207539763], [2.5682619967178484, 50.626791904221626], [2.5673617199817946, 50.62546173304561], [2.5664614432457387, 50.62413156186961], [2.5655611665096814, 50.6228013906936], [2.564660889773626, 50.62147121951761], [2.563760613037568, 50.6201410483416], [2.5628603363015143, 50.6188108771656], [2.5628603363015143, 50.6188108771656], [2.567215360764726, 50.616152071026484], [2.571570385227938, 50.61349326488737], [2.5759254096911532, 50.61083445874826], [2.5802804341543646, 50.60817565260915], [2.584635458617577, 50.60551684647003], [2.5889904830807886, 50.60285804033092], [2.593345507544002, 50.600199234191805], [2.597700532007216, 50.597540428052696], [2.6020555564704293, 50.59488162191358], [2.6064105809336406, 50.59222281577447], [2.6064105809336406, 50.59222281577447], [2.60627687405122, 50.58938662900008], [2.6061431671687996, 50.58655044222569], [2.6060094602863804, 50.583714255451305], [2.6058757534039594, 50.580878068676924], [2.605742046521539, 50.578041881902536], [2.6056083396391196, 50.575205695128155], [2.605474632756699, 50.572369508353766], [2.605340925874278, 50.569533321579385], [2.6052072189918594, 50.566697134805], [2.6050735121094384, 50.56386094803061], [2.6050735121094384, 50.56386094803061], [2.6090457200355686, 50.562177338994914], [2.613017927961699, 50.56049372995922], [2.6169901358878316, 50.558810120923525], [2.6209623438139635, 50.55712651188784], [2.6249345517400955, 50.55544290285214], [2.628906759666226, 50.55375929381644], [2.6328789675923585, 50.55207568478075], [2.6368511755184905, 50.55039207574506], [2.640823383444621, 50.548708466709364], [2.644795591370753, 50.54702485767368], [2.644795591370753, 50.54702485767368], [2.6426085357432028, 50.54338912622371], [2.6404214801156507, 50.539753394773754], [2.6382344244881004, 50.5361176633238], [2.6360473688605484, 50.53248193187384], [2.6338603132329967, 50.528846200423885], [2.631673257605445, 50.525210468973924], [2.629486201977896, 50.52157473752397], [2.627299146350344, 50.51793900607401], [2.625112090722794, 50.514303274624055], [2.6229250350952418, 50.5106675431741], [2.6229250350952418, 50.5106675431741], [2.6193317078451046, 50.50933669990865], [2.615738380594966, 50.50800585664321], [2.612145053344827, 50.506675013377766], [2.608551726094688, 50.50534417011232], [2.604958398844551, 50.50401332684688], [2.601365071594414, 50.50268248358144], [2.5977717443442754, 50.501351640315995], [2.5941784170941347, 50.50002079705056], [2.5905850898439975, 50.4986899537851], [2.5869917625938585, 50.49735911051966], [2.5869917625938585, 50.49735911051966], [2.5864740392419416, 50.49487640977611], [2.5859563158900216, 50.49239370903256], [2.5854385925381025, 50.48991100828901], [2.584920869186186, 50.487428307545464], [2.584403145834265, 50.484945606801915], [2.5838854224823464, 50.482462906058366], [2.5833676991304295, 50.47998020531482], [2.5828499757785095, 50.47749750457127], [2.5823322524265904, 50.47501480382771], [2.581814529074674, 50.47253210308417], [2.581814529074674, 50.47253210308417], [2.5780929688578937, 50.471201227816344], [2.5743714086411162, 50.46987035254852], [2.570649848424335, 50.46853947728069], [2.5669282882075573, 50.467208602012875], [2.563206727990781, 50.465877726745056], [2.559485167774002, 50.46454685147723], [2.5557636075572243, 50.463215976209405], [2.5520420473404446, 50.461885100941586], [2.5483204871236667, 50.46055422567377], [2.544598926906889, 50.45922335040595], [2.544598926906889, 50.45922335040595], [2.539083908423225, 50.458867325664976], [2.5335688899395588, 50.458511300924], [2.528053871455894, 50.45815527618304], [2.522538852972231, 50.45779925144207], [2.5170238344885667, 50.45744322670109], [2.511508816004899, 50.45708720196013], [2.5059937975212363, 50.456731177219154], [2.5004787790375715, 50.45637515247818], [2.494963760553907, 50.45601912773722], [2.489448742070241, 50.45566310299625], [2.489448742070241, 50.45566310299625], [2.487907642740137, 50.454510093353534], [2.4863665434100333, 50.45335708371082], [2.4848254440799287, 50.45220407406811], [2.483284344749825, 50.45105106442539], [2.4817432454197212, 50.44989805478268], [2.480202146089615, 50.44874504513997], [2.478661046759511, 50.44759203549725], [2.4771199474294066, 50.446439025854545], [2.475578848099303, 50.44528601621183], [2.4740377487691987, 50.44413300656912], [2.4740377487691987, 50.44413300656912], [2.4742892521028232, 50.44156183980193], [2.4745407554364456, 50.43899067303472], [2.4747922587700697, 50.43641950626752], [2.475043762103694, 50.43384833950032], [2.4752952654373166, 50.431277172733125], [2.4755467687709403, 50.42870600596592], [2.4757982721045653, 50.426134839198724], [2.4760497754381876, 50.423563672431534], [2.4763012787718117, 50.42099250566434], [2.476552782105434, 50.41842133889714], [2.476552782105434, 50.41842133889714], [2.479241896768984, 50.4163827612582], [2.4819310114325357, 50.41434418361926], [2.4846201260960856, 50.41230560598032], [2.4873092407596338, 50.410267028341394], [2.4899983554231855, 50.40822845070246], [2.492687470086737, 50.40618987306352], [2.4953765847502867, 50.404151295424576], [2.498065699413837, 50.40211271778565], [2.500754814077387, 50.400074140146714], [2.503443928740937, 50.39803556250778], [2.503443928740937, 50.39803556250778], [2.501643967740152, 50.39564120522795], [2.4998440067393646, 50.39324684794815], [2.49804404573858, 50.39085249066833], [2.4962440847377945, 50.38845813338851], [2.49444412373701, 50.38606377610869], [2.4926441627362226, 50.38366941882887], [2.490844201735438, 50.381275061549054], [2.489044240734652, 50.37888070426924], [2.4872442797338663, 50.376486346989424], [2.4854443187330806, 50.37409198970961], [2.4854443187330806, 50.37409198970961], [2.4839007445688117, 50.371697701884145], [2.482357170404542, 50.36930341405869], [2.4808135962402686, 50.366909126233224], [2.479270022076, 50.364514838407764], [2.4777264479117305, 50.36212055058231], [2.476182873747462, 50.359726262756844], [2.4746392995831905, 50.3573319749314], [2.4730957254189203, 50.35493768710593], [2.47155215125465, 50.352543399280464], [2.4700085770903804, 50.35014911145502], [2.4700085770903804, 50.35014911145502], [2.4714166519684864, 50.34881951636132], [2.4728247268465915, 50.347489921267616], [2.4742328017246966, 50.346160326173916], [2.475640876602802, 50.344830731080215], [2.4770489514809095, 50.343501135986514], [2.4784570263590133, 50.342171540892814], [2.4798651012371207, 50.340841945799106], [2.481273176115226, 50.3395123507054], [2.482681250993332, 50.338182755611705], [2.484089325871437, 50.336853160518004], [2.484089325871437, 50.336853160518004], [2.4844583604554367, 50.328696246692694], [2.4848273950394373, 50.32053933286739], [2.485196429623439, 50.31238241904209], [2.48556546420744, 50.30422550521678], [2.485934498791439, 50.29606859139147], [2.4863035333754424, 50.287911677566164], [2.486672567959443, 50.27975476374086], [2.4870416025434428, 50.27159784991555], [2.487410637127444, 50.26344093609025], [2.487779671711445, 50.25528402226494], [2.487779671711445, 50.25528402226494], [2.4841863864840312, 50.25315520782897], [2.4805931012566163, 50.251026393393005], [2.476999816029202, 50.248897578957035], [2.473406530801789, 50.24676876452107], [2.469813245574375, 50.2446399500851], [2.4662199603469634, 50.24251113564914], [2.46262667511955, 50.24038232121317], [2.4590333898921366, 50.238253506777205], [2.455440104664722, 50.23612469234123], [2.4518468194373093, 50.23399587790527], [2.4518468194373093, 50.23399587790527], [2.4464572959226185, 50.23222126905046], [2.4410677724079277, 50.23044666019565], [2.435678248893237, 50.228672051340844], [2.430288725378548, 50.22689744248605], [2.4248992018638575, 50.22512283363124], [2.4195096783491663, 50.22334822477643], [2.4141201548344777, 50.22157361592163], [2.408730631319787, 50.21979900706682], [2.403341107805096, 50.218024398212016], [2.3979515842904076, 50.21624978935721], [2.3979515842904076, 50.21624978935721], [2.399100720459506, 50.21367991859775], [2.400249856628605, 50.21111004783827], [2.4013989927977035, 50.20854017707881], [2.4025481289668007, 50.205970306319344], [2.4036972651358997, 50.20340043555988], [2.4048464013049964, 50.20083056480042], [2.405995537474096, 50.198260694040954], [2.4071446736431943, 50.19569082328149], [2.408293809812293, 50.193120952522015], [2.4094429459813917, 50.19055108176255], [2.4094429459813917, 50.19055108176255], [2.408284742295689, 50.18842287503617], [2.407126538609987, 50.18629466830977], [2.405968334924284, 50.18416646158339], [2.40481013123858, 50.18203825485699], [2.4036519275528794, 50.17991004813061], [2.402493723867176, 50.17778184140421], [2.401335520181474, 50.17565363467782], [2.4001773164957716, 50.17352542795143], [2.3990191128100684, 50.17139722122504], [2.397860909124366, 50.16926901449865], [2.397860909124366, 50.16926901449865], [2.401190846371408, 50.16705326985708], [2.4045207836184495, 50.16483752521552], [2.407850720865493, 50.16262178057395], [2.4111806581125346, 50.160406035932375], [2.414510595359578, 50.15819029129081], [2.4178405326066215, 50.15597454664924], [2.4211704698536614, 50.15375880200767], [2.424500407100705, 50.151543057366105], [2.4278303443477465, 50.14932731272454], [2.431160281594788, 50.14711156808297], [2.431160281594788, 50.14711156808297], [2.435903293393632, 50.14693542484058], [2.440646305192478, 50.146759281598186], [2.4453893169913226, 50.1465831383558], [2.4501323287901666, 50.14640699511341], [2.454875340589011, 50.14623085187102], [2.459618352387857, 50.14605470862863], [2.464361364186701, 50.14587856538624], [2.4691043759855456, 50.14570242214385], [2.4738473877843896, 50.145526278901464], [2.478590399583234, 50.14535013565907], [2.478590399583234, 50.14535013565907], [2.4790968287264508, 50.141981061331265], [2.4796032578696683, 50.13861198700345], [2.480109687012885, 50.135242912675636], [2.4806161161561007, 50.13187383834783], [2.4811225452993173, 50.128504764020015], [2.481628974442532, 50.1251356896922], [2.48213540358575, 50.12176661536439], [2.482641832728968, 50.11839754103657], [2.483148261872183, 50.115028466708765], [2.4836546910154014, 50.11165939238096], [2.4836546910154014, 50.11165939238096], [2.490193598862369, 50.110951722012224], [2.4967325067093395, 50.110244051643484], [2.503271414556306, 50.109536381274744], [2.5098103224032777, 50.10882871090602], [2.516349230250246, 50.108121040537284], [2.522888138097214, 50.107413370168544], [2.5294270459441823, 50.10670569979981], [2.5359659537911505, 50.10599802943108], [2.5425048616381205, 50.10529035906234], [2.549043769485087, 50.104582688693604], [2.549043769485087, 50.104582688693604], [2.5496805641899587, 50.10227760300573], [2.5503173588948287, 50.09997251731786], [2.5509541535997005, 50.09766743162999], [2.55159094830457, 50.09536234594212], [2.55222774300944, 50.09305726025425], [2.5528645377143113, 50.090752174566376], [2.553501332419183, 50.08844708887851], [2.554138127124053, 50.08614200319063], [2.554774921828922, 50.08383691750276], [2.555411716533792, 50.08153183181489], [2.555411716533792, 50.08153183181489], [2.559258692622782, 50.081444128418475], [2.56310566871177, 50.08135642502206], [2.5669526448007582, 50.08126872162565], [2.5707996208897463, 50.08118101822923], [2.5746465969787375, 50.08109331483281], [2.578493573067725, 50.0810056114364], [2.5823405491567133, 50.080917908039986], [2.586187525245703, 50.080830204643576], [2.590034501334691, 50.080742501247165], [2.5938814774236794, 50.08065479785075], [2.5938814774236794, 50.08065479785075], [2.5973409246081043, 50.0790597243128], [2.6008003717925274, 50.07746465077485], [2.604259818976957, 50.07586957723691], [2.60771926616138, 50.074274503698966], [2.611178713345804, 50.07267943016102], [2.614638160530231, 50.07108435662307], [2.6180976077146543, 50.069489283085126], [2.621557054899083, 50.067894209547184], [2.625016502083507, 50.06629913600923], [2.628475949267932, 50.064704062471286], [2.628475949267932, 50.064704062471286], [2.6361693751716895, 50.064174007158236], [2.6438628010754472, 50.06364395184518], [2.651556226979204, 50.063113896532116], [2.659249652882965, 50.062583841219066], [2.6669430787867214, 50.062053785906], [2.674636504690478, 50.06152373059296], [2.682329930594237, 50.060993675279896], [2.690023356497995, 50.06046361996684], [2.697716782401754, 50.05993356465378], [2.705410208305509, 50.059403509340726], [2.705410208305509, 50.059403509340726], [2.7092541041576816, 50.057719868282916], [2.7130980000098517, 50.0560362272251], [2.7169418958620213, 50.05435258616728], [2.7207857917141944, 50.05266894510947], [2.7246296875663645, 50.05098530405165], [2.7284735834185354, 50.049301662993834], [2.7323174792707055, 50.047618021936024], [2.736161375122878, 50.04593438087821], [2.740005270975048, 50.0442507398204], [2.743849166827218, 50.042567098762575], [2.743849166827218, 50.042567098762575], [2.7485935896476206, 50.042302292407776], [2.753338012468024, 50.04203748605297], [2.758082435288425, 50.04177267969816], [2.7628268581088262, 50.041507873343356], [2.767571280929229, 50.04124306698855], [2.7723157037496304, 50.04097826063375], [2.7770601265700314, 50.04071345427894], [2.781804549390433, 50.04044864792413], [2.7865489722108356, 50.04018384156934], [2.791293395031237, 50.039919035214524], [2.791293395031237, 50.039919035214524], [2.795394178173718, 50.038412785195746], [2.799494961316195, 50.03690653517695], [2.803595744458677, 50.03540028515816], [2.807696527601156, 50.033894035139376], [2.811797310743637, 50.032387785120584], [2.8158980938861142, 50.0308815351018], [2.8199988770285933, 50.02937528508301], [2.8240996601710755, 50.027869035064214], [2.828200443313554, 50.02636278504543], [2.832301226456035, 50.02485653502665], [2.832301226456035, 50.02485653502665], [2.835378633620329, 50.02467997610869], [2.8384560407846227, 50.02450341719074], [2.8415334479489145, 50.02432685827279], [2.84461085511321, 50.02415029935484], [2.8476882622775035, 50.02397374043689], [2.8507656694417993, 50.023797181518944], [2.8538430766060947, 50.023620622600994], [2.8569204837703883, 50.02344406368304], [2.859997890934682, 50.02326750476509], [2.8630752980989738, 50.02309094584713], [2.8630752980989738, 50.02309094584713], [2.865897266079113, 50.02344630396801], [2.868719234059251, 50.02380166208888], [2.8715412020393907, 50.024157020209756], [2.8743631700195302, 50.02451237833063], [2.8771851379996685, 50.0248677364515], [2.880007105979806, 50.02522309457237], [2.8828290739599436, 50.025578452693246], [2.8856510419400854, 50.02593381081411], [2.888473009920223, 50.02628916893499], [2.891294977900361, 50.02664452705586], [2.891294977900361, 50.02664452705586], [2.897832687873352, 50.02531621213628], [2.904370397846344, 50.023987897216706], [2.910908107819331, 50.022659582297116], [2.9174458177923213, 50.02133126737754], [2.92398352776531, 50.020002952457965], [2.9305212377383008, 50.01867463753838], [2.937058947711291, 50.017346322618806], [2.94359665768428, 50.01601800769922], [2.9501343676572724, 50.01468969277965], [2.9566720776302593, 50.013361377860065], [2.9566720776302593, 50.013361377860065], [2.958981371460341, 50.0138501364932], [2.961290665290418, 50.014338895126315], [2.963599959120495, 50.01482765375943], [2.9659092529505755, 50.01531641239255], [2.9682185467806534, 50.01580517102568], [2.9705278406107323, 50.0162939296588], [2.9728371344408115, 50.01678268829192], [2.975146428270891, 50.017271446925044], [2.977455722100968, 50.01776020555816], [2.979765015931047, 50.01824896419129], [2.979765015931047, 50.01824896419129], [2.977333820732818, 50.02104071238585], [2.9749026255345883, 50.02383246058041], [2.9724714303363595, 50.026624208774976], [2.970040235138132, 50.02941595696954], [2.9676090399399024, 50.0322077051641], [2.9651778447416715, 50.034999453358665], [2.9627466495434427, 50.037791201553226], [2.9603154543452113, 50.04058294974779], [2.9578842591469816, 50.04337469794236], [2.955453063948753, 50.04616644613692], [2.955453063948753, 50.04616644613692], [2.9499452326667366, 50.04953426682364], [2.9444374013847177, 50.052902087510375], [2.9389295701027005, 50.056269908197095], [2.933421738820685, 50.05963772888382], [2.9279139075386698, 50.063005549570555], [2.9224060762566486, 50.066373370257274], [2.9168982449746337, 50.06974119094401], [2.911390413692618, 50.073109011630734], [2.9058825824105967, 50.07647683231746], [2.9003747511285813, 50.07984465300419], [2.9003747511285813, 50.07984465300419], [2.899226735795135, 50.083036240285836], [2.89807872046169, 50.08622782756749], [2.896930705128244, 50.08941941484914], [2.8957826897947996, 50.09261100213078], [2.894634674461354, 50.09580258941243], [2.8934866591279067, 50.098994176694085], [2.8923386437944605, 50.102185763975726], [2.891190628461016, 50.105377351257374], [2.8900426131275707, 50.10856893853902], [2.8888945977941245, 50.11176052582068], [2.8888945977941245, 50.11176052582068], [2.8913354604857227, 50.1139777161176], [2.893776323177321, 50.11619490641453], [2.896217185868918, 50.11841209671145], [2.898658048560518, 50.120629287008384], [2.901098911252116, 50.12284647730531], [2.9035397739437157, 50.12506366760224], [2.9059806366353116, 50.127280857899166], [2.908421499326909, 50.12949804819608], [2.910862362018507, 50.13171523849301], [2.913303224710105, 50.13393242878993], [2.913303224710105, 50.13393242878993], [2.9179217311939483, 50.13490887404536], [2.9225402376777896, 50.135885319300776], [2.9271587441616354, 50.136861764556194], [2.9317772506454762, 50.13783820981162], [2.9363957571293193, 50.13881465506704], [2.94101426361316, 50.13979110032246], [2.9456327700970015, 50.14076754557787], [2.9502512765808464, 50.1417439908333], [2.9548697830646873, 50.14272043608872], [2.95948828954853, 50.143696881344134], [2.95948828954853, 50.143696881344134], [2.9621873294113925, 50.14680076524911], [2.964886369274254, 50.14990464915409], [2.9675854091371203, 50.153008533059065], [2.970284448999983, 50.15611241696404], [2.9729834888628464, 50.15921630086902], [2.9756825287257107, 50.162320184774], [2.9783815685885724, 50.16542406867897], [2.981080608451435, 50.16852795258395], [2.983779648314297, 50.17163183648893], [2.9864786881771628, 50.1747357203939], [2.9864786881771628, 50.1747357203939], [2.9864831374022565, 50.17704096064407], [2.986487586627351, 50.17934620089423], [2.9864920358524447, 50.1816514411444], [2.9864964850775397, 50.18395668139456], [2.9865009343026334, 50.186261921644736], [2.9865053835277267, 50.188567161894895], [2.9865098327528217, 50.19087240214506], [2.986514281977915, 50.19317764239523], [2.9865187312030104, 50.195482882645386], [2.9865231804281036, 50.19778812289556], [2.9865231804281036, 50.19778812289556], [2.9861448110576787, 50.20106749372741], [2.985766441687254, 50.20434686455925], [2.985388072316828, 50.20762623539109], [2.9850097029464018, 50.21090560622294], [2.9846313335759764, 50.214184977054785], [2.984252964205552, 50.21746434788663], [2.983874594835125, 50.220743718718474], [2.9834962254647, 50.22402308955032], [2.983117856094275, 50.22730246038218], [2.9827394867238497, 50.23058183121402], [2.9827394867238497, 50.23058183121402], [2.989925928076547, 50.23395282540816], [2.9971123694292454, 50.23732381960231], [3.0042988107819437, 50.24069481379646], [3.0114852521346402, 50.24406580799061], [3.0186716934873385, 50.24743680218475], [3.0258581348400395, 50.2508077963789], [3.033044576192736, 50.25417879057304], [3.0402310175454343, 50.25754978476719], [3.0474174588981326, 50.26092077896134], [3.054603900250831, 50.264291773155485], [3.054603900250831, 50.264291773155485], [3.0584501918404032, 50.26384941573002], [3.0622964834299755, 50.263407058304544], [3.066142775019547, 50.26296470087908], [3.06998906660912, 50.262522343453604], [3.0738353581986897, 50.26207998602814], [3.077681649788262, 50.26163762860267], [3.081527941377835, 50.2611952711772], [3.0853742329674056, 50.26075291375174], [3.089220524556978, 50.26031055632627], [3.093066816146552, 50.259868198900804], [3.093066816146552, 50.259868198900804], [3.0985778987902397, 50.25818497938273], [3.104088981433929, 50.25650175986467], [3.109600064077617, 50.25481854034661], [3.1151111467213064, 50.25313532082855], [3.120622229364994, 50.25145210131048], [3.1261333120086836, 50.24976888179242], [3.1316443946523713, 50.248085662274356], [3.137155477296061, 50.24640244275629], [3.1426665599397503, 50.24471922323823], [3.148177642583438, 50.243036003720164], [3.148177642583438, 50.243036003720164], [3.1634364325280555, 50.24206451366025], [3.178695222472673, 50.24109302360034], [3.1939540124172923, 50.24012153354043], [3.2092128023619098, 50.23915004348052], [3.2244715923065264, 50.238178553420596], [3.239730382251144, 50.237207063360685], [3.2549891721957613, 50.236235573300775], [3.270247962140379, 50.235264083240864], [3.285506752084997, 50.23429259318095], [3.3007655420296147, 50.23332110312104], [3.3007655420296147, 50.23332110312104], [3.303719507712627, 50.23562708493475], [3.3066734733956378, 50.237933066748454], [3.309627439078651, 50.24023904856216], [3.3125814047616653, 50.24254503037586], [3.3155353704446777, 50.244851012189564], [3.31848933612769, 50.24715699400327], [3.3214433018107017, 50.24946297581697], [3.324397267493714, 50.25176895763069], [3.3273512331767283, 50.254074939444386], [3.330305198859739, 50.25638092125809], [3.330305198859739, 50.25638092125809], [3.337748924674836, 50.259397320333704], [3.3451926504899334, 50.26241371940932], [3.352636376305029, 50.26543011848493], [3.360080102120125, 50.26844651756054], [3.3675238279352233, 50.27146291663616], [3.3749675537503188, 50.27447931571177], [3.382411279565414, 50.277495714787385], [3.3898550053805105, 50.280512113863], [3.3972987311956087, 50.28352851293862], [3.404742457010703, 50.28654491201422], [3.404742457010703, 50.28654491201422], [3.4098683273799106, 50.28459560596723], [3.414994197749118, 50.28264629992024], [3.4201200681183237, 50.28069699387325], [3.4252459384875302, 50.27874768782627], [3.4303718088567376, 50.27679838177927], [3.4354976792259433, 50.274849075732284], [3.440623549595149, 50.27289976968529], [3.4457494199643546, 50.2709504636383], [3.4508752903335638, 50.26900115759131], [3.4560011607027676, 50.26705185154432], [3.4560011607027676, 50.26705185154432], [3.455876179097799, 50.26873642071061], [3.4557511974928308, 50.27042098987689], [3.455626215887864, 50.272105559043176], [3.455501234282894, 50.27379012820946], [3.4553762526779255, 50.27547469737575], [3.455251271072959, 50.277159266542036], [3.4551262894679886, 50.278843835708315], [3.45500130786302, 50.2805284048746], [3.4548763262580535, 50.28221297404089], [3.4547513446530833, 50.283897543207175], [3.4547513446530833, 50.283897543207175], [3.4584730759947164, 50.28531708198225], [3.4621948073363478, 50.286736620757345], [3.4659165386779818, 50.28815615953243], [3.469638270019614, 50.28957569830751], [3.473360001361247, 50.2909952370826], [3.4770817327028785, 50.29241477585769], [3.4808034640445116, 50.29383431463277], [3.484525195386144, 50.29525385340786], [3.488246926727775, 50.296673392182946], [3.491968658069409, 50.29809293095803], [3.491968658069409, 50.29809293095803], [3.499294034094454, 50.307049730745696], [3.5066194101194976, 50.316006530533365], [3.5139447861445423, 50.32496333032104], [3.5212701621695888, 50.33392013010871], [3.5285955381946335, 50.34287692989638], [3.535920914219678, 50.35183372968405], [3.5432462902447246, 50.36079052947172], [3.5505716662697693, 50.3697473292594], [3.557897042294814, 50.378704129047065], [3.5652224183198578, 50.387660928834734], [3.5652224183198578, 50.387660928834734], [3.5642020305609567, 50.390497894109444], [3.563181642802054, 50.39333485938417], [3.562161255043153, 50.39617182465888], [3.561140867284252, 50.39900878993359], [3.560120479525349, 50.40184575520831], [3.559100091766449, 50.40468272048303], [3.5580797040075463, 50.40751968575775], [3.5570593162486435, 50.41035665103246], [3.5560389284897425, 50.41319361630718], [3.5550185407308414, 50.41603058158189], [3.5550185407308414, 50.41603058158189], [3.5527113499166174, 50.415852684329515], [3.5504041591023943, 50.41567478707712], [3.548096968288171, 50.41549688982474], [3.5457897774739497, 50.41531899257236], [3.5434825866597266, 50.41514109531998], [3.5411753958455026, 50.414963198067596], [3.5388682050312785, 50.41478530081521], [3.5365610142170554, 50.41460740356283], [3.5342538234028322, 50.41442950631045], [3.531946632588608, 50.41425160905806], [3.531946632588608, 50.41425160905806], [3.5283109456701722, 50.42134481805925], [3.5246752587517327, 50.428438027060416], [3.521039571833293, 50.43553123606159], [3.517403884914858, 50.44262444506277], [3.5137681979964204, 50.44971765406395], [3.510132511077981, 50.45681086306513], [3.5064968241595413, 50.4639040720663], [3.5028611372411036, 50.47099728106748], [3.499225450322666, 50.47809049006866], [3.495589763404229, 50.485183699069836], [3.495589763404229, 50.485183699069836], [3.495580121936586, 50.485188273953995], [3.4955685904842224, 50.48519484029997], [3.4955556474621114, 50.48520289286017], [3.4955417712852355, 50.48521192638704], [3.4955274403685714, 50.485221435632944], [3.4955131331271043, 50.48523091535032], [3.495499327975805, 50.48523986029161], [3.4954865033296607, 50.48524776520919], [3.495475137603646, 50.48525412485549], [3.4954657092127452, 50.485258433982914], [3.4954657092127523, 50.485258433982914], [3.4946495397391364, 50.48566837667572], [3.493720228455772, 50.48629421770706], [3.49271622239505, 50.48707493901478], [3.4916759685893655, 50.4879495225367], [3.490637914071105, 50.48885695021068], [3.4896405058726665, 50.48973620397454], [3.4887221910264405, 50.490526265766114], [3.487921416564817, 50.49116611752325], [3.487276629520189, 50.49159474118378], [3.48682627692495, 50.49175111868555], [3.4868262769249463, 50.49175111868555], [3.4867812295785634, 50.49175086197938], [3.4867049308478246, 50.491750168240195], [3.486604481584425, 50.49174913178136], [3.4864869826400757, 50.49174784691621], [3.486359534866479, 50.49174640795808], [3.4862292391153322, 50.491744909220344], [3.4861031962383415, 50.49174344501633], [3.485988507087215, 50.49174210965938], [3.4858922725136527, 50.49174099746285], [3.485821593369352, 50.49174020274008], [3.485821593369352, 50.49174020274008], [3.484412307404131, 50.48682706047485], [3.4830030214389134, 50.48191391820963], [3.481593735473693, 50.4770007759444], [3.480184449508472, 50.472087633679166], [3.478775163543251, 50.467174491413935], [3.477365877578032, 50.46226134914871], [3.4759565916128126, 50.45734820688349], [3.4745473056475915, 50.45243506461826], [3.4731380196823705, 50.447521922353026], [3.4717287337171503, 50.4426087800878], [3.4717287337171503, 50.4426087800878], [3.475439855349497, 50.43853119782057], [3.479150976981844, 50.43445361555336], [3.4828620986141927, 50.43037603328613], [3.486573220246538, 50.42629845101891], [3.4902843418788847, 50.42222086875168], [3.4939954635112316, 50.418143286484465], [3.497706585143581, 50.414065704217236], [3.501417706775927, 50.40998812195002], [3.505128828408274, 50.40591053968279], [3.508839950040621, 50.40183295741558], [3.508839950040621, 50.40183295741558], [3.506399771858996, 50.399970426617045], [3.503959593677369, 50.39810789581851], [3.501519415495743, 50.39624536501998], [3.4990792373141173, 50.394382834221446], [3.4966390591324923, 50.39252030342292], [3.4941988809508655, 50.39065777262439], [3.4917587027692396, 50.388795241825854], [3.4893185245876137, 50.38693271102733], [3.4868783464059887, 50.3850701802288], [3.4844381682243637, 50.383207649430275], [3.4844381682243637, 50.383207649430275], [3.481231843594012, 50.38302952231679], [3.4780255189636615, 50.3828513952033], [3.4748191943333135, 50.38267326808983], [3.471612869702963, 50.382495140976346], [3.4684065450726114, 50.38231701386286], [3.4652002204422607, 50.38213888674939], [3.461993895811911, 50.3819607596359], [3.4587875711815586, 50.381782632522416], [3.455581246551209, 50.38160450540892], [3.452374921920859, 50.38142637829545], [3.452374921920859, 50.38142637829545], [3.4495591144143556, 50.38426289549738], [3.446743306907852, 50.387099412699314], [3.4439274994013496, 50.389935929901235], [3.441111691894847, 50.39277244710316], [3.438295884388341, 50.39560896430509], [3.4354800768818383, 50.398445481507025], [3.432664269375335, 50.401281998708946], [3.4298484618688305, 50.404118515910874], [3.427032654362327, 50.40695503311281], [3.4242168468558236, 50.40979155031473], [3.4242168468558236, 50.40979155031473], [3.4189579520451763, 50.409258257094656], [3.4136990572345254, 50.40872496387457], [3.408440162423877, 50.40819167065449], [3.4031812676132316, 50.4076583774344], [3.3979223728025825, 50.40712508421433], [3.3926634779919325, 50.40659179099425], [3.3874045831812833, 50.40605849777416], [3.382145688370636, 50.40552520455409], [3.3768867935599842, 50.404991911334], [3.371627898749337, 50.40445861811392], [3.371627898749337, 50.40445861811392], [3.3712393560164196, 50.40250793586593], [3.3708508132834996, 50.40055725361794], [3.3704622705505813, 50.39860657136995], [3.3700737278176622, 50.39665588912196], [3.3696851850847422, 50.394705206873965], [3.369296642351825, 50.39275452462598], [3.3689080996189067, 50.390803842377984], [3.3685195568859876, 50.38885316013], [3.3681310141530694, 50.38690247788201], [3.367742471420151, 50.38495179563402], [3.367742471420151, 50.38495179563402], [3.3647920993485188, 50.38450774200349], [3.3618417272768846, 50.38406368837298], [3.358891355205254, 50.38361963474247], [3.3559409831336215, 50.383175581111956], [3.3529906110619856, 50.38273152748145], [3.350040238990355, 50.38228747385093], [3.347089866918721, 50.38184342022042], [3.34413949484709, 50.381399366589896], [3.3411891227754578, 50.38095531295939], [3.3382387507038236, 50.38051125932887], [3.3382387507038236, 50.38051125932887], [3.3373426600504748, 50.38130900140825], [3.336446569397125, 50.38210674348763], [3.3355504787437744, 50.382904485566996], [3.3346543880904265, 50.38370222764638], [3.333758297437076, 50.38449996972576], [3.332862206783726, 50.38529771180513], [3.3319661161303773, 50.386095453884515], [3.3310700254770276, 50.386893195963886], [3.330173934823677, 50.387690938043264], [3.329277844170329, 50.38848868012265], [3.329277844170329, 50.38848868012265], [3.3267159357348492, 50.389995314189726], [3.3241540272993704, 50.391501948256796], [3.3215921188638906, 50.393008582323866], [3.3190302104284126, 50.39451521639094], [3.3164683019929346, 50.39602185045802], [3.3139063935574566, 50.3975284845251], [3.311344485121976, 50.399035118592174], [3.308782576686498, 50.40054175265925], [3.30622066825102, 50.40204838672632], [3.3036587598155394, 50.4035550207934], [3.3036587598155394, 50.4035550207934], [3.2993016818646352, 50.405149870314695], [3.2949446039137293, 50.40674471983599], [3.2905875259628243, 50.40833956935728], [3.28623044801192, 50.40993441887857], [3.2818733700610143, 50.411529268399875], [3.2775162921101075, 50.413124117921164], [3.2731592141592007, 50.41471896744246], [3.2688021362082966, 50.41631381696375], [3.2644450582573907, 50.41790866648505], [3.260087980306484, 50.419503516006344], [3.260087980306484, 50.419503516006344], [3.258168434578185, 50.42163095463615], [3.256248888849886, 50.42375839326597], [3.2543293431215834, 50.42588583189578], [3.2524097973932844, 50.428013270525604], [3.2504902516649854, 50.43014070915541], [3.248570705936688, 50.43226814778523], [3.2466511602083874, 50.434395586415036], [3.2447316144800866, 50.436523025044856], [3.2428120687517876, 50.43865046367467], [3.240892523023487, 50.44077790230448], [3.240892523023487, 50.44077790230448], [3.2385846847733313, 50.441043311274626], [3.2362768465231766, 50.44130872024478], [3.2339690082730175, 50.44157412921492], [3.231661170022863, 50.441839538185064], [3.2293533317727072, 50.442104947155215], [3.2270454935225534, 50.442370356125345], [3.224737655272395, 50.442635765095496], [3.2224298170222396, 50.442901174065646], [3.220121978772084, 50.44316658303578], [3.2178141405219276, 50.443431992005934], [3.2178141405219276, 50.443431992005934], [3.2147327975071023, 50.44156930119551], [3.211651454492275, 50.43970661038509], [3.2085701114774507, 50.437843919574654], [3.2054887684626236, 50.43598122876424], [3.2024074254477983, 50.43411853795381], [3.199326082432972, 50.43225584714339], [3.196244739418145, 50.43039315633296], [3.1931633964033197, 50.42853046552254], [3.1900820533884944, 50.42666777471211], [3.1870007103736673, 50.424805083901695], [3.1870007103736673, 50.424805083901695], [3.185079703629001, 50.42613455098587], [3.1831586968843344, 50.42746401807006], [3.1812376901396697, 50.42879348515425], [3.179316683395004, 50.43012295223843], [3.1773956766503395, 50.43145241932262], [3.175474669905673, 50.4327818864068], [3.173553663161005, 50.43411135349099], [3.17163265641634, 50.435440820575174], [3.1697116496716746, 50.43677028765936], [3.16779064292701, 50.43809975474355], [3.16779064292701, 50.43809975474355], [3.163815354764061, 50.438187426117835], [3.1598400666011126, 50.43827509749213], [3.1558647784381617, 50.43836276886643], [3.1518894902752135, 50.43845044024072], [3.1479142021122644, 50.43853811161502], [3.1439389139493135, 50.438625782989305], [3.1399636257863652, 50.438713454363594], [3.1359883376234152, 50.43880112573789], [3.132013049460467, 50.438888797112185], [3.128037761297518, 50.43897646848648], [3.128037761297518, 50.43897646848648], [3.1254700346381123, 50.437468554245285], [3.1229023079787077, 50.43596064000408], [3.1203345813193004, 50.43445272576289], [3.117766854659893, 50.432944811521686], [3.1151991280004903, 50.43143689728049], [3.112631401341084, 50.4299289830393], [3.11006367468168, 50.428421068798094], [3.107495948022272, 50.42691315455689], [3.1049282213628646, 50.425405240315705], [3.1023604947034618, 50.4238973260745], [3.1023604947034618, 50.4238973260745], [3.0969773027872596, 50.42540325604976], [3.091594110871061, 50.42690918602502], [3.0862109189548597, 50.42841511600028], [3.0808277270386575, 50.42992104597554], [3.075444535122459, 50.43142697595079], [3.0700613432062567, 50.43293290592605], [3.064678151290059, 50.43443883590131], [3.059294959373855, 50.43594476587656], [3.0539117674576546, 50.43745069585182], [3.048528575541454, 50.43895662582708], [3.048528575541454, 50.43895662582708], [3.037886873097594, 50.439308623895606], [3.027245170653732, 50.43966062196412], [3.0166034682098712, 50.44001262003265], [3.0059617657660094, 50.44036461810117], [2.9953200633221497, 50.44071661616969], [2.98467836087829, 50.44106861423821], [2.9740366584344264, 50.441420612306736], [2.963394955990568, 50.44177261037526], [2.9527532535467045, 50.44212460844378], [2.942111551102845, 50.442476606512294], [2.942111551102845, 50.442476606512294], [2.9362190209209094, 50.445844331191886], [2.9303264907389717, 50.449212055871484], [2.924433960557032, 50.45257978055107], [2.9185414303750967, 50.45594750523066], [2.9126489001931595, 50.45931522991025], [2.906756370011222, 50.462682954589845], [2.900863839829286, 50.466050679269436], [2.894971309647347, 50.46941840394902], [2.8890787794654114, 50.47278612862861], [2.8831862492834737, 50.47615385330821], [2.8831862492834737, 50.47615385330821], [2.882034982588355, 50.47766083942119], [2.880883715893239, 50.47916782553418], [2.8797324491981215, 50.48067481164716], [2.878581182503005, 50.48218179776015], [2.877429915807885, 50.48368878387313], [2.8762786491127685, 50.48519576998611], [2.875127382417649, 50.4867027560991], [2.8739761157225328, 50.488209742212085], [2.8728248490274146, 50.48971672832507], [2.8716735823322983, 50.49122371443805], [2.8716735823322983, 50.49122371443805], [2.8739921222881617, 50.496544079059056], [2.876310662244023, 50.501864443680056], [2.878629202199886, 50.507184808301055], [2.880947742155749, 50.512505172922054], [2.8832662821116117, 50.517825537543054], [2.8855848220674734, 50.52314590216406], [2.8879033620233368, 50.52846626678505], [2.890221901979198, 50.53378663140606], [2.892540441935061, 50.53910699602706], [2.894858981890922, 50.54442736064805], [2.894858981890922, 50.54442736064805], [2.899862095267708, 50.54531524389244], [2.904865208644495, 50.54620312713681], [2.9098683220212798, 50.54709101038118], [2.9148714353980636, 50.54797889362556], [2.9198745487748474, 50.54886677686994], [2.924877662151635, 50.54975466011432], [2.929880775528421, 50.5506425433587], [2.9348838889052025, 50.55153042660307], [2.9398870022819903, 50.55241830984745], [2.9448901156587746, 50.553306193091835], [2.9448901156587746, 50.553306193091835], [2.946817625116227, 50.555345922875624], [2.9487451345736813, 50.55738565265943], [2.9506726440311355, 50.55942538244323], [2.952600153488588, 50.561465112227026], [2.954527662946042, 50.56350484201083], [2.9564551724034946, 50.565544571794625], [2.9583826818609484, 50.56758430157843], [2.9603101913184013, 50.569624031362224], [2.9622377007758556, 50.57166376114603], [2.9641652102333076, 50.57370349092982], [2.9641652102333076, 50.57370349092982], [2.9626295848295405, 50.57538664152846], [2.9610939594257712, 50.577069792127105], [2.9595583340220037, 50.57875294272573], [2.9580227086182367, 50.58043609332437], [2.956487083214468, 50.582119243923], [2.9549514578106986, 50.58380239452165], [2.953415832406931, 50.58548554512028], [2.9518802070031636, 50.58716869571892], [2.9503445815993947, 50.58885184631755], [2.9488089561956277, 50.59053499691619], [2.9488089561956277, 50.59053499691619], [2.9481729250869386, 50.593194731183516], [2.9475368939782483, 50.59585446545084], [2.946900862869558, 50.59851419971816], [2.946264831760869, 50.601173933985486], [2.9456288006521807, 50.60383366825281], [2.944992769543488, 50.606493402520144], [2.9443567384347995, 50.60915313678747], [2.943720707326111, 50.611812871054795], [2.9430846762174205, 50.61447260532212], [2.942448645108732, 50.61713233958944], [2.942448645108732, 50.61713233958944], [2.9442480927243975, 50.61926070087813], [2.946047540340065, 50.62138906216681], [2.9478469879557303, 50.623517423455496], [2.9496464355714003, 50.62564578474418], [2.951445883187066, 50.62777414603286], [2.953245330802735, 50.629902507321546], [2.955044778418403, 50.63203086861023], [2.9568442260340704, 50.63415922989892], [2.958643673649736, 50.6362875911876], [2.960443121265405, 50.63841595247629], [2.960443121265405, 50.63841595247629], [2.959295790431375, 50.64196219378699], [2.9581484595973455, 50.64550843509769], [2.957001128763315, 50.64905467640839], [2.955853797929287, 50.6526009177191], [2.954706467095257, 50.6561471590298], [2.953559136261227, 50.6596934003405], [2.952411805427197, 50.66323964165121], [2.951264474593169, 50.66678588296191], [2.950117143759137, 50.67033212427261], [2.948969812925109, 50.67387836558331], [2.948969812925109, 50.67387836558331], [2.9468924358702266, 50.67743398441733], [2.944815058815342, 50.680989603251355], [2.9427376817604576, 50.68454522208537], [2.9406603047055753, 50.68810084091939], [2.9385829276506903, 50.6916564597534], [2.9365055505958044, 50.69521207858742], [2.9344281735409217, 50.698767697421445], [2.932350796486039, 50.70232331625546], [2.9302734194311553, 50.70587893508949], [2.9281960423762707, 50.7094345539235], [2.9281960423762707, 50.7094345539235], [2.9281285148988396, 50.7094108233271], [2.9280632452722766, 50.709386339837955], [2.927999597881613, 50.70936131463272], [2.927936937111875, 50.709335958888055], [2.927874627348097, 50.70931048378061], [2.9278120329753077, 50.70928510048703], [2.927748518378536, 50.709260020184004], [2.927683447942813, 50.709235454048155], [2.9276161860531693, 50.70921161325615], [2.9275460970946328, 50.70918870898465], [2.927546097094629, 50.70918870898465], [2.9252325433053907, 50.70538734803496], [2.9229384409422035, 50.7025232278215], [2.9206542670150424, 50.70051434525264], [2.9183704985338754, 50.69927869723676], [2.9160776125086794, 50.6987342806822], [2.9137660859494194, 50.69879909249736], [2.9114263958660733, 50.69939112959058], [2.9090490192686116, 50.70042838887025], [2.906624433167006, 50.70182886724472], [2.904143114571226, 50.70351056162237], [2.904143114571235, 50.70351056162237]]]}}]}