{"type": "FeatureCollection", "features": [{"type": "Feature", "properties": {"diocese": "Maurienne", "province": "XXVIII_Tarentaise", "source": "166_Maurienne.txt"}, "geometry": {"type": "Polygon", "coordinates": [[[6.252861983692167, 45.571921320739754], [6.233609508188028, 45.56180890292583], [6.214357032683894, 45.551696485111904], [6.195104557179759, 45.54158406729798], [6.175852081675625, 45.53147164948405], [6.15659960617149, 45.521359231670125], [6.137347130667353, 45.511246813856204], [6.118094655163219, 45.50113439604226], [6.098842179659082, 45.49102197822834], [6.079589704154948, 45.48090956041442], [6.060337228650813, 45.47079714260049], [6.060337228650813, 45.47079714260049], [6.059475289891404, 45.46768946749359], [6.0586133511319975, 45.4645817923867], [6.057751412372591, 45.46147411727982], [6.056889473613181, 45.458366442172924], [6.05602753485377, 45.455258767066034], [6.055165596094364, 45.452151091959145], [6.054303657334957, 45.44904341685225], [6.053441718575547, 45.44593574174536], [6.0525797798161385, 45.44282806663846], [6.051717841056734, 45.43972039153157], [6.051717841056734, 45.43972039153157], [6.051921614737392, 45.43963495660799], [6.0521253884180535, 45.43954952168439], [6.052329162098712, 45.43946408676081], [6.052532935779373, 45.43937865183722], [6.052736709460033, 45.43929321691363], [6.052940483140693, 45.43920778199004], [6.053144256821355, 45.43912234706646], [6.053348030502015, 45.43903691214286], [6.053551804182677, 45.43895147721927], [6.053755577863335, 45.438866042295686], [6.053755577863335, 45.438866042295686], [6.054275247068757, 45.43915993021751], [6.054794916274176, 45.43945381813934], [6.0553145854795964, 45.439747706061176], [6.055834254685015, 45.440041593983004], [6.056353923890438, 45.44033548190483], [6.056873593095858, 45.44062936982666], [6.057393262301277, 45.44092325774848], [6.057912931506699, 45.44121714567031], [6.058432600712118, 45.44151103359215], [6.058952269917539, 45.44180492151397], [6.058952269917539, 45.44180492151397], [6.060219891935294, 45.44213640638116], [6.06148751395305, 45.44246789124834], [6.062755135970805, 45.44279937611554], [6.06402275798856, 45.44313086098272], [6.065290380006315, 45.44346234584991], [6.06655800202407, 45.4437938307171], [6.067825624041827, 45.44412531558429], [6.069093246059582, 45.444456800451476], [6.070360868077337, 45.44478828531866], [6.071628490095092, 45.44511977018585], [6.071628490095092, 45.44511977018585], [6.072549144659709, 45.44503987412301], [6.073469799224325, 45.444959978060176], [6.0743904537889435, 45.44488008199733], [6.07531110835356, 45.44480018593449], [6.076231762918175, 45.44472028987165], [6.077152417482791, 45.44464039380881], [6.07807307204741, 45.44456049774597], [6.078993726612024, 45.44448060168313], [6.079914381176641, 45.44440070562029], [6.0808350357412575, 45.444320809557446], [6.0808350357412575, 45.444320809557446], [6.081765140453381, 45.44430075042845], [6.0826952451655, 45.44428069129946], [6.083625349877623, 45.44426063217046], [6.084555454589745, 45.44424057304147], [6.085485559301867, 45.44422051391248], [6.0864156640139875, 45.44420045478348], [6.087345768726109, 45.444180395654485], [6.088275873438235, 45.44416033652549], [6.089205978150353, 45.4441402773965], [6.090136082862475, 45.4441202182675], [6.090136082862475, 45.4441202182675], [6.090581245005598, 45.444215386486675], [6.091026407148718, 45.44431055470587], [6.091471569291842, 45.44440572292505], [6.091916731434962, 45.44450089114422], [6.092361893578083, 45.4445960593634], [6.092807055721206, 45.444691227582574], [6.093252217864327, 45.444786395801756], [6.09369738000745, 45.44488156402093], [6.0941425421505695, 45.44497673224011], [6.094587704293691, 45.44507190045928], [6.094587704293691, 45.44507190045928], [6.095013848209005, 45.44490431685692], [6.095439992124314, 45.44473673325455], [6.095866136039625, 45.444569149652175], [6.096292279954936, 45.444401566049805], [6.0967184238702465, 45.444233982447436], [6.097144567785557, 45.44406639884507], [6.097570711700866, 45.44389881524269], [6.097996855616181, 45.44373123164032], [6.098422999531488, 45.44356364803795], [6.098849143446801, 45.44339606443558], [6.098849143446801, 45.44339606443558], [6.098878754897282, 45.44271240437322], [6.098908366347764, 45.44202874431086], [6.098937977798247, 45.4413450842485], [6.09896758924873, 45.440661424186146], [6.098997200699211, 45.43997776412378], [6.099026812149692, 45.439294104061425], [6.0990564236001745, 45.43861044399907], [6.0990860350506555, 45.43792678393671], [6.09911564650114, 45.437243123874346], [6.099145257951619, 45.43655946381198], [6.099145257951619, 45.43655946381198], [6.099135259414984, 45.4362154945481], [6.099125260878353, 45.435871525284206], [6.099115262341719, 45.43552755602031], [6.099105263805084, 45.435183586756416], [6.099095265268449, 45.434839617492536], [6.099085266731816, 45.43449564822864], [6.0990752681951825, 45.43415167896475], [6.099065269658549, 45.43380770970086], [6.099055271121916, 45.43346374043697], [6.099045272585281, 45.433119771173075], [6.099045272585281, 45.433119771173075], [6.099468712706797, 45.433149794136355], [6.099892152828316, 45.433179817099635], [6.100315592949832, 45.433209840062915], [6.100739033071347, 45.43323986302619], [6.101162473192861, 45.43326988598947], [6.101585913314381, 45.43329990895275], [6.102009353435896, 45.43332993191603], [6.102432793557412, 45.4333599548793], [6.10285623367893, 45.43338997784258], [6.103279673800447, 45.43342000080587], [6.103279673800447, 45.43342000080587], [6.103661543183483, 45.433552563512414], [6.104043412566519, 45.43368512621897], [6.104425281949554, 45.433817688925515], [6.104807151332592, 45.43395025163207], [6.105189020715628, 45.434082814338616], [6.105570890098663, 45.43421537704518], [6.105952759481699, 45.434347939751724], [6.106334628864735, 45.43448050245828], [6.106716498247769, 45.434613065164825], [6.107098367630806, 45.43474562787138], [6.107098367630806, 45.43474562787138], [6.108978057112012, 45.435207545158505], [6.110857746593217, 45.43566946244564], [6.112737436074422, 45.436131379732764], [6.114617125555625, 45.4365932970199], [6.116496815036831, 45.43705521430704], [6.118376504518038, 45.437517131594156], [6.120256193999241, 45.43797904888129], [6.122135883480446, 45.43844096616842], [6.124015572961653, 45.438902883455555], [6.125895262442857, 45.43936480074267], [6.125895262442857, 45.43936480074267], [6.126778420601667, 45.439039212586415], [6.127661578760476, 45.43871362443013], [6.1285447369192845, 45.43838803627385], [6.129427895078091, 45.438062448117584], [6.130311053236904, 45.437736859961305], [6.131194211395712, 45.43741127180503], [6.132077369554519, 45.43708568364876], [6.132960527713328, 45.43676009549248], [6.133843685872138, 45.436434507336216], [6.134726844030949, 45.43610891917994], [6.134726844030949, 45.43610891917994], [6.136312545223026, 45.43393437732172], [6.1378982464151015, 45.43175983546351], [6.139483947607179, 45.42958529360529], [6.141069648799258, 45.42741075174708], [6.142655349991333, 45.425236209888865], [6.144241051183412, 45.42306166803065], [6.1458267523754895, 45.42088712617243], [6.14741245356757, 45.41871258431422], [6.148998154759644, 45.41653804245601], [6.150583855951721, 45.41436350059779], [6.150583855951721, 45.41436350059779], [6.153526584346622, 45.412445700046526], [6.1564693127415175, 45.41052789949526], [6.159412041136417, 45.408610098943996], [6.162354769531316, 45.40669229839273], [6.165297497926215, 45.404774497841466], [6.16824022632111, 45.4028566972902], [6.171182954716009, 45.400938896738936], [6.174125683110908, 45.399021096187674], [6.177068411505806, 45.39710329563641], [6.180011139900703, 45.395185495085144], [6.180011139900703, 45.395185495085144], [6.181489365320672, 45.392576168598524], [6.182967590740644, 45.3899668421119], [6.184445816160613, 45.3873575156253], [6.185924041580584, 45.384748189138676], [6.187402267000554, 45.382138862652056], [6.188880492420523, 45.379529536165435], [6.190358717840496, 45.37692020967882], [6.191836943260466, 45.3743108831922], [6.193315168680437, 45.37170155670558], [6.194793394100406, 45.36909223021896], [6.194793394100406, 45.36909223021896], [6.193266728246529, 45.36824475789745], [6.191740062392654, 45.367397285575926], [6.190213396538773, 45.36654981325441], [6.188686730684902, 45.365702340932884], [6.187160064831023, 45.36485486861137], [6.185633398977146, 45.36400739628985], [6.18410673312327, 45.36315992396833], [6.182580067269393, 45.36231245164681], [6.181053401415516, 45.36146497932529], [6.1795267355616375, 45.36061750700378], [6.1795267355616375, 45.36061750700378], [6.179023059251584, 45.36061738130412], [6.178519382941531, 45.36061725560446], [6.178015706631477, 45.36061712990481], [6.177512030321424, 45.360617004205146], [6.1770083540113685, 45.36061687850548], [6.176504677701315, 45.360616752805825], [6.176001001391262, 45.36061662710616], [6.175497325081208, 45.36061650140651], [6.174993648771155, 45.360616375706854], [6.1744899724610995, 45.36061625000719], [6.1744899724610995, 45.36061625000719], [6.175153561865102, 45.36018483002616], [6.175817151269101, 45.35975341004512], [6.176480740673101, 45.359321990064096], [6.177144330077102, 45.358890570083055], [6.177807919481102, 45.35845915010202], [6.178471508885101, 45.35802773012099], [6.179135098289104, 45.357596310139954], [6.179798687693104, 45.35716489015893], [6.180462277097105, 45.35673347017788], [6.181125866501105, 45.356302050196845], [6.181125866501105, 45.356302050196845], [6.182526997121901, 45.35616998715695], [6.183928127742698, 45.35603792411707], [6.185329258363497, 45.355905861077176], [6.186730388984294, 45.355773798037276], [6.188131519605092, 45.355641734997384], [6.189532650225889, 45.355509671957485], [6.190933780846686, 45.3553776089176], [6.192334911467485, 45.3552455458777], [6.1937360420882825, 45.35511348283781], [6.19513717270908, 45.354981419797916], [6.19513717270908, 45.354981419797916], [6.195547815600875, 45.3548159106761], [6.195958458492671, 45.35465040155428], [6.196369101384468, 45.35448489243246], [6.196779744276263, 45.354319383310646], [6.197190387168057, 45.354153874188825], [6.197601030059852, 45.353988365067], [6.1980116729516475, 45.35382285594519], [6.198422315843445, 45.35365734682337], [6.198832958735242, 45.353491837701554], [6.199243601627037, 45.35332632857973], [6.199243601627037, 45.35332632857973], [6.198908991002254, 45.352062554153974], [6.198574380377465, 45.350798779728215], [6.19823976975268, 45.34953500530245], [6.197905159127897, 45.34827123087669], [6.19757054850311, 45.34700745645093], [6.197235937878325, 45.34574368202517], [6.1969013272535385, 45.34447990759941], [6.196566716628755, 45.34321613317365], [6.1962321060039685, 45.34195235874789], [6.195897495379185, 45.34068858432213], [6.195897495379185, 45.34068858432213], [6.195533131007757, 45.34003474322515], [6.195168766636332, 45.33938090212818], [6.194804402264905, 45.33872706103121], [6.1944400378934805, 45.33807321993424], [6.194075673522052, 45.337419378837275], [6.193711309150627, 45.3367655377403], [6.193346944779201, 45.33611169664332], [6.192982580407772, 45.33545785554635], [6.192618216036349, 45.33480401444938], [6.192253851664923, 45.33415017335241], [6.192253851664923, 45.33415017335241], [6.191996859932557, 45.33387768141003], [6.191739868200189, 45.33360518946765], [6.191482876467823, 45.33333269752527], [6.1912258847354575, 45.333060205582896], [6.19096889300309, 45.33278771364051], [6.190711901270728, 45.33251522169813], [6.190454909538362, 45.33224272975575], [6.190197917805994, 45.33197023781337], [6.18994092607363, 45.33169774587099], [6.189683934341264, 45.331425253928614], [6.189683934341264, 45.331425253928614], [6.189601167603492, 45.33018500582108], [6.189518400865721, 45.328944757713536], [6.189435634127948, 45.327704509606], [6.189352867390175, 45.326464261498465], [6.189270100652404, 45.32522401339093], [6.189187333914633, 45.32398376528339], [6.1891045671768605, 45.32274351717585], [6.18902180043909, 45.321503269068316], [6.188939033701317, 45.32026302096078], [6.188856266963546, 45.31902277285324], [6.188856266963546, 45.31902277285324], [6.188383413690373, 45.31900772354875], [6.187910560417205, 45.318992674244264], [6.187437707144033, 45.318977624939784], [6.186964853870862, 45.3189625756353], [6.1864920005976884, 45.31894752633082], [6.186019147324517, 45.31893247702633], [6.185546294051347, 45.318917427721836], [6.185073440778176, 45.318902378417356], [6.184600587505006, 45.31888732911287], [6.184127734231835, 45.31887227980838], [6.184127734231835, 45.31887227980838], [6.181931129930435, 45.318322664609916], [6.179734525629037, 45.31777304941146], [6.177537921327637, 45.317223434212984], [6.1753413170262395, 45.316673819014525], [6.173144712724843, 45.31612420381606], [6.170948108423447, 45.315574588617594], [6.168751504122049, 45.31502497341913], [6.166554899820651, 45.31447535822066], [6.1643582955192535, 45.31392574302219], [6.162161691217856, 45.31337612782373], [6.162161691217856, 45.31337612782373], [6.161668758554825, 45.31250752836727], [6.161175825891794, 45.31163892891082], [6.160682893228763, 45.31077032945435], [6.160189960565733, 45.30990172999788], [6.159697027902704, 45.30903313054142], [6.159204095239673, 45.30816453108496], [6.15871116257664, 45.30729593162851], [6.1582182299136115, 45.30642733217204], [6.1577252972505825, 45.30555873271558], [6.15723236458755, 45.30469013325912], [6.15723236458755, 45.30469013325912], [6.156066415068619, 45.304204875935696], [6.154900465549687, 45.30371961861226], [6.153734516030754, 45.30323436128884], [6.152568566511823, 45.30274910396541], [6.1514026169928915, 45.30226384664197], [6.15023666747396, 45.301778589318545], [6.149070717955029, 45.30129333199511], [6.147904768436096, 45.300808074671686], [6.146738818917164, 45.30032281734825], [6.145572869398235, 45.29983756002483], [6.145572869398235, 45.29983756002483], [6.14568810798947, 45.29949892727509], [6.145803346580706, 45.29916029452535], [6.145918585171943, 45.29882166177561], [6.1460338237631795, 45.298483029025874], [6.146149062354416, 45.29814439627614], [6.146264300945651, 45.2978057635264], [6.146379539536889, 45.29746713077667], [6.146494778128128, 45.29712849802693], [6.146610016719363, 45.29678986527719], [6.1467252553105975, 45.29645123252745], [6.1467252553105975, 45.29645123252745], [6.145693197792076, 45.29570107380757], [6.144661140273552, 45.29495091508768], [6.143629082755028, 45.294200756367815], [6.142597025236503, 45.293450597647926], [6.141564967717981, 45.29270043892804], [6.140532910199459, 45.291950280208155], [6.139500852680934, 45.29120012148828], [6.13846879516241, 45.2904499627684], [6.1374367376438865, 45.28969980404851], [6.136404680125365, 45.288949645328636], [6.136404680125365, 45.288949645328636], [6.136546622386277, 45.287240512121556], [6.136688564647187, 45.28553137891448], [6.136830506908101, 45.28382224570741], [6.136972449169015, 45.282113112500326], [6.137114391429925, 45.28040397929325], [6.1372563336908375, 45.278694846086175], [6.13739827595175, 45.2769857128791], [6.137540218212662, 45.275276579672024], [6.137682160473574, 45.273567446464945], [6.137824102734486, 45.27185831325787], [6.137824102734486, 45.27185831325787], [6.138488286086687, 45.270955873897115], [6.139152469438887, 45.27005343453636], [6.139816652791085, 45.2691509951756], [6.140480836143286, 45.268248555814836], [6.141145019495486, 45.26734611645408], [6.141809202847687, 45.26644367709332], [6.142473386199887, 45.26554123773256], [6.143137569552087, 45.2646387983718], [6.143801752904286, 45.26373635901105], [6.144465936256488, 45.26283391965029], [6.144465936256488, 45.26283391965029], [6.143010223629874, 45.261081617489666], [6.141554511003264, 45.25932931532905], [6.14009879837665, 45.25757701316843], [6.138643085750038, 45.25582471100781], [6.137187373123426, 45.254072408847186], [6.135731660496814, 45.252320106686575], [6.1342759478702025, 45.25056780452595], [6.1328202352435905, 45.24881550236533], [6.13136452261698, 45.24706320020471], [6.129908809990367, 45.24531089804409], [6.129908809990367, 45.24531089804409], [6.130053399508753, 45.24497336648723], [6.130197989027138, 45.24463583493036], [6.130342578545523, 45.24429830337349], [6.13048716806391, 45.24396077181662], [6.130631757582297, 45.24362324025976], [6.1307763471006815, 45.243285708702885], [6.13092093661907, 45.24294817714602], [6.131065526137453, 45.24261064558915], [6.13121011565584, 45.24227311403229], [6.1313547051742265, 45.24193558247541], [6.1313547051742265, 45.24193558247541], [6.131519519965522, 45.24088769813639], [6.131684334756821, 45.239839813797374], [6.131849149548122, 45.23879192945835], [6.132013964339418, 45.237744045119335], [6.132178779130717, 45.23669616078031], [6.132343593922016, 45.23564827644128], [6.1325084087133135, 45.234600392102266], [6.132673223504613, 45.23355250776324], [6.13283803829591, 45.23250462342423], [6.133002853087207, 45.2314567390852], [6.133002853087207, 45.2314567390852], [6.134107793822865, 45.23074452396692], [6.135212734558522, 45.23003230884864], [6.1363176752941815, 45.22932009373036], [6.137422616029838, 45.22860787861208], [6.138527556765496, 45.227895663493804], [6.139632497501152, 45.22718344837552], [6.140737438236812, 45.22647123325724], [6.14184237897247, 45.22575901813896], [6.142947319708128, 45.225046803020675], [6.144052260443784, 45.2243345879024], [6.144052260443784, 45.2243345879024], [6.144030189922228, 45.22331012039043], [6.144008119400674, 45.22228565287846], [6.143986048879114, 45.22126118536649], [6.14396397835756, 45.22023671785451], [6.143941907836004, 45.219212250342544], [6.1439198373144475, 45.21818778283057], [6.143897766792893, 45.2171633153186], [6.143875696271335, 45.216138847806626], [6.143853625749777, 45.21511438029465], [6.143831555228223, 45.21408991278268], [6.143831555228223, 45.21408991278268], [6.145765403749385, 45.213020045639006], [6.147699252270547, 45.21195017849533], [6.149633100791709, 45.210880311351644], [6.151566949312871, 45.20981044420796], [6.153500797834035, 45.20874057706429], [6.155434646355193, 45.207670709920606], [6.157368494876357, 45.20660084277693], [6.159302343397519, 45.205530975633245], [6.161236191918681, 45.20446110848957], [6.163170040439843, 45.20339124134589], [6.163170040439843, 45.20339124134589], [6.163457829872284, 45.20199619401797], [6.163745619304725, 45.200601146690055], [6.16403340873717, 45.19920609936213], [6.1643211981696115, 45.19781105203421], [6.164608987602055, 45.19641600470629], [6.164896777034494, 45.195020957378375], [6.165184566466939, 45.19362591005044], [6.165472355899382, 45.192230862722525], [6.165760145331822, 45.19083581539461], [6.166047934764263, 45.18944076806669], [6.166047934764263, 45.18944076806669], [6.165912257305967, 45.18878058491446], [6.165776579847673, 45.18812040176224], [6.1656409023893755, 45.18746021861002], [6.165505224931083, 45.1868000354578], [6.165369547472784, 45.18613985230558], [6.165233870014486, 45.18547966915335], [6.165098192556192, 45.18481948600114], [6.164962515097896, 45.18415930284891], [6.1648268376396, 45.18349911969669], [6.164691160181304, 45.18283893654447], [6.164691160181304, 45.18283893654447], [6.16326007140243, 45.181056777934764], [6.161828982623556, 45.17927461932506], [6.160397893844683, 45.177492460715364], [6.158966805065811, 45.17571030210566], [6.157535716286937, 45.173928143495964], [6.156104627508062, 45.17214598488626], [6.15467353872919, 45.17036382627656], [6.153242449950319, 45.16858166766685], [6.151811361171447, 45.16679950905716], [6.150380272392573, 45.16501735044745], [6.150380272392573, 45.16501735044745], [6.1504407542768025, 45.16434332412698], [6.1505012361610305, 45.16366929780651], [6.150561718045262, 45.16299527148603], [6.150622199929492, 45.16232124516556], [6.150682681813722, 45.16164721884509], [6.150743163697953, 45.16097319252462], [6.150803645582185, 45.160299166204155], [6.150864127466416, 45.15962513988369], [6.1509246093506444, 45.158951113563205], [6.150985091234874, 45.15827708724274], [6.150985091234874, 45.15827708724274], [6.150669405987525, 45.158006713695], [6.150353720740176, 45.15773634014727], [6.150038035492823, 45.157465966599524], [6.149722350245474, 45.15719559305179], [6.149406664998127, 45.15692521950405], [6.149090979750774, 45.15665484595631], [6.148775294503425, 45.156384472408575], [6.148459609256074, 45.15611409886083], [6.148143924008725, 45.1558437253131], [6.147828238761374, 45.15557335176536], [6.147828238761374, 45.15557335176536], [6.149567301076832, 45.1552287798302], [6.151306363392289, 45.15488420789504], [6.153045425707747, 45.15453963595987], [6.154784488023203, 45.15419506402472], [6.15652355033866, 45.15385049208956], [6.1582626126541165, 45.1535059201544], [6.160001674969575, 45.15316134821924], [6.161740737285031, 45.152816776284084], [6.163479799600491, 45.152472204348925], [6.165218861915948, 45.152127632413766], [6.165218861915948, 45.152127632413766], [6.165571522667992, 45.15233282066102], [6.165924183420039, 45.15253800890827], [6.166276844172083, 45.15274319715552], [6.166629504924128, 45.15294838540278], [6.166982165676172, 45.15315357365003], [6.167334826428219, 45.15335876189728], [6.167687487180265, 45.153563950144544], [6.1680401479323095, 45.153769138391795], [6.168392808684356, 45.153974326639045], [6.168745469436399, 45.1541795148863], [6.168745469436399, 45.1541795148863], [6.169179877100801, 45.154276813463994], [6.169614284765203, 45.15437411204169], [6.170048692429603, 45.15447141061938], [6.170483100094007, 45.15456870919708], [6.170917507758405, 45.154666007774765], [6.171351915422809, 45.15476330635247], [6.171786323087211, 45.154860604930164], [6.1722207307516115, 45.15495790350786], [6.172655138416012, 45.15505520208555], [6.173089546080414, 45.15515250066325], [6.173089546080414, 45.15515250066325], [6.1742905686868, 45.15622637706942], [6.175491591293188, 45.1573002534756], [6.176692613899574, 45.15837412988177], [6.17789363650596, 45.15944800628795], [6.179094659112346, 45.16052188269411], [6.180295681718729, 45.16159575910029], [6.1814967043251166, 45.16266963550646], [6.182697726931503, 45.16374351191264], [6.183898749537889, 45.164817388318816], [6.185099772144277, 45.16589126472498], [6.185099772144277, 45.16589126472498], [6.1877819815764, 45.16507043929817], [6.190464191008523, 45.164249613871355], [6.193146400440652, 45.16342878844453], [6.195828609872775, 45.16260796301771], [6.198510819304902, 45.1617871375909], [6.201193028737023, 45.16096631216408], [6.203875238169148, 45.16014548673726], [6.206557447601277, 45.159324661310436], [6.2092396570334, 45.15850383588362], [6.211921866465525, 45.15768301045679], [6.211921866465525, 45.15768301045679], [6.213345220900331, 45.156277581313184], [6.214768575335134, 45.15487215216957], [6.2161919297699395, 45.153466723025936], [6.217615284204745, 45.152061293882326], [6.219038638639551, 45.15065586473871], [6.220461993074352, 45.14925043559508], [6.22188534750916, 45.14784500645147], [6.223308701943964, 45.14643957730785], [6.224732056378768, 45.145034148164235], [6.226155410813574, 45.14362871902061], [6.226155410813574, 45.14362871902061], [6.228438667884813, 45.14423501820298], [6.230721924956056, 45.14484131738533], [6.2330051820272985, 45.14544761656768], [6.2352884390985395, 45.146053915750045], [6.237571696169782, 45.1466602149324], [6.239854953241023, 45.147266514114754], [6.242138210312264, 45.14787281329712], [6.2444214673835035, 45.14847911247947], [6.246704724454748, 45.14908541166182], [6.248987981525989, 45.14969171084419], [6.248987981525989, 45.14969171084419], [6.249927193270363, 45.14959470037955], [6.250866405014735, 45.14949768991491], [6.251805616759109, 45.14940067945028], [6.252744828503481, 45.14930366898564], [6.253684040247855, 45.149206658520995], [6.2546232519922285, 45.14910964805637], [6.2555624637366005, 45.14901263759173], [6.256501675480973, 45.14891562712709], [6.257440887225345, 45.14881861666246], [6.2583800989697185, 45.14872160619782], [6.2583800989697185, 45.14872160619782], [6.25941534894271, 45.14796983036177], [6.260450598915703, 45.147218054525716], [6.261485848888698, 45.146466278689665], [6.26252109886169, 45.1457145028536], [6.2635563488346815, 45.14496272701755], [6.264591598807673, 45.1442109511815], [6.265626848780665, 45.14345917534545], [6.266662098753658, 45.14270739950939], [6.267697348726649, 45.14195562367334], [6.268732598699643, 45.14120384783728], [6.268732598699643, 45.14120384783728], [6.268607742476755, 45.14053513521585], [6.268482886253867, 45.13986642259443], [6.268358030030983, 45.139197709973], [6.268233173808097, 45.138528997351564], [6.268108317585208, 45.13786028473013], [6.267983461362322, 45.1371915721087], [6.267858605139434, 45.13652285948727], [6.26773374891655, 45.13585414686583], [6.267608892693662, 45.135185434244406], [6.2674840364707745, 45.13451672162297], [6.2674840364707745, 45.13451672162297], [6.267189184738525, 45.133851138793695], [6.266894333006272, 45.13318555596442], [6.266599481274023, 45.132519973135146], [6.2663046295417715, 45.131854390305875], [6.2660097778095185, 45.131188807476605], [6.2657149260772655, 45.13052322464733], [6.265420074345016, 45.129857641818056], [6.265125222612763, 45.12919205898878], [6.264830370880514, 45.1285264761595], [6.264535519148261, 45.12786089333023], [6.264535519148261, 45.12786089333023], [6.2661539669088295, 45.12666805141253], [6.267772414669402, 45.12547520949484], [6.269390862429969, 45.12428236757713], [6.2710093101905375, 45.12308952565944], [6.272627757951106, 45.12189668374174], [6.274246205711675, 45.12070384182403], [6.275864653472242, 45.11951099990634], [6.2774831012328125, 45.11831815798864], [6.2791015489933795, 45.11712531607094], [6.280719996753948, 45.11593247415324], [6.280719996753948, 45.11593247415324], [6.282365792678135, 45.115301559013076], [6.28401158860232, 45.11467064387293], [6.285657384526505, 45.11403972873276], [6.2873031804506905, 45.113408813592606], [6.288948976374876, 45.11277789845244], [6.290594772299059, 45.112146983312286], [6.292240568223246, 45.11151606817213], [6.293886364147431, 45.110885153031965], [6.295532160071616, 45.11025423789181], [6.297177955995799, 45.10962332275165], [6.297177955995799, 45.10962332275165], [6.299548727487652, 45.10995398905771], [6.301919498979505, 45.11028465536377], [6.3042902704713555, 45.11061532166983], [6.306661041963208, 45.110945987975896], [6.309031813455057, 45.11127665428195], [6.311402584946908, 45.11160732058802], [6.313773356438761, 45.11193798689408], [6.316144127930611, 45.11226865320014], [6.318514899422464, 45.1125993195062], [6.320885670914313, 45.112929985812265], [6.320885670914313, 45.112929985812265], [6.322472389020451, 45.11370057420565], [6.324059107126583, 45.11447116259903], [6.325645825232719, 45.11524175099242], [6.327232543338852, 45.116012339385804], [6.328819261444986, 45.116782927779184], [6.330405979551122, 45.11755351617257], [6.331992697657256, 45.11832410456595], [6.333579415763394, 45.119094692959344], [6.335166133869526, 45.11986528135272], [6.33675285197566, 45.1206358697461], [6.33675285197566, 45.1206358697461], [6.336891058777672, 45.120967072751505], [6.337029265579684, 45.1212982757569], [6.3371674723816955, 45.121629478762294], [6.337305679183709, 45.12196068176769], [6.337443885985721, 45.12229188477309], [6.337582092787734, 45.122623087778486], [6.337720299589744, 45.12295429078389], [6.337858506391756, 45.12328549378929], [6.337996713193769, 45.12361669679469], [6.338134919995781, 45.123947899800086], [6.338134919995781, 45.123947899800086], [6.340983599899424, 45.12215827709833], [6.343832279803072, 45.120368654396565], [6.346680959706717, 45.118579031694814], [6.349529639610365, 45.11678940899306], [6.35237831951401, 45.11499978629129], [6.3552269994176545, 45.11321016358955], [6.358075679321299, 45.11142054088778], [6.360924359224946, 45.109630918186035], [6.363773039128592, 45.10784129548427], [6.366621719032237, 45.10605167278251], [6.366621719032237, 45.10605167278251], [6.367805521551789, 45.103777707417244], [6.368989324071341, 45.10150374205197], [6.370173126590892, 45.09922977668669], [6.371356929110444, 45.096955811321415], [6.372540731629998, 45.09468184595614], [6.373724534149549, 45.09240788059087], [6.374908336669103, 45.09013391522559], [6.376092139188652, 45.08785994986032], [6.377275941708206, 45.08558598449505], [6.378459744227758, 45.08331201912977], [6.378459744227758, 45.08331201912977], [6.377483986461842, 45.08209823854082], [6.376508228695926, 45.08088445795189], [6.375532470930011, 45.079670677362955], [6.374556713164095, 45.07845689677402], [6.373580955398181, 45.07724311618508], [6.372605197632264, 45.07602933559614], [6.3716294398663464, 45.074815555007206], [6.37065368210043, 45.07360177441827], [6.369677924334514, 45.07238799382934], [6.3687021665686, 45.07117421324039], [6.3687021665686, 45.07117421324039], [6.371906648759207, 45.07035674506462], [6.375111130949815, 45.06953927688884], [6.378315613140424, 45.068721808713065], [6.381520095331032, 45.0679043405373], [6.38472457752164, 45.06708687236152], [6.387929059712246, 45.066269404185746], [6.391133541902853, 45.06545193600997], [6.394338024093464, 45.064634467834196], [6.397542506284072, 45.06381699965842], [6.400746988474678, 45.062999531482646], [6.400746988474678, 45.062999531482646], [6.401671317888258, 45.06322515364801], [6.402595647301835, 45.06345077581338], [6.403519976715415, 45.06367639797873], [6.404444306128996, 45.0639020201441], [6.4053686355425725, 45.064127642309465], [6.406292964956153, 45.06435326447483], [6.40721729436973, 45.0645788866402], [6.408141623783308, 45.06480450880556], [6.4090659531968885, 45.065030130970925], [6.409990282610469, 45.06525575313629], [6.409990282610469, 45.06525575313629], [6.411412679651814, 45.06495277854066], [6.412835076693163, 45.064649803945024], [6.41425747373451, 45.06434682934939], [6.4156798707758576, 45.064043854753756], [6.417102267817205, 45.06374088015812], [6.418524664858554, 45.06343790556249], [6.419947061899901, 45.063134930966854], [6.421369458941246, 45.06283195637122], [6.422791855982595, 45.062528981775586], [6.424214253023942, 45.06222600717996], [6.424214253023942, 45.06222600717996], [6.425668510702909, 45.06240472527581], [6.427122768381874, 45.062583443371665], [6.428577026060841, 45.062762161467525], [6.430031283739805, 45.06294087956338], [6.43148554141877, 45.06311959765923], [6.432939799097735, 45.06329831575509], [6.434394056776702, 45.063477033850944], [6.435848314455667, 45.0636557519468], [6.437302572134634, 45.06383447004265], [6.438756829813599, 45.06401318813851], [6.438756829813599, 45.06401318813851], [6.440581052055963, 45.06295182580582], [6.442405274298325, 45.061890463473134], [6.444229496540689, 45.06082910114045], [6.446053718783052, 45.059767738807764], [6.447877941025416, 45.05870637647507], [6.4497021632677765, 45.05764501414239], [6.451526385510142, 45.0565836518097], [6.453350607752505, 45.05552228947701], [6.455174829994867, 45.05446092714432], [6.456999052237229, 45.05339956481164], [6.456999052237229, 45.05339956481164], [6.459904538251401, 45.053785933053916], [6.462810024265574, 45.05417230129619], [6.465715510279745, 45.054558669538466], [6.4686209962939145, 45.05494503778074], [6.471526482308088, 45.055331406023015], [6.474431968322255, 45.0557177742653], [6.477337454336428, 45.05610414250757], [6.480242940350598, 45.056490510749846], [6.483148426364771, 45.05687687899212], [6.4860539123789405, 45.0572632472344], [6.4860539123789405, 45.0572632472344], [6.486549948213915, 45.05728043536688], [6.4870459840488905, 45.05729762349935], [6.487542019883865, 45.057314811631834], [6.488038055718841, 45.057331999764315], [6.488534091553815, 45.05734918789679], [6.489030127388789, 45.05736637602927], [6.489526163223763, 45.057383564161746], [6.490022199058739, 45.05740075229422], [6.490518234893711, 45.057417940426696], [6.491014270728687, 45.05743512855918], [6.491014270728687, 45.05743512855918], [6.491179098338298, 45.05881213063665], [6.491343925947907, 45.06018913271413], [6.491508753557518, 45.06156613479159], [6.491673581167131, 45.062943136869066], [6.491838408776742, 45.064320138946535], [6.492003236386349, 45.06569714102401], [6.492168063995962, 45.06707414310148], [6.492332891605573, 45.06845114517895], [6.492497719215184, 45.06982814725642], [6.492662546824793, 45.0712051493339], [6.492662546824793, 45.0712051493339], [6.492135668511766, 45.07357006968171], [6.491608790198743, 45.075934990029516], [6.491081911885717, 45.07829991037734], [6.490555033572692, 45.08066483072515], [6.490028155259667, 45.08302975107297], [6.489501276946642, 45.08539467142078], [6.488974398633616, 45.087759591768595], [6.488447520320593, 45.09012451211641], [6.487920642007566, 45.09248943246423], [6.487393763694541, 45.09485435281205], [6.487393763694541, 45.09485435281205], [6.4898357047736095, 45.09607276539299], [6.492277645852681, 45.097291177973936], [6.494719586931749, 45.098509590554876], [6.497161528010819, 45.09972800313583], [6.499603469089887, 45.10094641571678], [6.502045410168957, 45.10216482829772], [6.5044873512480255, 45.103383240878664], [6.506929292327097, 45.10460165345961], [6.509371233406165, 45.10582006604056], [6.511813174485235, 45.107038478621504], [6.511813174485235, 45.107038478621504], [6.512079554400827, 45.107338702458705], [6.512345934316423, 45.1076389262959], [6.512612314232017, 45.107939150133106], [6.512878694147609, 45.108239373970314], [6.513145074063205, 45.108539597807514], [6.513411453978799, 45.108839821644715], [6.513677833894393, 45.10914004548192], [6.513944213809987, 45.109440269319116], [6.514210593725581, 45.109740493156316], [6.514476973641177, 45.110040716993524], [6.514476973641177, 45.110040716993524], [6.516463579060428, 45.10904885579904], [6.518450184479681, 45.108056994604574], [6.520436789898934, 45.107065133410096], [6.522423395318185, 45.10607327221562], [6.524410000737438, 45.10508141102114], [6.526396606156691, 45.10408954982666], [6.528383211575942, 45.10309768863219], [6.530369816995195, 45.10210582743771], [6.532356422414448, 45.10111396624323], [6.5343430278337, 45.100122105048754], [6.5343430278337, 45.100122105048754], [6.535319538162662, 45.10016829120373], [6.536296048491625, 45.100214477358705], [6.537272558820588, 45.10026066351368], [6.538249069149549, 45.100306849668655], [6.5392255794785115, 45.10035303582364], [6.540202089807476, 45.10039922197861], [6.541178600136437, 45.10044540813359], [6.5421551104654, 45.10049159428857], [6.543131620794362, 45.100537780443545], [6.544108131123325, 45.10058396659851], [6.544108131123325, 45.10058396659851], [6.546244975892973, 45.10136213058579], [6.5483818206626285, 45.10214029457306], [6.5505186654322785, 45.10291845856034], [6.552655510201928, 45.10369662254762], [6.554792354971578, 45.104474786534894], [6.55692919974123, 45.10525295052217], [6.559066044510882, 45.10603111450945], [6.56120288928053, 45.10680927849672], [6.563339734050182, 45.107587442484], [6.5654765788198315, 45.108365606471274], [6.5654765788198315, 45.108365606471274], [6.565731217220755, 45.109017287142095], [6.565985855621676, 45.10966896781293], [6.566240494022598, 45.11032064848376], [6.566495132423521, 45.110972329154585], [6.566749770824439, 45.11162400982541], [6.567004409225364, 45.11227569049624], [6.567259047626285, 45.112927371167075], [6.567513686027208, 45.1135790518379], [6.56776832442813, 45.11423073250873], [6.568022962829053, 45.11488241317956], [6.568022962829053, 45.11488241317956], [6.56899143609154, 45.11555992320094], [6.5699599093540275, 45.11623743322233], [6.570928382616517, 45.11691494324371], [6.571896855879004, 45.11759245326509], [6.572865329141493, 45.118269963286465], [6.573833802403982, 45.11894747330786], [6.574802275666469, 45.11962498332924], [6.5757707489289565, 45.12030249335062], [6.576739222191446, 45.120980003372004], [6.577707695453935, 45.12165751339339], [6.577707695453935, 45.12165751339339], [6.57800483042516, 45.12190759106165], [6.578301965396385, 45.12215766872992], [6.57859910036761, 45.12240774639818], [6.578896235338837, 45.12265782406645], [6.579193370310062, 45.12290790173472], [6.579490505281285, 45.12315797940298], [6.579787640252512, 45.123408057071245], [6.580084775223737, 45.12365813473951], [6.580381910194964, 45.12390821240778], [6.580679045166187, 45.124158290076046], [6.580679045166187, 45.124158290076046], [6.582019399027766, 45.12376871535919], [6.5833597528893435, 45.12337914064234], [6.584700106750921, 45.12298956592549], [6.5860404606125, 45.122599991208645], [6.587380814474079, 45.122210416491804], [6.588721168335656, 45.12182084177495], [6.590061522197235, 45.1214312670581], [6.591401876058811, 45.121041692341244], [6.5927422299203915, 45.120652117624395], [6.594082583781969, 45.120262542907554], [6.594082583781969, 45.120262542907554], [6.596443802774367, 45.12043935430618], [6.5988050217667595, 45.12061616570481], [6.601166240759159, 45.12079297710343], [6.603527459751554, 45.12096978850206], [6.60588867874395, 45.12114659990068], [6.608249897736343, 45.121323411299315], [6.610611116728739, 45.12150022269795], [6.612972335721135, 45.121677034096564], [6.6153335547135335, 45.121853845495195], [6.617694773705928, 45.12203065689383], [6.617694773705928, 45.12203065689383], [6.6188284323197255, 45.1209915465135], [6.619962090933521, 45.119952436133175], [6.621095749547321, 45.11891332575285], [6.622229408161118, 45.11787421537253], [6.623363066774914, 45.116835104992205], [6.624496725388713, 45.11579599461188], [6.625630384002511, 45.11475688423156], [6.626764042616307, 45.11371777385123], [6.627897701230104, 45.11267866347091], [6.629031359843902, 45.11163955309059], [6.629031359843902, 45.11163955309059], [6.632412711818866, 45.11542379075934], [6.63699315234698, 45.11821006381068], [6.642456509007619, 45.12027483408903], [6.6484866093801696, 45.12189456343883], [6.654767281044002, 45.12334571370449], [6.660982351578493, 45.124904746730444], [6.666815648563022, 45.1268481243611], [6.671950999576961, 45.12945230844092], [6.676072232199697, 45.1329937608143], [6.678863174010594, 45.13774894332567], [6.678863174010591, 45.137748943325676], [6.684126730524028, 45.139881510898995], [6.68943492721165, 45.14150744280669], [6.694788899490947, 45.14267153322359], [6.7001897827794, 45.14341857632453], [6.7056387124945065, 45.14379336628435], [6.711136824053746, 45.14384069727788], [6.716685252874614, 45.14360536347996], [6.722285134374589, 45.14313215906542], [6.727937603971167, 45.14246587820911], [6.733643797081832, 45.141651315085845], [6.733643797081838, 45.141651315085845], [6.7384351698196685, 45.1439931628617], [6.743024814039481, 45.147094809083306], [6.747504338513501, 45.15061327682358], [6.751965352013947, 45.15420558915544], [6.7564994633130375, 45.1575287691518], [6.761198281182994, 45.16023983988559], [6.766153414396037, 45.16199582442971], [6.771456471724392, 45.16245374585709], [6.777199061940271, 45.16127062724064], [6.783472793815902, 45.15810349165328], [6.783472793815914, 45.15810349165327], [6.788790742459275, 45.15548253738041], [6.794670217770086, 45.15364579027042], [6.800899532892922, 45.15233476463363], [6.807267000972345, 45.151290974780366], [6.813560935152932, 45.15025593502093], [6.819569648579245, 45.148971159665656], [6.825081454395859, 45.14717816302485], [6.8298846657473415, 45.14461845940884], [6.833767595778262, 45.141033563127934], [6.836518557633191, 45.13616498849247], [6.836518557633202, 45.13616498849247], [6.840633063100283, 45.13318831212956], [6.845148559761526, 45.131413144106794], [6.8499916662954945, 45.13063218032702], [6.855089001380749, 45.130638116693035], [6.860367183695857, 45.13122364910768], [6.86575283191938, 45.132181473473786], [6.871172564729886, 45.13330428569419], [6.876553000805931, 45.1343847816717], [6.881820758826084, 45.13521565730916], [6.886902457468908, 45.135589608509406], [6.886902457468906, 45.135589608509406], [6.894567892574232, 45.138275679799015], [6.898257494554587, 45.1412179250235], [6.898881465982694, 45.14435594698889], [6.897350009431271, 45.14762934850127], [6.894573327473038, 45.15097773236669], [6.891461622680723, 45.15434070139121], [6.888925097627043, 45.15765785838087], [6.887873954884721, 45.160868806141764], [6.889218397026472, 45.16391314747991], [6.893868626625029, 45.1667304852014], [6.893868626625045, 45.1667304852014], [6.898953471305893, 45.16682938190962], [6.903987888957717, 45.16710980435367], [6.90897531426201, 45.167551177735085], [6.913919181900255, 45.168132927255385], [6.918822926553947, 45.1688344781161], [6.923689982904579, 45.16963525551878], [6.928523785633638, 45.17051468466491], [6.933327769422615, 45.17145219075606], [6.938105368952998, 45.17242719899374], [6.942860018906281, 45.173419134579476], [6.9428600189062735, 45.17341913457947], [6.9454267492079556, 45.17677946467677], [6.947948621639238, 45.17991391079157], [6.9504010713782645, 45.182880452732014], [6.952759533603173, 45.18573707030623], [6.9549994434921025, 45.18854174332235], [6.957096236223196, 45.19135245158849], [6.959025346974592, 45.19422717491281], [6.960762210924429, 45.19722389310342], [6.9622822632508505, 45.20040058596847], [6.963560939131995, 45.20381523331607], [6.963560939131986, 45.20381523331607], [6.965463859055637, 45.20612392924083], [6.968614413023063, 45.20803170140069], [6.97277471786038, 45.20961659916146], [6.977706890393701, 45.21095667188893], [6.9831730474491405, 45.21212996894891], [6.988935305852815, 45.21321453970717], [6.994755782430834, 45.21428843352954], [7.000396594009315, 45.2154296997818], [7.0056198574143735, 45.216716387829734], [7.010187689472122, 45.21822654703917], [7.010187689472124, 45.21822654703918], [7.01609829119486, 45.21736697085217], [7.021612676936954, 45.21758574892071], [7.026804732346454, 45.21864076983137], [7.031748343071424, 45.22028992217072], [7.036517394759928, 45.222291094525346], [7.041185773060013, 45.224402175481806], [7.045827363619747, 45.226381053626696], [7.050516052087184, 45.22798561754657], [7.055325724110386, 45.228973755828015], [7.060330265337409, 45.229103357057596], [7.060330265337406, 45.229103357057596], [7.062630288976164, 45.2246164719033], [7.065316243566144, 45.2211344609143], [7.068297664853549, 45.218656333440805], [7.0714840885845955, 45.217181098833066], [7.0747850505054934, 45.21670776644131], [7.078110086362447, 45.217235345615755], [7.081368731901668, 45.218762845706664], [7.084470522869367, 45.22128927606425], [7.087324995011752, 45.224813646038754], [7.089841684075031, 45.22933496498041], [7.089841684075033, 45.22933496498041], [7.092154394092841, 45.23256635107066], [7.094747726251983, 45.2361314412864], [7.097648372513566, 45.23980049064576], [7.100883024838707, 45.2433437541669], [7.104478375188515, 45.24653148686794], [7.108461115524106, 45.249133943767006], [7.11285793780659, 45.25092137988225], [7.117695533997079, 45.25166405023181], [7.123000596056688, 45.25113220983381], [7.128799815946524, 45.24909611370641], [7.128799815946515, 45.24909611370641], [7.13319637756328, 45.25674533090083], [7.135127047707019, 45.264387782971156], [7.1350241654491136, 45.27202120193267], [7.13332006986095, 45.279643319800655], [7.1304471000139085, 45.28725186859044], [7.126837594979378, 45.29484458031729], [7.122923893828737, 45.30241918699651], [7.119138335633373, 45.3099734206434], [7.1159132594646675, 45.317505013273255], [7.11368100439401, 45.325011696901356], [7.113681004394003, 45.325011696901356], [7.115965739725807, 45.328468934030475], [7.119218402508054, 45.33082976965315], [7.123080574694161, 45.33242355780519], [7.127193838237536, 45.33357965252245], [7.1311997750915985, 45.3346274078407], [7.134739967209757, 45.3358961777958], [7.137455996545434, 45.337715316423534], [7.138989445052037, 45.34041417775973], [7.138981894682978, 45.34432211584022], [7.137074927391678, 45.349768484700796], [7.137074927391675, 45.349768484700796], [7.142447649729656, 45.35234297098397], [7.147278423325641, 45.35499093823345], [7.151578612240792, 45.35774738102631], [7.15535958053627, 45.36064729393962], [7.158632692273235, 45.363725671550476], [7.1614093115128465, 45.367017508435936], [7.163700802316267, 45.37055779917307], [7.165518528744659, 45.374381538338994], [7.166873854859178, 45.378523720510735], [7.167778144720993, 45.383019340265406], [7.167778144720993, 45.383019340265406], [7.170387593181264, 45.386109271950495], [7.173694971813729, 45.38969588774625], [7.177248631136923, 45.39359110795466], [7.18059692166937, 45.39760685287771], [7.1832881939296005, 45.40155504281736], [7.1848707984361475, 45.4052475980756], [7.1848930857075395, 45.408496438954394], [7.1829034062623105, 45.41111348575573], [7.178450110618982, 45.412910658781584], [7.171081549296092, 45.41369987833393], [7.171081549296087, 45.41369987833394], [7.166727372247024, 45.41519883738233], [7.162724897215055, 45.41703498695039], [7.15895140303374, 45.41909414582415], [7.155284168536628, 45.42126213278956], [7.151600472557268, 45.42342476663262], [7.147777593929215, 45.42546786613932], [7.143692811486019, 45.42727725009567], [7.1392234040612355, 45.42873873728764], [7.1342466504884126, 45.42973814650123], [7.128639829601102, 45.430161296522414], [7.128639829601095, 45.430161296522414], [7.115914023127441, 45.424230505029385], [7.103188216653791, 45.41829971353637], [7.0904624101801375, 45.41236892204334], [7.077736603706484, 45.40643813055032], [7.06501079723283, 45.40050733905729], [7.05228499075918, 45.39457654756428], [7.039559184285526, 45.38864575607125], [7.026833377811872, 45.38271496457823], [7.01410757133822, 45.3767841730852], [7.001381764864567, 45.370853381592184], [7.001381764864567, 45.370853381592184], [6.997278243724423, 45.37094101549475], [6.993174722584278, 45.371028649397324], [6.989071201444132, 45.3711162832999], [6.984967680303985, 45.37120391720247], [6.980864159163842, 45.371291551105045], [6.976760638023697, 45.37137918500761], [6.972657116883552, 45.371466818910186], [6.968553595743405, 45.37155445281276], [6.96445007460326, 45.37164208671533], [6.960346553463115, 45.37172972061791], [6.960346553463115, 45.37172972061791], [6.957389849792994, 45.36800512815732], [6.95443314612287, 45.36428053569675], [6.9514764424527495, 45.36055594323617], [6.948519738782629, 45.356831350775586], [6.945563035112505, 45.353106758315015], [6.9426063314423825, 45.349382165854436], [6.939649627772262, 45.34565757339386], [6.936692924102141, 45.34193298093327], [6.933736220432017, 45.3382083884727], [6.930779516761895, 45.33448379601212], [6.930779516761895, 45.33448379601212], [6.925907374391642, 45.335014582763705], [6.921035232021385, 45.335545369515295], [6.916163089651132, 45.33607615626688], [6.911290947280877, 45.33660694301847], [6.906418804910622, 45.33713772977005], [6.901546662540365, 45.33766851652163], [6.8966745201701105, 45.33819930327322], [6.891802377799856, 45.33873009002481], [6.886930235429599, 45.3392608767764], [6.882058093059344, 45.33979166352798], [6.882058093059344, 45.33979166352798], [6.882322509779897, 45.34387021607055], [6.882586926500448, 45.347948768613115], [6.882851343221001, 45.35202732115568], [6.883115759941553, 45.35610587369824], [6.883380176662108, 45.36018442624081], [6.883644593382661, 45.36426297878337], [6.883909010103213, 45.368341531325946], [6.884173426823764, 45.37242008386851], [6.884437843544317, 45.37649863641108], [6.884702260264868, 45.38057718895364], [6.884702260264868, 45.38057718895364], [6.882908722880105, 45.38155203399141], [6.881115185495343, 45.38252687902917], [6.8793216481105794, 45.383501724066946], [6.877528110725818, 45.38447656910471], [6.875734573341054, 45.38545141414248], [6.873941035956289, 45.386426259180254], [6.872147498571529, 45.387401104218014], [6.870353961186767, 45.38837594925579], [6.868560423802002, 45.389350794293556], [6.866766886417242, 45.39032563933132], [6.866766886417242, 45.39032563933132], [6.864970176757014, 45.389615872281475], [6.863173467096789, 45.38890610523165], [6.861376757436563, 45.388196338181814], [6.859580047776335, 45.387486571131966], [6.857783338116107, 45.38677680408213], [6.855986628455881, 45.38606703703229], [6.8541899187956545, 45.38535726998246], [6.85239320913543, 45.384647502932616], [6.850596499475202, 45.383937735882775], [6.8487997898149775, 45.38322796883294], [6.8487997898149775, 45.38322796883294], [6.8425156366844195, 45.38304908454183], [6.8362314835538545, 45.382870200250714], [6.829947330423295, 45.3826913159596], [6.823663177292733, 45.382512431668474], [6.8173790241621735, 45.382333547377364], [6.811094871031612, 45.38215466308624], [6.80481071790105, 45.38197577879513], [6.798526564770491, 45.38179689450402], [6.792242411639927, 45.381618010212904], [6.785958258509368, 45.38143912592178], [6.785958258509368, 45.38143912592178], [6.784156757437675, 45.378246824423314], [6.7823552563659835, 45.375054522924835], [6.7805537552942905, 45.371862221426355], [6.778752254222599, 45.368669919927875], [6.776950753150906, 45.3654776184294], [6.775149252079213, 45.36228531693093], [6.773347751007522, 45.35909301543245], [6.771546249935831, 45.35590071393397], [6.769744748864138, 45.3527084124355], [6.767943247792445, 45.34951611093702], [6.767943247792445, 45.34951611093702], [6.7622977345816615, 45.34720943006227], [6.75665222137088, 45.34490274918752], [6.751006708160093, 45.34259606831276], [6.745361194949307, 45.34028938743801], [6.739715681738524, 45.33798270656327], [6.73407016852774, 45.335676025688514], [6.728424655316955, 45.33336934481376], [6.72277914210617, 45.33106266393901], [6.717133628895386, 45.32875598306426], [6.7114881156846025, 45.32644930218951], [6.7114881156846025, 45.32644930218951], [6.706473102780912, 45.31935502814986], [6.701458089877221, 45.31226075411019], [6.696443076973532, 45.30516648007054], [6.691428064069841, 45.29807220603089], [6.686413051166149, 45.29097793199123], [6.681398038262461, 45.283883657951584], [6.676383025358772, 45.27678938391192], [6.67136801245508, 45.269695109872266], [6.666352999551393, 45.262600835832615], [6.661337986647702, 45.255506561792956], [6.661337986647702, 45.255506561792956], [6.658256985850917, 45.25382118158903], [6.6551759850541305, 45.25213580138511], [6.652094984257344, 45.250450421181185], [6.649013983460559, 45.24876504097726], [6.645932982663771, 45.24707966077334], [6.642851981866983, 45.24539428056942], [6.639770981070198, 45.2437089003655], [6.636689980273413, 45.24202352016157], [6.633608979476627, 45.24033813995764], [6.63052797867984, 45.23865275975372], [6.63052797867984, 45.23865275975372], [6.623222160777411, 45.2406901797587], [6.61591634287498, 45.24272759976368], [6.6086105249725495, 45.24476501976867], [6.6013047070701205, 45.24680243977367], [6.593998889167688, 45.24883985977865], [6.586693071265259, 45.25087727978364], [6.579387253362826, 45.25291469978863], [6.572081435460397, 45.254952119793614], [6.564775617557967, 45.256989539798596], [6.557469799655538, 45.259026959803585], [6.557469799655538, 45.259026959803585], [6.5527213489565135, 45.25716384747315], [6.547972898257489, 45.255300735142725], [6.543224447558465, 45.253437622812285], [6.538475996859443, 45.25157451048186], [6.533727546160421, 45.24971139815142], [6.528979095461397, 45.24784828582099], [6.524230644762374, 45.24598517349055], [6.51948219406335, 45.24412206116012], [6.514733743364328, 45.24225894882969], [6.509985292665304, 45.24039583649925], [6.509985292665304, 45.24039583649925], [6.505755934369812, 45.24172476031719], [6.501526576074323, 45.24305368413513], [6.497297217778831, 45.24438260795306], [6.4930678594833395, 45.24571153177099], [6.488838501187846, 45.24704045558893], [6.484609142892355, 45.24836937940687], [6.480379784596863, 45.249698303224804], [6.476150426301373, 45.25102722704274], [6.471921068005882, 45.252356150860685], [6.46769170971039, 45.25368507467861], [6.46769170971039, 45.25368507467861], [6.465125009800108, 45.252709141481], [6.462558309889829, 45.25173320828338], [6.4599916099795465, 45.25075727508576], [6.4574249100692676, 45.24978134188815], [6.454858210158985, 45.24880540869053], [6.452291510248704, 45.247829475492914], [6.4497248103384255, 45.2468535422953], [6.4471581104281395, 45.24587760909768], [6.444591410517859, 45.24490167590006], [6.44202471060758, 45.243925742702444], [6.44202471060758, 45.243925742702444], [6.439342440822077, 45.24951080046915], [6.436660171036573, 45.25509585823587], [6.433977901251069, 45.26068091600258], [6.4312956314655665, 45.266265973769286], [6.428613361680062, 45.271851031535995], [6.42593109189456, 45.277436089302704], [6.423248822109056, 45.28302114706942], [6.420566552323551, 45.28860620483612], [6.417884282538047, 45.29419126260283], [6.415202012752545, 45.299776320369546], [6.415202012752545, 45.299776320369546], [6.410971627665704, 45.30057324126653], [6.406741242578864, 45.30137016216351], [6.4025108574920235, 45.302167083060496], [6.398280472405183, 45.302964003957484], [6.394050087318343, 45.30376092485448], [6.389819702231502, 45.304557845751454], [6.385589317144664, 45.30535476664844], [6.381358932057822, 45.30615168754543], [6.377128546970981, 45.30694860844242], [6.372898161884139, 45.3077455293394], [6.372898161884139, 45.3077455293394], [6.370729508633513, 45.313685456654156], [6.368560855382883, 45.31962538396891], [6.366392202132253, 45.32556531128366], [6.364223548881622, 45.33150523859842], [6.362054895630992, 45.33744516591318], [6.359886242380364, 45.34338509322792], [6.357717589129736, 45.34932502054268], [6.355548935879105, 45.355264947857435], [6.353380282628475, 45.36120487517219], [6.351211629377845, 45.367144802486955], [6.351211629377845, 45.367144802486955], [6.3522449305553454, 45.370957572930024], [6.353278231732842, 45.37477034337309], [6.354311532910343, 45.37858311381617], [6.355344834087839, 45.382395884259246], [6.3563781352653415, 45.38620865470232], [6.357411436442838, 45.39002142514539], [6.358444737620339, 45.39383419558847], [6.359478038797835, 45.397646966031544], [6.360511339975336, 45.40145973647462], [6.3615446411528325, 45.405272506917704], [6.3615446411528325, 45.405272506917704], [6.356164185101967, 45.408195948202035], [6.3507837290511, 45.411119389486366], [6.345403273000233, 45.41404283077071], [6.340022816949368, 45.41696627205505], [6.334642360898501, 45.41988971333939], [6.329261904847634, 45.42281315462373], [6.323881448796769, 45.42573659590807], [6.3185009927459, 45.4286600371924], [6.313120536695035, 45.43158347847674], [6.307740080644168, 45.43450691976108], [6.307740080644168, 45.43450691976108], [6.311596205436631, 45.439118371330686], [6.315452330229094, 45.44372982290029], [6.319308455021558, 45.4483412744699], [6.323164579814025, 45.452952726039506], [6.327020704606486, 45.457564177609115], [6.3308768293989495, 45.462175629178724], [6.334732954191413, 45.46678708074832], [6.338589078983878, 45.47139853231793], [6.342445203776343, 45.47600998388754], [6.346301328568806, 45.48062143545715], [6.346301328568806, 45.48062143545715], [6.346951391873308, 45.485232086908056], [6.3476014551778075, 45.489842738358966], [6.348251518482309, 45.49445338980987], [6.34890158178681, 45.49906404126079], [6.34955164509131, 45.50367469271169], [6.350201708395813, 45.5082853441626], [6.350851771700311, 45.51289599561351], [6.351501835004813, 45.51750664706443], [6.352151898309316, 45.52211729851533], [6.352801961613814, 45.52672794996625], [6.352801961613814, 45.52672794996625], [6.349987009678802, 45.53000775735777], [6.347172057743787, 45.53328756474931], [6.344357105808774, 45.536567372140844], [6.341542153873762, 45.53984717953237], [6.338727201938747, 45.543126986923916], [6.335912250003734, 45.54640679431545], [6.33309729806872, 45.54968660170698], [6.330282346133707, 45.55296640909852], [6.327467394198694, 45.55624621649005], [6.32465244226368, 45.55952602388158], [6.32465244226368, 45.55952602388158], [6.329020472236916, 45.563605655233175], [6.33338850221015, 45.56768528658478], [6.337756532183391, 45.57176491793638], [6.342124562156625, 45.575844549287964], [6.346492592129861, 45.57992418063956], [6.350860622103097, 45.58400381199115], [6.355228652076333, 45.588083443342754], [6.359596682049569, 45.59216307469434], [6.3639647120228044, 45.59624270604594], [6.36833274199604, 45.600322337397536], [6.36833274199604, 45.600322337397536], [6.367312183122841, 45.60307064463432], [6.366291624249643, 45.60581895187113], [6.365271065376442, 45.60856725910792], [6.364250506503241, 45.611315566344715], [6.363229947630044, 45.61406387358151], [6.362209388756842, 45.6168121808183], [6.361188829883643, 45.6195604880551], [6.360168271010444, 45.62230879529189], [6.3591477121372435, 45.625057102528686], [6.358127153264045, 45.62780540976548], [6.358127153264045, 45.62780540976548], [6.347602141351606, 45.62221804041304], [6.337077129439166, 45.6166306710606], [6.326552117526727, 45.611043301708165], [6.316027105614287, 45.605455932355724], [6.305502093701849, 45.59986856300329], [6.29497708178941, 45.59428119365085], [6.28445206987697, 45.58869382429841], [6.27392705796453, 45.58310645494598], [6.263402046052089, 45.57751908559353], [6.252877034139653, 45.57193171624109], [6.252877034139653, 45.57193171624109], [6.252875529094904, 45.571930676690954], [6.252874024050156, 45.571929637140826], [6.2528725190054075, 45.57192859759069], [6.252871013960659, 45.571927558040564], [6.252869508915911, 45.57192651849042], [6.252868003871161, 45.571925478940294], [6.252866498826409, 45.57192443939015], [6.25286499378166, 45.571923399840024], [6.252863488736914, 45.57192236028989], [6.252861983692167, 45.571921320739754]]]}}]}