{
  "type": "FeatureCollection",
  "features": [
    {
      "type": "Feature",
      "properties": {
                "diocese": "Aquilegien",
                "province": "Aquilegien",
                "date": 1592
            },
      "geometry": {
        "type": "MultiPolygon",
        "coordinates": [
          [
            [
              [
                12.411484997000068,
                45.787696735000104
              ],
              [
                12.427629176000055,
                45.79663969800011
              ],
              [
                12.387565210000067,
                45.809845084000166
              ],
              [
                12.383926318000068,
                45.79116202300007
              ],
              [
                12.411484997000068,
                45.787696735000104
              ]
            ]
          ],
          [
            [
              [
                12.612261865000066,
                45.81937241300009
              ],
              [
                12.590292004000045,
                45.80053558100011
              ],
              [
                12.636933020000066,
                45.804015061000015
              ],
              [
                12.634651295000051,
                45.81122211200008
              ],
              [
                12.612261865000066,
                45.81937241300009
              ]
            ]
          ],
          [
            [
              [
                12.832024962000082,
                45.83993443
              ],
              [
                12.915878370000032,
                45.86509738500006
              ],
              [
                12.924054552000028,
                45.87423269300006
              ],
              [
                12.853891497000077,
                45.90387899600012
              ],
              [
                12.809778139000054,
                45.85384168100005
              ],
              [
                12.832024962000082,
                45.83993443
              ]
            ]
          ],
          [
            [
              [
                12.473977487000077,
                45.98539811900009
              ],
              [
                12.458973954000038,
                45.99881491200005
              ],
              [
                12.425698792000063,
                45.97910142500006
              ],
              [
                12.450506614000108,
                45.9509123670001
              ],
              [
                12.417677102000056,
                45.94295901400005
              ],
              [
                12.37756864800003,
                45.966712397000016
              ],
              [
                12.341768139000116,
                45.92973533
              ],
              [
                12.354708698000026,
                45.91603582300008
              ],
              [
                12.384550490000064,
                45.919092107000054
              ],
              [
                12.553703134000077,
                45.95675364900006
              ],
              [
                12.540297997000048,
                45.97340685500008
              ],
              [
                12.489672215000091,
                45.96973961500006
              ],
              [
                12.473977487000077,
                45.98539811900009
              ]
            ]
          ],
          [
            [
              [
                12.603662280000037,
                46.067685621000145
              ],
              [
                12.602028231000123,
                46.08273107100011
              ],
              [
                12.572912465000066,
                46.080464211000034
              ],
              [
                12.577071860000055,
                46.069643823000064
              ],
              [
                12.603662280000037,
                46.067685621000145
              ]
            ]
          ],
          [
            [
              [
                15.30766684100011,
                45.75826308100006
              ],
              [
                15.250623707000056,
                45.82414002000006
              ],
              [
                15.334405811000114,
                45.86263572400005
              ],
              [
                15.43779649200009,
                45.8539454740001
              ],
              [
                15.464836421215638,
                45.799956343943386
              ],
              [
                15.47787241300005,
                45.825981187000025
              ],
              [
                15.536698145000075,
                45.830701292000136
              ],
              [
                15.557732801000073,
                45.854047500000036
              ],
              [
                15.634384513000043,
                45.82225450600006
              ],
              [
                15.680732060000068,
                45.86447561800008
              ],
              [
                15.667184316000082,
                45.8771357030001
              ],
              [
                15.678949462000062,
                45.879865932
              ],
              [
                15.670749512000059,
                45.90468003800005
              ],
              [
                15.705331912000107,
                45.93617797300007
              ],
              [
                15.704975392000078,
                45.99193750000012
              ],
              [
                15.596447711000076,
                46.00520968700003
              ],
              [
                15.575056535000089,
                46.026254742000056
              ],
              [
                15.450274678000055,
                46.068320827000015
              ],
              [
                15.430666100000037,
                46.08686920900005
              ],
              [
                15.44849208000005,
                46.141241831000066
              ],
              [
                15.503752617000066,
                46.17211146700009
              ],
              [
                15.607875981646622,
                46.16938663106639
              ],
              [
                15.708911288000065,
                46.2220769080001
              ],
              [
                15.769183580000108,
                46.20605349200009
              ],
              [
                15.780829887000042,
                46.252584517000045
              ],
              [
                15.977628701000056,
                46.294642206000084
              ],
              [
                16.041326868000056,
                46.3478251970001
              ],
              [
                16.04608046300006,
                46.39898958900003
              ],
              [
                15.900620470000055,
                46.39243273000006
              ],
              [
                15.798893546000077,
                46.47237258400001
              ],
              [
                15.737096817000054,
                46.48350243700005
              ],
              [
                15.708575250000044,
                46.51818677700001
              ],
              [
                15.712378125000074,
                46.54827223100006
              ],
              [
                15.677201526000045,
                46.56069396900004
              ],
              [
                15.63917276900007,
                46.552195192000084
              ],
              [
                15.610651202000058,
                46.56788420100003
              ],
              [
                15.56786885100011,
                46.56592332300008
              ],
              [
                15.45378258200004,
                46.53192350800001
              ],
              [
                15.45948689500005,
                46.56526968100005
              ],
              [
                15.441423236000048,
                46.58095490900006
              ],
              [
                15.440472517000044,
                46.564616032000046
              ],
              [
                15.424310296000089,
                46.56265503600007
              ],
              [
                15.39293657200009,
                46.584222094000026
              ],
              [
                15.275998146000099,
                46.58748908200002
              ],
              [
                15.184729130000065,
                46.61427095700008
              ],
              [
                15.155256844000112,
                46.594675763000055
              ],
              [
                15.106770180000089,
                46.60578057700007
              ],
              [
                15.014550445000047,
                46.58814245600004
              ],
              [
                14.981275283000071,
                46.59794212100007
              ],
              [
                14.973669532000047,
                46.62406589700006
              ],
              [
                14.916626397000062,
                46.652787497000126
              ],
              [
                14.875745484000063,
                46.650177072000105
              ],
              [
                14.845322479000107,
                46.66779499300005
              ],
              [
                14.830110977000093,
                46.644955845000126
              ],
              [
                14.780673593000062,
                46.63190057200013
              ],
              [
                14.657080135000088,
                46.62994201000007
              ],
              [
                14.662784448000064,
                46.642997755000124
              ],
              [
                14.64186863200011,
                46.652787497000126
              ],
              [
                14.589579092000061,
                46.63973411400006
              ],
              [
                14.523028768000104,
                46.607086876000054
              ],
              [
                14.47168994700006,
                46.56004026400012
              ],
              [
                14.093232517000056,
                46.533395095000024
              ],
              [
                14.053302323000027,
                46.572132527000036
              ],
              [
                13.964291265000066,
                46.57793258800009
              ],
              [
                13.940760972000042,
                46.6058622210001
              ],
              [
                13.896909062000114,
                46.58895916300003
              ],
              [
                13.847352839000074,
                46.60243304100007
              ],
              [
                13.842718084000117,
                46.61810752000011
              ],
              [
                13.716153629000079,
                46.663146377
              ],
              [
                13.669093043000032,
                46.70423607
              ],
              [
                13.56962407700006,
                46.75360015700009
              ],
              [
                13.49083324700009,
                46.77460283900009
              ],
              [
                13.486911532000052,
                46.79437694800005
              ],
              [
                13.377460017000042,
                46.814387782000026
              ],
              [
                13.389225164000083,
                46.783392229000086
              ],
              [
                13.347868891000115,
                46.74602741500004
              ],
              [
                13.265869385000062,
                46.75237881900006
              ],
              [
                13.104009491000088,
                46.73258928600004
              ],
              [
                12.95284518400008,
                46.74480590500006
              ],
              [
                12.838758915000074,
                46.810971825000074
              ],
              [
                12.775654947000053,
                46.825854051000064
              ],
              [
                12.797046122000046,
                46.75506572600009
              ],
              [
                12.718968332000028,
                46.73820927500007
              ],
              [
                12.720750930000067,
                46.70570298100006
              ],
              [
                12.699359754000078,
                46.70252462400008
              ],
              [
                12.692585882000051,
                46.65458209100013
              ],
              [
                12.574221378000047,
                46.64870865300002
              ],
              [
                12.483308882000106,
                46.676112571000075
              ],
              [
                12.37670952400008,
                46.64038685800013
              ],
              [
                12.38740511200011,
                46.62349457400011
              ],
              [
                12.36066614300007,
                46.617372880000126
              ],
              [
                12.339988006000072,
                46.62986040100004
              ],
              [
                12.18704110200002,
                46.620556247000096
              ],
              [
                12.062972284000075,
                46.57817764800011
              ],
              [
                12.03908547100006,
                46.537973110000046
              ],
              [
                12.00806826700009,
                46.52448321000006
              ],
              [
                12.053346255000063,
                46.49086652900009
              ],
              [
                12.055485372000032,
                46.479820017000094
              ],
              [
                12.023398609000012,
                46.48571176900001
              ],
              [
                12.01379071600009,
                46.465645513000084
              ],
              [
                12.036132611000017,
                46.43993677500003
              ],
              [
                12.262403711000049,
                46.37848144000006
              ],
              [
                12.271435541000082,
                46.32532827100003
              ],
              [
                12.332281551000095,
                46.30037440200004
              ],
              [
                12.32586419900003,
                46.264236807000046
              ],
              [
                12.353910407000102,
                46.234651954000064
              ],
              [
                12.443022168000052,
                46.25644662700009
              ],
              [
                12.603455984000048,
                46.24288695700013
              ],
              [
                12.635899267000093,
                46.28700522000003
              ],
              [
                12.623421081000094,
                46.31040551900009
              ],
              [
                12.638038385000057,
                46.322963659000074
              ],
              [
                12.698290196000057,
                46.322471237000066
              ],
              [
                12.797759162000064,
                46.35471550300006
              ],
              [
                13.029140376000058,
                46.34068789200009
              ],
              [
                12.962827732000054,
                46.30006135700006
              ],
              [
                12.968175526000067,
                46.28454144900007
              ],
              [
                13.00489704400008,
                46.27394597100007
              ],
              [
                12.964253811000095,
                46.225870994
              ],
              [
                12.971740722000076,
                46.198733187000094
              ],
              [
                12.93252356700004,
                46.09870113600006
              ],
              [
                12.922897538000026,
                45.99155219400007
              ],
              [
                12.884036903000048,
                45.91694514000005
              ],
              [
                12.938584400000043,
                45.88096901700002
              ],
              [
                12.976731997000096,
                45.84198927500009
              ],
              [
                12.972810281000026,
                45.828079061000075
              ],
              [
                13.027281837000018,
                45.811884721000084
              ],
              [
                13.062370210000084,
                45.720489085000104
              ],
              [
                13.093091361000054,
                45.70071954700012
              ],
              [
                13.230930465000021,
                45.71219134900006
              ],
              [
                13.324746120000048,
                45.687553215000015
              ],
              [
                13.449120455000092,
                45.693766425000064
              ],
              [
                13.55500677400006,
                45.72729193800013
              ],
              [
                13.517928736000089,
                45.7443788890001
              ],
              [
                13.545499585000124,
                45.795276941000054
              ],
              [
                13.560235728000064,
                45.77837134000004
              ],
              [
                13.629162849000071,
                45.77008240800005
              ],
              [
                13.746065623000051,
                45.69849772800003
              ],
              [
                13.812378267000089,
                45.70397557900004
              ],
              [
                13.838404197000072,
                45.721152630000105
              ],
              [
                13.788134935000077,
                45.749271761000074
              ],
              [
                13.807386993000033,
                45.78831643200009
              ],
              [
                13.840186795000042,
                45.79825975100012
              ],
              [
                13.867638804000034,
                45.80124240000007
              ],
              [
                13.959620858000061,
                45.7385732300001
              ],
              [
                14.008820562000038,
                45.76991661700005
              ],
              [
                14.031994335000036,
                45.755988396000184
              ],
              [
                14.06015938300005,
                45.76469394100006
              ],
              [
                14.075133206000075,
                45.810686404000116
              ],
              [
                14.05017683400011,
                45.83404100700003
              ],
              [
                14.09795046000011,
                45.840499062000085
              ],
              [
                14.16675874100004,
                45.890151346000046
              ],
              [
                14.122595720000069,
                45.93558020500006
              ],
              [
                14.193899638000094,
                46.00694311200003
              ],
              [
                14.20720970300009,
                46.06304370300009
              ],
              [
                14.275661464000095,
                46.10524656500013
              ],
              [
                14.346965382000054,
                46.088764915000056
              ],
              [
                14.384043420000092,
                46.159271802000085
              ],
              [
                14.415417144000088,
                46.15466196100009
              ],
              [
                14.389747733000034,
                46.19942693300004
              ],
              [
                14.247139897000084,
                46.272420877000044
              ],
              [
                14.17773741600011,
                46.272420877000044
              ],
              [
                14.152068006000086,
                46.236264842
              ],
              [
                13.975234288000056,
                46.22903077500006
              ],
              [
                13.902979651000091,
                46.23034613100004
              ],
              [
                13.800302009000102,
                46.267163299000075
              ],
              [
                13.825020701000016,
                46.34334882300007
              ],
              [
                13.910585403000011,
                46.3689391070001
              ],
              [
                13.869704489000114,
                46.41418486900005
              ],
              [
                13.764174690000106,
                46.41746208900003
              ],
              [
                13.748012469000086,
                46.44760328100005
              ],
              [
                13.690969334000034,
                46.44891338900007
              ],
              [
                13.69287077200008,
                46.50718131500007
              ],
              [
                13.888718868000085,
                46.523537486000166
              ],
              [
                14.004706575000071,
                46.51830404700011
              ],
              [
                14.051291801000048,
                46.48165585900004
              ],
              [
                14.169180946000047,
                46.482310508000054
              ],
              [
                14.229076238000085,
                46.43712127900005
              ],
              [
                14.305133750000046,
                46.44760328100005
              ],
              [
                14.312739502000099,
                46.33744167200012
              ],
              [
                14.342211788000084,
                46.31905978400005
              ],
              [
                14.373585512000046,
                46.36106645000008
              ],
              [
                14.509538316000047,
                46.35450503600001
              ],
              [
                14.53140485100004,
                46.332846779000114
              ],
              [
                14.532355570000046,
                46.30526931500002
              ],
              [
                14.473410998000078,
                46.30132854200006
              ],
              [
                14.392599890000055,
                46.24349795600007
              ],
              [
                14.452495181000062,
                46.194162357000025
              ],
              [
                14.542813478000024,
                46.18758092800011
              ],
              [
                14.55517282400008,
                46.165198174000054
              ],
              [
                14.521897662000102,
                46.14412373000003
              ],
              [
                14.593201580000093,
                46.09338027400002
              ],
              [
                14.686372033000046,
                46.07095919900007
              ],
              [
                14.718696476000051,
                46.02146872800004
              ],
              [
                14.71299216300004,
                45.997697552000034
              ],
              [
                14.641688245000083,
                46.000999715000056
              ],
              [
                14.604610207000112,
                45.97457689200007
              ],
              [
                14.604610207000112,
                45.95673435600001
              ],
              [
                14.638836088000094,
                45.930951658
              ],
              [
                14.626476742000039,
                45.885968530000085
              ],
              [
                14.603659488000103,
                45.87140736100006
              ],
              [
                14.482918187000084,
                45.89258598300007
              ],
              [
                14.472460279000073,
                45.978541119000084
              ],
              [
                14.454396619000043,
                45.991092634000054
              ],
              [
                14.435382241000102,
                45.97325542000008
              ],
              [
                14.383092701000084,
                45.96995160100007
              ],
              [
                14.339359631000029,
                45.90648006600005
              ],
              [
                14.295626561000109,
                45.88729208400014
              ],
              [
                14.251893491000056,
                45.872731261000126
              ],
              [
                14.19028903400003,
                45.87799063800007
              ],
              [
                14.244123492000034,
                45.836524963000045
              ],
              [
                14.240914816000052,
                45.81814106500005
              ],
              [
                14.314001332000048,
                45.79303973000006
              ],
              [
                14.311862214000016,
                45.74976931700009
              ],
              [
                14.332540351000048,
                45.749271761000074
              ],
              [
                14.414183337000042,
                45.659390210000026
              ],
              [
                14.50260019600009,
                45.596062840000066
              ],
              [
                14.535973336000051,
                45.61382535800005
              ],
              [
                14.578042648000075,
                45.673146918000114
              ],
              [
                14.623677156000108,
                45.66617117200007
              ],
              [
                14.615120685000017,
                45.61831405900011
              ],
              [
                14.69602494900005,
                45.585307261000054
              ],
              [
                14.696500308000088,
                45.533385399000046
              ],
              [
                14.725972594000037,
                45.537381092000096
              ],
              [
                14.798227231000103,
                45.50807275100004
              ],
              [
                14.820093766000097,
                45.47208255700012
              ],
              [
                14.905658468000093,
                45.488414292000144
              ],
              [
                14.932278598000085,
                45.53305241200007
              ],
              [
                15.028301208000093,
                45.491080248000074
              ],
              [
                15.051593821000031,
                45.502075983000054
              ],
              [
                15.164135172000082,
                45.424560305000114
              ],
              [
                15.19301325900005,
                45.43606936500011
              ],
              [
                15.221178307000066,
                45.42481052700008
              ],
              [
                15.23258693400005,
                45.44232330500004
              ],
              [
                15.26246519100007,
                45.40058204500007
              ],
              [
                15.310476496000055,
                45.38789729800005
              ],
              [
                15.333293750000056,
                45.39590904800009
              ],
              [
                15.333838498000057,
                45.45657969700011
              ],
              [
                15.381968642000091,
                45.49033046000004
              ],
              [
                15.312803842000099,
                45.52605922500005
              ],
              [
                15.29996913600007,
                45.58297846200008
              ],
              [
                15.272873647000074,
                45.6041836000001
              ],
              [
                15.310308205000103,
                45.6159053550001
              ],
              [
                15.304603891000095,
                45.63435591800011
              ],
              [
                15.344534085000126,
                45.63460520800006
              ],
              [
                15.35202099700007,
                45.649560600000115
              ],
              [
                15.386603397000082,
                45.639341514000144
              ],
              [
                15.395872907000099,
                45.65180356500004
              ],
              [
                15.347742762000069,
                45.72004637700006
              ],
              [
                15.29996913600007,
                45.69091638300008
              ],
              [
                15.288917029000048,
                45.71133386700007
              ],
              [
                15.265030216000099,
                45.69664399100008
              ],
              [
                15.242569482000023,
                45.71382329500004
              ],
              [
                15.32123325580327,
                45.743773005513376
              ],
              [
                15.30766684100011,
                45.75826308100006
              ]
            ],
            [
              [
                15.024233766000084,
                46.089341856000054
              ],
              [
                15.043842344000035,
                46.10911903800007
              ],
              [
                15.173971995000082,
                46.10911903800007
              ],
              [
                15.20605875800007,
                46.05224051800007
              ],
              [
                15.19714576800008,
                46.03120535600007
              ],
              [
                15.074146509000085,
                46.02377926900011
              ],
              [
                15.031364158000036,
                46.05718880400007
              ],
              [
                15.024233766000084,
                46.089341856000054
              ]
            ],
            [
              [
                14.787148238000052,
                46.13506582600008
              ],
              [
                14.640975205000098,
                46.12765370500004
              ],
              [
                14.61958403000007,
                46.14247694900009
              ],
              [
                14.61958403000007,
                46.164704334000135
              ],
              [
                14.710496526000078,
                46.16964253400006
              ],
              [
                14.758626671000142,
                46.20173002700004
              ],
              [
                14.95827764200004,
                46.207898551000056
              ],
              [
                14.917277889000031,
                46.174580290000115
              ],
              [
                14.787148238000052,
                46.13506582600008
              ]
            ],
            [
              [
                15.172189397000112,
                46.281866821000094
              ],
              [
                15.132972242000076,
                46.249826149000064
              ],
              [
                15.095537685000073,
                46.249826149000064
              ],
              [
                15.020668570000074,
                46.28433071200004
              ],
              [
                14.95827764200004,
                46.258454326000034
              ],
              [
                14.772887454000047,
                46.26584882600014
              ],
              [
                14.733670299000076,
                46.31388876500007
              ],
              [
                14.728322505000062,
                46.345891984000104
              ],
              [
                14.598192855000045,
                46.36434686200009
              ],
              [
                14.621366628000041,
                46.39386170300005
              ],
              [
                14.617801432000032,
                46.420902959000124
              ],
              [
                14.637410010000083,
                46.431961428000065
              ],
              [
                14.77467005200002,
                46.43441856100002
              ],
              [
                14.790713434000061,
                46.44670256300004
              ],
              [
                14.77467005200002,
                46.458983796000034
              ],
              [
                14.785365640000114,
                46.49703801800007
              ],
              [
                14.7675396600001,
                46.499492215000025
              ],
              [
                14.760409269000077,
                46.52402809500007
              ],
              [
                14.769322258000074,
                46.592669634000046
              ],
              [
                14.794278630000104,
                46.619612196000034
              ],
              [
                14.879843332000098,
                46.62573363700004
              ],
              [
                14.897669311000081,
                46.5938945870001
              ],
              [
                14.974321023000153,
                46.56571367100009
              ],
              [
                14.972538426000012,
                46.51053473200008
              ],
              [
                14.997494797000082,
                46.48599275900004
              ],
              [
                15.024233766000084,
                46.4786280080001
              ],
              [
                15.145450427000108,
                46.53751810700004
              ],
              [
                15.263101893000051,
                46.46021176700006
              ],
              [
                15.257754099000106,
                46.318813556000045
              ],
              [
                15.22388473700005,
                46.30157484900012
              ],
              [
                15.19714576800008,
                46.30650074800006
              ],
              [
                15.172189397000112,
                46.281866821000094
              ]
            ]
          ]
        ]
      }
    }
  ]
}