{
  "type": "FeatureCollection",
  "features": [
    {
      "type": "Feature",
      "properties": {
                "diocese": "Labacen",
                "province": "Aquilegien",
                "date": 1592
            },
      "geometry": {
        "type": "MultiPolygon",
        "coordinates": [
          [
            [
              [
                14.166690458531205,
                45.89024521433248
              ],
              [
                14.16666589310748,
                45.89024685517773
              ],
              [
                14.122595720000069,
                45.93558020500006
              ],
              [
                14.193899638000094,
                46.00694311200003
              ],
              [
                14.20720970300009,
                46.06304370300009
              ],
              [
                14.275661464000095,
                46.10524656500013
              ],
              [
                14.346965382000054,
                46.088764915000056
              ],
              [
                14.384043420000092,
                46.159271802000085
              ],
              [
                14.415417144000088,
                46.15466196100009
              ],
              [
                14.389747733000034,
                46.19942693300004
              ],
              [
                14.247139897000084,
                46.272420877000044
              ],
              [
                14.17773741600011,
                46.272420877000044
              ],
              [
                14.152068006000086,
                46.236264842
              ],
              [
                13.975234288000056,
                46.22903077500006
              ],
              [
                13.902979651000091,
                46.23034613100004
              ],
              [
                13.800302009000102,
                46.267163299000075
              ],
              [
                13.825020701000016,
                46.34334882300007
              ],
              [
                13.910585403000011,
                46.3689391070001
              ],
              [
                13.869704489000114,
                46.41418486900005
              ],
              [
                13.764174690000106,
                46.41746208900003
              ],
              [
                13.748012469000086,
                46.44760328100005
              ],
              [
                13.690969334000034,
                46.44891338900007
              ],
              [
                13.69287077200008,
                46.50718131500007
              ],
              [
                13.888718868000085,
                46.523537486000166
              ],
              [
                14.004706575000071,
                46.51830404700011
              ],
              [
                14.051291801000048,
                46.48165585900004
              ],
              [
                14.169180946000047,
                46.482310508000054
              ],
              [
                14.229076238000085,
                46.43712127900005
              ],
              [
                14.305133750000046,
                46.44760328100005
              ],
              [
                14.312739502000099,
                46.33744167200012
              ],
              [
                14.342211788000084,
                46.31905978400005
              ],
              [
                14.373585512000046,
                46.36106645000008
              ],
              [
                14.509538316000047,
                46.35450503600001
              ],
              [
                14.53140485100004,
                46.332846779000114
              ],
              [
                14.532355570000046,
                46.30526931500002
              ],
              [
                14.473410998000078,
                46.30132854200006
              ],
              [
                14.392599890000055,
                46.24349795600007
              ],
              [
                14.452495181000062,
                46.194162357000025
              ],
              [
                14.542813478000024,
                46.18758092800011
              ],
              [
                14.55517282400008,
                46.165198174000054
              ],
              [
                14.521897662000102,
                46.14412373000003
              ],
              [
                14.593201580000093,
                46.09338027400002
              ],
              [
                14.686372033000046,
                46.07095919900007
              ],
              [
                14.718696476000051,
                46.02146872800004
              ],
              [
                14.71299216300004,
                45.997697552000034
              ],
              [
                14.641688245000083,
                46.000999715000056
              ],
              [
                14.604610207000112,
                45.97457689200007
              ],
              [
                14.604610207000112,
                45.95673435600001
              ],
              [
                14.638836088000094,
                45.930951658
              ],
              [
                14.626476742000039,
                45.885968530000085
              ],
              [
                14.603659488000103,
                45.87140736100006
              ],
              [
                14.482918187000084,
                45.89258598300007
              ],
              [
                14.472460279000073,
                45.978541119000084
              ],
              [
                14.454396619000043,
                45.991092634000054
              ],
              [
                14.435382241000102,
                45.97325542000008
              ],
              [
                14.383092701000084,
                45.96995160100007
              ],
              [
                14.339359631000029,
                45.90648006600005
              ],
              [
                14.295626561000109,
                45.88729208400014
              ],
              [
                14.251893491000056,
                45.872731261000126
              ],
              [
                14.190468079357489,
                45.87797535230354
              ],
              [
                14.166690458531205,
                45.89024521433248
              ]
            ]
          ]
        ]
      }
    }
  ]
}