{
  "type": "FeatureCollection",
  "features": [
    {
      "type": "Feature",
      "properties": {
                "diocese": "Salutiarum",
                "province": "Taurinen",
                "date": 1748
            },
      "geometry": {
        "type": "MultiPolygon",
        "coordinates": [
          [
            [
              [
                7.538558223651435,
                44.41064309596503
              ],
              [
                7.470769782000048,
                44.35030035700004
              ],
              [
                7.367141421000042,
                44.33738198400005
              ],
              [
                7.203293003000056,
                44.35671007600007
              ],
              [
                7.110677769000063,
                44.388142679000055
              ],
              [
                7.052247346000058,
                44.37436608000007
              ],
              [
                6.937143709589283,
                44.436105623220705
              ],
              [
                6.906654926910839,
                44.455859252514074
              ],
              [
                6.902860522331737,
                44.461930299840645
              ],
              [
                6.901342760500091,
                44.46623062503029
              ],
              [
                6.893069732502574,
                44.468961693787044
              ],
              [
                6.87881184008608,
                44.47739471552119
              ],
              [
                6.871074325299081,
                44.48495835357141
              ],
              [
                6.861771919881005,
                44.49712972514645
              ],
              [
                6.857077247987768,
                44.50886640487955
              ],
              [
                6.855542661777924,
                44.516188627015794
              ],
              [
                6.854532018496325,
                44.5219492937209
              ],
              [
                6.855138404465284,
                44.53094401892713
              ],
              [
                6.859079913263518,
                44.53852384353912
              ],
              [
                6.865345901609428,
                44.544082381587906
              ],
              [
                6.874037433831175,
                44.54852921202694
              ],
              [
                6.876159784722532,
                44.552874978137815
              ],
              [
                6.879595971879966,
                44.55641222962341
              ],
              [
                6.884548123959799,
                44.55883777349924
              ],
              [
                6.892330077228107,
                44.56106118871876
              ],
              [
                6.905973761529686,
                44.564800568860676
              ],
              [
                6.911734428234797,
                44.56783249870547
              ],
              [
                6.914948370887548,
                44.570812887319306
              ],
              [
                6.916573438583471,
                44.57539789974709
              ],
              [
                6.924814853327082,
                44.57893822579892
              ],
              [
                6.932301772354728,
                44.58456792460265
              ],
              [
                6.934618850853708,
                44.58757511413319
              ],
              [
                6.93723913238585,
                44.59232327598679
              ],
              [
                6.939227118069849,
                44.59940244452005
              ],
              [
                6.939421067892678,
                44.6049785019264
              ],
              [
                6.943881913817749,
                44.612057670459656
              ],
              [
                6.947760910274333,
                44.61598515437195
              ],
              [
                6.951736881642331,
                44.61894288917009
              ],
              [
                6.957991763428573,
                44.623258272728044
              ],
              [
                6.963257038171284,
                44.62886679199906
              ],
              [
                6.955764002769686,
                44.63606010598459
              ],
              [
                6.952766788609046,
                44.6501470125396
              ],
              [
                6.955464281353622,
                44.660037819269704
              ],
              [
                6.969251466492564,
                44.6750238900729
              ],
              [
                6.98034115888693,
                44.68461497538695
              ],
              [
                6.99712555818651,
                44.69030968229217
              ],
              [
                7.023501042800137,
                44.69210801078855
              ],
              [
                7.043882099092485,
                44.687612189547586
              ],
              [
                7.062764548304513,
                44.68161776122631
              ],
              [
                7.070257583706112,
                44.68311636830663
              ],
              [
                7.072841842104319,
                44.68987584539742
              ],
              [
                7.07240083673877,
                44.69344585223814
              ],
              [
                7.069373206929222,
                44.69894043967029
              ],
              [
                7.067579055930971,
                44.70107099398071
              ],
              [
                7.068363996992706,
                44.707799060224154
              ],
              [
                7.067130518181409,
                44.70981748009718
              ],
              [
                7.066009173807503,
                44.71262084103195
              ],
              [
                7.060963124124923,
                44.7180032940267
              ],
              [
                7.045488571765011,
                44.727534721204904
              ],
              [
                7.03506006908768,
                44.734262787448344
              ],
              [
                7.030238288279882,
                44.73897243381875
              ],
              [
                7.027434927345115,
                44.7444670212509
              ],
              [
                7.027322792907724,
                44.7516436252439
              ],
              [
                7.029076079756594,
                44.7575779390239
              ],
              [
                7.030268694418506,
                44.77069670030495
              ],
              [
                7.026926148005413,
                44.783707637972284
              ],
              [
                7.022172384757027,
                44.790743207579894
              ],
              [
                7.017418621508641,
                44.79483144397351
              ],
              [
                7.011428879815675,
                44.79853937930724
              ],
              [
                7.014661438824577,
                44.80300791676073
              ],
              [
                7.028447352244896,
                44.81413172276195
              ],
              [
                7.032345438108573,
                44.818029808625624
              ],
              [
                7.03415186814296,
                44.82040669024982
              ],
              [
                7.033783592133692,
                44.82362910533091
              ],
              [
                7.104079399459864,
                44.79730725640832
              ],
              [
                7.206196789522308,
                44.784674177225334
              ],
              [
                7.265151159042895,
                44.80572930919697
              ],
              [
                7.318841745570571,
                44.8331009807601
              ],
              [
                7.352529956725192,
                44.85520886933032
              ],
              [
                7.374637845295412,
                44.87521124470337
              ],
              [
                7.390429194274141,
                44.8973191332736
              ],
              [
                7.404115030055705,
                44.915215995449486
              ],
              [
                7.417844215355487,
                44.93298772762073
              ],
              [
                7.69674545073729,
                44.81372075331974
              ],
              [
                7.538558223651435,
                44.41064309596503
              ]
            ]
          ],
          [
            [
              [
                7.030824233869089,
                44.82592105561795
              ],
              [
                7.030179544503818,
                44.826172887401256
              ],
              [
                7.030851563537426,
                44.825914418542176
              ],
              [
                7.031177497325851,
                44.82565895692422
              ],
              [
                7.030824233869089,
                44.82592105561795
              ]
            ]
          ],
          [
            [
              [
                7.018179223628383,
                44.8334320015504
              ],
              [
                7.012378893082421,
                44.8405620169008
              ],
              [
                7.005243051460904,
                44.84758104253388
              ],
              [
                6.995649652758087,
                44.85002192772893
              ],
              [
                6.989743009076493,
                44.850464926005046
              ],
              [
                6.969512754467035,
                44.85858656106724
              ],
              [
                6.952678819974492,
                44.86331187601252
              ],
              [
                6.936878548126229,
                44.8636072081966
              ],
              [
                6.929052245248117,
                44.86094921853988
              ],
              [
                6.920635278001846,
                44.85563323922644
              ],
              [
                6.904712708436194,
                44.85327788416115
              ],
              [
                6.88797884381489,
                44.854923838058326
              ],
              [
                6.864112512305819,
                44.86041035104892
              ],
              [
                6.847378647684515,
                44.86617118968904
              ],
              [
                6.82543259572215,
                44.880710449114105
              ],
              [
                6.803212218110255,
                44.89168347509529
              ],
              [
                6.781533508087127,
                44.89710664445623
              ],
              [
                6.777974065915141,
                44.90141544287495
              ],
              [
                6.759989515993529,
                44.90890900534229
              ],
              [
                6.748936511354204,
                44.915278533439526
              ],
              [
                6.745564408243902,
                44.92221007872181
              ],
              [
                6.749097753260454,
                44.92591892262213
              ],
              [
                6.750126601610447,
                44.93117809939078
              ],
              [
                6.745295611628626,
                44.94330014151049
              ],
              [
                6.744830043265544,
                44.94663671477924
              ],
              [
                6.746304343081968,
                44.94966290913926
              ],
              [
                6.749408132169175,
                44.95245631931775
              ],
              [
                6.753170338135027,
                44.956695908801656
              ],
              [
                6.755732497805122,
                44.96388868183284
              ],
              [
                6.754886293807626,
                44.974043129802794
              ],
              [
                6.741911165846026,
                44.99801890973183
              ],
              [
                6.748680797825991,
                45.00648094970679
              ],
              [
                6.74755252582933,
                45.015225057680915
              ],
              [
                6.737116009860217,
                45.02312296165754
              ],
              [
                6.726679493891103,
                45.02622570964836
              ],
              [
                6.711983081738708,
                45.0276280958452
              ],
              [
                6.690941144073972,
                45.026740175009735
              ],
              [
                6.676438437094652,
                45.02792406945703
              ],
              [
                6.670666951664107,
                45.030439845157524
              ],
              [
                6.664599492621739,
                45.03369555488757
              ],
              [
                6.660899822473954,
                45.03961502712403
              ],
              [
                6.659271967608928,
                45.049826116731914
              ],
              [
                6.66060384886213,
                45.0677325202472
              ],
              [
                6.658975993997105,
                45.072616084842274
              ],
              [
                6.65527632384932,
                45.077055689019616
              ],
              [
                6.650766536384496,
                45.07986655775256
              ],
              [
                6.643198227513932,
                45.08204135915215
              ],
              [
                6.64210451164577,
                45.08533096803367
              ],
              [
                6.639127266308037,
                45.08971848747875
              ],
              [
                6.627531679203183,
                45.10037389184537
              ],
              [
                6.625002889051451,
                45.104910539141315
              ],
              [
                6.625612988712023,
                45.10836777055121
              ],
              [
                6.62894195331053,
                45.11212617607327
              ],
              [
                6.632324084978303,
                45.11538391664778
              ],
              [
                6.63715404062449,
                45.11828189003549
              ],
              [
                6.644729444743246,
                45.121027338508064
              ],
              [
                6.661913918515995,
                45.125043827940154
              ],
              [
                6.666235868593711,
                45.126855705638896
              ],
              [
                6.672042056097441,
                45.129534036648366
              ],
              [
                6.675996285062111,
                45.132852764529424
              ],
              [
                6.678750123091079,
                45.137724939503755
              ],
              [
                6.68630552486286,
                45.14054938876423
              ],
              [
                6.694920095107321,
                45.1427383369411
              ],
              [
                6.706359114612261,
                45.143868116645294
              ],
              [
                6.720057693525584,
                45.14337383802471
              ],
              [
                6.733441075923356,
                45.14179717173957
              ],
              [
                6.738608169741978,
                45.14404078495495
              ],
              [
                6.742899641000723,
                45.14719866003214
              ],
              [
                6.755681618555763,
                45.157154894045576
              ],
              [
                6.760869652256101,
                45.16026771426578
              ],
              [
                6.766472728652467,
                45.1621354063979
              ],
              [
                6.771557001678798,
                45.16255044909393
              ],
              [
                6.777263838749169,
                45.16120156033184
              ],
              [
                6.785045889299677,
                45.1575699367416
              ],
              [
                6.788620540290478,
                45.155627318818794
              ],
              [
                6.794677491008045,
                45.153574446324335
              ],
              [
                6.801140237749879,
                45.15228189697597
              ],
              [
                6.813533505031279,
                45.15026704063881
              ],
              [
                6.819578074042759,
                45.14893647513314
              ],
              [
                6.825432562267715,
                45.14699765111059
              ],
              [
                6.829994501144304,
                45.14456461704307
              ],
              [
                6.834203576072014,
                45.14066818014126
              ],
              [
                6.836609312515358,
                45.136125030121384
              ],
              [
                6.840496747015261,
                45.133343056380134
              ],
              [
                6.845164474061998,
                45.131392755854485
              ],
              [
                6.849735011634502,
                45.130648562532855
              ],
              [
                6.855245491410761,
                45.13064190899536
              ],
              [
                6.859743131638679,
                45.13111047576382
              ],
              [
                6.881837981186363,
                45.135267694842476
              ],
              [
                6.887072997803934,
                45.13565262253494
              ],
              [
                6.89456964677538,
                45.138235695200294
              ],
              [
                6.89833884410018,
                45.14127750356768
              ],
              [
                6.898768664847744,
                45.144550753876054
              ],
              [
                6.897350452190464,
                45.147726805027574
              ],
              [
                6.89145605675728,
                45.1543794206017
              ],
              [
                6.888903839743761,
                45.1577376049644
              ],
              [
                6.888434583496722,
                45.15938000182904
              ],
              [
                7.082195549350898,
                45.0765216950043
              ],
              [
                7.049418713612239,
                45.090525013266564
              ],
              [
                7.002451801866844,
                45.07609022846408
              ],
              [
                6.979399235092727,
                45.07113500383039
              ],
              [
                6.942558217164001,
                45.05799288632365
              ],
              [
                6.92920065510797,
                45.04097276692968
              ],
              [
                6.916058537601232,
                45.002839081705204
              ],
              [
                6.908517978376054,
                44.97396951210024
              ],
              [
                6.922433259840655,
                44.95781956715696
              ],
              [
                6.955370686681705,
                44.93017565534394
              ],
              [
                7.003840195618523,
                44.863449303341284
              ],
              [
                7.006845846473721,
                44.84607750016366
              ],
              [
                7.012740860812158,
                44.84026185836349
              ],
              [
                7.018150551236589,
                44.83359774697107
              ],
              [
                7.023474926166571,
                44.82928753869442
              ],
              [
                7.018179223628383,
                44.8334320015504
              ]
            ]
          ]
        ]
      }
    }
  ]
}