{
    "type": "FeatureCollection",
    "features": [
        {
            "type": "Feature",
            "properties": {
                "diocese": "Noviomen",
                "province": "Remen",
                "date": 1592
            },
            "geometry": {
                "type": "Polygon",
                "coordinates": [
                    [
                        [
                            2.832301226456035,
                            50.02485653502665
                        ],
                        [
                            2.831317314571292,
                            50.019417928198315
                        ],
                        [
                            2.830333402686549,
                            50.013979321369995
                        ],
                        [
                            2.8293494908018073,
                            50.00854071454167
                        ],
                        [
                            2.8283655789170674,
                            50.00310210771335
                        ],
                        [
                            2.8273816670323244,
                            49.997663500885025
                        ],
                        [
                            2.8263977551475814,
                            49.9922248940567
                        ],
                        [
                            2.8254138432628397,
                            49.98678628722838
                        ],
                        [
                            2.824429931378098,
                            49.98134768040005
                        ],
                        [
                            2.8234460194933537,
                            49.97590907357173
                        ],
                        [
                            2.822462107608612,
                            49.9704704667434
                        ],
                        [
                            2.822462107608612,
                            49.9704704667434
                        ],
                        [
                            2.819919681747665,
                            49.96846369488043
                        ],
                        [
                            2.8173772558867163,
                            49.96645692301747
                        ],
                        [
                            2.81483483002577,
                            49.964450151154495
                        ],
                        [
                            2.812292404164823,
                            49.96244337929152
                        ],
                        [
                            2.809749978303875,
                            49.96043660742855
                        ],
                        [
                            2.8072075524429283,
                            49.95842983556558
                        ],
                        [
                            2.8046651265819817,
                            49.95642306370261
                        ],
                        [
                            2.8021227007210348,
                            49.95441629183964
                        ],
                        [
                            2.799580274860086,
                            49.952409519976676
                        ],
                        [
                            2.7970378489991394,
                            49.950402748113696
                        ],
                        [
                            2.7970378489991394,
                            49.950402748113696
                        ],
                        [
                            2.794493081775181,
                            49.94714187796923
                        ],
                        [
                            2.7919483145512234,
                            49.94388100782475
                        ],
                        [
                            2.789403547327265,
                            49.940620137680284
                        ],
                        [
                            2.7868587801033065,
                            49.93735926753581
                        ],
                        [
                            2.7843140128793498,
                            49.934098397391345
                        ],
                        [
                            2.7817692456553926,
                            49.93083752724686
                        ],
                        [
                            2.7792244784314337,
                            49.92757665710239
                        ],
                        [
                            2.7766797112074735,
                            49.92431578695792
                        ],
                        [
                            2.7741349439835163,
                            49.92105491681344
                        ],
                        [
                            2.7715901767595574,
                            49.91779404666897
                        ],
                        [
                            2.7715901767595574,
                            49.91779404666897
                        ],
                        [
                            2.773943052438419,
                            49.91528749405107
                        ],
                        [
                            2.776295928117276,
                            49.912780941433184
                        ],
                        [
                            2.7786488037961354,
                            49.91027438881529
                        ],
                        [
                            2.781001679474997,
                            49.907767836197394
                        ],
                        [
                            2.783354555153858,
                            49.9052612835795
                        ],
                        [
                            2.785707430832716,
                            49.902754730961604
                        ],
                        [
                            2.7880603065115754,
                            49.90024817834371
                        ],
                        [
                            2.7904131821904348,
                            49.89774162572582
                        ],
                        [
                            2.792766057869294,
                            49.89523507310792
                        ],
                        [
                            2.7951189335481534,
                            49.89272852049003
                        ],
                        [
                            2.7951189335481534,
                            49.89272852049003
                        ],
                        [
                            2.791845781857821,
                            49.88833834527985
                        ],
                        [
                            2.788572630167489,
                            49.88394817006967
                        ],
                        [
                            2.7852994784771568,
                            49.8795579948595
                        ],
                        [
                            2.782026326786826,
                            49.87516781964932
                        ],
                        [
                            2.778753175096492,
                            49.870777644439144
                        ],
                        [
                            2.77548002340616,
                            49.86638746922897
                        ],
                        [
                            2.7722068717158277,
                            49.86199729401879
                        ],
                        [
                            2.7689337200254953,
                            49.857607118808616
                        ],
                        [
                            2.765660568335163,
                            49.85321694359844
                        ],
                        [
                            2.762387416644831,
                            49.84882676838826
                        ],
                        [
                            2.762387416644831,
                            49.84882676838826
                        ],
                        [
                            2.7678169011589846,
                            49.84331178027085
                        ],
                        [
                            2.7732463856731386,
                            49.83779679215344
                        ],
                        [
                            2.7786758701872905,
                            49.832281804036036
                        ],
                        [
                            2.784105354701444,
                            49.82676681591861
                        ],
                        [
                            2.7895348392155985,
                            49.821251827801206
                        ],
                        [
                            2.7949643237297486,
                            49.8157368396838
                        ],
                        [
                            2.8003938082439026,
                            49.81022185156639
                        ],
                        [
                            2.805823292758058,
                            49.804706863448985
                        ],
                        [
                            2.811252777272212,
                            49.79919187533156
                        ],
                        [
                            2.816682261786362,
                            49.793676887214154
                        ],
                        [
                            2.816682261786362,
                            49.793676887214154
                        ],
                        [
                            2.81885566453233,
                            49.79179627760291
                        ],
                        [
                            2.8210290672782974,
                            49.78991566799168
                        ],
                        [
                            2.82320247002426,
                            49.78803505838044
                        ],
                        [
                            2.8253758727702287,
                            49.7861544487692
                        ],
                        [
                            2.8275492755161955,
                            49.78427383915797
                        ],
                        [
                            2.829722678262162,
                            49.782393229546734
                        ],
                        [
                            2.831896081008129,
                            49.78051261993549
                        ],
                        [
                            2.8340694837540936,
                            49.77863201032425
                        ],
                        [
                            2.83624288650006,
                            49.77675140071301
                        ],
                        [
                            2.838416289246027,
                            49.774870791101776
                        ],
                        [
                            2.838416289246027,
                            49.774870791101776
                        ],
                        [
                            2.8367768261880904,
                            49.77161014141963
                        ],
                        [
                            2.835137363130149,
                            49.76834949173747
                        ],
                        [
                            2.8334979000722105,
                            49.76508884205531
                        ],
                        [
                            2.8318584370142705,
                            49.76182819237316
                        ],
                        [
                            2.8302189739563324,
                            49.758567542691004
                        ],
                        [
                            2.828579510898394,
                            49.75530689300885
                        ],
                        [
                            2.8269400478404543,
                            49.7520462433267
                        ],
                        [
                            2.8253005847825174,
                            49.74878559364454
                        ],
                        [
                            2.823661121724578,
                            49.745524943962394
                        ],
                        [
                            2.8220216586666393,
                            49.74226429428023
                        ],
                        [
                            2.8220216586666393,
                            49.74226429428023
                        ],
                        [
                            2.8203835365377885,
                            49.73887866505311
                        ],
                        [
                            2.818745414408937,
                            49.73549303582598
                        ],
                        [
                            2.817107292280084,
                            49.73210740659885
                        ],
                        [
                            2.815469170151233,
                            49.728721777371724
                        ],
                        [
                            2.8138310480223816,
                            49.72533614814459
                        ],
                        [
                            2.8121929258935303,
                            49.72195051891746
                        ],
                        [
                            2.810554803764679,
                            49.71856488969033
                        ],
                        [
                            2.8089166816358264,
                            49.715179260463195
                        ],
                        [
                            2.8072785595069747,
                            49.71179363123606
                        ],
                        [
                            2.805640437378124,
                            49.708408002008944
                        ],
                        [
                            2.805640437378124,
                            49.708408002008944
                        ],
                        [
                            2.8074415421717713,
                            49.70176299055969
                        ],
                        [
                            2.809242646965419,
                            49.69511797911045
                        ],
                        [
                            2.8110437517590667,
                            49.6884729676612
                        ],
                        [
                            2.8128448565527147,
                            49.681827956211954
                        ],
                        [
                            2.8146459613463644,
                            49.6751829447627
                        ],
                        [
                            2.8164470661400114,
                            49.66853793331346
                        ],
                        [
                            2.8182481709336593,
                            49.66189292186421
                        ],
                        [
                            2.820049275727309,
                            49.655247910414964
                        ],
                        [
                            2.821850380520957,
                            49.64860289896571
                        ],
                        [
                            2.8236514853146044,
                            49.64195788751647
                        ],
                        [
                            2.8236514853146044,
                            49.64195788751647
                        ],
                        [
                            2.8207476516016166,
                            49.64082911152672
                        ],
                        [
                            2.817843817888629,
                            49.63970033553698
                        ],
                        [
                            2.814939984175641,
                            49.63857155954723
                        ],
                        [
                            2.8120361504626534,
                            49.63744278355748
                        ],
                        [
                            2.809132316749665,
                            49.636314007567734
                        ],
                        [
                            2.8062284830366795,
                            49.63518523157799
                        ],
                        [
                            2.803324649323691,
                            49.63405645558824
                        ],
                        [
                            2.8004208156107038,
                            49.632927679598495
                        ],
                        [
                            2.7975169818977155,
                            49.63179890360875
                        ],
                        [
                            2.794613148184728,
                            49.630670127619005
                        ],
                        [
                            2.794613148184728,
                            49.630670127619005
                        ],
                        [
                            2.7973235082062056,
                            49.62603148045154
                        ],
                        [
                            2.800033868227683,
                            49.62139283328406
                        ],
                        [
                            2.802744228249161,
                            49.6167541861166
                        ],
                        [
                            2.80545458827064,
                            49.61211553894913
                        ],
                        [
                            2.808164948292116,
                            49.607476891781666
                        ],
                        [
                            2.8108753083135936,
                            49.6028382446142
                        ],
                        [
                            2.813585668335073,
                            49.59819959744673
                        ],
                        [
                            2.816296028356548,
                            49.593560950279254
                        ],
                        [
                            2.819006388378028,
                            49.58892230311179
                        ],
                        [
                            2.821716748399506,
                            49.584283655944326
                        ],
                        [
                            2.821716748399506,
                            49.584283655944326
                        ],
                        [
                            2.821345417406589,
                            49.58002025679538
                        ],
                        [
                            2.8209740864136745,
                            49.57575685764643
                        ],
                        [
                            2.8206027554207598,
                            49.57149345849748
                        ],
                        [
                            2.820231424427845,
                            49.56723005934853
                        ],
                        [
                            2.819860093434929,
                            49.562966660199585
                        ],
                        [
                            2.8194887624420137,
                            49.55870326105063
                        ],
                        [
                            2.8191174314490977,
                            49.554439861901685
                        ],
                        [
                            2.8187461004561847,
                            49.55017646275274
                        ],
                        [
                            2.81837476946327,
                            49.545913063603784
                        ],
                        [
                            2.8180034384703534,
                            49.54164966445483
                        ],
                        [
                            2.8180034384703534,
                            49.54164966445483
                        ],
                        [
                            2.8219864176772407,
                            49.53751339838738
                        ],
                        [
                            2.8259693968841284,
                            49.53337713231994
                        ],
                        [
                            2.8299523760910157,
                            49.5292408662525
                        ],
                        [
                            2.833935355297903,
                            49.52510460018506
                        ],
                        [
                            2.8379183345047907,
                            49.52096833411762
                        ],
                        [
                            2.841901313711676,
                            49.51683206805017
                        ],
                        [
                            2.8458842929185635,
                            49.51269580198273
                        ],
                        [
                            2.849867272125453,
                            49.50855953591529
                        ],
                        [
                            2.8538502513323385,
                            49.50442326984785
                        ],
                        [
                            2.8578332305392258,
                            49.5002870037804
                        ],
                        [
                            2.8578332305392258,
                            49.5002870037804
                        ],
                        [
                            2.8618213233729635,
                            49.49966095021767
                        ],
                        [
                            2.8658094162066985,
                            49.499034896654926
                        ],
                        [
                            2.869797509040437,
                            49.49840884309219
                        ],
                        [
                            2.8737856018741725,
                            49.49778278952945
                        ],
                        [
                            2.87777369470791,
                            49.49715673596671
                        ],
                        [
                            2.8817617875416466,
                            49.49653068240398
                        ],
                        [
                            2.885749880375384,
                            49.49590462884124
                        ],
                        [
                            2.889737973209119,
                            49.4952785752785
                        ],
                        [
                            2.8937260660428556,
                            49.49465252171576
                        ],
                        [
                            2.897714158876593,
                            49.494026468153024
                        ],
                        [
                            2.897714158876593,
                            49.494026468153024
                        ],
                        [
                            2.8993430856545315,
                            49.49264778615961
                        ],
                        [
                            2.9009720124324683,
                            49.49126910416621
                        ],
                        [
                            2.902600939210408,
                            49.48989042217279
                        ],
                        [
                            2.9042298659883468,
                            49.48851174017939
                        ],
                        [
                            2.9058587927662853,
                            49.487133058185975
                        ],
                        [
                            2.9074877195442235,
                            49.48575437619257
                        ],
                        [
                            2.9091166463221603,
                            49.48437569419916
                        ],
                        [
                            2.9107455731001006,
                            49.482997012205736
                        ],
                        [
                            2.9123744998780405,
                            49.481618330212335
                        ],
                        [
                            2.914003426655979,
                            49.48023964821892
                        ],
                        [
                            2.914003426655979,
                            49.48023964821892
                        ],
                        [
                            2.92035258801657,
                            49.480491203441275
                        ],
                        [
                            2.9267017493771603,
                            49.48074275866362
                        ],
                        [
                            2.933050910737751,
                            49.480994313885965
                        ],
                        [
                            2.939400072098342,
                            49.48124586910831
                        ],
                        [
                            2.945749233458932,
                            49.48149742433066
                        ],
                        [
                            2.9520983948195245,
                            49.481748979553
                        ],
                        [
                            2.9584475561801153,
                            49.48200053477535
                        ],
                        [
                            2.964796717540706,
                            49.482252089997694
                        ],
                        [
                            2.9711458789012983,
                            49.48250364522005
                        ],
                        [
                            2.977495040261887,
                            49.482755200442384
                        ],
                        [
                            2.977495040261887,
                            49.482755200442384
                        ],
                        [
                            2.984381481281073,
                            49.480374764589804
                        ],
                        [
                            2.9912679223002576,
                            49.47799432873723
                        ],
                        [
                            2.998154363319444,
                            49.47561389288465
                        ],
                        [
                            3.00504080433863,
                            49.47323345703207
                        ],
                        [
                            3.011927245357816,
                            49.470853021179494
                        ],
                        [
                            3.018813686377,
                            49.46847258532692
                        ],
                        [
                            3.025700127396186,
                            49.46609214947434
                        ],
                        [
                            3.0325865684153723,
                            49.46371171362176
                        ],
                        [
                            3.039473009434557,
                            49.461331277769176
                        ],
                        [
                            3.046359450453743,
                            49.4589508419166
                        ],
                        [
                            3.046359450453743,
                            49.4589508419166
                        ],
                        [
                            3.047815766288372,
                            49.46183542332362
                        ],
                        [
                            3.049272082123005,
                            49.46472000473064
                        ],
                        [
                            3.050728397957634,
                            49.467604586137654
                        ],
                        [
                            3.0521847137922653,
                            49.47048916754467
                        ],
                        [
                            3.053641029626896,
                            49.473373748951694
                        ],
                        [
                            3.0550973454615273,
                            49.476258330358704
                        ],
                        [
                            3.056553661296159,
                            49.47914291176572
                        ],
                        [
                            3.0580099771307876,
                            49.48202749317273
                        ],
                        [
                            3.05946629296542,
                            49.48491207457975
                        ],
                        [
                            3.0609226088000496,
                            49.48779665598677
                        ],
                        [
                            3.0609226088000496,
                            49.48779665598677
                        ],
                        [
                            3.066184720716754,
                            49.48917705773787
                        ],
                        [
                            3.0714468326334576,
                            49.49055745948897
                        ],
                        [
                            3.0767089445501603,
                            49.49193786124007
                        ],
                        [
                            3.081971056466864,
                            49.493318262991174
                        ],
                        [
                            3.0872331683835683,
                            49.49469866474227
                        ],
                        [
                            3.09249528030027,
                            49.49607906649338
                        ],
                        [
                            3.0977573922169745,
                            49.49745946824447
                        ],
                        [
                            3.103019504133679,
                            49.49883986999557
                        ],
                        [
                            3.1082816160503826,
                            49.50022027174668
                        ],
                        [
                            3.1135437279670835,
                            49.50160067349778
                        ],
                        [
                            3.1135437279670835,
                            49.50160067349778
                        ],
                        [
                            3.1150047205844946,
                            49.5068674105348
                        ],
                        [
                            3.1164657132018996,
                            49.512134147571835
                        ],
                        [
                            3.117926705819308,
                            49.51740088460886
                        ],
                        [
                            3.1193876984367166,
                            49.522667621645894
                        ],
                        [
                            3.120848691054125,
                            49.52793435868292
                        ],
                        [
                            3.122309683671532,
                            49.533201095719946
                        ],
                        [
                            3.1237706762889412,
                            49.53846783275697
                        ],
                        [
                            3.125231668906349,
                            49.543734569794
                        ],
                        [
                            3.1266926615237582,
                            49.54900130683103
                        ],
                        [
                            3.128153654141166,
                            49.554268043868056
                        ],
                        [
                            3.128153654141166,
                            49.554268043868056
                        ],
                        [
                            3.132507754560836,
                            49.55514721656411
                        ],
                        [
                            3.1368618549805114,
                            49.556026389260154
                        ],
                        [
                            3.1412159554001824,
                            49.5569055619562
                        ],
                        [
                            3.1455700558198543,
                            49.55778473465225
                        ],
                        [
                            3.149924156239529,
                            49.55866390734829
                        ],
                        [
                            3.154278256659199,
                            49.55954308004434
                        ],
                        [
                            3.158632357078871,
                            49.560422252740395
                        ],
                        [
                            3.1629864574985436,
                            49.56130142543643
                        ],
                        [
                            3.1673405579182172,
                            49.562180598132485
                        ],
                        [
                            3.171694658337889,
                            49.56305977082854
                        ],
                        [
                            3.171694658337889,
                            49.56305977082854
                        ],
                        [
                            3.1716962404842994,
                            49.56305977122339
                        ],
                        [
                            3.1716978226307107,
                            49.56305977161823
                        ],
                        [
                            3.1716994047771236,
                            49.56305977201308
                        ],
                        [
                            3.171700986923535,
                            49.56305977240792
                        ],
                        [
                            3.171702569069945,
                            49.56305977280277
                        ],
                        [
                            3.1717041512163564,
                            49.563059773197615
                        ],
                        [
                            3.1717057333627676,
                            49.563059773592464
                        ],
                        [
                            3.1717073155091797,
                            49.56305977398731
                        ],
                        [
                            3.171708897655591,
                            49.56305977438216
                        ],
                        [
                            3.171710479802002,
                            49.56305977477701
                        ],
                        [
                            3.171710479802002,
                            49.56305977477701
                        ],
                        [
                            3.176063075124143,
                            49.563937880576205
                        ],
                        [
                            3.1804156704462856,
                            49.564815986375415
                        ],
                        [
                            3.1847682657684317,
                            49.56569409217462
                        ],
                        [
                            3.1891208610905735,
                            49.56657219797382
                        ],
                        [
                            3.193473456412717,
                            49.56745030377302
                        ],
                        [
                            3.1978260517348596,
                            49.568328409572224
                        ],
                        [
                            3.2021786470570013,
                            49.569206515371434
                        ],
                        [
                            3.2065312423791466,
                            49.570084621170636
                        ],
                        [
                            3.210883837701289,
                            49.57096272696983
                        ],
                        [
                            3.2152364330234326,
                            49.57184083276904
                        ],
                        [
                            3.2152364330234326,
                            49.57184083276904
                        ],
                        [
                            3.2188639228334153,
                            49.572468786909816
                        ],
                        [
                            3.2224914126434006,
                            49.5730967410506
                        ],
                        [
                            3.2261189024533823,
                            49.57372469519138
                        ],
                        [
                            3.229746392263365,
                            49.574352649332155
                        ],
                        [
                            3.233373882073352,
                            49.57498060347294
                        ],
                        [
                            3.2370013718833346,
                            49.57560855761372
                        ],
                        [
                            3.240628861693318,
                            49.5762365117545
                        ],
                        [
                            3.2442563515033034,
                            49.57686446589528
                        ],
                        [
                            3.247883841313286,
                            49.57749242003606
                        ],
                        [
                            3.2515113311232686,
                            49.578120374176834
                        ],
                        [
                            3.2515113311232686,
                            49.578120374176834
                        ],
                        [
                            3.2587716857368156,
                            49.58138242663321
                        ],
                        [
                            3.2660320403503653,
                            49.5846444790896
                        ],
                        [
                            3.2732923949639123,
                            49.587906531545975
                        ],
                        [
                            3.2805527495774602,
                            49.59116858400236
                        ],
                        [
                            3.287813104191008,
                            49.59443063645874
                        ],
                        [
                            3.2950734588045543,
                            49.59769268891512
                        ],
                        [
                            3.302333813418103,
                            49.60095474137151
                        ],
                        [
                            3.309594168031651,
                            49.60421679382789
                        ],
                        [
                            3.316854522645199,
                            49.607478846284266
                        ],
                        [
                            3.3241148772587477,
                            49.610740898740644
                        ],
                        [
                            3.3241148772587477,
                            49.610740898740644
                        ],
                        [
                            3.3253926100710065,
                            49.61475349234538
                        ],
                        [
                            3.3266703428832645,
                            49.618766085950114
                        ],
                        [
                            3.327948075695524,
                            49.622778679554834
                        ],
                        [
                            3.3292258085077813,
                            49.62679127315957
                        ],
                        [
                            3.330503541320041,
                            49.630803866764296
                        ],
                        [
                            3.3317812741323025,
                            49.634816460369024
                        ],
                        [
                            3.3330590069445596,
                            49.63882905397376
                        ],
                        [
                            3.3343367397568193,
                            49.642841647578486
                        ],
                        [
                            3.3356144725690773,
                            49.64685424118321
                        ],
                        [
                            3.336892205381336,
                            49.65086683478795
                        ],
                        [
                            3.336892205381336,
                            49.65086683478795
                        ],
                        [
                            3.341428837816196,
                            49.65262306711466
                        ],
                        [
                            3.345965470251056,
                            49.65437929944137
                        ],
                        [
                            3.3505021026859167,
                            49.65613553176808
                        ],
                        [
                            3.3550387351207758,
                            49.65789176409479
                        ],
                        [
                            3.3595753675556366,
                            49.65964799642151
                        ],
                        [
                            3.3641119999904956,
                            49.66140422874822
                        ],
                        [
                            3.3686486324253546,
                            49.66316046107493
                        ],
                        [
                            3.373185264860217,
                            49.66491669340165
                        ],
                        [
                            3.377721897295076,
                            49.66667292572836
                        ],
                        [
                            3.382258529729937,
                            49.668429158055076
                        ],
                        [
                            3.382258529729937,
                            49.668429158055076
                        ],
                        [
                            3.383360422383794,
                            49.674949914109405
                        ],
                        [
                            3.3844623150376516,
                            49.68147067016374
                        ],
                        [
                            3.3855642076915093,
                            49.68799142621808
                        ],
                        [
                            3.386666100345367,
                            49.69451218227242
                        ],
                        [
                            3.387767992999225,
                            49.70103293832675
                        ],
                        [
                            3.3888698856530843,
                            49.70755369438108
                        ],
                        [
                            3.3899717783069403,
                            49.71407445043542
                        ],
                        [
                            3.3910736709608,
                            49.72059520648975
                        ],
                        [
                            3.3921755636146576,
                            49.72711596254409
                        ],
                        [
                            3.3932774562685144,
                            49.733636718598426
                        ],
                        [
                            3.3932774562685144,
                            49.733636718598426
                        ],
                        [
                            3.3907409488627054,
                            49.73551617107045
                        ],
                        [
                            3.3882044414568937,
                            49.737395623542476
                        ],
                        [
                            3.385667934051084,
                            49.73927507601451
                        ],
                        [
                            3.383131426645274,
                            49.74115452848654
                        ],
                        [
                            3.3805949192394658,
                            49.74303398095857
                        ],
                        [
                            3.378058411833654,
                            49.7449134334306
                        ],
                        [
                            3.3755219044278424,
                            49.74679288590262
                        ],
                        [
                            3.3729853970220334,
                            49.748672338374654
                        ],
                        [
                            3.3704488896162244,
                            49.75055179084668
                        ],
                        [
                            3.3679123822104136,
                            49.75243124331871
                        ],
                        [
                            3.3679123822104136,
                            49.75243124331871
                        ],
                        [
                            3.365376007546405,
                            49.753559728147536
                        ],
                        [
                            3.3628396328824004,
                            49.75468821297636
                        ],
                        [
                            3.360303258218394,
                            49.755816697805194
                        ],
                        [
                            3.357766883554388,
                            49.75694518263403
                        ],
                        [
                            3.3552305088903824,
                            49.758073667462845
                        ],
                        [
                            3.352694134226374,
                            49.75920215229168
                        ],
                        [
                            3.3501577595623693,
                            49.7603306371205
                        ],
                        [
                            3.3476213848983627,
                            49.76145912194933
                        ],
                        [
                            3.3450850102343552,
                            49.76258760677816
                        ],
                        [
                            3.3425486355703495,
                            49.76371609160698
                        ],
                        [
                            3.3425486355703495,
                            49.76371609160698
                        ],
                        [
                            3.343094434376495,
                            49.76471929923562
                        ],
                        [
                            3.343640233182645,
                            49.76572250686427
                        ],
                        [
                            3.3441860319887904,
                            49.76672571449291
                        ],
                        [
                            3.3447318307949394,
                            49.76772892212155
                        ],
                        [
                            3.345277629601083,
                            49.768732129750184
                        ],
                        [
                            3.3458234284072312,
                            49.76973533737882
                        ],
                        [
                            3.3463692272133803,
                            49.77073854500746
                        ],
                        [
                            3.346915026019524,
                            49.7717417526361
                        ],
                        [
                            3.347460824825673,
                            49.772744960264745
                        ],
                        [
                            3.348006623631821,
                            49.77374816789339
                        ],
                        [
                            3.348006623631821,
                            49.77374816789339
                        ],
                        [
                            3.353087490806827,
                            49.774877487193095
                        ],
                        [
                            3.3581683579818358,
                            49.776006806492816
                        ],
                        [
                            3.3632492251568427,
                            49.777136125792545
                        ],
                        [
                            3.3683300923318495,
                            49.77826544509226
                        ],
                        [
                            3.373410959506858,
                            49.77939476439198
                        ],
                        [
                            3.378491826681866,
                            49.7805240836917
                        ],
                        [
                            3.383572693856873,
                            49.78165340299142
                        ],
                        [
                            3.388653561031879,
                            49.78278272229113
                        ],
                        [
                            3.3937344282068875,
                            49.78391204159085
                        ],
                        [
                            3.398815295381896,
                            49.785041360890574
                        ],
                        [
                            3.398815295381896,
                            49.785041360890574
                        ],
                        [
                            3.402634969540904,
                            49.790809689018204
                        ],
                        [
                            3.406454643699911,
                            49.79657801714583
                        ],
                        [
                            3.4102743178589194,
                            49.80234634527346
                        ],
                        [
                            3.414093992017927,
                            49.80811467340109
                        ],
                        [
                            3.4179136661769314,
                            49.813883001528716
                        ],
                        [
                            3.42173334033594,
                            49.819651329656345
                        ],
                        [
                            3.4255530144949478,
                            49.825419657783975
                        ],
                        [
                            3.4293726886539537,
                            49.831187985911605
                        ],
                        [
                            3.4331923628129624,
                            49.836956314039234
                        ],
                        [
                            3.4370120369719683,
                            49.842724642166864
                        ],
                        [
                            3.4370120369719683,
                            49.842724642166864
                        ],
                        [
                            3.4377441626883543,
                            49.84661211425854
                        ],
                        [
                            3.438476288404741,
                            49.85049958635022
                        ],
                        [
                            3.439208414121125,
                            49.8543870584419
                        ],
                        [
                            3.439940539837513,
                            49.85827453053357
                        ],
                        [
                            3.4406726655538997,
                            49.86216200262525
                        ],
                        [
                            3.4414047912702856,
                            49.866049474716924
                        ],
                        [
                            3.44213691698667,
                            49.86993694680861
                        ],
                        [
                            3.4428690427030557,
                            49.87382441890029
                        ],
                        [
                            3.4436011684194434,
                            49.87771189099196
                        ],
                        [
                            3.4443332941358284,
                            49.881599363083645
                        ],
                        [
                            3.4443332941358284,
                            49.881599363083645
                        ],
                        [
                            3.4439765630665637,
                            49.88485951458688
                        ],
                        [
                            3.443619831997301,
                            49.88811966609011
                        ],
                        [
                            3.443263100928038,
                            49.891379817593354
                        ],
                        [
                            3.442906369858775,
                            49.89463996909659
                        ],
                        [
                            3.4425496387895103,
                            49.897900120599814
                        ],
                        [
                            3.4421929077202473,
                            49.901160272103056
                        ],
                        [
                            3.441836176650986,
                            49.90442042360628
                        ],
                        [
                            3.4414794455817215,
                            49.90768057510952
                        ],
                        [
                            3.4411227145124568,
                            49.91094072661276
                        ],
                        [
                            3.440765983443194,
                            49.91420087811599
                        ],
                        [
                            3.440765983443194,
                            49.91420087811599
                        ],
                        [
                            3.447120632379207,
                            49.91733665267033
                        ],
                        [
                            3.4534752813152196,
                            49.92047242722466
                        ],
                        [
                            3.459829930251232,
                            49.92360820177898
                        ],
                        [
                            3.4661845791872445,
                            49.92674397633332
                        ],
                        [
                            3.472539228123255,
                            49.92987975088764
                        ],
                        [
                            3.4788938770592694,
                            49.93301552544198
                        ],
                        [
                            3.48524852599528,
                            49.93615129999631
                        ],
                        [
                            3.4916031749312944,
                            49.939287074550634
                        ],
                        [
                            3.497957823867306,
                            49.94242284910497
                        ],
                        [
                            3.5043124728033175,
                            49.9455586236593
                        ],
                        [
                            3.5043124728033175,
                            49.9455586236593
                        ],
                        [
                            3.5078908136859854,
                            49.950314210512325
                        ],
                        [
                            3.5114691545686507,
                            49.95506979736535
                        ],
                        [
                            3.5150474954513187,
                            49.95982538421838
                        ],
                        [
                            3.518625836333985,
                            49.964580971071406
                        ],
                        [
                            3.5222041772166492,
                            49.96933655792443
                        ],
                        [
                            3.525782518099317,
                            49.97409214477746
                        ],
                        [
                            3.5293608589819834,
                            49.97884773163048
                        ],
                        [
                            3.5329391998646487,
                            49.98360331848351
                        ],
                        [
                            3.5365175407473175,
                            49.988358905336526
                        ],
                        [
                            3.540095881629983,
                            49.99311449218955
                        ],
                        [
                            3.540095881629983,
                            49.99311449218955
                        ],
                        [
                            3.5353520142068686,
                            49.992847317895624
                        ],
                        [
                            3.530608146783751,
                            49.9925801436017
                        ],
                        [
                            3.5258642793606376,
                            49.99231296930777
                        ],
                        [
                            3.5211204119375235,
                            49.992045795013844
                        ],
                        [
                            3.5163765445144075,
                            49.99177862071991
                        ],
                        [
                            3.5116326770912916,
                            49.99151144642599
                        ],
                        [
                            3.5068888096681756,
                            49.99124427213206
                        ],
                        [
                            3.5021449422450623,
                            49.990977097838126
                        ],
                        [
                            3.497401074821948,
                            49.9907099235442
                        ],
                        [
                            3.492657207398834,
                            49.99044274925027
                        ],
                        [
                            3.492657207398834,
                            49.99044274925027
                        ],
                        [
                            3.4880428999079105,
                            49.99168288071802
                        ],
                        [
                            3.483428592416985,
                            49.99292301218575
                        ],
                        [
                            3.4788142849260653,
                            49.99416314365349
                        ],
                        [
                            3.4741999774351418,
                            49.995403275121234
                        ],
                        [
                            3.46958566994422,
                            49.99664340658897
                        ],
                        [
                            3.4649713624532965,
                            49.997883538056705
                        ],
                        [
                            3.460357054962373,
                            49.99912366952445
                        ],
                        [
                            3.4557427474714513,
                            50.00036380099219
                        ],
                        [
                            3.4511284399805278,
                            50.001603932459936
                        ],
                        [
                            3.446514132489605,
                            50.002844063927675
                        ],
                        [
                            3.446514132489605,
                            50.002844063927675
                        ],
                        [
                            3.444208597969873,
                            50.00426209851199
                        ],
                        [
                            3.4419030634501406,
                            50.0056801330963
                        ],
                        [
                            3.4395975289304075,
                            50.00709816768061
                        ],
                        [
                            3.437291994410677,
                            50.00851620226493
                        ],
                        [
                            3.4349864598909448,
                            50.00993423684923
                        ],
                        [
                            3.4326809253712143,
                            50.01135227143355
                        ],
                        [
                            3.430375390851481,
                            50.012770306017856
                        ],
                        [
                            3.4280698563317507,
                            50.014188340602175
                        ],
                        [
                            3.4257643218120166,
                            50.015606375186486
                        ],
                        [
                            3.4234587872922835,
                            50.0170244097708
                        ],
                        [
                            3.4234587872922835,
                            50.0170244097708
                        ],
                        [
                            3.4193521859258778,
                            50.01551611148131
                        ],
                        [
                            3.415245584559472,
                            50.014007813191824
                        ],
                        [
                            3.4111389831930645,
                            50.01249951490234
                        ],
                        [
                            3.407032381826657,
                            50.01099121661286
                        ],
                        [
                            3.4029257804602513,
                            50.00948291832337
                        ],
                        [
                            3.3988191790938456,
                            50.007974620033885
                        ],
                        [
                            3.39471257772744,
                            50.0064663217444
                        ],
                        [
                            3.3906059763610297,
                            50.00495802345491
                        ],
                        [
                            3.386499374994625,
                            50.00344972516543
                        ],
                        [
                            3.382392773628218,
                            50.001941426875945
                        ],
                        [
                            3.382392773628218,
                            50.001941426875945
                        ],
                        [
                            3.3816188474854063,
                            49.999635989122424
                        ],
                        [
                            3.380844921342596,
                            49.9973305513689
                        ],
                        [
                            3.3800709951997843,
                            49.99502511361537
                        ],
                        [
                            3.3792970690569732,
                            49.992719675861856
                        ],
                        [
                            3.3785231429141613,
                            49.99041423810833
                        ],
                        [
                            3.377749216771351,
                            49.9881088003548
                        ],
                        [
                            3.3769752906285384,
                            49.98580336260128
                        ],
                        [
                            3.3762013644857265,
                            49.98349792484776
                        ],
                        [
                            3.3754274383429164,
                            49.98119248709423
                        ],
                        [
                            3.3746535122001053,
                            49.978887049340706
                        ],
                        [
                            3.3746535122001053,
                            49.978887049340706
                        ],
                        [
                            3.3708052591403743,
                            49.97835411363588
                        ],
                        [
                            3.3669570060806433,
                            49.97782117793105
                        ],
                        [
                            3.3631087530209105,
                            49.97728824222622
                        ],
                        [
                            3.3592604999611777,
                            49.97675530652139
                        ],
                        [
                            3.3554122469014476,
                            49.976222370816565
                        ],
                        [
                            3.3515639938417165,
                            49.97568943511173
                        ],
                        [
                            3.3477157407819855,
                            49.9751564994069
                        ],
                        [
                            3.343867487722251,
                            49.974623563702075
                        ],
                        [
                            3.3400192346625217,
                            49.97409062799724
                        ],
                        [
                            3.3361709816027907,
                            49.973557692292424
                        ],
                        [
                            3.3361709816027907,
                            49.973557692292424
                        ],
                        [
                            3.334627315420985,
                            49.97107474097943
                        ],
                        [
                            3.333083649239183,
                            49.968591789666455
                        ],
                        [
                            3.3315399830573793,
                            49.96610883835347
                        ],
                        [
                            3.3299963168755755,
                            49.96362588704049
                        ],
                        [
                            3.3284526506937735,
                            49.961142935727516
                        ],
                        [
                            3.326908984511968,
                            49.95865998441454
                        ],
                        [
                            3.325365318330166,
                            49.95617703310155
                        ],
                        [
                            3.3238216521483595,
                            49.95369408178857
                        ],
                        [
                            3.3222779859665565,
                            49.95121113047559
                        ],
                        [
                            3.3207343197847536,
                            49.948728179162615
                        ],
                        [
                            3.3207343197847536,
                            49.948728179162615
                        ],
                        [
                            3.316373990472177,
                            49.94863842751524
                        ],
                        [
                            3.312013661159599,
                            49.94854867586786
                        ],
                        [
                            3.30765333184702,
                            49.9484589242205
                        ],
                        [
                            3.3032930025344434,
                            49.94836917257313
                        ],
                        [
                            3.298932673221867,
                            49.94827942092576
                        ],
                        [
                            3.2945723439092895,
                            49.94818966927839
                        ],
                        [
                            3.2902120145967113,
                            49.94809991763102
                        ],
                        [
                            3.285851685284133,
                            49.948010165983646
                        ],
                        [
                            3.2814913559715557,
                            49.94792041433629
                        ],
                        [
                            3.2771310266589793,
                            49.94783066268891
                        ],
                        [
                            3.2771310266589793,
                            49.94783066268891
                        ],
                        [
                            3.273287565063495,
                            49.94978028877943
                        ],
                        [
                            3.269444103468009,
                            49.95172991486995
                        ],
                        [
                            3.2656006418725227,
                            49.95367954096048
                        ],
                        [
                            3.2617571802770375,
                            49.95562916705099
                        ],
                        [
                            3.257913718681553,
                            49.957578793141515
                        ],
                        [
                            3.254070257086067,
                            49.959528419232036
                        ],
                        [
                            3.250226795490583,
                            49.961478045322565
                        ],
                        [
                            3.2463833338950967,
                            49.96342767141308
                        ],
                        [
                            3.2425398722996106,
                            49.96537729750359
                        ],
                        [
                            3.238696410704128,
                            49.967326923594115
                        ],
                        [
                            3.238696410704128,
                            49.967326923594115
                        ],
                        [
                            3.2361303952932627,
                            49.96670564442555
                        ],
                        [
                            3.2335643798823965,
                            49.96608436525699
                        ],
                        [
                            3.230998364471533,
                            49.96546308608843
                        ],
                        [
                            3.2284323490606694,
                            49.96484180691987
                        ],
                        [
                            3.225866333649806,
                            49.9642205277513
                        ],
                        [
                            3.223300318238939,
                            49.96359924858274
                        ],
                        [
                            3.2207343028280735,
                            49.962977969414176
                        ],
                        [
                            3.218168287417209,
                            49.96235669024561
                        ],
                        [
                            3.2156022720063455,
                            49.96173541107705
                        ],
                        [
                            3.21303625659548,
                            49.96111413190848
                        ],
                        [
                            3.21303625659548,
                            49.96111413190848
                        ],
                        [
                            3.210470925673478,
                            49.96084750129964
                        ],
                        [
                            3.207905594751472,
                            49.960580870690784
                        ],
                        [
                            3.205340263829467,
                            49.960314240081935
                        ],
                        [
                            3.2027749329074626,
                            49.96004760947308
                        ],
                        [
                            3.2002096019854585,
                            49.95978097886423
                        ],
                        [
                            3.1976442710634534,
                            49.959514348255375
                        ],
                        [
                            3.195078940141449,
                            49.959247717646534
                        ],
                        [
                            3.1925136092194433,
                            49.95898108703768
                        ],
                        [
                            3.189948278297441,
                            49.95871445642883
                        ],
                        [
                            3.1873829473754367,
                            49.958447825819974
                        ],
                        [
                            3.1873829473754367,
                            49.958447825819974
                        ],
                        [
                            3.1861058434510787,
                            49.96119606356293
                        ],
                        [
                            3.1848287395267243,
                            49.96394430130589
                        ],
                        [
                            3.183551635602367,
                            49.96669253904883
                        ],
                        [
                            3.182274531678011,
                            49.969440776791785
                        ],
                        [
                            3.180997427753655,
                            49.97218901453474
                        ],
                        [
                            3.179720323829297,
                            49.9749372522777
                        ],
                        [
                            3.178443219904939,
                            49.97768549002065
                        ],
                        [
                            3.1771661159805844,
                            49.980433727763604
                        ],
                        [
                            3.175889012056228,
                            49.98318196550655
                        ],
                        [
                            3.174611908131872,
                            49.98593020324951
                        ],
                        [
                            3.174611908131872,
                            49.98593020324951
                        ],
                        [
                            3.1728213589663947,
                            49.98841232246115
                        ],
                        [
                            3.171030809800914,
                            49.9908944416728
                        ],
                        [
                            3.1692402606354366,
                            49.99337656088444
                        ],
                        [
                            3.167449711469956,
                            49.99585868009609
                        ],
                        [
                            3.1656591623044785,
                            49.99834079930774
                        ],
                        [
                            3.1638686131389995,
                            50.00082291851938
                        ],
                        [
                            3.1620780639735204,
                            50.00330503773103
                        ],
                        [
                            3.1602875148080414,
                            50.00578715694268
                        ],
                        [
                            3.158496965642565,
                            50.00826927615433
                        ],
                        [
                            3.1567064164770833,
                            50.01075139536598
                        ],
                        [
                            3.1567064164770833,
                            50.01075139536598
                        ],
                        [
                            3.1475996108564126,
                            50.009862493455586
                        ],
                        [
                            3.138492805235741,
                            50.00897359154521
                        ],
                        [
                            3.129385999615066,
                            50.00808468963483
                        ],
                        [
                            3.120279193994396,
                            50.007195787724434
                        ],
                        [
                            3.111172388373723,
                            50.006306885814055
                        ],
                        [
                            3.102065582753051,
                            50.00541798390367
                        ],
                        [
                            3.092958777132378,
                            50.00452908199329
                        ],
                        [
                            3.0838519715117063,
                            50.003640180082904
                        ],
                        [
                            3.0747451658910347,
                            50.00275127817252
                        ],
                        [
                            3.065638360270363,
                            50.00186237626214
                        ],
                        [
                            3.065638360270363,
                            50.00186237626214
                        ],
                        [
                            3.062307054035044,
                            50.00336881831494
                        ],
                        [
                            3.0589757477997233,
                            50.00487526036774
                        ],
                        [
                            3.055644441564407,
                            50.00638170242055
                        ],
                        [
                            3.052313135329087,
                            50.00788814447335
                        ],
                        [
                            3.048981829093768,
                            50.009394586526156
                        ],
                        [
                            3.045650522858448,
                            50.010901028578964
                        ],
                        [
                            3.0423192166231297,
                            50.01240747063176
                        ],
                        [
                            3.0389879103878106,
                            50.01391391268456
                        ],
                        [
                            3.0356566041524924,
                            50.015420354737365
                        ],
                        [
                            3.0323252979171715,
                            50.016926796790166
                        ],
                        [
                            3.0323252979171715,
                            50.016926796790166
                        ],
                        [
                            3.0293769793332346,
                            50.01754669977747
                        ],
                        [
                            3.026428660749294,
                            50.01816660276478
                        ],
                        [
                            3.023480342165356,
                            50.01878650575208
                        ],
                        [
                            3.0205320235814166,
                            50.01940640873938
                        ],
                        [
                            3.0175837049974734,
                            50.02002631172669
                        ],
                        [
                            3.0146353864135347,
                            50.02064621471399
                        ],
                        [
                            3.0116870678295955,
                            50.0212661177013
                        ],
                        [
                            3.0087387492456554,
                            50.021886020688605
                        ],
                        [
                            3.0057904306617176,
                            50.02250592367591
                        ],
                        [
                            3.002842112077776,
                            50.02312582666322
                        ],
                        [
                            3.002842112077776,
                            50.02312582666322
                        ],
                        [
                            2.9982251086330263,
                            50.0221493817829
                        ],
                        [
                            2.993608105188274,
                            50.02117293690259
                        ],
                        [
                            2.988991101743522,
                            50.02019649202227
                        ],
                        [
                            2.9843740982987716,
                            50.01922004714196
                        ],
                        [
                            2.9797570948540177,
                            50.01824360226164
                        ],
                        [
                            2.9751400914092674,
                            50.01726715738133
                        ],
                        [
                            2.9705230879645153,
                            50.01629071250101
                        ],
                        [
                            2.965906084519765,
                            50.015314267620695
                        ],
                        [
                            2.9612890810750137,
                            50.01433782274039
                        ],
                        [
                            2.9566720776302593,
                            50.013361377860065
                        ],
                        [
                            2.9566720776302593,
                            50.013361377860065
                        ],
                        [
                            2.9501343676572724,
                            50.01468969277965
                        ],
                        [
                            2.94359665768428,
                            50.01601800769922
                        ],
                        [
                            2.937058947711291,
                            50.017346322618806
                        ],
                        [
                            2.9305212377383008,
                            50.01867463753838
                        ],
                        [
                            2.92398352776531,
                            50.020002952457965
                        ],
                        [
                            2.9174458177923213,
                            50.02133126737754
                        ],
                        [
                            2.910908107819331,
                            50.022659582297116
                        ],
                        [
                            2.904370397846344,
                            50.023987897216706
                        ],
                        [
                            2.897832687873352,
                            50.02531621213628
                        ],
                        [
                            2.891294977900361,
                            50.02664452705586
                        ],
                        [
                            2.891294977900361,
                            50.02664452705586
                        ],
                        [
                            2.888473009920223,
                            50.02628916893499
                        ],
                        [
                            2.8856510419400854,
                            50.02593381081411
                        ],
                        [
                            2.8828290739599436,
                            50.025578452693246
                        ],
                        [
                            2.880007105979806,
                            50.02522309457237
                        ],
                        [
                            2.8771851379996685,
                            50.0248677364515
                        ],
                        [
                            2.8743631700195302,
                            50.02451237833063
                        ],
                        [
                            2.8715412020393907,
                            50.024157020209756
                        ],
                        [
                            2.868719234059251,
                            50.02380166208888
                        ],
                        [
                            2.865897266079113,
                            50.02344630396801
                        ],
                        [
                            2.8630752980989738,
                            50.02309094584713
                        ],
                        [
                            2.8630752980989738,
                            50.02309094584713
                        ],
                        [
                            2.859997890934682,
                            50.02326750476509
                        ],
                        [
                            2.8569204837703883,
                            50.02344406368304
                        ],
                        [
                            2.8538430766060947,
                            50.023620622600994
                        ],
                        [
                            2.8507656694417993,
                            50.023797181518944
                        ],
                        [
                            2.8476882622775035,
                            50.02397374043689
                        ],
                        [
                            2.84461085511321,
                            50.02415029935484
                        ],
                        [
                            2.8415334479489145,
                            50.02432685827279
                        ],
                        [
                            2.8384560407846227,
                            50.02450341719074
                        ],
                        [
                            2.835378633620329,
                            50.02467997610869
                        ],
                        [
                            2.832301226456035,
                            50.02485653502665
                        ]
                    ]
                ]
            }
        }
    ]
}