{
    "type": "FeatureCollection",
    "name": "Mazarien",
    "features": [
        {
            "type": "Feature",
            "properties": {
                "diocese": "Mazarien",
                "province": "Panormitan",
                "date": 1592
            },
            "geometry": {
                "type": "MultiPolygon",
                "coordinates": [
                    [
                        [
                            [
                                12.264822893629914,
                                37.947233716650452
                            ],
                            [
                                12.271343451583522,
                                37.914660723909975
                            ],
                            [
                                12.363718022592973,
                                37.910373729480767
                            ],
                            [
                                12.352850426003624,
                                37.935234819455729
                            ],
                            [
                                12.311553558964105,
                                37.933520531364024
                            ],
                            [
                                12.287644846467542,
                                37.9523755014255
                            ],
                            [
                                12.264822893629914,
                                37.947233716650452
                            ]
                        ]
                    ]
                ]
            }
        },
        {
            "type": "Feature",
            "properties": {
                "diocese": "Mazarien",
                "province": "Panormitan",
                "date": 1592
            },
            "geometry": {
                "type": "MultiPolygon",
                "coordinates": [
                    [
                        [
                            [
                                12.309380039646237,
                                38.003773553896082
                            ],
                            [
                                12.32242115555345,
                                37.986644869244742
                            ],
                            [
                                12.350676906685752,
                                37.997778969271927
                            ],
                            [
                                12.324594674871319,
                                38.023466595835373
                            ],
                            [
                                12.309380039646237,
                                38.003773553896082
                            ]
                        ]
                    ]
                ]
            }
        },
        {
            "type": "Feature",
            "properties": {
                "diocese": "Mazarien",
                "province": "Panormitan",
                "date": 1592
            },
            "geometry": {
                "type": "MultiPolygon",
                "coordinates": [
                    [
                        [
                            [
                                12.426846026421563,
                                37.895976493152062
                            ],
                            [
                                12.426846026421563,
                                37.858163929852324
                            ],
                            [
                                12.435828146918261,
                                37.840826685336538
                            ],
                            [
                                12.446806294192001,
                                37.842402966923885
                            ],
                            [
                                12.450798347746087,
                                37.860527783699148
                            ],
                            [
                                12.443812254026437,
                                37.862891561734656
                            ],
                            [
                                12.445808280803476,
                                37.892038590172113
                            ],
                            [
                                12.433832120141213,
                                37.899126663866092
                            ],
                            [
                                12.426846026421563,
                                37.895976493152062
                            ]
                        ]
                    ]
                ]
            }
        },
        {
            "type": "Feature",
            "properties": {
                "diocese": "Mazarien",
                "province": "Panormitan",
                "date": 1592
            },
            "geometry": {
                "type": "MultiPolygon",
                "coordinates": [
                    [
                        [
                            [
                                12.459780468242785,
                                37.912513385249852
                            ],
                            [
                                12.46177649501983,
                                37.881011341215803
                            ],
                            [
                                12.487724843121399,
                                37.871558099231088
                            ],
                            [
                                12.478742722624702,
                                37.847131609553067
                            ],
                            [
                                12.465768548573914,
                                37.843191095084393
                            ],
                            [
                                12.46177649501983,
                                37.81165939999287
                            ],
                            [
                                12.423851986255997,
                                37.80298582192475
                            ],
                            [
                                12.470758615516527,
                                37.739874613414102
                            ],
                            [
                                12.466766561962439,
                                37.710667464702134
                            ],
                            [
                                12.518663258165576,
                                37.660119804942489
                            ],
                            [
                                12.573553994534279,
                                37.660119804942489
                            ],
                            [
                                12.619462610406284,
                                37.622976933421818
                            ],
                            [
                                12.666369239666814,
                                37.558130024273375
                            ],
                            [
                                12.721259976035514,
                                37.567623344826153
                            ],
                            [
                                12.775152699015694,
                                37.58344285733596
                            ],
                            [
                                12.880942118199014,
                                37.577906410239365
                            ],
                            [
                                12.898906359192406,
                                37.655379195855581
                            ],
                            [
                                12.883936158364579,
                                37.677499448411979
                            ],
                            [
                                12.913876560020235,
                                37.721720172789979
                            ],
                            [
                                12.969765309777461,
                                37.748555598529897
                            ],
                            [
                                13.002699751598682,
                                37.748555598529897
                            ],
                            [
                                13.065574595075564,
                                37.79588850032308
                            ],
                            [
                                13.071562675406694,
                                37.820331959263832
                            ],
                            [
                                12.976751403497117,
                                37.815601598690684
                            ],
                            [
                                12.935832854567719,
                                37.844767326138829
                            ],
                            [
                                12.941282269712481,
                                37.869171666453425
                            ],
                            [
                                12.9152985885977,
                                37.883272221997984
                            ],
                            [
                                12.933162369364114,
                                37.914027749150492
                            ],
                            [
                                13.028977193474869,
                                37.91018401108952
                            ],
                            [
                                13.041969034032258,
                                37.930681626626352
                            ],
                            [
                                13.006241472499434,
                                37.969099255734299
                            ],
                            [
                                13.006241472499434,
                                38.010055913333034
                            ],
                            [
                                12.960770030548568,
                                38.038200350007884
                            ],
                            [
                                12.905554708179658,
                                38.02285017924477
                            ],
                            [
                                12.874699086855857,
                                38.025408764406947
                            ],
                            [
                                12.858459286159119,
                                38.049710867101524
                            ],
                            [
                                12.809739884068906,
                                38.077840068062876
                            ],
                            [
                                12.765892422187713,
                                38.178760302451906
                            ],
                            [
                                12.7171730200975,
                                38.196630344404333
                            ],
                            [
                                12.697685259261412,
                                38.183866476064033
                            ],
                            [
                                12.723668940376193,
                                38.153224066969301
                            ],
                            [
                                12.718797000167172,
                                38.121291194949976
                            ],
                            [
                                12.691189338982717,
                                38.107236304822507
                            ],
                            [
                                12.676893095014705,
                                38.116877754943182
                            ],
                            [
                                12.647279446795258,
                                38.1144675117283
                            ],
                            [
                                12.648965857171198,
                                38.08806618699569
                            ],
                            [
                                12.605922455316376,
                                38.068657779041217
                            ],
                            [
                                12.558438502136919,
                                38.067049898679358
                            ],
                            [
                                12.50074294612317,
                                38.022417123524455
                            ],
                            [
                                12.499211205698026,
                                38.011958667096565
                            ],
                            [
                                12.519123831224896,
                                38.008740380260633
                            ],
                            [
                                12.531377754626046,
                                37.995463453692231
                            ],
                            [
                                12.514528609949465,
                                37.983391434538554
                            ],
                            [
                                12.490531343288879,
                                37.982586562633024
                            ],
                            [
                                12.486957282296876,
                                37.953202696767221
                            ],
                            [
                                12.461252882134017,
                                37.927625757559802
                            ],
                            [
                                12.459780468242785,
                                37.912513385249852
                            ]
                        ]
                    ]
                ]
            }
        }
    ]
}