{
    "type": "FeatureCollection",
    "features": [
        {
            "type": "Feature",
            "geometry": {
                "coordinates": [
                    [
                        [
                            -7.336538761797292,
                            41.84741653074664
                        ],
                        [
                            -7.31424427099995,
                            41.844005466000056
                        ],
                        [
                            -7.197321056999954,
                            41.882629275000056
                        ],
                        [
                            -7.174270629999967,
                            41.919410705000075
                        ],
                        [
                            -7.188996076999956,
                            41.97121655900003
                        ],
                        [
                            -7.163867115999949,
                            41.98699951200007
                        ],
                        [
                            -7.09317576899997,
                            41.97669982900004
                        ],
                        [
                            -7.072945832999949,
                            41.95129394500003
                        ],
                        [
                            -7.00926196599994,
                            41.95026385800003
                        ],
                        [
                            -6.97849599999995,
                            41.97337200000004
                        ],
                        [
                            -6.942531543999962,
                            41.94371781700005
                        ],
                        [
                            -6.891451999999958,
                            41.93992100000003
                        ],
                        [
                            -6.821339999999964,
                            41.94602400000008
                        ],
                        [
                            -6.811604999999929,
                            41.992796000000055
                        ],
                        [
                            -6.768301999999949,
                            41.98366100000004
                        ],
                        [
                            -6.750661999999977,
                            41.94384100000008
                        ],
                        [
                            -6.725078999999937,
                            41.93702900000005
                        ],
                        [
                            -6.618375999999955,
                            41.94033300000007
                        ],
                        [
                            -6.586745999999948,
                            41.967171000000064
                        ],
                        [
                            -6.5498549999999796,
                            41.94515000000007
                        ],
                        [
                            -6.57071499999995,
                            41.883593000000076
                        ],
                        [
                            -6.516390005999938,
                            41.87173270300008
                        ],
                        [
                            -6.567253998999945,
                            41.746470000000045
                        ],
                        [
                            -6.54906399999993,
                            41.72575800000004
                        ],
                        [
                            -6.545295999999951,
                            41.68178300000005
                        ],
                        [
                            -6.500620999999967,
                            41.65699600000005
                        ],
                        [
                            -6.458160999999961,
                            41.66599300000007
                        ],
                        [
                            -6.442210999999929,
                            41.68505300000004
                        ],
                        [
                            -6.3030469999999355,
                            41.66149100000007
                        ],
                        [
                            -6.190208999999925,
                            41.574884000000054
                        ],
                        [
                            -6.258393999999953,
                            41.51342800000003
                        ],
                        [
                            -6.251656999999966,
                            41.499948000000074
                        ],
                        [
                            -6.306314999999927,
                            41.449110000000076
                        ],
                        [
                            -6.30021899999997,
                            41.42910800000004
                        ],
                        [
                            -6.33305299999995,
                            41.410758000000044
                        ],
                        [
                            -6.318582999999933,
                            41.38655600000004
                        ],
                        [
                            -6.389726999999937,
                            41.38468300000005
                        ],
                        [
                            -6.38034399999998,
                            41.35570800000005
                        ],
                        [
                            -6.416353170999969,
                            41.34599820500006
                        ],
                        [
                            -6.4384339999999725,
                            41.30530300000004
                        ],
                        [
                            -6.487168119999978,
                            41.29080267900008
                        ],
                        [
                            -6.479498999999976,
                            41.27432300000004
                        ],
                        [
                            -6.498257999999964,
                            41.265217000000064
                        ],
                        [
                            -6.5234199999999305,
                            41.27509200000003
                        ],
                        [
                            -6.572819999999979,
                            41.23911500000003
                        ],
                        [
                            -6.592252999999971,
                            41.25442900000007
                        ],
                        [
                            -6.650211264999939,
                            41.245325825000066
                        ],
                        [
                            -6.6916179999999486,
                            41.20957800000008
                        ],
                        [
                            -6.699813999999947,
                            41.18144100000006
                        ],
                        [
                            -6.769830806999948,
                            41.132519796000054
                        ],
                        [
                            -6.755251158999954,
                            41.10253480600005
                        ],
                        [
                            -6.809518999999966,
                            41.03694600000006
                        ],
                        [
                            -6.990375531999973,
                            41.025118227000064
                        ],
                        [
                            -7.103273402999946,
                            41.082472679000034
                        ],
                        [
                            -7.072679609561346,
                            41.13660255775946
                        ],
                        [
                            -7.120443966584141,
                            41.14455352174511
                        ],
                        [
                            -7.100712551679862,
                            41.17083711350083
                        ],
                        [
                            -7.1194912971391355,
                            41.18501731211974
                        ],
                        [
                            -7.161615402069933,
                            41.12531169646473
                        ],
                        [
                            -7.186395795934043,
                            41.124333764646025
                        ],
                        [
                            -7.220654014461702,
                            41.14149754367753
                        ],
                        [
                            -7.288075270773496,
                            41.13431695848107
                        ],
                        [
                            -7.347404855740033,
                            41.146553471432824
                        ],
                        [
                            -7.336538761797292,
                            41.84741653074664
                        ]
                    ]
                ],
                "type": "Polygon"
            },
            "properties": {
                "diocese": "Miranden",
                "province": "Bracharen",
                "start": 1688,
                "end": 1770
            }
        },
        {
            "type": "Feature",
            "properties": {
                "diocese": "Visen",
                "province": "Bracharen",
                "start": 1688,
                "end": 1770
            },
            "geometry": {
                "coordinates": [
                    [
                        [
                            [
                                -8.157601597999928,
                                40.92307724600005
                            ],
                            [
                                -8.135007634999965,
                                40.89735913700008
                            ],
                            [
                                -8.187432140999931,
                                40.887907074000054
                            ],
                            [
                                -8.18353439699996,
                                40.85312838600004
                            ],
                            [
                                -8.203381901999933,
                                40.83738635100008
                            ],
                            [
                                -8.244749750999972,
                                40.85911318900003
                            ],
                            [
                                -8.406371965999938,
                                40.79868560400007
                            ],
                            [
                                -8.421230183999967,
                                40.76181227300003
                            ],
                            [
                                -8.42097447599997,
                                40.688552935000075
                            ],
                            [
                                -8.349518974999967,
                                40.670851345000074
                            ],
                            [
                                -8.342388583999934,
                                40.688876107000056
                            ],
                            [
                                -8.305548225999928,
                                40.68797498500004
                            ],
                            [
                                -8.309113421999939,
                                40.62306215700005
                            ],
                            [
                                -8.286533847999976,
                                40.627572033000035
                            ],
                            [
                                -8.260389077999946,
                                40.60411735300005
                            ],
                            [
                                -8.324562603999937,
                                40.59328933900008
                            ],
                            [
                                -8.299606232999963,
                                40.53280070000005
                            ],
                            [
                                -8.234244307999973,
                                40.51021631000003
                            ],
                            [
                                -8.210476334999953,
                                40.45959966800007
                            ],
                            [
                                -8.192650354999955,
                                40.46285474300004
                            ],
                            [
                                -8.184569243999931,
                                40.44187482600006
                            ],
                            [
                                -8.12885711599995,
                                40.456296208000026
                            ],
                            [
                                -8.144068618999938,
                                40.415773423000076
                            ],
                            [
                                -8.126004959999932,
                                40.398399039000026
                            ],
                            [
                                -8.189703126999973,
                                40.391158389000054
                            ],
                            [
                                -8.209668223999927,
                                40.329581431000065
                            ],
                            [
                                -8.12385951799996,
                                40.33569694700003
                            ],
                            [
                                -7.937297398999931,
                                40.425984561000064
                            ],
                            [
                                -7.82224367799995,
                                40.50744330300006
                            ],
                            [
                                -7.788661243999968,
                                40.504809754000064
                            ],
                            [
                                -7.708813023999937,
                                40.544477795000034
                            ],
                            [
                                -7.628374913999949,
                                40.55439028200004
                            ],
                            [
                                -7.588071722999928,
                                40.59012124900005
                            ],
                            [
                                -7.493967027999929,
                                40.62018169000004
                            ],
                            [
                                -7.42480222699993,
                                40.697622368000054
                            ],
                            [
                                -7.353498308999974,
                                40.699424340000064
                            ],
                            [
                                -7.3281378819999645,
                                40.66773857600003
                            ],
                            [
                                -7.269312148999973,
                                40.67693224300007
                            ],
                            [
                                -7.26717303199996,
                                40.647724449000066
                            ],
                            [
                                -7.21048641699997,
                                40.65232282000005
                            ],
                            [
                                -7.210842935999949,
                                40.62824548100008
                            ],
                            [
                                -7.160217153999952,
                                40.63906783200008
                            ],
                            [
                                -7.057896031999974,
                                40.61363252600006
                            ],
                            [
                                -7.036504855999965,
                                40.63717404700003
                            ],
                            [
                                -7.05611343399994,
                                40.560836908000056
                            ],
                            [
                                -7.104243578999956,
                                40.52588767300006
                            ],
                            [
                                -7.094261029999927,
                                40.47275161300007
                            ],
                            [
                                -7.041496129999928,
                                40.45566322700006
                            ],
                            [
                                -6.982258768999941,
                                40.48938339600005
                            ],
                            [
                                -6.935530934999974,
                                40.54102519800006
                            ],
                            [
                                -6.9353883269999415,
                                40.580353228000035
                            ],
                            [
                                -6.907579798999961,
                                40.63405334300006
                            ],
                            [
                                -6.945662032999962,
                                40.73444463100003
                            ],
                            [
                                -7.031078184999956,
                                40.817463866000026
                            ],
                            [
                                -7.064353346999951,
                                40.81712660000005
                            ],
                            [
                                -7.10193645399994,
                                40.83994443500006
                            ],
                            [
                                -7.224176058999944,
                                40.82795676300003
                            ],
                            [
                                -7.322409800999935,
                                40.88405347300005
                            ],
                            [
                                -7.357348720999937,
                                40.868418217000055
                            ],
                            [
                                -7.353783524999926,
                                40.911002136000036
                            ],
                            [
                                -7.388722444999928,
                                40.90830776400003
                            ],
                            [
                                -7.399732593999943,
                                40.85476931300008
                            ],
                            [
                                -7.457388117999926,
                                40.79882354700004
                            ],
                            [
                                -7.559352720999925,
                                40.870035829000074
                            ],
                            [
                                -7.610155125999938,
                                40.85073118200006
                            ],
                            [
                                -7.61639585599994,
                                40.82256947400003
                            ],
                            [
                                -7.655653344999962,
                                40.86635829200003
                            ],
                            [
                                -7.693439745999967,
                                40.846318014000076
                            ],
                            [
                                -7.7945076579999295,
                                40.83387342100008
                            ],
                            [
                                -7.865526360999979,
                                40.84768296900006
                            ],
                            [
                                -7.857682929999953,
                                40.86871541800008
                            ],
                            [
                                -7.869661987999962,
                                40.877773492000074
                            ],
                            [
                                -7.932837258999939,
                                40.885644384000045
                            ],
                            [
                                -7.975334394999948,
                                40.918735010000034
                            ],
                            [
                                -8.001859451999962,
                                40.90246123400004
                            ],
                            [
                                -8.069598174999953,
                                40.91388562700007
                            ],
                            [
                                -8.06859991999994,
                                40.92767849200004
                            ],
                            [
                                -8.08770936999997,
                                40.932742338000025
                            ],
                            [
                                -8.157601597999928,
                                40.92307724600005
                            ]
                        ]
                    ]
                ],
                "type": "MultiPolygon"
            }
        },
        {
            "type": "Feature",
            "geometry": {
                "coordinates": [
                    [
                        [
                            -7.346841244819587,
                            41.14639861699605
                        ],
                        [
                            -7.357577514075737,
                            41.14829865904831
                        ],
                        [
                            -7.392159915087958,
                            41.19740888108505
                        ],
                        [
                            -7.445667563087651,
                            41.214642397832954
                        ],
                        [
                            -7.519051179069278,
                            41.182004399678746
                        ],
                        [
                            -7.547275647084743,
                            41.1887121665325
                        ],
                        [
                            -7.5853044030752494,
                            41.15785075161106
                        ],
                        [
                            -7.665521312082341,
                            41.162324321179675
                        ],
                        [
                            -7.7008761710710525,
                            41.141967114099245
                        ],
                        [
                            -7.792977065084468,
                            41.16098228300418
                        ],
                        [
                            -7.813476942068975,
                            41.146218042137
                        ],
                        [
                            -7.868737479074089,
                            41.15829812266631
                        ],
                        [
                            -7.896961946087145,
                            41.13346443101889
                        ],
                        [
                            -7.891019953071939,
                            41.21240743854929
                        ],
                        [
                            -7.8717084750695845,
                            41.242349559374794
                        ],
                        [
                            -7.920432819067199,
                            41.28857648080412
                        ],
                        [
                            -7.917758922087208,
                            41.32673925121581
                        ],
                        [
                            -7.957148395081259,
                            41.34191780519838
                        ],
                        [
                            -7.976638133072475,
                            41.372603187971706
                        ],
                        [
                            -8.031542150077856,
                            41.31889427462958
                        ],
                        [
                            -8.077652017077273,
                            41.34744937831577
                        ],
                        [
                            -8.151808092081334,
                            41.36011669635446
                        ],
                        [
                            -8.171297830072625,
                            41.34887680569463
                        ],
                        [
                            -8.253772695075748,
                            41.42377274741928
                        ],
                        [
                            -8.269459557086613,
                            41.371354646007404
                        ],
                        [
                            -8.287998576088262,
                            41.366003483318586
                        ],
                        [
                            -8.328641810079299,
                            41.377062067549744
                        ],
                        [
                            -8.394479094081941,
                            41.3615438447401
                        ],
                        [
                            -8.404461643070135,
                            41.377775460236954
                        ],
                        [
                            -8.46673373108491,
                            41.34566505107969
                        ],
                        [
                            -8.493116181081076,
                            41.356013468620695
                        ],
                        [
                            -8.60244885608732,
                            41.34495130639409
                        ],
                        [
                            -8.604350294066604,
                            41.376348667855396
                        ],
                        [
                            -8.628831306083486,
                            41.40131302409822
                        ],
                        [
                            -8.783580194068309,
                            41.48970101007921
                        ],
                        [
                            -8.789789926086934,
                            41.529914809732766
                        ],
                        [
                            -8.753920804085311,
                            41.51243034113215
                        ],
                        [
                            -8.79178846906885,
                            41.542058807635634
                        ],
                        [
                            -8.834960710076878,
                            41.68084342842459
                        ],
                        [
                            -8.876124151009657,
                            41.75489677651982
                        ],
                        [
                            -8.87038522067185,
                            41.87148371601032
                        ],
                        [
                            -8.758813103693338,
                            41.93256468368183
                        ],
                        [
                            -8.741622970010825,
                            41.96708428164927
                        ],
                        [
                            -8.678714293156736,
                            41.990829118295444
                        ],
                        [
                            -8.632544074028536,
                            42.04908660558838
                        ],
                        [
                            -8.542842688272637,
                            42.05554876889549
                        ],
                        [
                            -8.521143281140011,
                            42.07881591243315
                        ],
                        [
                            -8.331485479584885,
                            42.0842633345705
                        ],
                        [
                            -8.247727039254498,
                            42.139324596977595
                        ],
                        [
                            -8.19758214479636,
                            42.14107882714987
                        ],
                        [
                            -8.184928233182463,
                            42.076172555777205
                        ],
                        [
                            -8.105359053139816,
                            42.079441304243595
                        ],
                        [
                            -8.081888395777199,
                            42.02555292435654
                        ],
                        [
                            -8.164722992893827,
                            41.98137834229113
                        ],
                        [
                            -8.216355581912184,
                            41.91271098297876
                        ],
                        [
                            -8.200674536225508,
                            41.873102319379484
                        ],
                        [
                            -8.16364447657483,
                            41.8667675175546
                        ],
                        [
                            -8.164360892077616,
                            41.817588016226836
                        ],
                        [
                            -8.07859057915639,
                            41.81186632494449
                        ],
                        [
                            -8.010039459073132,
                            41.832350929556696
                        ],
                        [
                            -7.9791542400805575,
                            41.87080328964083
                        ],
                        [
                            -7.927963148078715,
                            41.87681133203691
                        ],
                        [
                            -7.9067331660756395,
                            41.92659325235969
                        ],
                        [
                            -7.892315931578193,
                            41.92693778659103
                        ],
                        [
                            -7.888507258078367,
                            41.855353608636456
                        ],
                        [
                            -7.873068940086688,
                            41.849517227660684
                        ],
                        [
                            -7.836887132084494,
                            41.86531011248581
                        ],
                        [
                            -7.841957938067708,
                            41.877841422503586
                        ],
                        [
                            -7.698329697085693,
                            41.90702380844089
                        ],
                        [
                            -7.640452634069467,
                            41.879558040617844
                        ],
                        [
                            -7.5881711350740915,
                            41.879901245442014
                        ],
                        [
                            -7.611437331068611,
                            41.8457405496173
                        ],
                        [
                            -7.605448018082421,
                            41.83063443145133
                        ],
                        [
                            -7.519048821087485,
                            41.843165741454435
                        ],
                        [
                            -7.502226959074066,
                            41.87063162823224
                        ],
                        [
                            -7.452222834085633,
                            41.86479500724575
                        ],
                        [
                            -7.427379738081035,
                            41.833638512638984
                        ],
                        [
                            -7.428493153085457,
                            41.80934836950721
                        ],
                        [
                            -7.3641699650758055,
                            41.85157716959078
                        ],
                        [
                            -7.335975150875071,
                            41.84726334300947
                        ],
                        [
                            -7.346841244819587,
                            41.14639861699605
                        ]
                    ]
                ],
                "type": "Polygon"
            },
            "properties": {
                "diocese": "Bracharen",
                "province": "Bracharen",
                "start": 1688,
                "end": 1770
            }
        },
        {
            "type": "Feature",
            "geometry": {
                "coordinates": [
                    [
                        [
                            -8.784201975504734,
                            40.11139449376609
                        ],
                        [
                            -8.776380538999945,
                            40.112218976000065
                        ],
                        [
                            -8.78614550348339,
                            40.112964310726895
                        ],
                        [
                            -8.794474363596539,
                            40.119691657085355
                        ],
                        [
                            -8.803015351999932,
                            40.13489616000004
                        ],
                        [
                            -8.826441407999937,
                            40.145610213000055
                        ],
                        [
                            -8.826563115497857,
                            40.145610227612195
                        ],
                        [
                            -8.900823704557657,
                            40.205591629220784
                        ],
                        [
                            -8.840877770999953,
                            40.336551308000026
                        ],
                        [
                            -8.753319620999946,
                            40.64640212100005
                        ],
                        [
                            -8.72656464499994,
                            40.662675738000075
                        ],
                        [
                            -8.698395967999943,
                            40.718719959000055
                        ],
                        [
                            -8.701156258999958,
                            40.75206375100004
                        ],
                        [
                            -8.637155651999933,
                            40.72317767100003
                        ],
                        [
                            -8.513194208999948,
                            40.76024352700006
                        ],
                        [
                            -8.421230183999967,
                            40.76181227300003
                        ],
                        [
                            -8.42097447599997,
                            40.688552935000075
                        ],
                        [
                            -8.349518974999967,
                            40.670851345000074
                        ],
                        [
                            -8.342388583999934,
                            40.688876107000056
                        ],
                        [
                            -8.305548225999928,
                            40.68797498500004
                        ],
                        [
                            -8.309113421999939,
                            40.62306215700005
                        ],
                        [
                            -8.286533847999976,
                            40.627572033000035
                        ],
                        [
                            -8.260389077999946,
                            40.60411735300005
                        ],
                        [
                            -8.324562603999937,
                            40.59328933900008
                        ],
                        [
                            -8.29466827899995,
                            40.52972998300004
                        ],
                        [
                            -8.234244307999973,
                            40.51021631000003
                        ],
                        [
                            -8.210476334999953,
                            40.45959966800007
                        ],
                        [
                            -8.192650354999955,
                            40.46285474300004
                        ],
                        [
                            -8.184569243999931,
                            40.44187482600006
                        ],
                        [
                            -8.12885711599995,
                            40.456296208000026
                        ],
                        [
                            -8.144068618999938,
                            40.415773423000076
                        ],
                        [
                            -8.126004959999932,
                            40.398399039000026
                        ],
                        [
                            -8.189703126999973,
                            40.391158389000054
                        ],
                        [
                            -8.20958330981786,
                            40.32988088308105
                        ],
                        [
                            -8.11922476199993,
                            40.33805218100008
                        ],
                        [
                            -7.932662642999958,
                            40.428336640000055
                        ],
                        [
                            -7.845167600999957,
                            40.49307406600008
                        ],
                        [
                            -7.83246417099997,
                            40.405741299000056
                        ],
                        [
                            -7.78938471999993,
                            40.34666846500005
                        ],
                        [
                            -7.7950296139999296,
                            40.247871917000055
                        ],
                        [
                            -7.774090029999968,
                            40.21933909000006
                        ],
                        [
                            -7.80318202899997,
                            40.189713932000075
                        ],
                        [
                            -7.808315910999966,
                            40.15557086500007
                        ],
                        [
                            -7.741955730999962,
                            40.130424780000055
                        ],
                        [
                            -7.7307372479999685,
                            40.10774171800006
                        ],
                        [
                            -7.751272775999951,
                            40.10017901600003
                        ],
                        [
                            -7.742906449999964,
                            40.09290639400007
                        ],
                        [
                            -7.774470317999942,
                            40.06351708900007
                        ],
                        [
                            -7.791202969999972,
                            40.08010469200008
                        ],
                        [
                            -7.788160669999968,
                            40.08606942100005
                        ],
                        [
                            -7.81725266899997,
                            40.07719487800006
                        ],
                        [
                            -7.79728757099997,
                            40.07632191000005
                        ],
                        [
                            -7.801832102999981,
                            40.04588153000003
                        ],
                        [
                            -7.8484767489999285,
                            40.01915226300008
                        ],
                        [
                            -7.845505752999941,
                            40.005044088000034
                        ],
                        [
                            -7.881306261999953,
                            40.01357760700006
                        ],
                        [
                            -7.881009161999941,
                            40.02779776800003
                        ],
                        [
                            -7.902103237999938,
                            40.00288209400003
                        ],
                        [
                            -7.953204378999942,
                            40.00151658900006
                        ],
                        [
                            -7.9628601179999805,
                            39.97670515500005
                        ],
                        [
                            -8.01173301199998,
                            39.988656742000046
                        ],
                        [
                            -8.00519681999998,
                            39.97237930400007
                        ],
                        [
                            -8.031787238999925,
                            39.98364871200005
                        ],
                        [
                            -8.034164036999925,
                            39.96065259400007
                        ],
                        [
                            -8.085710827999947,
                            39.96475147900003
                        ],
                        [
                            -8.089246312999933,
                            39.941001862000064
                        ],
                        [
                            -8.118148167999948,
                            39.946978760000036
                        ],
                        [
                            -8.151423329999943,
                            39.88368462400007
                        ],
                        [
                            -8.186029498999972,
                            39.880766434000066
                        ],
                        [
                            -8.208466464999958,
                            39.85157770100005
                        ],
                        [
                            -8.274826644999962,
                            39.842672666000055
                        ],
                        [
                            -8.270263193999938,
                            39.82296069500006
                        ],
                        [
                            -8.29346073499994,
                            39.806164555000066
                        ],
                        [
                            -8.283192970999949,
                            39.77782089500005
                        ],
                        [
                            -8.242882488999953,
                            39.77869767800007
                        ],
                        [
                            -8.229192136999927,
                            39.75458207500003
                        ],
                        [
                            -8.232869378671852,
                            39.66607481169477
                        ],
                        [
                            -8.784201975504734,
                            40.11139449376609
                        ]
                    ]
                ],
                "type": "Polygon"
            },
            "properties": {
                "diocese": "Colimbiren",
                "province": "Bracharen",
                "start": 1688,
                "end": 1770
            }
        },
        {
            "type": "Feature",
            "geometry": {
                "coordinates": [
                    [
                        [
                            [
                                -8.28593318317694,
                                41.06682880296382
                            ],
                            [
                                -8.22232189825616,
                                41.09511945389233
                            ],
                            [
                                -8.201195876338145,
                                41.09307993903142
                            ],
                            [
                                -8.157135626754936,
                                41.0870957032111
                            ],
                            [
                                -8.109606507342694,
                                41.102154700859835
                            ],
                            [
                                -8.055737839335706,
                                41.08886883418396
                            ],
                            [
                                -7.954101095417629,
                                41.1203674999681
                            ],
                            [
                                -7.8988690613085994,
                                41.11749686396344
                            ],
                            [
                                -7.891583563999973,
                                41.21256213700008
                            ],
                            [
                                -7.872272085999953,
                                41.242504187000065
                            ],
                            [
                                -7.920996429999946,
                                41.28873099900005
                            ],
                            [
                                -7.91832253299998,
                                41.32689367900008
                            ],
                            [
                                -7.9577120059999515,
                                41.34207219700005
                            ],
                            [
                                -7.977201743999956,
                                41.372757507000074
                            ],
                            [
                                -8.032105760999968,
                                41.31904872100006
                            ],
                            [
                                -8.078215627999953,
                                41.34760375700006
                            ],
                            [
                                -8.152371702999972,
                                41.36027104500005
                            ],
                            [
                                -8.171861440999976,
                                41.34903118100004
                            ],
                            [
                                -8.25433630599997,
                                41.42392694500006
                            ],
                            [
                                -8.270023167999966,
                                41.37150896800006
                            ],
                            [
                                -8.288562186999968,
                                41.36615781800003
                            ],
                            [
                                -8.329205420999926,
                                41.377216376000035
                            ],
                            [
                                -8.39504270499998,
                                41.36169819000003
                            ],
                            [
                                -8.405025253999952,
                                41.37792976700007
                            ],
                            [
                                -8.467297341999938,
                                41.34581943400008
                            ],
                            [
                                -8.493679791999966,
                                41.356167827000036
                            ],
                            [
                                -8.603012466999928,
                                41.34510569100007
                            ],
                            [
                                -8.604913904999933,
                                41.376502978000076
                            ],
                            [
                                -8.629394916999956,
                                41.40146727500007
                            ],
                            [
                                -8.776324271999954,
                                41.48210632800004
                            ],
                            [
                                -8.786580800999957,
                                41.414740324000036
                            ],
                            [
                                -8.739303230999951,
                                41.33212697500005
                            ],
                            [
                                -8.71228134699993,
                                41.183103919000075
                            ],
                            [
                                -8.707430839999972,
                                41.171891809000044
                            ],
                            [
                                -8.708647846999952,
                                41.18449234900004
                            ],
                            [
                                -8.695205330999954,
                                41.188269139000056
                            ],
                            [
                                -8.701218961999928,
                                41.17679560200003
                            ],
                            [
                                -8.67477691199997,
                                41.147321344000034
                            ],
                            [
                                -8.644340633999946,
                                41.023735404000035
                            ],
                            [
                                -8.673073053999929,
                                40.87790560700006
                            ],
                            [
                                -8.762988924999945,
                                40.643611312000075
                            ],
                            [
                                -8.73842940444553,
                                40.65502636948134
                            ],
                            [
                                -8.718678116999968,
                                40.67649662500003
                            ],
                            [
                                -8.655822157999978,
                                40.86046123500006
                            ],
                            [
                                -8.668895125999939,
                                40.801732540000046
                            ],
                            [
                                -8.647073864999982,
                                40.813907742000026
                            ],
                            [
                                -8.651498317999938,
                                40.83024764100003
                            ],
                            [
                                -8.643790244999934,
                                40.84053623700004
                            ],
                            [
                                -8.646315455999968,
                                40.82190287100008
                            ],
                            [
                                -8.625664829999948,
                                40.813647151000055
                            ],
                            [
                                -8.683578609999927,
                                40.768510580000054
                            ],
                            [
                                -8.661773375965337,
                                40.734288286760126
                            ],
                            [
                                -8.637155651999933,
                                40.72317767100003
                            ],
                            [
                                -8.513194208999948,
                                40.76024352700006
                            ],
                            [
                                -8.421230183999967,
                                40.76181227300003
                            ],
                            [
                                -8.406371965999938,
                                40.79868560400007
                            ],
                            [
                                -8.244749750999972,
                                40.85911318900003
                            ],
                            [
                                -8.203381901999933,
                                40.83738635100008
                            ],
                            [
                                -8.18353439699996,
                                40.85312838600004
                            ],
                            [
                                -8.185408898624923,
                                40.8881295555768
                            ],
                            [
                                -8.136534644187293,
                                40.89668285010752
                            ],
                            [
                                -8.15020409517873,
                                40.91482376979969
                            ],
                            [
                                -8.20097710796461,
                                40.93360805665674
                            ],
                            [
                                -8.351156020387844,
                                40.90818821620191
                            ],
                            [
                                -8.367237641999964,
                                40.99201454400003
                            ],
                            [
                                -8.407643195999981,
                                41.05477495500003
                            ],
                            [
                                -8.369257919999939,
                                41.04381113900007
                            ],
                            [
                                -8.316895299170865,
                                41.07390175110035
                            ],
                            [
                                -8.28593318317694,
                                41.06682880296382
                            ]
                        ]
                    ]
                ],
                "type": "MultiPolygon"
            },
            "properties": {
                "diocese": "Portugallen",
                "province": "Bracharen",
                "start": 1688,
                "end": 1770
            }
        }
    ]
}