{
    "type": "FeatureCollection",
    "features": [
        {
            "type": "Feature",
            "geometry": {
                "coordinates": [
                    [
                        [
                            -8.784201975504734,
                            40.11139449376609
                        ],
                        [
                            -8.776380538999945,
                            40.112218976000065
                        ],
                        [
                            -8.78614550348339,
                            40.112964310726895
                        ],
                        [
                            -8.794474363596539,
                            40.119691657085355
                        ],
                        [
                            -8.803015351999932,
                            40.13489616000004
                        ],
                        [
                            -8.826441407999937,
                            40.145610213000055
                        ],
                        [
                            -8.826563115497857,
                            40.145610227612195
                        ],
                        [
                            -8.900823704557657,
                            40.205591629220784
                        ],
                        [
                            -8.840877770999953,
                            40.336551308000026
                        ],
                        [
                            -8.753319620999946,
                            40.64640212100005
                        ],
                        [
                            -8.72656464499994,
                            40.662675738000075
                        ],
                        [
                            -8.698395967999943,
                            40.718719959000055
                        ],
                        [
                            -8.701156258999958,
                            40.75206375100004
                        ],
                        [
                            -8.637155651999933,
                            40.72317767100003
                        ],
                        [
                            -8.513194208999948,
                            40.76024352700006
                        ],
                        [
                            -8.421230183999967,
                            40.76181227300003
                        ],
                        [
                            -8.42097447599997,
                            40.688552935000075
                        ],
                        [
                            -8.349518974999967,
                            40.670851345000074
                        ],
                        [
                            -8.342388583999934,
                            40.688876107000056
                        ],
                        [
                            -8.305548225999928,
                            40.68797498500004
                        ],
                        [
                            -8.309113421999939,
                            40.62306215700005
                        ],
                        [
                            -8.286533847999976,
                            40.627572033000035
                        ],
                        [
                            -8.260389077999946,
                            40.60411735300005
                        ],
                        [
                            -8.324562603999937,
                            40.59328933900008
                        ],
                        [
                            -8.29466827899995,
                            40.52972998300004
                        ],
                        [
                            -8.234244307999973,
                            40.51021631000003
                        ],
                        [
                            -8.210476334999953,
                            40.45959966800007
                        ],
                        [
                            -8.192650354999955,
                            40.46285474300004
                        ],
                        [
                            -8.184569243999931,
                            40.44187482600006
                        ],
                        [
                            -8.12885711599995,
                            40.456296208000026
                        ],
                        [
                            -8.144068618999938,
                            40.415773423000076
                        ],
                        [
                            -8.126004959999932,
                            40.398399039000026
                        ],
                        [
                            -8.189703126999973,
                            40.391158389000054
                        ],
                        [
                            -8.20958330981786,
                            40.32988088308105
                        ],
                        [
                            -8.11922476199993,
                            40.33805218100008
                        ],
                        [
                            -7.932662642999958,
                            40.428336640000055
                        ],
                        [
                            -7.845167600999957,
                            40.49307406600008
                        ],
                        [
                            -7.83246417099997,
                            40.405741299000056
                        ],
                        [
                            -7.78938471999993,
                            40.34666846500005
                        ],
                        [
                            -7.7950296139999296,
                            40.247871917000055
                        ],
                        [
                            -7.774090029999968,
                            40.21933909000006
                        ],
                        [
                            -7.80318202899997,
                            40.189713932000075
                        ],
                        [
                            -7.808315910999966,
                            40.15557086500007
                        ],
                        [
                            -7.741955730999962,
                            40.130424780000055
                        ],
                        [
                            -7.7307372479999685,
                            40.10774171800006
                        ],
                        [
                            -7.751272775999951,
                            40.10017901600003
                        ],
                        [
                            -7.742906449999964,
                            40.09290639400007
                        ],
                        [
                            -7.774470317999942,
                            40.06351708900007
                        ],
                        [
                            -7.791202969999972,
                            40.08010469200008
                        ],
                        [
                            -7.788160669999968,
                            40.08606942100005
                        ],
                        [
                            -7.81725266899997,
                            40.07719487800006
                        ],
                        [
                            -7.79728757099997,
                            40.07632191000005
                        ],
                        [
                            -7.801832102999981,
                            40.04588153000003
                        ],
                        [
                            -7.8484767489999285,
                            40.01915226300008
                        ],
                        [
                            -7.845505752999941,
                            40.005044088000034
                        ],
                        [
                            -7.881306261999953,
                            40.01357760700006
                        ],
                        [
                            -7.881009161999941,
                            40.02779776800003
                        ],
                        [
                            -7.902103237999938,
                            40.00288209400003
                        ],
                        [
                            -7.953204378999942,
                            40.00151658900006
                        ],
                        [
                            -7.9628601179999805,
                            39.97670515500005
                        ],
                        [
                            -8.01173301199998,
                            39.988656742000046
                        ],
                        [
                            -8.00519681999998,
                            39.97237930400007
                        ],
                        [
                            -8.031787238999925,
                            39.98364871200005
                        ],
                        [
                            -8.034164036999925,
                            39.96065259400007
                        ],
                        [
                            -8.085710827999947,
                            39.96475147900003
                        ],
                        [
                            -8.089246312999933,
                            39.941001862000064
                        ],
                        [
                            -8.118148167999948,
                            39.946978760000036
                        ],
                        [
                            -8.151423329999943,
                            39.88368462400007
                        ],
                        [
                            -8.186029498999972,
                            39.880766434000066
                        ],
                        [
                            -8.208466464999958,
                            39.85157770100005
                        ],
                        [
                            -8.274826644999962,
                            39.842672666000055
                        ],
                        [
                            -8.270263193999938,
                            39.82296069500006
                        ],
                        [
                            -8.29346073499994,
                            39.806164555000066
                        ],
                        [
                            -8.283192970999949,
                            39.77782089500005
                        ],
                        [
                            -8.242882488999953,
                            39.77869767800007
                        ],
                        [
                            -8.229192136999927,
                            39.75458207500003
                        ],
                        [
                            -8.232869378671852,
                            39.66607481169477
                        ],
                        [
                            -8.784201975504734,
                            40.11139449376609
                        ]
                    ]
                ],
                "type": "Polygon"
            },
            "properties": {
                "diocese": "Colimbiren",
                "province": "Bracharen",
                "date": 1592
            }
        }
    ]
}