{
  "type": "FeatureCollection",
  "features": [
    {
      "type": "Feature",
      "properties": {
                "diocese": "Visen",
                "province": "Bracharen",
                "date": 1592
            },
      "geometry": {
        "coordinates": [
          [
            [
              [
                -8.157601597999928,
                40.92307724600005
              ],
              [
                -8.135007634999965,
                40.89735913700008
              ],
              [
                -8.187432140999931,
                40.887907074000054
              ],
              [
                -8.18353439699996,
                40.85312838600004
              ],
              [
                -8.203381901999933,
                40.83738635100008
              ],
              [
                -8.244749750999972,
                40.85911318900003
              ],
              [
                -8.406371965999938,
                40.79868560400007
              ],
              [
                -8.421230183999967,
                40.76181227300003
              ],
              [
                -8.42097447599997,
                40.688552935000075
              ],
              [
                -8.349518974999967,
                40.670851345000074
              ],
              [
                -8.342388583999934,
                40.688876107000056
              ],
              [
                -8.305548225999928,
                40.68797498500004
              ],
              [
                -8.309113421999939,
                40.62306215700005
              ],
              [
                -8.286533847999976,
                40.627572033000035
              ],
              [
                -8.260389077999946,
                40.60411735300005
              ],
              [
                -8.324562603999937,
                40.59328933900008
              ],
              [
                -8.299606232999963,
                40.53280070000005
              ],
              [
                -8.234244307999973,
                40.51021631000003
              ],
              [
                -8.210476334999953,
                40.45959966800007
              ],
              [
                -8.192650354999955,
                40.46285474300004
              ],
              [
                -8.184569243999931,
                40.44187482600006
              ],
              [
                -8.12885711599995,
                40.456296208000026
              ],
              [
                -8.144068618999938,
                40.415773423000076
              ],
              [
                -8.126004959999932,
                40.398399039000026
              ],
              [
                -8.189703126999973,
                40.391158389000054
              ],
              [
                -8.209668223999927,
                40.329581431000065
              ],
              [
                -8.12385951799996,
                40.33569694700003
              ],
              [
                -7.937297398999931,
                40.425984561000064
              ],
              [
                -7.82224367799995,
                40.50744330300006
              ],
              [
                -7.788661243999968,
                40.504809754000064
              ],
              [
                -7.708813023999937,
                40.544477795000034
              ],
              [
                -7.628374913999949,
                40.55439028200004
              ],
              [
                -7.588071722999928,
                40.59012124900005
              ],
              [
                -7.493967027999929,
                40.62018169000004
              ],
              [
                -7.42480222699993,
                40.697622368000054
              ],
              [
                -7.353498308999974,
                40.699424340000064
              ],
              [
                -7.3281378819999645,
                40.66773857600003
              ],
              [
                -7.269312148999973,
                40.67693224300007
              ],
              [
                -7.26717303199996,
                40.647724449000066
              ],
              [
                -7.21048641699997,
                40.65232282000005
              ],
              [
                -7.210842935999949,
                40.62824548100008
              ],
              [
                -7.160217153999952,
                40.63906783200008
              ],
              [
                -7.057896031999974,
                40.61363252600006
              ],
              [
                -7.036504855999965,
                40.63717404700003
              ],
              [
                -7.05611343399994,
                40.560836908000056
              ],
              [
                -7.104243578999956,
                40.52588767300006
              ],
              [
                -7.094261029999927,
                40.47275161300007
              ],
              [
                -7.041496129999928,
                40.45566322700006
              ],
              [
                -6.982258768999941,
                40.48938339600005
              ],
              [
                -6.935530934999974,
                40.54102519800006
              ],
              [
                -6.9353883269999415,
                40.580353228000035
              ],
              [
                -6.907579798999961,
                40.63405334300006
              ],
              [
                -6.945662032999962,
                40.73444463100003
              ],
              [
                -7.031078184999956,
                40.817463866000026
              ],
              [
                -7.064353346999951,
                40.81712660000005
              ],
              [
                -7.10193645399994,
                40.83994443500006
              ],
              [
                -7.224176058999944,
                40.82795676300003
              ],
              [
                -7.322409800999935,
                40.88405347300005
              ],
              [
                -7.357348720999937,
                40.868418217000055
              ],
              [
                -7.353783524999926,
                40.911002136000036
              ],
              [
                -7.388722444999928,
                40.90830776400003
              ],
              [
                -7.399732593999943,
                40.85476931300008
              ],
              [
                -7.457388117999926,
                40.79882354700004
              ],
              [
                -7.559352720999925,
                40.870035829000074
              ],
              [
                -7.610155125999938,
                40.85073118200006
              ],
              [
                -7.61639585599994,
                40.82256947400003
              ],
              [
                -7.655653344999962,
                40.86635829200003
              ],
              [
                -7.693439745999967,
                40.846318014000076
              ],
              [
                -7.7945076579999295,
                40.83387342100008
              ],
              [
                -7.865526360999979,
                40.84768296900006
              ],
              [
                -7.857682929999953,
                40.86871541800008
              ],
              [
                -7.869661987999962,
                40.877773492000074
              ],
              [
                -7.932837258999939,
                40.885644384000045
              ],
              [
                -7.975334394999948,
                40.918735010000034
              ],
              [
                -8.001859451999962,
                40.90246123400004
              ],
              [
                -8.069598174999953,
                40.91388562700007
              ],
              [
                -8.06859991999994,
                40.92767849200004
              ],
              [
                -8.08770936999997,
                40.932742338000025
              ],
              [
                -8.157601597999928,
                40.92307724600005
              ]
            ]
          ]
        ],
        "type": "MultiPolygon"
      }
    }
  ]
}