{"type": "FeatureCollection", "features": [{"type": "Feature", "properties": {"diocese": "Belley", "province": "V_Besan\u00e7on", "source": "32_Belley.txt"}, "geometry": {"type": "Polygon", "coordinates": [[[5.784389525558259, 45.74820647049266], [5.775102365773462, 45.74908542744127], [5.765815205988664, 45.749964384389884], [5.756528046203867, 45.7508433413385], [5.747240886419066, 45.75172229828712], [5.737953726634268, 45.752601255235724], [5.728666566849473, 45.75348021218434], [5.7193794070646735, 45.75435916913296], [5.710092247279876, 45.75523812608157], [5.700805087495077, 45.75611708303018], [5.691517927710281, 45.756996039978794], [5.691517927710281, 45.756996039978794], [5.68862861274463, 45.76338974263041], [5.6857392977789765, 45.76978344528203], [5.682849982813327, 45.776177147933645], [5.679960667847675, 45.78257085058526], [5.677071352882024, 45.788964553236866], [5.674182037916374, 45.79535825588848], [5.671292722950723, 45.8017519585401], [5.668403407985069, 45.808145661191716], [5.66551409301942, 45.81453936384332], [5.662624778053768, 45.82093306649494], [5.662624778053768, 45.82093306649494], [5.659090425979496, 45.82212329722874], [5.655556073905224, 45.82331352796255], [5.65202172183095, 45.82450375869635], [5.64848736975668, 45.82569398943016], [5.644953017682408, 45.82688422016397], [5.641418665608137, 45.82807445089777], [5.637884313533865, 45.82926468163158], [5.634349961459593, 45.83045491236539], [5.630815609385319, 45.83164514309919], [5.627281257311047, 45.83283537383299], [5.627281257311047, 45.83283537383299], [5.620401108706126, 45.8384760463172], [5.613520960101207, 45.844116718801395], [5.606640811496286, 45.84975739128559], [5.5997606628913665, 45.8553980637698], [5.5928805142864455, 45.861038736253995], [5.586000365681526, 45.86667940873819], [5.579120217076603, 45.87232008122239], [5.572240068471682, 45.87796075370659], [5.565359919866765, 45.883601426190786], [5.558479771261844, 45.889242098674984], [5.558479771261844, 45.889242098674984], [5.551965215801053, 45.89695202296271], [5.545450660340261, 45.90466194725043], [5.538936104879472, 45.91237187153815], [5.532421549418681, 45.92008179582587], [5.5259069939578875, 45.92779172011359], [5.519392438497096, 45.93550164440131], [5.512877883036307, 45.94321156868903], [5.5063633275755155, 45.95092149297676], [5.499848772114724, 45.95863141726448], [5.493334216653935, 45.9663413415522], [5.493334216653935, 45.9663413415522], [5.484981417005907, 45.96063380598115], [5.476628617357882, 45.954926270410105], [5.468275817709856, 45.94921873483905], [5.459923018061831, 45.943511199268], [5.451570218413803, 45.937803663696954], [5.443217418765775, 45.932096128125906], [5.434864619117748, 45.926388592554865], [5.426511819469724, 45.92068105698382], [5.418159019821696, 45.91497352141276], [5.409806220173669, 45.909265985841714], [5.409806220173669, 45.909265985841714], [5.409348235675141, 45.90732277925881], [5.408890251176619, 45.905379572675905], [5.408432266678089, 45.903436366093004], [5.407974282179561, 45.9014931595101], [5.4075162976810365, 45.899549952927195], [5.407058313182507, 45.89760674634429], [5.406600328683982, 45.89566353976139], [5.406142344185454, 45.89372033317849], [5.405684359686928, 45.891777126595585], [5.4052263751884, 45.889833920012684], [5.4052263751884, 45.889833920012684], [5.409755193662999, 45.88676281279383], [5.4142840121376015, 45.88369170557499], [5.418812830612202, 45.88062059835614], [5.423341649086803, 45.8775494911373], [5.427870467561403, 45.87447838391846], [5.432399286036004, 45.871407276699614], [5.436928104510603, 45.86833616948076], [5.441456922985202, 45.86526506226192], [5.445985741459802, 45.862193955043075], [5.450514559934403, 45.85912284782423], [5.450514559934403, 45.85912284782423], [5.4526782738225545, 45.85304197439481], [5.454841987710706, 45.8469611009654], [5.457005701598858, 45.84088022753599], [5.459169415487006, 45.83479935410657], [5.461333129375159, 45.82871848067716], [5.463496843263309, 45.82263760724774], [5.465660557151461, 45.81655673381833], [5.4678242710396106, 45.810475860388905], [5.469987984927762, 45.8043949869595], [5.472151698815914, 45.79831411353009], [5.472151698815914, 45.79831411353009], [5.476860511293252, 45.79480506651468], [5.481569323770591, 45.79129601949926], [5.486278136247931, 45.78778697248385], [5.49098694872527, 45.78427792546844], [5.495695761202612, 45.780768878453024], [5.500404573679951, 45.77725983143761], [5.505113386157289, 45.7737507844222], [5.50982219863463, 45.770241737406785], [5.51453101111197, 45.76673269039138], [5.519239823589308, 45.763223643375966], [5.519239823589308, 45.763223643375966], [5.5195978865632895, 45.76065358066216], [5.519955949537268, 45.75808351794835], [5.520314012511244, 45.75551345523455], [5.5206720754852245, 45.75294339252074], [5.521030138459203, 45.75037332980693], [5.521388201433181, 45.74780326709314], [5.521746264407161, 45.74523320437934], [5.522104327381138, 45.74266314166553], [5.52246239035512, 45.74009307895172], [5.522820453329096, 45.737523016237915], [5.522820453329096, 45.737523016237915], [5.526713258827165, 45.734702792981395], [5.530606064325234, 45.73188256972487], [5.534498869823304, 45.72906234646834], [5.538391675321371, 45.72624212321181], [5.54228448081944, 45.72342189995529], [5.546177286317507, 45.720601676698756], [5.550070091815575, 45.71778145344223], [5.553962897313646, 45.7149612301857], [5.557855702811715, 45.71214100692918], [5.561748508309783, 45.70932078367265], [5.561748508309783, 45.70932078367265], [5.566999166515243, 45.70480775582205], [5.572249824720707, 45.700294727971446], [5.577500482926171, 45.69578170012085], [5.582751141131633, 45.69126867227024], [5.5880017993370945, 45.686755644419634], [5.593252457542555, 45.682242616569035], [5.59850311574802, 45.677729588718435], [5.60375377395348, 45.673216560867836], [5.609004432158946, 45.66870353301723], [5.614255090364406, 45.66419050516663], [5.614255090364406, 45.66419050516663], [5.613889932174645, 45.66312536953223], [5.613524773984887, 45.662060233897826], [5.613159615795125, 45.66099509826343], [5.6127944576053626, 45.659929962629036], [5.612429299415602, 45.65886482699464], [5.612064141225842, 45.65779969136024], [5.611698983036078, 45.65673455572585], [5.611333824846316, 45.65566942009145], [5.6109686666565555, 45.654604284457044], [5.610603508466795, 45.653539148822645], [5.610603508466795, 45.653539148822645], [5.606887911640273, 45.654478291635726], [5.603172314813747, 45.655417434448815], [5.599456717987223, 45.656356577261896], [5.5957411211606995, 45.65729572007498], [5.592025524334176, 45.65823486288805], [5.5883099275076535, 45.65917400570114], [5.584594330681128, 45.66011314851422], [5.580878733854606, 45.6610522913273], [5.57716313702808, 45.66199143414038], [5.573447540201558, 45.66293057695347], [5.573447540201558, 45.66293057695347], [5.570092625463882, 45.662615690205406], [5.566737710726207, 45.66230080345734], [5.563382795988533, 45.66198591670928], [5.560027881250859, 45.66167102996121], [5.556672966513183, 45.66135614321315], [5.553318051775509, 45.66104125646508], [5.549963137037835, 45.660726369717025], [5.546608222300161, 45.66041148296897], [5.543253307562486, 45.6600965962209], [5.539898392824812, 45.659781709472846], [5.539898392824812, 45.659781709472846], [5.539536984898879, 45.66065966706067], [5.539175576972946, 45.661537624648496], [5.538814169047011, 45.66241558223632], [5.5384527611210785, 45.663293539824146], [5.538091353195142, 45.66417149741198], [5.537729945269213, 45.6650494549998], [5.537368537343278, 45.66592741258763], [5.5370071294173435, 45.66680537017546], [5.536645721491412, 45.66768332776329], [5.536284313565478, 45.66856128535111], [5.536284313565478, 45.66856128535111], [5.5343831746232155, 45.669814930469116], [5.532482035680955, 45.67106857558713], [5.5305808967386945, 45.67232222070514], [5.528679757796432, 45.673575865823146], [5.52677861885417, 45.67482951094116], [5.524877479911908, 45.676083156059164], [5.522976340969647, 45.67733680117717], [5.521075202027383, 45.67859044629518], [5.5191740630851225, 45.67984409141319], [5.517272924142858, 45.68109773653119], [5.517272924142858, 45.68109773653119], [5.51355183058987, 45.679967662714596], [5.50983073703688, 45.67883758889799], [5.5061096434838905, 45.67770751508139], [5.502388549930899, 45.67657744126479], [5.498667456377907, 45.675447367448186], [5.4949463628249156, 45.67431729363159], [5.4912252692719274, 45.673187219814984], [5.487504175718938, 45.67205714599837], [5.483783082165946, 45.670927072181776], [5.480061988612958, 45.66979699836517], [5.480061988612958, 45.66979699836517], [5.479249938558366, 45.66774048809002], [5.478437888503777, 45.66568397781487], [5.477625838449185, 45.66362746753972], [5.476813788394596, 45.66157095726455], [5.476001738340008, 45.659514446989405], [5.475189688285418, 45.65745793671425], [5.474377638230829, 45.6554014264391], [5.473565588176237, 45.65334491616395], [5.472753538121649, 45.65128840588879], [5.471941488067062, 45.649231895613646], [5.471941488067062, 45.649231895613646], [5.473476940276981, 45.647459009516666], [5.475012392486898, 45.64568612341968], [5.476547844696817, 45.6439132373227], [5.478083296906737, 45.64214035122571], [5.479618749116657, 45.64036746512873], [5.481154201326575, 45.63859457903175], [5.482689653536495, 45.636821692934774], [5.484225105746413, 45.63504880683779], [5.485760557956334, 45.63327592074081], [5.4872960101662525, 45.63150303464382], [5.4872960101662525, 45.63150303464382], [5.487163156796882, 45.629109071537314], [5.487030303427515, 45.626715108430794], [5.486897450058146, 45.62432114532427], [5.486764596688776, 45.62192718221775], [5.486631743319407, 45.61953321911123], [5.486498889950038, 45.61713925600471], [5.4863660365806695, 45.61474529289819], [5.4862331832113025, 45.61235132979167], [5.486100329841932, 45.60995736668515], [5.485967476472563, 45.60756340357864], [5.485967476472563, 45.60756340357864], [5.48224506062096, 45.60578920530515], [5.478522644769354, 45.60401500703168], [5.474800228917749, 45.6022408087582], [5.4710778130661435, 45.60046661048471], [5.46735539721454, 45.59869241221123], [5.463632981362933, 45.59691821393774], [5.459910565511329, 45.59514401566427], [5.456188149659722, 45.59336981739079], [5.452465733808118, 45.5915956191173], [5.448743317956515, 45.58982142084382], [5.448743317956515, 45.58982142084382], [5.449121685310727, 45.58654100536761], [5.449500052664938, 45.583260589891395], [5.449878420019148, 45.57998017441517], [5.450256787373361, 45.57669975893896], [5.450635154727571, 45.57341934346274], [5.451013522081782, 45.57013892798653], [5.451391889435994, 45.56685851251031], [5.451770256790205, 45.56357809703409], [5.452148624144417, 45.56029768155788], [5.45252699149863, 45.55701726608166], [5.45252699149863, 45.55701726608166], [5.45085783034785, 45.555952898882516], [5.449188669197072, 45.55488853168337], [5.447519508046295, 45.553824164484226], [5.445850346895515, 45.55275979728508], [5.444181185744739, 45.551695430085935], [5.4425120245939596, 45.550631062886794], [5.440842863443184, 45.54956669568765], [5.439173702292402, 45.5485023284885], [5.4375045411416245, 45.54743796128937], [5.43583537999085, 45.54637359409023], [5.43583537999085, 45.54637359409023], [5.439678499357738, 45.54424665192385], [5.443521618724626, 45.54211970975749], [5.447364738091517, 45.53999276759113], [5.451207857458405, 45.53786582542477], [5.455050976825294, 45.53573888325841], [5.458894096192182, 45.53361194109203], [5.462737215559072, 45.53148499892567], [5.466580334925965, 45.529358056759314], [5.4704234542928525, 45.52723111459295], [5.47426657365974, 45.525104172426595], [5.47426657365974, 45.525104172426595], [5.479142309641375, 45.526435313858194], [5.484018045623012, 45.5277664552898], [5.488893781604645, 45.5290975967214], [5.493769517586282, 45.530428738153006], [5.498645253567915, 45.531759879584605], [5.503520989549552, 45.53309102101622], [5.508396725531185, 45.534422162447825], [5.51327246151282, 45.535753303879424], [5.518148197494456, 45.53708444531103], [5.523023933476091, 45.53841558674263], [5.523023933476091, 45.53841558674263], [5.52853518720241, 45.53682100885447], [5.534046440928726, 45.5352264309663], [5.539557694655047, 45.53363185307813], [5.545068948381363, 45.53203727518996], [5.550580202107682, 45.53044269730179], [5.556091455834002, 45.52884811941362], [5.561602709560319, 45.527253541525454], [5.567113963286639, 45.525658963637284], [5.5726252170129555, 45.52406438574911], [5.578136470739276, 45.52246980786094], [5.578136470739276, 45.52246980786094], [5.579540780933927, 45.519189648423506], [5.58094509112858, 45.51590948898606], [5.582349401323231, 45.51262932954862], [5.583753711517884, 45.50934917011117], [5.585158021712534, 45.50606901067373], [5.58656233190719, 45.50278885123629], [5.587966642101842, 45.499508691798844], [5.589370952296491, 45.49622853236141], [5.590775262491146, 45.492948372923955], [5.592179572685797, 45.4896682134865], [5.592179572685797, 45.4896682134865], [5.596406706389855, 45.487186680482175], [5.600633840093909, 45.48470514747784], [5.604860973797969, 45.482223614473504], [5.609088107502025, 45.479742081469176], [5.613315241206081, 45.47726054846484], [5.617542374910137, 45.474779015460506], [5.621769508614193, 45.47229748245618], [5.625996642318251, 45.469815949451835], [5.630223776022305, 45.46733441644751], [5.634450909726365, 45.46485288344317], [5.634450909726365, 45.46485288344317], [5.640478383797177, 45.46574102233148], [5.646505857867991, 45.46662916121978], [5.652533331938807, 45.467517300108085], [5.658560806009621, 45.46840543899639], [5.6645882800804355, 45.469293577884685], [5.670615754151251, 45.470181716773], [5.676643228222066, 45.47106985566129], [5.6826707022928815, 45.47195799454959], [5.688698176363694, 45.47284613343789], [5.694725650434508, 45.4737342723262], [5.694725650434508, 45.4737342723262], [5.696002925462608, 45.47107468715183], [5.697280200490706, 45.46841510197745], [5.698557475518804, 45.46575551680308], [5.699834750546902, 45.463095931628715], [5.701112025575002, 45.46043634645433], [5.7023893006031, 45.45777676127996], [5.703666575631198, 45.45511717610559], [5.704943850659296, 45.45245759093121], [5.706221125687394, 45.44979800575684], [5.707498400715492, 45.44713842058246], [5.707498400715492, 45.44713842058246], [5.710658590368341, 45.44903001465273], [5.713818780021189, 45.45092160872299], [5.716978969674038, 45.45281320279325], [5.7201391593268855, 45.4547047968635], [5.723299348979735, 45.45659639093377], [5.726459538632582, 45.45848798500403], [5.7296197282854315, 45.46037957907429], [5.732779917938279, 45.46227117314455], [5.735940107591128, 45.464162767214816], [5.7391002972439775, 45.466054361285074], [5.7391002972439775, 45.466054361285074], [5.739254485815284, 45.46671454905701], [5.739408674386594, 45.46737473682895], [5.739562862957904, 45.46803492460088], [5.739717051529212, 45.468695112372814], [5.739871240100523, 45.46935530014475], [5.74002542867183, 45.47001548791669], [5.74017961724314, 45.47067567568862], [5.740333805814448, 45.47133586346055], [5.740487994385758, 45.47199605123249], [5.740642182957066, 45.47265623900443], [5.740642182957066, 45.47265623900443], [5.74037081890102, 45.47292963826256], [5.740099454844975, 45.47320303752069], [5.739828090788924, 45.473476436778824], [5.73955672673288, 45.47374983603696], [5.739285362676833, 45.474023235295085], [5.739013998620786, 45.47429663455322], [5.7387426345647405, 45.47457003381135], [5.7384712705086915, 45.47484343306948], [5.738199906452646, 45.47511683232761], [5.737928542396601, 45.47539023158574], [5.737928542396601, 45.47539023158574], [5.7365210860201685, 45.476261528989795], [5.73511362964374, 45.47713282639385], [5.733706173267313, 45.478004123797916], [5.732298716890881, 45.47887542120196], [5.730891260514454, 45.47974671860602], [5.729483804138022, 45.480618016010084], [5.728076347761592, 45.48148931341414], [5.726668891385165, 45.4823606108182], [5.725261435008733, 45.483231908222244], [5.723853978632306, 45.48410320562631], [5.723853978632306, 45.48410320562631], [5.723805209550168, 45.484410898502226], [5.723756440468032, 45.48471859137815], [5.723707671385897, 45.485026284254054], [5.723658902303761, 45.48533397712997], [5.7236101332216265, 45.48564167000589], [5.7235613641394885, 45.48594936288181], [5.723512595057352, 45.48625705575772], [5.723463825975216, 45.48656474863364], [5.7234150568930815, 45.486872441509554], [5.723366287810945, 45.487180134385476], [5.723366287810945, 45.487180134385476], [5.722849250620051, 45.48829093761474], [5.7223322134291585, 45.48940174084401], [5.721815176238266, 45.49051254407328], [5.721298139047372, 45.49162334730254], [5.720781101856478, 45.49273415053182], [5.720264064665583, 45.49384495376108], [5.719747027474693, 45.49495575699035], [5.7192299902838, 45.49606656021962], [5.718712953092904, 45.497177363448884], [5.7181959159020135, 45.49828816667816], [5.7181959159020135, 45.49828816667816], [5.71799874138093, 45.498595767823964], [5.717801566859849, 45.49890336896978], [5.717604392338767, 45.499210970115584], [5.717407217817685, 45.4995185712614], [5.717210043296603, 45.499826172407204], [5.7170128687755195, 45.50013377355302], [5.7168156942544375, 45.50044137469883], [5.716618519733355, 45.500748975844644], [5.716421345212275, 45.50105657699045], [5.716224170691191, 45.501364178136264], [5.716224170691191, 45.501364178136264], [5.715114983221699, 45.5030730699534], [5.714005795752209, 45.50478196177055], [5.712896608282717, 45.506490853587685], [5.711787420813225, 45.50819974540483], [5.710678233343732, 45.50990863722197], [5.70956904587424, 45.51161752903911], [5.7084598584047495, 45.513326420856245], [5.707350670935256, 45.51503531267338], [5.706241483465764, 45.51674420449053], [5.70513229599627, 45.51845309630767], [5.70513229599627, 45.51845309630767], [5.704885395588613, 45.518572649147586], [5.704638495180953, 45.5186922019875], [5.704391594773298, 45.51881175482742], [5.70414469436564, 45.51893130766733], [5.703897793957983, 45.51905086050724], [5.703650893550323, 45.51917041334716], [5.7034039931426666, 45.519289966187074], [5.703157092735008, 45.51940951902699], [5.7029101923273515, 45.519529071866906], [5.702663291919691, 45.51964862470682], [5.702663291919691, 45.51964862470682], [5.702391518983921, 45.51975116169323], [5.702119746048149, 45.51985369867963], [5.701847973112377, 45.51995623566603], [5.701576200176605, 45.52005877265243], [5.701304427240837, 45.520161309638844], [5.701032654305065, 45.52026384662525], [5.700760881369293, 45.52036638361165], [5.700489108433521, 45.520468920598056], [5.700217335497751, 45.52057145758446], [5.699945562561977, 45.52067399457087], [5.699945562561977, 45.52067399457087], [5.699500946696766, 45.520861864813284], [5.699056330831555, 45.52104973505569], [5.698611714966342, 45.52123760529812], [5.698167099101131, 45.521425475540525], [5.697722483235921, 45.52161334578294], [5.697277867370708, 45.52180121602536], [5.696833251505497, 45.52198908626777], [5.696388635640284, 45.52217695651018], [5.695944019775073, 45.52236482675261], [5.695499403909862, 45.522552696995014], [5.695499403909862, 45.522552696995014], [5.695574121249569, 45.52286036599535], [5.695648838589278, 45.523168034995685], [5.695723555928987, 45.523475703996006], [5.6957982732686965, 45.523783372996334], [5.695872990608406, 45.52409104199666], [5.695947707948113, 45.524398710997005], [5.696022425287824, 45.52470637999733], [5.696097142627531, 45.52501404899766], [5.69617185996724, 45.52532171799798], [5.6962465773069475, 45.525629386998325], [5.6962465773069475, 45.525629386998325], [5.696148286936573, 45.52593701282209], [5.696049996566202, 45.52624463864587], [5.695951706195832, 45.52655226446964], [5.695853415825457, 45.52685989029341], [5.695755125455086, 45.52716751611718], [5.695656835084712, 45.527475141940954], [5.6955585447143395, 45.52778276776472], [5.6954602543439705, 45.5280903935885], [5.695361963973596, 45.528398019412265], [5.695263673603224, 45.52870564523604], [5.695263673603224, 45.52870564523604], [5.6938552077896105, 45.5290129440867], [5.692446741975997, 45.52932024293738], [5.691038276162384, 45.529627541788045], [5.689629810348773, 45.52993484063871], [5.68822134453516, 45.53024213948939], [5.686812878721547, 45.53054943834005], [5.685404412907934, 45.530856737190724], [5.683995947094322, 45.53116403604139], [5.682587481280709, 45.53147133489206], [5.681179015467098, 45.531778633742725], [5.681179015467098, 45.531778633742725], [5.680686343013983, 45.53268434281687], [5.68019367056087, 45.53359005189101], [5.679700998107757, 45.53449576096516], [5.679208325654642, 45.5354014700393], [5.678715653201529, 45.536307179113436], [5.6782229807484175, 45.53721288818758], [5.677730308295303, 45.53811859726172], [5.677237635842189, 45.53902430633587], [5.6767449633890745, 45.53993001541001], [5.676252290935961, 45.54083572448415], [5.676252290935961, 45.54083572448415], [5.676376516326618, 45.54117758921254], [5.676500741717277, 45.54151945394093], [5.676624967107932, 45.541861318669326], [5.676749192498587, 45.54220318339772], [5.6768734178892455, 45.54254504812611], [5.6769976432799005, 45.5428869128545], [5.677121868670559, 45.5432287775829], [5.677246094061212, 45.54357064231129], [5.677370319451871, 45.54391250703967], [5.677494544842528, 45.54425437176806], [5.677494544842528, 45.54425437176806], [5.677840355664349, 45.544066476867435], [5.678186166486174, 45.5438785819668], [5.678531977307994, 45.543690687066174], [5.678877788129817, 45.54350279216554], [5.679223598951641, 45.5433148972649], [5.679569409773464, 45.54312700236427], [5.679915220595287, 45.54293910746364], [5.6802610314171105, 45.54275121256301], [5.680606842238934, 45.54256331766237], [5.680952653060755, 45.54237542276174], [5.680952653060755, 45.54237542276174], [5.681372838107036, 45.54235840859195], [5.681793023153311, 45.54234139442216], [5.682213208199588, 45.54232438025236], [5.682633393245867, 45.542307366082575], [5.683053578292146, 45.54229035191278], [5.683473763338425, 45.542273337742984], [5.683893948384702, 45.54225632357319], [5.684314133430979, 45.542239309403406], [5.684734318477258, 45.542222295233614], [5.685154503523535, 45.542205281063815], [5.685154503523535, 45.542205281063815], [5.684389761297261, 45.543059729220204], [5.683625019070988, 45.54391417737661], [5.682860276844719, 45.544768625532996], [5.682095534618444, 45.54562307368938], [5.681330792392169, 45.54647752184578], [5.680566050165897, 45.54733197000217], [5.6798013079396235, 45.548186418158565], [5.679036565713352, 45.549040866314954], [5.67827182348708, 45.54989531447134], [5.677507081260806, 45.55074976262774], [5.677507081260806, 45.55074976262774], [5.677705377366969, 45.551023279096306], [5.677903673473132, 45.55129679556488], [5.678101969579295, 45.55157031203345], [5.678300265685458, 45.55184382850202], [5.678498561791621, 45.55211734497059], [5.678696857897785, 45.55239086143916], [5.6788951540039445, 45.55266437790773], [5.679093450110111, 45.552937894376306], [5.679291746216272, 45.55321141084487], [5.679490042322435, 45.55348492731345], [5.679490042322435, 45.55348492731345], [5.679070220089137, 45.55368992277647], [5.678650397855842, 45.55389491823949], [5.678230575622544, 45.55409991370253], [5.677810753389247, 45.55430490916556], [5.677390931155951, 45.55450990462859], [5.676971108922654, 45.55471490009161], [5.676551286689357, 45.55491989555463], [5.676131464456061, 45.55512489101767], [5.675711642222764, 45.55532988648069], [5.675291819989466, 45.55553488194373], [5.675291819989466, 45.55553488194373], [5.675293073420173, 45.556184311642845], [5.675294326850878, 45.55683374134197], [5.675295580281585, 45.55748317104109], [5.67529683371229, 45.55813260074021], [5.6752980871429966, 45.55878203043933], [5.675299340573703, 45.559431460138455], [5.675300594004408, 45.56008088983758], [5.675301847435115, 45.5607303195367], [5.67530310086582, 45.56137974923581], [5.675304354296527, 45.562029178934935], [5.675304354296527, 45.562029178934935], [5.672884727481421, 45.563601010222655], [5.670465100666318, 45.56517284151037], [5.668045473851212, 45.56674467279809], [5.665625847036109, 45.56831650408579], [5.663206220221005, 45.569888335373506], [5.6607865934058985, 45.571460166661225], [5.658366966590798, 45.57303199794893], [5.655947339775693, 45.57460382923666], [5.653527712960589, 45.57617566052436], [5.651108086145484, 45.57774749181208], [5.651108086145484, 45.57774749181208], [5.65101035662043, 45.57834570378974], [5.650912627095378, 45.57894391576742], [5.650814897570331, 45.5795421277451], [5.6507171680452775, 45.580140339722774], [5.650619438520225, 45.58073855170045], [5.650521708995175, 45.58133676367812], [5.650423979470121, 45.58193497565579], [5.650326249945071, 45.582533187633466], [5.65022852042002, 45.58313139961114], [5.650130790894968, 45.583729611588815], [5.650130790894968, 45.583729611588815], [5.649538277697827, 45.58413966419003], [5.648945764500686, 45.584549716791244], [5.648353251303547, 45.58495976939246], [5.647760738106404, 45.58536982199367], [5.647168224909263, 45.58577987459489], [5.6465757117121225, 45.5861899271961], [5.6459831985149815, 45.58659997979732], [5.645390685317841, 45.58701003239853], [5.6447981721207, 45.58742008499974], [5.644205658923559, 45.58783013760095], [5.644205658923559, 45.58783013760095], [5.64398362490053, 45.5880864848305], [5.643761590877501, 45.588342832060036], [5.643539556854474, 45.588599179289574], [5.643317522831444, 45.58885552651911], [5.643095488808415, 45.58911187374865], [5.642873454785386, 45.589368220978194], [5.642651420762357, 45.58962456820773], [5.6424293867393285, 45.58988091543727], [5.6422073527163, 45.59013726266681], [5.641985318693271, 45.590393609896346], [5.641985318693271, 45.590393609896346], [5.6406283731334135, 45.59177767049535], [5.6392714275735525, 45.59316173109435], [5.637914482013695, 45.59454579169335], [5.636557536453834, 45.59592985229234], [5.635200590893977, 45.597313912891345], [5.633843645334117, 45.59869797349034], [5.632486699774258, 45.60008203408934], [5.631129754214399, 45.60146609468834], [5.62977280865454, 45.60285015528734], [5.628415863094681, 45.60423421588634], [5.628415863094681, 45.60423421588634], [5.628318562358203, 45.60505459254633], [5.628221261621725, 45.60587496920631], [5.628123960885251, 45.606695345866314], [5.628026660148773, 45.607515722526294], [5.627929359412292, 45.60833609918629], [5.627832058675816, 45.60915647584628], [5.627734757939338, 45.60997685250628], [5.627637457202862, 45.61079722916626], [5.627540156466386, 45.611617605826254], [5.627442855729907, 45.61243798248624], [5.627442855729907, 45.61243798248624], [5.627745583759307, 45.6123889433666], [5.628048311788708, 45.612339904246944], [5.628351039818108, 45.61229086512731], [5.628653767847508, 45.61224182600766], [5.628956495876912, 45.61219278688801], [5.6292592239063115, 45.61214374776837], [5.629561951935711, 45.61209470864872], [5.629864679965111, 45.61204566952907], [5.630167407994513, 45.61199663040943], [5.630470136023915, 45.61194759128978], [5.630470136023915, 45.61194759128978], [5.630587573237502, 45.61192836852247], [5.630705010451091, 45.611909145755156], [5.630822447664681, 45.611889922987835], [5.63093988487827, 45.61187070022053], [5.631057322091857, 45.61185147745321], [5.631174759305447, 45.611832254685886], [5.631292196519034, 45.61181303191858], [5.631409633732625, 45.611793809151266], [5.631527070946213, 45.61177458638395], [5.631644508159802, 45.61175536361664], [5.631644508159802, 45.61175536361664], [5.632460856629834, 45.612063217701674], [5.633277205099862, 45.612371071786704], [5.634093553569894, 45.61267892587174], [5.634909902039922, 45.61298677995676], [5.635726250509952, 45.6132946340418], [5.636542598979981, 45.61360248812683], [5.637358947450011, 45.61391034221187], [5.638175295920041, 45.6142181962969], [5.638991644390071, 45.614526050381926], [5.639807992860101, 45.614833904466956], [5.639807992860101, 45.614833904466956], [5.6398859404682256, 45.61517575764607], [5.63996388807635, 45.61551761082517], [5.640041835684475, 45.61585946400428], [5.640119783292599, 45.61620131718338], [5.640197730900724, 45.61654317036249], [5.640275678508848, 45.6168850235416], [5.640353626116971, 45.61722687672071], [5.640431573725095, 45.617568729899816], [5.640509521333222, 45.61791058307892], [5.640587468941344, 45.618252436258025], [5.640587468941344, 45.618252436258025], [5.640811007376847, 45.61881654504012], [5.641034545812346, 45.61938065382221], [5.64125808424785, 45.6199447626043], [5.641481622683349, 45.62050887138639], [5.64170516111885, 45.621072980168485], [5.6419286995543505, 45.62163708895058], [5.642152237989849, 45.622201197732664], [5.642375776425354, 45.62276530651476], [5.642599314860853, 45.62332941529685], [5.642822853296355, 45.62389352407894], [5.642822853296355, 45.62389352407894], [5.643614256274434, 45.62406458375461], [5.644405659252513, 45.624235643430275], [5.645197062230594, 45.62440670310594], [5.645988465208674, 45.624577762781605], [5.646779868186753, 45.62474882245728], [5.647571271164834, 45.624919882132936], [5.6483626741429145, 45.6250909418086], [5.649154077120993, 45.625262001484266], [5.649945480099074, 45.625433061159924], [5.650736883077153, 45.6256041208356], [5.650736883077153, 45.6256041208356], [5.650935146248301, 45.625860572956334], [5.651133409419447, 45.62611702507708], [5.651331672590594, 45.62637347719782], [5.65152993576174, 45.62662992931856], [5.651728198932888, 45.6268863814393], [5.651926462104035, 45.62714283356004], [5.652124725275181, 45.62739928568078], [5.652322988446329, 45.62765573780153], [5.652521251617474, 45.62791218992226], [5.652719514788624, 45.628168642043015], [5.652719514788624, 45.628168642043015], [5.653166274807827, 45.62909170459903], [5.65361303482703, 45.63001476715504], [5.6540597948462334, 45.63093782971105], [5.654506554865437, 45.63186089226707], [5.65495331488464, 45.6327839548231], [5.655400074903845, 45.6337070173791], [5.655846834923048, 45.63463007993512], [5.656293594942252, 45.63555314249113], [5.656740354961453, 45.636476205047146], [5.657187114980658, 45.637399267603165], [5.657187114980658, 45.637399267603165], [5.659535950056618, 45.637553706312175], [5.661884785132576, 45.63770814502117], [5.664233620208536, 45.637862583730175], [5.666582455284495, 45.638017022439186], [5.668931290360456, 45.63817146114818], [5.671280125436416, 45.638325899857186], [5.673628960512374, 45.6384803385662], [5.675977795588334, 45.63863477727519], [5.678326630664291, 45.6387892159842], [5.680675465740251, 45.63894365469321], [5.680675465740251, 45.63894365469321], [5.681516607736636, 45.63926857930542], [5.68235774973302, 45.639593503917645], [5.683198891729402, 45.63991842852987], [5.684040033725784, 45.64024335314209], [5.684881175722168, 45.64056827775431], [5.685722317718554, 45.64089320236653], [5.686563459714936, 45.641218126978764], [5.68740460171132, 45.64154305159098], [5.688245743707704, 45.6418679762032], [5.6890868857040875, 45.642192900815424], [5.6890868857040875, 45.642192900815424], [5.689408714404397, 45.64244932908033], [5.689730543104712, 45.642705757345226], [5.6900523718050255, 45.642962185610116], [5.690374200505337, 45.64321861387502], [5.6906960292056485, 45.64347504213992], [5.691017857905962, 45.64373147040481], [5.691339686606273, 45.643987898669714], [5.691661515306587, 45.644244326934604], [5.6919833440069, 45.64450075519951], [5.69230517270721, 45.64475718346441], [5.69230517270721, 45.64475718346441], [5.692454752575102, 45.645406759567315], [5.692604332442993, 45.64605633567021], [5.692753912310888, 45.646705911773125], [5.692903492178779, 45.647355487876034], [5.693053072046672, 45.64800506397894], [5.693202651914563, 45.648654640081844], [5.693352231782455, 45.64930421618475], [5.693501811650348, 45.64995379228767], [5.693651391518239, 45.65060336839057], [5.693800971386132, 45.65125294449348], [5.693800971386132, 45.65125294449348], [5.693653271875419, 45.651577622326094], [5.69350557236471, 45.65190230015872], [5.693357872853998, 45.65222697799134], [5.693210173343287, 45.652551655823956], [5.693062473832576, 45.65287633365658], [5.692914774321865, 45.653201011489195], [5.6927670748111545, 45.65352568932182], [5.692619375300442, 45.65385036715445], [5.692471675789731, 45.65417504498706], [5.6923239762790185, 45.654499722819686], [5.6923239762790185, 45.654499722819686], [5.691954453803788, 45.65514911467975], [5.691584931328553, 45.65579850653982], [5.691215408853322, 45.656447898399875], [5.690845886378087, 45.65709729025994], [5.690476363902855, 45.65774668212001], [5.690106841427621, 45.65839607398008], [5.689737318952387, 45.65904546584014], [5.689367796477155, 45.6596948577002], [5.688998274001921, 45.66034424956027], [5.688628751526688, 45.66099364142033], [5.688628751526688, 45.66099364142033], [5.6887783972646115, 45.661677346218895], [5.6889280430025355, 45.662361051017456], [5.689077688740461, 45.663044755816024], [5.689227334478385, 45.6637284606146], [5.689376980216309, 45.66441216541316], [5.689526625954233, 45.66509587021172], [5.689676271692155, 45.66577957501028], [5.689825917430083, 45.66646327980886], [5.689975563168005, 45.66714698460743], [5.690125208905931, 45.66783068940599], [5.690125208905931, 45.66783068940599], [5.692278736580699, 45.669301111872244], [5.694432264255472, 45.67077153433851], [5.696585791930238, 45.67224195680477], [5.698739319605009, 45.673712379271024], [5.700892847279778, 45.67518280173728], [5.703046374954546, 45.676653224203534], [5.705199902629316, 45.678123646669796], [5.707353430304087, 45.67959406913606], [5.709506957978855, 45.681064491602314], [5.711660485653626, 45.682534914068576], [5.711660485653626, 45.682534914068576], [5.711908982501683, 45.68320152450385], [5.71215747934974, 45.68386813493912], [5.712405976197795, 45.6845347453744], [5.712654473045854, 45.68520135580967], [5.712902969893909, 45.68586796624494], [5.713151466741966, 45.686534576680216], [5.713399963590023, 45.68720118711549], [5.71364846043808, 45.687867797550766], [5.713896957286135, 45.68853440798604], [5.714145454134194, 45.689201018421315], [5.714145454134194, 45.689201018421315], [5.713825406774891, 45.68986754166162], [5.71350535941559, 45.69053406490192], [5.713185312056288, 45.69120058814221], [5.712865264696987, 45.6918671113825], [5.712545217337684, 45.6925336346228], [5.7122251699783835, 45.693200157863096], [5.711905122619083, 45.6938666811034], [5.711585075259782, 45.69453320434369], [5.711265027900481, 45.69519972758399], [5.7109449805411785, 45.69586625082429], [5.7109449805411785, 45.69586625082429], [5.7106736033534045, 45.69617383345176], [5.710402226165629, 45.69648141607922], [5.710130848977856, 45.696788998706694], [5.709859471790079, 45.697096581334165], [5.709588094602305, 45.697404163961636], [5.709316717414529, 45.69771174658911], [5.709045340226755, 45.69801932921657], [5.708773963038983, 45.69832691184404], [5.708502585851207, 45.69863449447151], [5.708231208663433, 45.69894207709898], [5.708231208663433, 45.69894207709898], [5.707862114976775, 45.69981363364137], [5.707493021290116, 45.70068519018374], [5.707123927603456, 45.701556746726126], [5.706754833916795, 45.70242830326851], [5.706385740230136, 45.70329985981089], [5.70601664654348, 45.70417141635327], [5.705647552856817, 45.70504297289566], [5.7052784591701595, 45.70591452943804], [5.704909365483498, 45.70678608598042], [5.704540271796841, 45.707657642522804], [5.704540271796841, 45.707657642522804], [5.704590307758091, 45.70796536005694], [5.704640343719348, 45.708273077591066], [5.704690379680599, 45.7085807951252], [5.704740415641851, 45.70888851265934], [5.704790451603104, 45.70919623019347], [5.704840487564356, 45.709503947727605], [5.704890523525609, 45.70981166526174], [5.704940559486863, 45.71011938279587], [5.704990595448116, 45.710427100330016], [5.705040631409366, 45.71073481786414], [5.705040631409366, 45.71073481786414], [5.707314636892159, 45.7105644138184], [5.709588642374952, 45.710394009772656], [5.711862647857746, 45.71022360572691], [5.714136653340537, 45.71005320168116], [5.716410658823328, 45.709882797635416], [5.718684664306119, 45.70971239358968], [5.720958669788912, 45.709541989543936], [5.723232675271703, 45.70937158549819], [5.725506680754497, 45.70920118145244], [5.727780686237287, 45.709030777406696], [5.727780686237287, 45.709030777406696], [5.728225862947822, 45.70913349331819], [5.728671039658352, 45.70923620922967], [5.729116216368885, 45.70933892514116], [5.7295613930794165, 45.709441641052656], [5.730006569789948, 45.709544356964145], [5.730451746500483, 45.709647072875626], [5.730896923211015, 45.709749788787114], [5.731342099921548, 45.7098525046986], [5.73178727663208, 45.709955220610084], [5.732232453342613, 45.71005793652158], [5.732232453342613, 45.71005793652158], [5.732603394240316, 45.71014346018005], [5.732974335138017, 45.71022898383852], [5.73334527603572, 45.71031450749699], [5.733716216933422, 45.710400031155466], [5.7340871578311265, 45.710485554813935], [5.734458098728826, 45.710571078472405], [5.734829039626527, 45.710656602130875], [5.73519998052423, 45.710742125789345], [5.735570921421932, 45.710827649447815], [5.735941862319635, 45.71091317310629], [5.735941862319635, 45.71091317310629], [5.737226630547335, 45.71053747663988], [5.738511398775035, 45.710161780173465], [5.739796167002735, 45.70978608370706], [5.741080935230437, 45.709410387240645], [5.742365703458136, 45.70903469077424], [5.743650471685836, 45.708658994307825], [5.744935239913538, 45.70828329784141], [5.746220008141236, 45.707907601375], [5.747504776368938, 45.707531904908585], [5.748789544596638, 45.70715620844218], [5.748789544596638, 45.70715620844218], [5.749729042938988, 45.70720769061972], [5.750668541281334, 45.70725917279724], [5.751608039623685, 45.707310654974776], [5.7525475379660325, 45.70736213715231], [5.753487036308384, 45.707413619329834], [5.754426534650733, 45.707465101507374], [5.755366032993081, 45.70751658368491], [5.756305531335432, 45.70756806586244], [5.757245029677778, 45.707619548039965], [5.758184528020127, 45.707671030217504], [5.758184528020127, 45.707671030217504], [5.759150931213366, 45.70883350606625], [5.760117334406608, 45.709995981915], [5.761083737599845, 45.711158457763744], [5.762050140793086, 45.71232093361249], [5.763016543986325, 45.71348340946124], [5.763982947179564, 45.71464588530998], [5.764949350372806, 45.71580836115873], [5.765915753566045, 45.71697083700747], [5.766882156759287, 45.718133312856224], [5.767848559952524, 45.71929578870497], [5.767848559952524, 45.71929578870497], [5.768430038893351, 45.71960363886834], [5.769011517834176, 45.7199114890317], [5.769592996775, 45.72021933919506], [5.770174475715828, 45.72052718935842], [5.770755954656654, 45.720835039521795], [5.771337433597479, 45.721142889685154], [5.771918912538306, 45.72145073984852], [5.772500391479131, 45.72175859001187], [5.773081870419956, 45.72206644017525], [5.773663349360781, 45.72237429033861], [5.773663349360781, 45.72237429033861], [5.774060733280223, 45.72333152394473], [5.774458117199666, 45.72428875755084], [5.774855501119109, 45.72524599115696], [5.775252885038549, 45.726203224763076], [5.775650268957991, 45.72716045836919], [5.776047652877434, 45.72811769197531], [5.776445036796874, 45.72907492558142], [5.776842420716317, 45.730032159187544], [5.777239804635759, 45.73098939279365], [5.7776371885551985, 45.731946626399775], [5.7776371885551985, 45.731946626399775], [5.777453093533817, 45.73259600984253], [5.777268998512433, 45.73324539328528], [5.777084903491048, 45.733894776728036], [5.776900808469664, 45.734544160170785], [5.77671671344828, 45.73519354361354], [5.776532618426897, 45.7358429270563], [5.776348523405515, 45.736492310499045], [5.776164428384128, 45.7371416939418], [5.775980333362744, 45.73779107738456], [5.775796238341361, 45.73844046082731], [5.775796238341361, 45.73844046082731], [5.7756485389362116, 45.73876519335335], [5.7755008395310625, 45.73908992587939], [5.775353140125908, 45.73941465840543], [5.775205440720759, 45.73973939093148], [5.77505774131561, 45.74006412345753], [5.774910041910461, 45.74038885598356], [5.77476234250531, 45.74071358850961], [5.774614643100158, 45.74103832103565], [5.774466943695009, 45.7413630535617], [5.774319244289858, 45.741687786087745], [5.774319244289858, 45.741687786087745], [5.775011763222791, 45.741858875778874], [5.77570428215572, 45.742029965469996], [5.776396801088653, 45.742201055161125], [5.7770893200215845, 45.742372144852254], [5.777781838954514, 45.742543234543376], [5.778474357887447, 45.742714324234505], [5.779166876820378, 45.742885413925634], [5.7798593957533075, 45.74305650361676], [5.780551914686239, 45.743227593307886], [5.7812444336191735, 45.74339868299902], [5.7812444336191735, 45.74339868299902], [5.781363354617591, 45.74341047175764], [5.781482275616005, 45.74342226051627], [5.781601196614423, 45.74343404927489], [5.78172011761284, 45.74344583803351], [5.781839038611256, 45.74345762679213], [5.781957959609674, 45.74346941555076], [5.782076880608091, 45.74348120430938], [5.782195801606509, 45.743492993068], [5.782314722604925, 45.74350478182662], [5.782433643603342, 45.74351657058525], [5.782433643603342, 45.74351657058525], [5.782629231798834, 45.74398556057599], [5.782824819994325, 45.744454550566736], [5.783020408189818, 45.74492354055747], [5.783215996385309, 45.74539253054821], [5.783411584580801, 45.74586152053895], [5.783607172776293, 45.74633051052969], [5.783802760971783, 45.74679950052044], [5.783998349167277, 45.747268490511175], [5.784193937362767, 45.747737480501925], [5.784389525558259, 45.74820647049266]]]}}, {"type": "Feature", "properties": {"diocese": "Belley", "province": "V_Besan\u00e7on", "source": "32_Belley.txt"}, "geometry": {"type": "Polygon", "coordinates": [[[5.740482594758502, 45.47317414563879], [5.7425909457137365, 45.474436284377866], [5.744699296668971, 45.47569842311695], [5.746807647624207, 45.476960561856025], [5.748915998579442, 45.47822270059511], [5.751024349534678, 45.479484839334205], [5.753132700489912, 45.480746978073284], [5.755241051445147, 45.482009116812364], [5.757349402400383, 45.48327125555144], [5.759457753355619, 45.48453339429053], [5.761566104310855, 45.48579553302962], [5.761566104310855, 45.48579553302962], [5.765553028889991, 45.49173694186385], [5.769539953469122, 45.49767835069807], [5.77352687804826, 45.5036197595323], [5.777513802627395, 45.509561168366524], [5.781500727206529, 45.515502577200756], [5.785487651785662, 45.521443986034974], [5.789474576364798, 45.527385394869206], [5.793461500943934, 45.53332680370343], [5.797448425523067, 45.53926821253766], [5.801435350102201, 45.54520962137188], [5.801435350102201, 45.54520962137188], [5.7979866836780225, 45.552390441174], [5.794538017253846, 45.55957126097612], [5.791089350829667, 45.56675208077824], [5.787640684405488, 45.57393290058037], [5.78419201798131, 45.58111372038249], [5.780743351557133, 45.588294540184606], [5.777294685132954, 45.59547535998673], [5.773846018708774, 45.602656179788845], [5.770397352284595, 45.609836999590975], [5.766948685860418, 45.6170178193931], [5.766948685860418, 45.6170178193931], [5.769268331757171, 45.622870208832154], [5.77158797765393, 45.62872259827122], [5.773907623550686, 45.63457498771027], [5.776227269447443, 45.640427377149344], [5.778546915344201, 45.6462797665884], [5.7808665612409555, 45.65213215602746], [5.783186207137712, 45.65798454546652], [5.7855058530344685, 45.66383693490558], [5.787825498931227, 45.669689324344645], [5.7901451448279815, 45.67554171378371], [5.7901451448279815, 45.67554171378371], [5.78832157863005, 45.68013998882466], [5.786498012432119, 45.68473826386561], [5.78467444623419, 45.68933653890657], [5.782850880036261, 45.69393481394752], [5.7810273138383295, 45.69853308898848], [5.779203747640397, 45.70313136402944], [5.7773801814424655, 45.70772963907039], [5.775556615244534, 45.71232791411135], [5.773733049046605, 45.7169261891523], [5.771909482848674, 45.721524464193266], [5.771909482848674, 45.721524464193266], [5.771536737070958, 45.7213235370184], [5.771163991293243, 45.72112260984355], [5.770791245515527, 45.72092168266869], [5.770418499737811, 45.72072075549383], [5.770045753960096, 45.72051982831897], [5.769673008182382, 45.72031890114412], [5.769300262404663, 45.72011797396926], [5.768927516626949, 45.71991704679441], [5.768554770849233, 45.71971611961954], [5.7681820250715194, 45.71951519244469], [5.7681820250715194, 45.71951519244469], [5.767192514306917, 45.71834844474421], [5.766203003542319, 45.717181697043735], [5.765213492777722, 45.71601494934326], [5.764223982013121, 45.71484820164279], [5.763234471248522, 45.71368145394231], [5.7622449604839225, 45.71251470624183], [5.761255449719323, 45.71134795854135], [5.760265938954724, 45.71018121084088], [5.759276428190127, 45.7090144631404], [5.758286917425526, 45.707847715439925], [5.758286917425526, 45.707847715439925], [5.7573581734563355, 45.70779404821046], [5.756429429487145, 45.70774038098099], [5.755500685517957, 45.707686713751514], [5.754571941548766, 45.70763304652204], [5.753643197579576, 45.70757937929257], [5.752714453610388, 45.707525712063095], [5.751785709641197, 45.70747204483363], [5.750856965672007, 45.70741837760416], [5.749928221702817, 45.707364710374684], [5.74899947773363, 45.70731104314521], [5.74899947773363, 45.70731104314521], [5.747713229162439, 45.70769849832236], [5.746426980591256, 45.70808595349952], [5.745140732020065, 45.70847340867667], [5.74385448344888, 45.708860863853815], [5.742568234877693, 45.70924831903096], [5.741281986306504, 45.70963577420812], [5.739995737735319, 45.710023229385264], [5.7387094891641315, 45.71041068456242], [5.737423240592944, 45.710798139739566], [5.736136992021757, 45.71118559491672], [5.736136992021757, 45.71118559491672], [5.735778387643624, 45.71109788660115], [5.735419783265492, 45.71101017828559], [5.73506117888736, 45.71092246997002], [5.734702574509232, 45.71083476165446], [5.7343439701311, 45.7107470533389], [5.733985365752966, 45.710659345023345], [5.733626761374834, 45.71057163670777], [5.733268156996703, 45.710483928392215], [5.732909552618571, 45.71039622007664], [5.732550948240439, 45.710308511761085], [5.732550948240439, 45.710308511761085], [5.732105757279179, 45.71019841223756], [5.7316605663179185, 45.71008831271402], [5.731215375356657, 45.709978213190496], [5.730770184395398, 45.70986811366697], [5.730324993434136, 45.70975801414343], [5.729879802472876, 45.70964791461991], [5.729434611511614, 45.709537815096375], [5.728989420550354, 45.70942771557285], [5.728544229589096, 45.709317616049326], [5.728099038627834, 45.709207516525794], [5.728099038627834, 45.709207516525794], [5.725826550434862, 45.70938530455869], [5.723554062241886, 45.70956309259158], [5.7212815740489145, 45.70974088062446], [5.719009085855941, 45.70991866865735], [5.716736597662965, 45.710096456690245], [5.7144641094699935, 45.71027424472314], [5.712191621277022, 45.71045203275603], [5.70991913308405, 45.710629820788924], [5.707646644891074, 45.71080760882181], [5.705374156698102, 45.7109853968547], [5.705374156698102, 45.7109853968547], [5.7053040316998604, 45.71067986204291], [5.705233906701624, 45.710374327231115], [5.705163781703385, 45.710068792419314], [5.705093656705147, 45.70976325760752], [5.7050235317069085, 45.709457722795726], [5.704953406708668, 45.70915218798393], [5.70488328171043, 45.708846653172145], [5.70481315671219, 45.708541118360344], [5.704743031713953, 45.70823558354855], [5.704672906715713, 45.707930048736756], [5.704672906715713, 45.707930048736756], [5.705055917062696, 45.7070552687571], [5.705438927409681, 45.706180488777456], [5.705821937756664, 45.705305708797795], [5.706204948103645, 45.70443092881814], [5.706587958450628, 45.70355614883849], [5.706970968797613, 45.70268136885883], [5.707353979144596, 45.70180658887918], [5.707736989491579, 45.700931808899526], [5.708119999838562, 45.70005702891987], [5.708503010185545, 45.69918224894022], [5.708503010185545, 45.69918224894022], [5.708757383416275, 45.69887679511161], [5.709011756647005, 45.69857134128301], [5.709266129877735, 45.69826588745441], [5.709520503108463, 45.69796043362581], [5.709774876339191, 45.69765497979721], [5.710029249569921, 45.69734952596861], [5.710283622800651, 45.69704407214002], [5.710537996031382, 45.69673861831141], [5.7107923692621085, 45.69643316448281], [5.71104674249284, 45.69612771065422], [5.71104674249284, 45.69612771065422], [5.711385382183693, 45.69546228592182], [5.711724021874547, 45.69479686118944], [5.712062661565401, 45.69413143645704], [5.712401301256254, 45.693466011724645], [5.712739940947111, 45.69280058699226], [5.713078580637962, 45.692135162259866], [5.713417220328818, 45.691469737527484], [5.713755860019669, 45.69080431279509], [5.714094499710525, 45.690138888062705], [5.714433139401377, 45.689473463330316], [5.714433139401377, 45.689473463330316], [5.714183041828184, 45.68879722645782], [5.713932944254987, 45.68812098958534], [5.713682846681792, 45.68744475271285], [5.713432749108598, 45.68676851584037], [5.713182651535403, 45.68609227896788], [5.712932553962208, 45.6854160420954], [5.712682456389015, 45.684739805222904], [5.712432358815818, 45.68406356835041], [5.7121822612426225, 45.68338733147793], [5.711932163669429, 45.682711094605445], [5.711932163669429, 45.682711094605445], [5.709772469740532, 45.68124280364276], [5.707612775811633, 45.679774512680076], [5.705453081882736, 45.678306221717385], [5.703293387953842, 45.67683793075471], [5.701133694024945, 45.675369639792024], [5.698974000096046, 45.67390134882934], [5.69681430616715, 45.67243305786665], [5.694654612238251, 45.67096476690397], [5.692494918309357, 45.66949647594128], [5.690335224380458, 45.6680281849786], [5.690335224380458, 45.6680281849786], [5.690185582759412, 45.667346613223515], [5.690035941138365, 45.66666504146843], [5.689886299517317, 45.66598346971334], [5.689736657896269, 45.665301897958244], [5.6895870162752225, 45.66462032620316], [5.689437374654176, 45.663938754448075], [5.6892877330331295, 45.66325718269299], [5.689138091412081, 45.66257561093791], [5.688988449791033, 45.66189403918281], [5.6888388081699865, 45.661212467427724], [5.6888388081699865, 45.661212467427724], [5.689206817366719, 45.66055776993057], [5.689574826563449, 45.65990307243341], [5.68994283576018, 45.65924837493626], [5.690310844956908, 45.65859367743911], [5.690678854153639, 45.65793897994195], [5.691046863350369, 45.65728428244479], [5.691414872547099, 45.65662958494764], [5.691782881743828, 45.65597488745048], [5.692150890940562, 45.65532018995333], [5.6925189001372924, 45.654665492456175], [5.6925189001372924, 45.654665492456175], [5.692678954746301, 45.654348256008824], [5.6928390093553105, 45.65403101956148], [5.692999063964317, 45.653713783114135], [5.693159118573327, 45.653396546666784], [5.693319173182335, 45.65307931021943], [5.693479227791345, 45.65276207377209], [5.693639282400353, 45.652444837324744], [5.693799337009365, 45.65212760087739], [5.693959391618371, 45.65181036443004], [5.694119446227379, 45.65149312798271], [5.694119446227379, 45.65149312798271], [5.693962109830755, 45.650841471594994], [5.693804773434135, 45.65018981520727], [5.6936474370375105, 45.64953815881955], [5.6934901006408865, 45.648886502431836], [5.693332764244262, 45.64823484604412], [5.6931754278476365, 45.64758318965641], [5.693018091451014, 45.64693153326869], [5.69286075505439, 45.64627987688098], [5.692703418657768, 45.645628220493265], [5.692546082261142, 45.64497656410555], [5.692546082261142, 45.64497656410555], [5.692225760611237, 45.64472221456581], [5.6919054389613315, 45.64446786502608], [5.6915851173114245, 45.64421351548634], [5.691264795661519, 45.6439591659466], [5.690944474011616, 45.64370481640687], [5.690624152361709, 45.64345046686713], [5.690303830711805, 45.64319611732739], [5.689983509061898, 45.642941767787654], [5.689663187411991, 45.64268741824792], [5.689342865762088, 45.642433068708186], [5.689342865762088, 45.642433068708186], [5.688504786255601, 45.642096385780064], [5.6876667067491145, 45.64175970285196], [5.68682862724263, 45.641423019923835], [5.685990547736145, 45.64108633699572], [5.685152468229658, 45.64074965406762], [5.684314388723173, 45.6404129711395], [5.6834763092166884, 45.64007628821138], [5.682638229710202, 45.63973960528327], [5.681800150203715, 45.639402922355146], [5.680962070697232, 45.63906623942704], [5.680962070697232, 45.63906623942704], [5.678607175392507, 45.63892787906409], [5.676252280087784, 45.63878951870115], [5.673897384783061, 45.63865115833822], [5.671542489478336, 45.638512797975274], [5.669187594173611, 45.63837443761233], [5.666832698868886, 45.63823607724938], [5.664477803564164, 45.63809771688645], [5.662122908259439, 45.6379593565235], [5.659768012954716, 45.637820996160556], [5.657413117649991, 45.637682635797624], [5.657413117649991, 45.637682635797624], [5.6569616799539, 45.636754212121396], [5.656510242257811, 45.63582578844517], [5.65605880456172, 45.63489736476895], [5.655607366865631, 45.633968941092725], [5.65515592916954, 45.63304051741651], [5.654704491473449, 45.632112093740275], [5.65425305377736, 45.63118367006406], [5.653801616081269, 45.63025524638783], [5.65335017838518, 45.62932682271162], [5.652898740689091, 45.62839839903539], [5.652898740689091, 45.62839839903539], [5.652712803903663, 45.62813451168899], [5.652526867118233, 45.627870624342606], [5.652340930332807, 45.6276067369962], [5.652154993547381, 45.62734284964981], [5.651969056761953, 45.62707896230341], [5.651783119976525, 45.62681507495701], [5.651597183191097, 45.62655118761062], [5.6514112464056705, 45.626287300264224], [5.651225309620244, 45.626023412917824], [5.651039372834816, 45.625759525571425], [5.651039372834816, 45.625759525571425], [5.650232537595569, 45.62558518044065], [5.6494257023563215, 45.625410835309864], [5.648618867117072, 45.62523649017909], [5.647812031877827, 45.62506214504832], [5.6470051966385775, 45.62488779991754], [5.646198361399332, 45.62471345478676], [5.645391526160084, 45.62453910965598], [5.644584690920837, 45.6243647645252], [5.64377785568159, 45.624190419394424], [5.642971020442342, 45.624016074263636], [5.642971020442342, 45.624016074263636], [5.642765997342291, 45.62345415783816], [5.64256097424224, 45.622892241412686], [5.642355951142191, 45.62233032498721], [5.642150928042142, 45.62176840856173], [5.641945904942091, 45.62120649213625], [5.64174088184204, 45.62064457571078], [5.641535858741989, 45.6200826592853], [5.64133083564194, 45.61952074285982], [5.641125812541889, 45.618958826434344], [5.640920789441839, 45.61839691000887], [5.640920789441839, 45.61839691000887], [5.640829008292027, 45.61806035863683], [5.640737227142216, 45.6177238072648], [5.640645445992403, 45.617387255892766], [5.640553664842592, 45.617050704520736], [5.64046188369278, 45.6167141531487], [5.64037010254297, 45.61637760177666], [5.6402783213931595, 45.616041050404625], [5.640186540243347, 45.61570449903259], [5.640094759093532, 45.61536794766055], [5.6400029779437215, 45.615031396288515], [5.6400029779437215, 45.615031396288515], [5.63919431111754, 45.61472781020545], [5.638385644291359, 45.61442422412239], [5.63757697746518, 45.614120638039324], [5.636768310638997, 45.61381705195626], [5.635959643812816, 45.6135134658732], [5.635150976986635, 45.613209879790126], [5.634342310160456, 45.61290629370706], [5.633533643334275, 45.612602707624], [5.632724976508094, 45.61229912154093], [5.6319163096819125, 45.611995535457865], [5.6319163096819125, 45.611995535457865], [5.631545893802201, 45.6122230222368], [5.631175477922486, 45.61245050901572], [5.630805062042773, 45.61267799579464], [5.630434646163064, 45.612905482573574], [5.630064230283349, 45.6131329693525], [5.6296938144036375, 45.61336045613142], [5.629323398523923, 45.61358794291035], [5.6289529826442095, 45.613815429689275], [5.6285825667645, 45.61404291646819], [5.628212150884785, 45.61427040324713], [5.628212150884785, 45.61427040324713], [5.62809103949777, 45.613943470593036], [5.627969928110753, 45.61361653793895], [5.6278488167237395, 45.613289605284855], [5.627727705336726, 45.61296267263077], [5.627606593949707, 45.61263573997668], [5.627485482562692, 45.61230880732259], [5.627364371175677, 45.6119818746685], [5.627243259788662, 45.61165494201441], [5.6271221484016465, 45.61132800936032], [5.627001037014631, 45.61100107670624], [5.627001037014631, 45.61100107670624], [5.627149590047914, 45.610339870619896], [5.6272981430812, 45.609678664533554], [5.627446696114484, 45.609017458447205], [5.6275952491477685, 45.60835625236086], [5.627743802181053, 45.60769504627452], [5.627892355214337, 45.60703384018817], [5.6280409082476215, 45.60637263410183], [5.628189461280902, 45.605711428015496], [5.628338014314188, 45.60505022192915], [5.628486567347471, 45.604389015842806], [5.628486567347471, 45.604389015842806], [5.629842028341406, 45.60301452621765], [5.631197489335342, 45.601640036592485], [5.632552950329277, 45.60026554696732], [5.633908411323208, 45.59889105734216], [5.635263872317143, 45.597516567717], [5.63661933331108, 45.596142078091844], [5.637974794305013, 45.594767588466674], [5.639330255298946, 45.59339309884152], [5.6406857162928805, 45.59201860921635], [5.642041177286815, 45.59064411959119], [5.642041177286815, 45.59064411959119], [5.642275564508045, 45.59039422926532], [5.642509951729274, 45.59014433893945], [5.642744338950504, 45.589894448613585], [5.642978726171732, 45.58964455828771], [5.64321311339296, 45.589394667961834], [5.64344750061419, 45.589144777635966], [5.64368188783542, 45.5888948873101], [5.6439162750566485, 45.58864499698423], [5.644150662277877, 45.58839510665836], [5.644385049499107, 45.588145216332485], [5.644385049499107, 45.588145216332485], [5.644974456926359, 45.58772449774391], [5.645563864353614, 45.587303779155356], [5.64615327178087, 45.5868830605668], [5.646742679208122, 45.58646234197824], [5.647332086635375, 45.58604162338968], [5.647921494062631, 45.585620904801125], [5.6485109014898836, 45.58520018621256], [5.649100308917138, 45.584779467624], [5.64968971634439, 45.584358749035445], [5.650279123771643, 45.58393803044689], [5.650279123771643, 45.58393803044689], [5.650378449904956, 45.583347311862944], [5.6504777760382705, 45.58275659327901], [5.650577102171582, 45.58216587469506], [5.6506764283048945, 45.58157515611112], [5.650775754438209, 45.580984437527185], [5.650875080571522, 45.58039371894325], [5.650974406704835, 45.57980300035931], [5.651073732838148, 45.57921228177536], [5.651173058971459, 45.578621563191426], [5.6512723851047735, 45.57803084460749], [5.6512723851047735, 45.57803084460749], [5.653696606372566, 45.57646224137677], [5.656120827640358, 45.57489363814604], [5.658545048908152, 45.57332503491531], [5.660969270175947, 45.571756431684584], [5.66339349144374, 45.570187828453854], [5.665817712711531, 45.568619225223124], [5.668241933979324, 45.5670506219924], [5.670666155247117, 45.56548201876167], [5.673090376514912, 45.56391341553095], [5.675514597782705, 45.56234481230022], [5.675514597782705, 45.56234481230022], [5.675521065834495, 45.561679304669624], [5.675527533886285, 45.56101379703903], [5.675534001938077, 45.56034828940844], [5.675540469989867, 45.55968278177784], [5.675546938041657, 45.559017274147244], [5.675553406093446, 45.55835176651665], [5.675559874145238, 45.557686258886065], [5.675566342197028, 45.55702075125547], [5.67557281024882, 45.55635524362487], [5.675579278300612, 45.555689735994285], [5.675579278300612, 45.555689735994285], [5.675975948901463, 45.555498626876066], [5.676372619502317, 45.55530751775784], [5.676769290103165, 45.55511640863962], [5.677165960704018, 45.55492529952141], [5.677562631304868, 45.55473419040318], [5.677959301905721, 45.55454308128497], [5.678355972506573, 45.55435197216675], [5.6787526431074244, 45.55416086304852], [5.679149313708278, 45.5539697539303], [5.679545984309128, 45.553778644812084], [5.679545984309128, 45.553778644812084], [5.679358517566568, 45.55350081026784], [5.679171050824008, 45.5532229757236], [5.678983584081447, 45.55294514117935], [5.6787961173388855, 45.5526673066351], [5.678608650596328, 45.55238947209085], [5.678421183853768, 45.55211163754661], [5.678233717111205, 45.55183380300237], [5.678046250368647, 45.551555968458125], [5.677858783626085, 45.551278133913875], [5.677671316883526, 45.55100029936962], [5.677671316883526, 45.55100029936962], [5.6784453024212365, 45.55013950908608], [5.679219287958945, 45.549278718802526], [5.6799932734966525, 45.54841792851899], [5.680767259034363, 45.54755713823543], [5.681541244572074, 45.54669634795189], [5.682315230109783, 45.54583555766833], [5.683089215647492, 45.54497476738479], [5.683863201185201, 45.54411397710125], [5.6846371867229095, 45.54325318681769], [5.68541117226062, 45.54239239653415], [5.68541117226062, 45.54239239653415], [5.684981671129242, 45.5424190344167], [5.684552169997863, 45.54244567229926], [5.684122668866484, 45.54247231018182], [5.683693167735106, 45.54249894806437], [5.683263666603729, 45.54252558594693], [5.68283416547235, 45.542552223829496], [5.682404664340973, 45.54257886171205], [5.681975163209595, 45.54260549959461], [5.681545662078216, 45.54263213747717], [5.681116160946839, 45.542658775359726], [5.681116160946839, 45.542658775359726], [5.680771996916899, 45.542839177676065], [5.6804278328869575, 45.543019579992404], [5.680083668857016, 45.54319998230873], [5.679739504827078, 45.543380384625074], [5.679395340797136, 45.54356078694141], [5.679051176767194, 45.54374118925774], [5.678707012737252, 45.543921591574076], [5.678362848707312, 45.54410199389041], [5.678018684677374, 45.54428239620675], [5.677674520647432, 45.54446279852308], [5.677674520647432, 45.54446279852308], [5.677551806529621, 45.54412520025675], [5.67742909241181, 45.543787601990424], [5.6773063782939985, 45.5434500037241], [5.677183664176184, 45.54311240545776], [5.677060950058372, 45.542774807191435], [5.676938235940561, 45.54243720892511], [5.676815521822748, 45.542099610658774], [5.676692807704937, 45.54176201239245], [5.676570093587127, 45.54142441412612], [5.676447379469314, 45.54108681585979], [5.676447379469314, 45.54108681585979], [5.676947719104428, 45.54017788178872], [5.6774480587395395, 45.539268947717666], [5.677948398374651, 45.538360013646596], [5.678448738009765, 45.53745107957555], [5.6789490776448766, 45.53654214550448], [5.67944941727999, 45.53563321143342], [5.679949756915104, 45.53472427736236], [5.680450096550215, 45.5338153432913], [5.680950436185325, 45.53290640922023], [5.681450775820439, 45.531997475149176], [5.681450775820439, 45.531997475149176], [5.682848478921578, 45.53168804057007], [5.684246182022715, 45.53137860599095], [5.685643885123852, 45.53106917141184], [5.687041588224993, 45.530759736832735], [5.68843929132613, 45.53045030225363], [5.689836994427269, 45.53014086767452], [5.691234697528408, 45.5298314330954], [5.692632400629547, 45.529521998516294], [5.694030103730686, 45.529212563937186], [5.695427806831823, 45.52890312935806], [5.695427806831823, 45.52890312935806], [5.6955384461779595, 45.52859977270107], [5.695649085524092, 45.528296416044064], [5.695759724870232, 45.52799305938706], [5.695870364216365, 45.52768970273006], [5.695981003562501, 45.52738634607305], [5.696091642908634, 45.527082989416044], [5.696202282254768, 45.52677963275903], [5.6963129216009065, 45.52647627610203], [5.696423560947041, 45.526172919445024], [5.696534200293176, 45.525869562788024], [5.696534200293176, 45.525869562788024], [5.696437811664508, 45.525564021421765], [5.69634142303584, 45.525258480055506], [5.696245034407175, 45.52495293868923], [5.696148645778505, 45.52464739732298], [5.696052257149837, 45.52434185595672], [5.695955868521169, 45.52403631459046], [5.695859479892505, 45.52373077322421], [5.695763091263837, 45.523425231857935], [5.695666702635169, 45.523119690491676], [5.695570314006503, 45.522814149125416], [5.695570314006503, 45.522814149125416], [5.69601343306072, 45.52262950541983], [5.696456552114935, 45.522444861714234], [5.696899671169152, 45.52226021800865], [5.69734279022337, 45.52207557430305], [5.697785909277588, 45.521890930597465], [5.698229028331804, 45.52170628689188], [5.69867214738602, 45.52152164318628], [5.699115266440236, 45.52133699948069], [5.699558385494456, 45.5211523557751], [5.700001504548672, 45.52096771206951], [5.700001504548672, 45.52096771206951], [5.700276277440089, 45.520862003614816], [5.700551050331507, 45.52075629516011], [5.7008258232229245, 45.52065058670541], [5.701100596114342, 45.52054487825071], [5.70137536900576, 45.520439169796006], [5.7016501418971774, 45.5203334613413], [5.701924914788595, 45.5202277528866], [5.702199687680013, 45.5201220444319], [5.702474460571432, 45.520016335977196], [5.702749233462848, 45.5199106275225], [5.702749233462848, 45.5199106275225], [5.70301171379022, 45.519788890834924], [5.7032741941175935, 45.519667154147356], [5.703536674444964, 45.51954541745979], [5.703799154772337, 45.51942368077222], [5.704061635099709, 45.51930194408465], [5.704324115427083, 45.519180207397085], [5.704586595754453, 45.51905847070951], [5.704849076081825, 45.51893673402194], [5.705111556409195, 45.518814997334374], [5.70537403673657, 45.5186932606468], [5.70537403673657, 45.5186932606468], [5.7064754716886466, 45.51698436689491], [5.707576906640719, 45.515275473143014], [5.7086783415927975, 45.51356657939112], [5.709779776544876, 45.51185768563923], [5.710881211496954, 45.51014879188733], [5.711982646449027, 45.508439898135435], [5.713084081401103, 45.50673100438355], [5.714185516353181, 45.50502211063166], [5.715286951305256, 45.50331321687976], [5.716388386257334, 45.50160432312787], [5.716388386257334, 45.50160432312787], [5.716576219992051, 45.50129354743395], [5.716764053726774, 45.500982771740034], [5.716951887461493, 45.50067199604612], [5.717139721196213, 45.50036122035221], [5.717327554930931, 45.50005044465829], [5.717515388665655, 45.499739668964374], [5.717703222400376, 45.49942889327046], [5.717891056135093, 45.49911811757654], [5.718078889869812, 45.498807341882625], [5.718266723604533, 45.498496566188706], [5.718266723604533, 45.498496566188706], [5.718802267686003, 45.49738357984225], [5.719337811767469, 45.496270593495794], [5.719873355848938, 45.49515760714934], [5.720408899930405, 45.494044620802875], [5.720944444011874, 45.492931634456426], [5.721479988093341, 45.49181864810997], [5.722015532174806, 45.49070566176351], [5.722551076256275, 45.48959267541706], [5.723086620337744, 45.4884796890706], [5.723622164419211, 45.487366702724145], [5.723622164419211, 45.487366702724145], [5.723661779853327, 45.48707082133739], [5.723701395287444, 45.48677493995062], [5.723741010721557, 45.48647905856385], [5.7237806261556745, 45.4861831771771], [5.72382024158979, 45.48588729579032], [5.723859857023903, 45.48559141440356], [5.723899472458019, 45.485295533016796], [5.723939087892134, 45.484999651630034], [5.723978703326251, 45.48470377024327], [5.724018318760365, 45.4844078888565], [5.724018318760365, 45.4844078888565], [5.725417999923774, 45.48352483043185], [5.726817681087185, 45.4826417720072], [5.728217362250593, 45.48175871358254], [5.729617043414004, 45.48087565515789], [5.7310167245774135, 45.47999259673324], [5.732416405740825, 45.479109538308585], [5.733816086904236, 45.47822647988393], [5.735215768067643, 45.47734342145928], [5.736615449231053, 45.476460363034626], [5.738015130394462, 45.47557730460996], [5.738015130394462, 45.47557730460996], [5.738261876830867, 45.475336988712854], [5.738508623267272, 45.47509667281573], [5.738755369703673, 45.474856356918615], [5.739002116140078, 45.47461604102149], [5.739248862576481, 45.47437572512438], [5.739495609012886, 45.47413540922726], [5.739742355449289, 45.473895093330135], [5.739989101885694, 45.47365477743302], [5.740235848322095, 45.4734144615359], [5.740482594758502, 45.47317414563879]]]}}]}