{
    "type": "FeatureCollection",
    "name": "Calaritan_1763",
    "crs": {
        "type": "name",
        "properties": {
            "name": "urn:ogc:def:crs:OGC:1.3:CRS84"
        }
    },
    "features": [
        {
            "type": "Feature",
            "properties": {
                "diocese": "Calaritan",
                "province": "Calaritan",
                "date": 1763
            },
            "geometry": {
                "type": "MultiPolygon",
                "coordinates": [
                    [
                        [
                            [
                                9.714849623157068,
                                40.055164150644941
                            ],
                            [
                                9.705903702447754,
                                40.038043417483522
                            ],
                            [
                                9.696957781738437,
                                39.993509390160348
                            ],
                            [
                                9.696957781738437,
                                39.964375276360954
                            ],
                            [
                                9.696957781738437,
                                39.936943588065716
                            ],
                            [
                                9.681302420497136,
                                39.895775430901402
                            ],
                            [
                                9.683538900674465,
                                39.871749245230973
                            ],
                            [
                                9.685775380851791,
                                39.84256327352027
                            ],
                            [
                                9.672356499787817,
                                39.821953938764928
                            ],
                            [
                                9.66564705925583,
                                39.794465207730696
                            ],
                            [
                                9.667883539433161,
                                39.770403552562676
                            ],
                            [
                                9.670120019610488,
                                39.746333484278999
                            ],
                            [
                                9.661174098901174,
                                39.711933080859197
                            ],
                            [
                                9.641045777305214,
                                39.667186898129096
                            ],
                            [
                                9.645518737659872,
                                39.64135860187816
                            ],
                            [
                                9.652228178191859,
                                39.632747025316633
                            ],
                            [
                                9.656701138546513,
                                39.613797783044163
                            ],
                            [
                                9.654464658369188,
                                39.55691892789168
                            ],
                            [
                                9.632099856595897,
                                39.541398410839861
                            ],
                            [
                                9.625390416063912,
                                39.513797808888363
                            ],
                            [
                                9.643282257482541,
                                39.494816031495581
                            ],
                            [
                                9.64999169801453,
                                39.479281630199466
                            ],
                            [
                                9.632099856595897,
                                39.439566839924801
                            ],
                            [
                                9.60749857464528,
                                39.403285722202263
                            ],
                            [
                                9.596316173758634,
                                39.366985721304715
                            ],
                            [
                                9.596316173758634,
                                39.337586179015368
                            ],
                            [
                                9.629863376418566,
                                39.311635134456608
                            ],
                            [
                                9.618680975531923,
                                39.294329089017268
                            ],
                            [
                                9.573951371985343,
                                39.271824833448477
                            ],
                            [
                                9.5627689710987,
                                39.257972467225798
                            ],
                            [
                                9.56053249092137,
                                39.230259522160317
                            ],
                            [
                                9.58066081251733,
                                39.183469102224045
                            ],
                            [
                                9.569478411630687,
                                39.166131407252117
                            ],
                            [
                                9.535931208970752,
                                39.134912784321074
                            ],
                            [
                                9.522512327906778,
                                39.107151272509157
                            ],
                            [
                                9.506856966665476,
                                39.100209185304976
                            ],
                            [
                                9.491201605424171,
                                39.114092676047377
                            ],
                            [
                                9.480019204537523,
                                39.136647515561386
                            ],
                            [
                                9.455417922586907,
                                39.14358601313446
                            ],
                            [
                                9.419634239749643,
                                39.126238487064171
                            ],
                            [
                                9.379377596557722,
                                39.153992477270535
                            ],
                            [
                                9.361485755139089,
                                39.166131407252117
                            ],
                            [
                                9.352539834429775,
                                39.181735525105317
                            ],
                            [
                                9.310046711060522,
                                39.190402983166479
                            ],
                            [
                                9.28991838946456,
                                39.216398943856817
                            ],
                            [
                                9.272026548045929,
                                39.221596981456258
                            ],
                            [
                                9.242952305740651,
                                39.226794634176116
                            ],
                            [
                                9.195986222016746,
                                39.231991902002115
                            ],
                            [
                                9.166911979711468,
                                39.223329575127977
                            ],
                            [
                                9.153493098647493,
                                39.190402983166479
                            ],
                            [
                                9.133364777051531,
                                39.199069372356398
                            ],
                            [
                                9.093108133859612,
                                39.221596981456258
                            ],
                            [
                                9.059560931199675,
                                39.218131665820152
                            ],
                            [
                                9.046142050135703,
                                39.178268242611786
                            ],
                            [
                                9.010358367298441,
                                39.134912784321074
                            ],
                            [
                                9.010358367298441,
                                39.101944771197815
                            ],
                            [
                                9.046142050135703,
                                39.062015486700901
                            ],
                            [
                                9.023777248362411,
                                39.009899853845475
                            ],
                            [
                                8.996939486234465,
                                38.989042839824819
                            ],
                            [
                                8.945500442155899,
                                38.962962927280614
                            ],
                            [
                                8.891824917900003,
                                38.917734996207571
                            ],
                            [
                                8.869460116126712,
                                38.896850837301834
                            ],
                            [
                                8.815784591870816,
                                38.888147291211602
                            ],
                            [
                                8.804602190984173,
                                38.938613010742912
                            ],
                            [
                                8.784473869388208,
                                38.982089135626808
                            ],
                            [
                                8.784473869388208,
                                39.105415814800445
                            ],
                            [
                                8.659230979457789,
                                39.268361998560316
                            ],
                            [
                                8.651369602355107,
                                39.323107327411961
                            ],
                            [
                                8.651525201785207,
                                39.323023514470606
                            ],
                            [
                                8.688241858011764,
                                39.359532737287246
                            ],
                            [
                                8.710971216628206,
                                39.370346622400433
                            ],
                            [
                                8.73982001794907,
                                39.373725618109006
                            ],
                            [
                                8.76954302537057,
                                39.386564310417562
                            ],
                            [
                                8.792272383987012,
                                39.409532918326406
                            ],
                            [
                                8.807133887697761,
                                39.432493962948122
                            ],
                            [
                                8.815001742603451,
                                39.459497271898819
                            ],
                            [
                                8.81762436090535,
                                39.504029836758967
                            ],
                            [
                                8.828989040213568,
                                39.541118523146899
                            ],
                            [
                                8.866579902540758,
                                39.559318447574967
                            ],
                            [
                                8.877944581848979,
                                39.565384028091827
                            ],
                            [
                                8.903296558767318,
                                39.597051217724839
                            ],
                            [
                                8.943510039396404,
                                39.628030624882506
                            ],
                            [
                                8.968862016314741,
                                39.642168788337422
                            ],
                            [
                                9.015194939648255,
                                39.661688167898092
                            ],
                            [
                                9.031471330694364,
                                39.67211581874939
                            ],
                            [
                                9.031466960850905,
                                39.672142126500837
                            ],
                            [
                                9.046610303127336,
                                39.688976501599335
                            ],
                            [
                                9.049987864329493,
                                39.721457720871435
                            ],
                            [
                                9.072786402444063,
                                39.730549722110283
                            ],
                            [
                                9.142026407088315,
                                39.744834730231695
                            ],
                            [
                                9.15806982279857,
                                39.755221967293821
                            ],
                            [
                                9.166513725803966,
                                39.801296434639859
                            ],
                            [
                                9.183401531814759,
                                39.825294845597114
                            ],
                            [
                                9.183401531814759,
                                39.83761509772846
                            ],
                            [
                                9.161447384000729,
                                39.875210618839589
                            ],
                            [
                                9.165669335503427,
                                39.897239796906803
                            ],
                            [
                                9.183401531814759,
                                39.909547136768097
                            ],
                            [
                                9.210422021432029,
                                39.917966674452614
                            ],
                            [
                                9.25770787826225,
                                39.928327761503382
                            ],
                            [
                                9.277128855174659,
                                39.956812665844886
                            ],
                            [
                                9.28303958727844,
                                39.987873580903539
                            ],
                            [
                                9.299083002988693,
                                40.010513265385889
                            ],
                            [
                                9.272906903671965,
                                40.03055928852315
                            ],
                            [
                                9.234909340147679,
                                40.043489081096354
                            ],
                            [
                                9.222243485639584,
                                40.044781925515345
                            ],
                            [
                                9.1800239706126,
                                40.06675652940411
                            ],
                            [
                                9.165669335503427,
                                40.079679456830796
                            ],
                            [
                                9.146248358591013,
                                40.104872111987419
                            ],
                            [
                                9.120916649574824,
                                40.110684477299046
                            ],
                            [
                                8.935150783456098,
                                40.13651120275297
                            ],
                            [
                                8.932844641428012,
                                40.136030344802329
                            ],
                            [
                                8.940841685214567,
                                40.179925096476836
                            ],
                            [
                                8.974849466821054,
                                40.218887948503038
                            ],
                            [
                                8.968935070019926,
                                40.2736239447174
                            ],
                            [
                                8.969007383667982,
                                40.27295470325469
                            ],
                            [
                                8.969063915761337,
                                40.272984358832275
                            ],
                            [
                                8.985387509087113,
                                40.306188108107271
                            ],
                            [
                                9.022387653958878,
                                40.341863943272905
                            ],
                            [
                                9.062652517495797,
                                40.355963142279215
                            ],
                            [
                                9.101829141477662,
                                40.356792415136439
                            ],
                            [
                                9.160594077450462,
                                40.384152697374589
                            ],
                            [
                                9.189976545436862,
                                40.409016041511229
                            ],
                            [
                                9.201947180542433,
                                40.436355114782451
                            ],
                            [
                                9.207388378317692,
                                40.470306362808877
                            ],
                            [
                                9.206300138762641,
                                40.501758054421643
                            ],
                            [
                                9.215006055203055,
                                40.52823225713945
                            ],
                            [
                                9.253094439629868,
                                40.548907954166381
                            ],
                            [
                                9.261800356070282,
                                40.564617216093339
                            ],
                            [
                                9.291182824056685,
                                40.580322791831946
                            ],
                            [
                                9.340153604034017,
                                40.607592135051448
                            ],
                            [
                                9.460948194644772,
                                40.655493117387849
                            ],
                            [
                                9.509918974622105,
                                40.672828102756171
                            ],
                            [
                                9.538554340868615,
                                40.669832399979882
                            ],
                            [
                                9.544175603866604,
                                40.667193202600494
                            ],
                            [
                                9.584309933090303,
                                40.673716210737531
                            ],
                            [
                                9.624444262314002,
                                40.763885678801401
                            ],
                            [
                                9.653111640330929,
                                40.781253701668966
                            ],
                            [
                                9.676711759964196,
                                40.7792680894051
                            ],
                            [
                                9.68064308521843,
                                40.760661242086805
                            ],
                            [
                                9.710261292312536,
                                40.752395526587357
                            ],
                            [
                                9.71337899832244,
                                40.74649081488672
                            ],
                            [
                                9.722732116352159,
                                40.701597872484392
                            ],
                            [
                                9.74299720541655,
                                40.701597872484392
                            ],
                            [
                                9.75390917645122,
                                40.69096089856059
                            ],
                            [
                                9.752350323446269,
                                40.659039787445984
                            ],
                            [
                                9.750791470441317,
                                40.586865461049008
                            ],
                            [
                                9.789762795565142,
                                40.563184772582545
                            ],
                            [
                                9.810027884629532,
                                40.540680355757651
                            ],
                            [
                                9.819381002659251,
                                40.507502167476446
                            ],
                            [
                                9.810027884629532,
                                40.475493362249885
                            ],
                            [
                                9.778850824530473,
                                40.433977744894278
                            ],
                            [
                                9.77261541251066,
                                40.41142995432601
                            ],
                            [
                                9.755468029456177,
                                40.380562836524966
                            ],
                            [
                                9.732085234381881,
                                40.373437646041666
                            ],
                            [
                                9.691555056253101,
                                40.356809271432361
                            ],
                            [
                                9.674407673198617,
                                40.319974702347899
                            ],
                            [
                                9.624524377040117,
                                40.27479521951431
                            ],
                            [
                                9.607376993985637,
                                40.228395394409638
                            ],
                            [
                                9.624517534128469,
                                40.169478696054576
                            ],
                            [
                                9.647755217837201,
                                40.157798232545453
                            ],
                            [
                                9.656701138546513,
                                40.137283804977976
                            ],
                            [
                                9.692484821383777,
                                40.111632058649803
                            ],
                            [
                                9.723795543866386,
                                40.080837187615536
                            ],
                            [
                                9.714849623157068,
                                40.055164150644941
                            ]
                        ]
                    ],
                    [
                        [
                            [
                                8.886333222030485,
                                40.366467092509872
                            ],
                            [
                                8.901658806407095,
                                40.36381338461522
                            ],
                            [
                                8.886333222030483,
                                40.366467092509872
                            ],
                            [
                                8.886333222030485,
                                40.366467092509872
                            ]
                        ]
                    ]
                ]
            }
        }
    ]
}