{
    "type": "FeatureCollection",
    "name": "Ecclesien",
    "crs": {
        "type": "name",
        "properties": {
                "diocese": "Ecclesien",
                "province": "Calaritan",
                "date": 1763
            }
    },
    "features": [
        {
            "type": "Feature",
            "properties": {
                "diocese": "Ecclesien",
                "province": "Calaritan",
                "date": 1763
            },
            "geometry": {
                "type": "MultiPolygon",
                "coordinates": [
                    [
                        [
                            [
                                8.371818450176228,
                                39.124573869857748
                            ],
                            [
                                8.352521920876345,
                                39.107356517842035
                            ],
                            [
                                8.350592267946356,
                                39.066916637726578
                            ],
                            [
                                8.404622549986025,
                                38.964215166791192
                            ],
                            [
                                8.424883905750901,
                                38.960464117143843
                            ],
                            [
                                8.45286387323573,
                                38.974717049245541
                            ],
                            [
                                8.464441790815657,
                                39.063920168772519
                            ],
                            [
                                8.463476964350663,
                                39.092381487884637
                            ],
                            [
                                8.432602517470851,
                                39.108853845892817
                            ],
                            [
                                8.384361194221151,
                                39.102115619168963
                            ],
                            [
                                8.371818450176228,
                                39.124573869857748
                            ]
                        ]
                    ]
                ]
            }
        },
        {
            "type": "Feature",
            "properties": {
                "diocese": "Ecclesien",
                "province": "Calaritan",
                "date": 1763
            },
            "geometry": {
                "type": "MultiPolygon",
                "coordinates": [
                    [
                        [
                            [
                                8.310069556416606,
                                39.187418887678469
                            ],
                            [
                                8.262793059631896,
                                39.18218394689675
                            ],
                            [
                                8.222270348102144,
                                39.162736467866743
                            ],
                            [
                                8.224200001032132,
                                39.136548676818784
                            ],
                            [
                                8.251215142051967,
                                39.125322354944394
                            ],
                            [
                                8.252179968516963,
                                39.105859157982017
                            ],
                            [
                                8.2946323329767,
                                39.090134959058041
                            ],
                            [
                                8.312964035811587,
                                39.108853845892817
                            ],
                            [
                                8.30910472995161,
                                39.165728737778203
                            ],
                            [
                                8.310069556416606,
                                39.187418887678469
                            ]
                        ]
                    ]
                ]
            }
        },
        {
            "type": "Feature",
            "properties": {
                "diocese": "Ecclesien",
                "province": "Calaritan",
                "date": 1763
            },
            "geometry": {
                "type": "MultiPolygon",
                "coordinates": [
                    [
                        [
                            [
                                8.767397300823799,
                                38.916186735131937
                            ],
                            [
                                8.721085630504081,
                                38.933450697578671
                            ],
                            [
                                8.677668439579348,
                                38.905676179483464
                            ],
                            [
                                8.669949827859394,
                                38.866623347997638
                            ],
                            [
                                8.641969860374568,
                                38.866623347997638
                            ],
                            [
                                8.630391942794638,
                                38.891409364660618
                            ],
                            [
                                8.608200934099775,
                                38.899669448918964
                            ],
                            [
                                8.622673331074685,
                                38.928196892870034
                            ],
                            [
                                8.620743678144699,
                                38.94545793268729
                            ],
                            [
                                8.600482322379822,
                                38.953711727329797
                            ],
                            [
                                8.560924437315066,
                                38.996465995058841
                            ],
                            [
                                8.581185793079939,
                                39.021206666832114
                            ],
                            [
                                8.560924437315066,
                                39.04369067649062
                            ],
                            [
                                8.463476964350663,
                                39.113345639186463
                            ],
                            [
                                8.438391476260819,
                                39.116340008996481
                            ],
                            [
                                8.431637691005861,
                                39.161240285177875
                            ],
                            [
                                8.377607408966192,
                                39.199383002513287
                            ],
                            [
                                8.367959144316252,
                                39.230779111158306
                            ],
                            [
                                8.42005977342593,
                                39.263655213401734
                            ],
                            [
                                8.438391476260819,
                                39.293529204295055
                            ],
                            [
                                8.424883905750901,
                                39.326375878704148
                            ],
                            [
                                8.395939111801079,
                                39.34055490322816
                            ],
                            [
                                8.372783276641218,
                                39.375616977152625
                            ],
                            [
                                8.404622549986025,
                                39.409916007072418
                            ],
                            [
                                8.406552202916014,
                                39.435256625833397
                            ],
                            [
                                8.422559168921541,
                                39.438628208291917
                            ],
                            [
                                8.422483203419535,
                                39.43722029786332
                            ],
                            [
                                8.443464149834712,
                                39.43992091670723
                            ],
                            [
                                8.471438745054947,
                                39.430468292685937
                            ],
                            [
                                8.495042309772021,
                                39.392644972019525
                            ],
                            [
                                8.516023256187195,
                                39.377780197105452
                            ],
                            [
                                8.554488324615019,
                                39.368319146484708
                            ],
                            [
                                8.580714507633989,
                                39.354125166847325
                            ],
                            [
                                8.602569660149795,
                                39.349393199355404
                            ],
                            [
                                8.651369602355107,
                                39.323107327411961
                            ],
                            [
                                8.659230979457789,
                                39.268361998560316
                            ],
                            [
                                8.784473869388208,
                                39.105415814800445
                            ],
                            [
                                8.784473869388208,
                                38.982089135626808
                            ],
                            [
                                8.804602190984173,
                                38.938613010742912
                            ],
                            [
                                8.815168372375078,
                                38.89092826468562
                            ],
                            [
                                8.794412441843633,
                                38.885401427243757
                            ],
                            [
                                8.767397300823799,
                                38.916186735131937
                            ]
                        ]
                    ],
                    [
                        [
                            [
                                8.658484584097534,
                                39.329943579248265
                            ],
                            [
                                8.651525201785207,
                                39.323023514470606
                            ],
                            [
                                8.658484584097533,
                                39.329943579248265
                            ],
                            [
                                8.658484584097534,
                                39.329943579248265
                            ]
                        ]
                    ]
                ]
            }
        }
    ]
}