{
    "type": "FeatureCollection",
    "name": "Galtellinen-Noren",
    "crs": {
        "type": "name",
        "properties": {
                "diocese": "Galtellinen-Noren",
                "province": "Calaritan",
                "date": 1776
            }
    },
    "features": [
        {
            "type": "Feature",
            "properties": {
                "diocese": "Galtellinen-Noren",
                "province": "Calaritan",
                "date": 1776
            },
            "geometry": {
                "type": "MultiPolygon",
                "coordinates": [
                    [
                        [
                            [
                                9.722732116352159,
                                40.701597872484392
                            ],
                            [
                                9.74299720541655,
                                40.701597872484392
                            ],
                            [
                                9.75390917645122,
                                40.69096089856059
                            ],
                            [
                                9.752350323446269,
                                40.659039787445984
                            ],
                            [
                                9.750791470441317,
                                40.586865461049008
                            ],
                            [
                                9.789762795565142,
                                40.563184772582545
                            ],
                            [
                                9.810027884629532,
                                40.540680355757651
                            ],
                            [
                                9.819381002659251,
                                40.507502167476446
                            ],
                            [
                                9.810027884629532,
                                40.475493362249885
                            ],
                            [
                                9.778850824530473,
                                40.433977744894278
                            ],
                            [
                                9.77261541251066,
                                40.41142995432601
                            ],
                            [
                                9.755468029456177,
                                40.380562836524966
                            ],
                            [
                                9.732085234381881,
                                40.373437646041666
                            ],
                            [
                                9.691555056253101,
                                40.356809271432361
                            ],
                            [
                                9.674407673198617,
                                40.319974702347899
                            ],
                            [
                                9.624524377040117,
                                40.27479521951431
                            ],
                            [
                                9.607376993985637,
                                40.228395394409638
                            ],
                            [
                                9.626083230045074,
                                40.164096973351221
                            ],
                            [
                                9.579317639896484,
                                40.185536554586847
                            ],
                            [
                                9.535669755757798,
                                40.192681576390036
                            ],
                            [
                                9.501374989648831,
                                40.164096973351221
                            ],
                            [
                                9.421873486396226,
                                40.068728011938568
                            ],
                            [
                                9.336136571123809,
                                40.049638171707826
                            ],
                            [
                                9.30184180501484,
                                40.009054505382665
                            ],
                            [
                                9.297353154966316,
                                40.008072188364864
                            ],
                            [
                                9.299083002988693,
                                40.010513265385889
                            ],
                            [
                                9.272906903671965,
                                40.03055928852315
                            ],
                            [
                                9.234909340147679,
                                40.043489081096354
                            ],
                            [
                                9.222243485639584,
                                40.044781925515345
                            ],
                            [
                                9.1800239706126,
                                40.06675652940411
                            ],
                            [
                                9.165669335503427,
                                40.079679456830796
                            ],
                            [
                                9.146248358591013,
                                40.104872111987419
                            ],
                            [
                                9.120916649574824,
                                40.110684477299046
                            ],
                            [
                                8.935150783456098,
                                40.13651120275297
                            ],
                            [
                                8.932844641428012,
                                40.136030344802329
                            ],
                            [
                                8.940841685214567,
                                40.179925096476836
                            ],
                            [
                                8.974849466821054,
                                40.218887948503038
                            ],
                            [
                                8.968935070019926,
                                40.2736239447174
                            ],
                            [
                                8.969007383667982,
                                40.27295470325469
                            ],
                            [
                                8.969063915761337,
                                40.272984358832275
                            ],
                            [
                                8.985387509087113,
                                40.306188108107271
                            ],
                            [
                                9.022387653958878,
                                40.341863943272905
                            ],
                            [
                                9.062652517495797,
                                40.355963142279215
                            ],
                            [
                                9.101829141477662,
                                40.356792415136439
                            ],
                            [
                                9.160594077450462,
                                40.384152697374589
                            ],
                            [
                                9.189976545436862,
                                40.409016041511229
                            ],
                            [
                                9.201947180542433,
                                40.436355114782451
                            ],
                            [
                                9.207388378317692,
                                40.470306362808877
                            ],
                            [
                                9.206300138762641,
                                40.501758054421643
                            ],
                            [
                                9.215006055203055,
                                40.52823225713945
                            ],
                            [
                                9.253094439629868,
                                40.548907954166381
                            ],
                            [
                                9.261800356070282,
                                40.564617216093339
                            ],
                            [
                                9.291182824056685,
                                40.580322791831946
                            ],
                            [
                                9.340153604034017,
                                40.607592135051448
                            ],
                            [
                                9.460948194644772,
                                40.655493117387849
                            ],
                            [
                                9.509918974622105,
                                40.672828102756171
                            ],
                            [
                                9.538554340868615,
                                40.669832399979882
                            ],
                            [
                                9.544175603866604,
                                40.667193202600494
                            ],
                            [
                                9.584309933090303,
                                40.673716210737531
                            ],
                            [
                                9.624444262314002,
                                40.763885678801401
                            ],
                            [
                                9.653111640330929,
                                40.781253701668966
                            ],
                            [
                                9.676711759964196,
                                40.7792680894051
                            ],
                            [
                                9.68064308521843,
                                40.760661242086805
                            ],
                            [
                                9.710261292312536,
                                40.752395526587357
                            ],
                            [
                                9.71337899832244,
                                40.74649081488672
                            ],
                            [
                                9.722732116352159,
                                40.701597872484392
                            ]
                        ]
                    ],
                    [
                        [
                            [
                                8.901658806407095,
                                40.36381338461522
                            ],
                            [
                                8.886333222030483,
                                40.366467092509872
                            ],
                            [
                                8.886333222030485,
                                40.366467092509872
                            ],
                            [
                                8.901658806407095,
                                40.36381338461522
                            ]
                        ]
                    ]
                ]
            }
        }
    ]
}