{
"type": "FeatureCollection",
"name": "Baionen2",
"crs": { "type": "name", "properties": { "name": "urn:ogc:def:crs:OGC:1.3:CRS84" } },
"features": [
{ "type": "Feature", "properties": { "diocese": "Baionen", "province": "Auxitan", "date": 1592 }, "geometry": { "type": "Polygon", "coordinates": [ [ [ -1.08464031278453, 43.074666202223106 ], [ -1.090401716614323, 43.079541282279351 ], [ -1.096163120444115, 43.084416362335581 ], [ -1.101924524273909, 43.089291442391819 ], [ -1.107685928103701, 43.094166522448063 ], [ -1.113447331933495, 43.0990416025043 ], [ -1.119208735763288, 43.103916682560538 ], [ -1.12497013959308, 43.108791762616775 ], [ -1.130731543422874, 43.113666842673013 ], [ -1.136492947252666, 43.11854192272925 ], [ -1.142254351082459, 43.123417002785487 ], [ -1.142254351082459, 43.123417002785487 ], [ -1.140185565800907, 43.132194058979714 ], [ -1.138116780519354, 43.14097111517394 ], [ -1.1360479952378, 43.149748171368167 ], [ -1.133979209956248, 43.1585252275624 ], [ -1.131910424674694, 43.167302283756626 ], [ -1.129841639393142, 43.176079339950846 ], [ -1.127772854111589, 43.184856396145072 ], [ -1.125704068830036, 43.193633452339299 ], [ -1.123635283548483, 43.202410508533532 ], [ -1.12156649826693, 43.211187564727759 ], [ -1.12156649826693, 43.211187564727759 ], [ -1.121304198309371, 43.214202166106048 ], [ -1.121041898351812, 43.217216767484345 ], [ -1.120779598394253, 43.220231368862642 ], [ -1.120517298436694, 43.223245970240932 ], [ -1.120254998479134, 43.226260571619235 ], [ -1.119992698521575, 43.229275172997532 ], [ -1.119730398564016, 43.232289774375829 ], [ -1.119468098606457, 43.235304375754119 ], [ -1.119205798648899, 43.238318977132415 ], [ -1.11894349869134, 43.241333578510705 ], [ -1.11894349869134, 43.241333578510705 ], [ -1.122017670315426, 43.243194738593374 ], [ -1.125091841939512, 43.245055898676036 ], [ -1.128166013563599, 43.246917058758704 ], [ -1.131240185187685, 43.248778218841373 ], [ -1.134314356811772, 43.250639378924028 ], [ -1.137388528435859, 43.252500539006697 ], [ -1.140462700059945, 43.254361699089365 ], [ -1.143536871684032, 43.256222859172027 ], [ -1.146611043308118, 43.258084019254696 ], [ -1.149685214932205, 43.259945179337365 ], [ -1.149685214932205, 43.259945179337365 ], [ -1.145572624206461, 43.264556694911732 ], [ -1.141460033480716, 43.269168210486093 ], [ -1.137347442754974, 43.273779726060461 ], [ -1.133234852029229, 43.278391241634822 ], [ -1.129122261303486, 43.283002757209189 ], [ -1.125009670577742, 43.28761427278355 ], [ -1.120897079851997, 43.292225788357911 ], [ -1.116784489126255, 43.296837303932278 ], [ -1.11267189840051, 43.301448819506646 ], [ -1.108559307674766, 43.306060335081007 ], [ -1.108559307674766, 43.306060335081007 ], [ -1.110089641960526, 43.310493126391947 ], [ -1.111619976246287, 43.314925917702887 ], [ -1.113150310532048, 43.319358709013819 ], [ -1.114680644817809, 43.323791500324759 ], [ -1.11621097910357, 43.328224291635699 ], [ -1.117741313389329, 43.332657082946632 ], [ -1.11927164767509, 43.337089874257572 ], [ -1.120801981960851, 43.341522665568505 ], [ -1.122332316246612, 43.345955456879445 ], [ -1.123862650532373, 43.350388248190377 ], [ -1.123862650532373, 43.350388248190377 ], [ -1.129239674064205, 43.355086053490417 ], [ -1.134616697596039, 43.359783858790443 ], [ -1.139993721127873, 43.364481664090476 ], [ -1.145370744659707, 43.369179469390509 ], [ -1.15074776819154, 43.373877274690543 ], [ -1.156124791723375, 43.378575079990576 ], [ -1.161501815255208, 43.383272885290602 ], [ -1.166878838787042, 43.387970690590642 ], [ -1.172255862318874, 43.392668495890668 ], [ -1.177632885850709, 43.397366301190701 ], [ -1.177632885850709, 43.397366301190701 ], [ -1.181475304833379, 43.399847930206121 ], [ -1.185317723816052, 43.402329559221542 ], [ -1.189160142798725, 43.404811188236962 ], [ -1.193002561781397, 43.407292817252376 ], [ -1.196844980764069, 43.409774446267797 ], [ -1.200687399746741, 43.412256075283217 ], [ -1.204529818729414, 43.414737704298631 ], [ -1.208372237712086, 43.417219333314058 ], [ -1.212214656694758, 43.419700962329479 ], [ -1.216057075677431, 43.422182591344885 ], [ -1.216057075677431, 43.422182591344885 ], [ -1.214630690577167, 43.430339920426931 ], [ -1.213204305476902, 43.438497249508977 ], [ -1.211777920376637, 43.446654578591016 ], [ -1.210351535276373, 43.454811907673061 ], [ -1.208925150176109, 43.462969236755093 ], [ -1.207498765075844, 43.471126565837132 ], [ -1.206072379975579, 43.479283894919185 ], [ -1.204645994875314, 43.487441224001223 ], [ -1.20321960977505, 43.495598553083262 ], [ -1.201793224674786, 43.503755882165301 ], [ -1.201793224674786, 43.503755882165301 ], [ -1.203586877798722, 43.504642069178963 ], [ -1.205380530922659, 43.505528256192633 ], [ -1.207174184046595, 43.506414443206296 ], [ -1.208967837170532, 43.507300630219966 ], [ -1.210761490294467, 43.508186817233629 ], [ -1.212555143418404, 43.509073004247306 ], [ -1.21434879654234, 43.509959191260968 ], [ -1.216142449666278, 43.510845378274631 ], [ -1.217936102790213, 43.511731565288308 ], [ -1.21972975591415, 43.512617752301971 ], [ -1.21972975591415, 43.512617752301971 ], [ -1.22755703562958, 43.509423946983873 ], [ -1.235384315345009, 43.506230141665775 ], [ -1.243211595060441, 43.503036336347691 ], [ -1.251038874775869, 43.499842531029593 ], [ -1.258866154491299, 43.496648725711502 ], [ -1.26669343420673, 43.493454920393404 ], [ -1.27452071392216, 43.490261115075313 ], [ -1.282347993637589, 43.487067309757215 ], [ -1.290175273353019, 43.483873504439124 ], [ -1.298002553068449, 43.480679699121033 ], [ -1.298002553068449, 43.480679699121033 ], [ -1.312492861264883, 43.481119372832566 ], [ -1.326983169461316, 43.481559046544099 ], [ -1.341473477657749, 43.481998720255632 ], [ -1.355963785854183, 43.482438393967158 ], [ -1.370454094050617, 43.482878067678698 ], [ -1.384944402247049, 43.483317741390223 ], [ -1.399434710443484, 43.483757415101756 ], [ -1.413925018639916, 43.484197088813296 ], [ -1.42841532683635, 43.484636762524829 ], [ -1.442905635032783, 43.485076436236355 ], [ -1.442905635032783, 43.485076436236355 ], [ -1.451904699808281, 43.487161509162512 ], [ -1.460903764583779, 43.489246582088661 ], [ -1.469902829359277, 43.491331655014811 ], [ -1.478901894134774, 43.493416727940982 ], [ -1.487900958910272, 43.495501800867139 ], [ -1.49690002368577, 43.497586873793288 ], [ -1.505899088461267, 43.499671946719438 ], [ -1.514898153236765, 43.501757019645602 ], [ -1.523897218012263, 43.503842092571752 ], [ -1.532896282787761, 43.505927165497909 ], [ -1.532896282787761, 43.505927165497909 ], [ -1.536824523650867, 43.502356679715767 ], [ -1.54110609148292, 43.499055814206564 ], [ -1.545659265011431, 43.49596676094334 ], [ -1.550402322963915, 43.493031711899164 ], [ -1.555253544067881, 43.490192859047099 ], [ -1.560131207050842, 43.487392394360199 ], [ -1.56495359064031, 43.484572509811542 ], [ -1.569638973563798, 43.481675397374175 ], [ -1.574105634548816, 43.478643249021168 ], [ -1.578271852322877, 43.475418256725582 ], [ -1.578271852322878, 43.475418256725575 ], [ -1.58212987680658, 43.463657525677277 ], [ -1.588461543889859, 43.452745003490584 ], [ -1.59699337700782, 43.442710036884357 ], [ -1.607451899595564, 43.433581972577443 ], [ -1.619563635088196, 43.425390157288696 ], [ -1.63305510692082, 43.418163937736949 ], [ -1.647652838528537, 43.411932660641085 ], [ -1.66308335334645, 43.406725672719929 ], [ -1.679073174809667, 43.402572320692343 ], [ -1.695348826353287, 43.39950195127718 ], [ -1.695348826353287, 43.39950195127718 ], [ -1.703285421057376, 43.39706585739674 ], [ -1.711660808503051, 43.395405983013404 ], [ -1.720374439873323, 43.394314430805643 ], [ -1.729325766351198, 43.393583303451912 ], [ -1.738414239119688, 43.393004703630666 ], [ -1.747539309361798, 43.392370734020396 ], [ -1.756600428260546, 43.391473497299529 ], [ -1.765497046998934, 43.390105096146542 ], [ -1.774128616759976, 43.388057633239889 ], [ -1.782394588726679, 43.385123211258048 ], [ -1.782394588726684, 43.385123211258055 ], [ -1.931691664482847, 43.322037384508995 ], [ -1.821238915280037, 43.283924540284247 ], [ -1.692327994941107, 43.086714481714786 ], [ -1.560347275833959, 43.087286838146504 ], [ -1.352301313332849, 43.028111809509184 ], [ -1.344214810591616, 43.073081716391243 ], [ -1.308927373052539, 43.068724802330081 ], [ -1.263582354113823, 43.043991155636235 ], [ -1.228680430445841, 43.055533524093363 ], [ -1.163520337609014, 43.034260670255463 ], [ -1.142639938272884, 43.009677236040019 ], [ -1.121210621984685, 43.019312281042772 ], [ -1.121196403629185, 43.019321958212146 ], [ -1.121182378348372, 43.019330214398906 ], [ -1.121168498474796, 43.019337400746551 ], [ -1.121154716341008, 43.019343868398579 ], [ -1.121140984279558, 43.019349968498481 ], [ -1.121127254622995, 43.019356052189764 ], [ -1.121113479703871, 43.019362470615938 ], [ -1.121099611854735, 43.019369574920489 ], [ -1.121085603408138, 43.019377716246915 ], [ -1.12107140669663, 43.01938724573872 ], [ -1.121071406696627, 43.01938724573872 ], [ -1.117428297305419, 43.024915141387154 ], [ -1.113785187914208, 43.030443037035596 ], [ -1.110142078522997, 43.035970932684037 ], [ -1.106498969131788, 43.041498828332479 ], [ -1.102855859740579, 43.047026723980906 ], [ -1.099212750349368, 43.052554619629355 ], [ -1.095569640958159, 43.058082515277789 ], [ -1.091926531566949, 43.063610410926238 ], [ -1.08828342217574, 43.069138306574665 ], [ -1.08464031278453, 43.074666202223106 ] ] ] } }
]
}
