{
"type": "FeatureCollection",
"name": "Convenarum2",
"crs": { "type": "name", "properties": { "name": "urn:ogc:def:crs:OGC:1.3:CRS84" } },
"features": [
{ "type": "Feature", "properties": { "diocese": "Convenarum", "province": "Auxitan", "date": 1592 }, "geometry": { "type": "Polygon", "coordinates": [ [ [ 0.426216330890188, 43.0987796452116 ], [ 0.419315568696789, 43.094514627487982 ], [ 0.412414806503391, 43.090249609764363 ], [ 0.405514044309991, 43.085984592040759 ], [ 0.398613282116594, 43.081719574317141 ], [ 0.391712519923195, 43.077454556593516 ], [ 0.384811757729796, 43.073189538869897 ], [ 0.377910995536399, 43.068924521146286 ], [ 0.371010233343, 43.064659503422668 ], [ 0.364109471149603, 43.060394485699049 ], [ 0.357208708956204, 43.056129467975431 ], [ 0.357208708956204, 43.056129467975431 ], [ 0.35664984285521, 43.048355810795876 ], [ 0.356090976754216, 43.04058215361632 ], [ 0.355532110653223, 43.032808496436765 ], [ 0.35497324455223, 43.025034839257209 ], [ 0.354414378451235, 43.017261182077661 ], [ 0.353855512350242, 43.009487524898105 ], [ 0.353296646249248, 43.00171386771855 ], [ 0.352737780148256, 42.993940210538995 ], [ 0.352178914047262, 42.986166553359432 ], [ 0.351620047946268, 42.978392896179884 ], [ 0.351620047946268, 42.978392896179884 ], [ 0.349443143056396, 42.977639224836523 ], [ 0.347266238166522, 42.976885553493162 ], [ 0.345089333276648, 42.976131882149794 ], [ 0.342912428386775, 42.975378210806433 ], [ 0.340735523496902, 42.974624539463065 ], [ 0.338558618607028, 42.973870868119704 ], [ 0.336381713717155, 42.973117196776343 ], [ 0.334204808827281, 42.972363525432975 ], [ 0.332027903937408, 42.971609854089614 ], [ 0.329850999047534, 42.970856182746253 ], [ 0.329850999047534, 42.970856182746253 ], [ 0.326940412159391, 42.966216143729419 ], [ 0.324029825271247, 42.961576104712591 ], [ 0.321119238383105, 42.956936065695757 ], [ 0.318208651494962, 42.952296026678923 ], [ 0.315298064606818, 42.947655987662102 ], [ 0.312387477718675, 42.943015948645268 ], [ 0.309476890830531, 42.938375909628434 ], [ 0.306566303942389, 42.933735870611599 ], [ 0.303655717054245, 42.929095831594765 ], [ 0.300745130166102, 42.924455792577945 ], [ 0.300745130166102, 42.924455792577945 ], [ 0.295845185544884, 42.922574484232491 ], [ 0.290945240923668, 42.920693175887038 ], [ 0.28604529630245, 42.918811867541592 ], [ 0.281145351681234, 42.916930559196139 ], [ 0.276245407060017, 42.915049250850686 ], [ 0.271345462438799, 42.913167942505233 ], [ 0.266445517817582, 42.911286634159787 ], [ 0.261545573196365, 42.909405325814333 ], [ 0.256645628575149, 42.90752401746888 ], [ 0.251745683953931, 42.905642709123434 ], [ 0.251745683953931, 42.905642709123434 ], [ 0.252283254400236, 42.902382624628615 ], [ 0.252820824846543, 42.899122540133803 ], [ 0.253358395292847, 42.895862455638984 ], [ 0.253895965739152, 42.892602371144172 ], [ 0.254433536185458, 42.889342286649367 ], [ 0.254971106631763, 42.886082202154554 ], [ 0.255508677078068, 42.882822117659742 ], [ 0.256046247524373, 42.87956203316493 ], [ 0.256583817970679, 42.876301948670111 ], [ 0.257121388416985, 42.873041864175292 ], [ 0.257121388416985, 42.873041864175292 ], [ 0.252944637010098, 42.870407608247625 ], [ 0.248767885603211, 42.867773352319951 ], [ 0.244591134196323, 42.865139096392276 ], [ 0.240414382789438, 42.862504840464602 ], [ 0.236237631382551, 42.859870584536928 ], [ 0.232060879975664, 42.857236328609247 ], [ 0.227884128568778, 42.85460207268158 ], [ 0.223707377161891, 42.851967816753898 ], [ 0.219530625755004, 42.849333560826217 ], [ 0.215353874348117, 42.84669930489855 ], [ 0.215353874348117, 42.84669930489855 ], [ 0.211727602684032, 42.846698399910373 ], [ 0.208101331019946, 42.846697494922182 ], [ 0.204475059355859, 42.846696589933998 ], [ 0.200848787691774, 42.846695684945821 ], [ 0.197222516027688, 42.84669477995763 ], [ 0.193596244363602, 42.846693874969453 ], [ 0.189969972699516, 42.846692969981277 ], [ 0.18634370103543, 42.846692064993086 ], [ 0.182717429371344, 42.846691160004909 ], [ 0.179091157707258, 42.846690255016725 ], [ 0.179091157707258, 42.846690255016725 ], [ 0.173469393915296, 42.847064869123592 ], [ 0.167847630123336, 42.847439483230467 ], [ 0.162225866331375, 42.847814097337334 ], [ 0.156604102539414, 42.848188711444202 ], [ 0.150982338747452, 42.848563325551076 ], [ 0.14536057495549, 42.848937939657951 ], [ 0.139738811163529, 42.849312553764818 ], [ 0.134117047371567, 42.849687167871686 ], [ 0.128495283579606, 42.85006178197856 ], [ 0.122873519787645, 42.850436396085428 ], [ 0.122873519787645, 42.850436396085428 ], [ 0.119601782107362, 42.846799343824273 ], [ 0.116330044427079, 42.843162291563132 ], [ 0.113058306746795, 42.839525239301977 ], [ 0.109786569066511, 42.835888187040815 ], [ 0.106514831386228, 42.832251134779675 ], [ 0.103243093705944, 42.82861408251852 ], [ 0.099971356025661, 42.824977030257372 ], [ 0.096699618345377, 42.821339977996224 ], [ 0.093427880665094, 42.81770292573507 ], [ 0.090156142984811, 42.814065873473915 ], [ 0.090156142984811, 42.814065873473915 ], [ 0.091423041040248, 42.812436052973204 ], [ 0.092689939095685, 42.810806232472501 ], [ 0.093956837151123, 42.809176411971784 ], [ 0.095223735206561, 42.80754659147108 ], [ 0.096490633261998, 42.805916770970363 ], [ 0.097757531317435, 42.80428695046966 ], [ 0.099024429372873, 42.802657129968942 ], [ 0.10029132742831, 42.801027309468239 ], [ 0.101558225483748, 42.799397488967529 ], [ 0.102825123539186, 42.797767668466818 ], [ 0.102825123539186, 42.797767668466818 ], [ 0.105174343100785, 42.789337759966827 ], [ 0.107523562662384, 42.780907851466836 ], [ 0.109872782223984, 42.772477942966852 ], [ 0.112222001785584, 42.76404803446686 ], [ 0.114571221347184, 42.755618125966869 ], [ 0.116920440908783, 42.747188217466885 ], [ 0.119269660470383, 42.738758308966894 ], [ 0.121618880031982, 42.730328400466909 ], [ 0.123968099593581, 42.721898491966911 ], [ 0.126317319155181, 42.713468583466927 ], [ 0.126317319155181, 42.713468583466927 ], [ 0.126496360708092, 42.713435516220329 ], [ 0.126674089140795, 42.713405267543671 ], [ 0.126850878844867, 42.713377046663872 ], [ 0.127027104211881, 42.713350062807848 ], [ 0.127203139633416, 42.713323525202533 ], [ 0.127379359501049, 42.713296643074848 ], [ 0.127556138206352, 42.713268625651736 ], [ 0.127733850140903, 42.713238682160117 ], [ 0.127912869696279, 42.713206021826899 ], [ 0.128093571264055, 42.713169853879016 ], [ 0.128093571264059, 42.713169853879016 ], [ 0.134313086012235, 42.715245062409927 ], [ 0.14073452768123, 42.71722495792902 ], [ 0.147252489646705, 42.719163332432394 ], [ 0.153761565284329, 42.721113977916147 ], [ 0.160156347969763, 42.723130686376415 ], [ 0.166331431078673, 42.725267249809292 ], [ 0.172181407986721, 42.727577460210902 ], [ 0.177600872069572, 42.730115109577333 ], [ 0.182484416702891, 42.732933989904708 ], [ 0.186726635262341, 42.736087893189129 ], [ 0.186726635262341, 42.736087893189129 ], [ 0.193881912936948, 42.735851728161201 ], [ 0.20066915232855, 42.734817769194542 ], [ 0.207157182645256, 42.733152597829061 ], [ 0.213414833095178, 42.731022795604702 ], [ 0.219510932886424, 42.728594944061385 ], [ 0.225514311227103, 42.726035624739048 ], [ 0.231493797325325, 42.723511419177619 ], [ 0.237518220389199, 42.721188908917021 ], [ 0.243656409626835, 42.719234675497191 ], [ 0.249977194246342, 42.717815300458071 ], [ 0.249977194246348, 42.717815300458071 ], [ 0.259828917870468, 42.719113790768176 ], [ 0.267082687961484, 42.718655748273449 ], [ 0.272216756226854, 42.716733949034364 ], [ 0.275709374374035, 42.71364116911144 ], [ 0.278038794110483, 42.709670184565155 ], [ 0.279683267143657, 42.705113771456027 ], [ 0.281121045181011, 42.700264705844525 ], [ 0.282830379930004, 42.695415763791182 ], [ 0.285289523098093, 42.690859721356468 ], [ 0.288976726392732, 42.686889354600908 ], [ 0.288976726392732, 42.686889354600908 ], [ 0.293428627556874, 42.681915931704154 ], [ 0.298721530997873, 42.678669925204481 ], [ 0.304587404092628, 42.676989321064376 ], [ 0.310758214218035, 42.676712105246338 ], [ 0.316965928750992, 42.677676263712883 ], [ 0.322942515068396, 42.679719782426503 ], [ 0.328419940547144, 42.682680647349699 ], [ 0.333130172564136, 42.686396844444985 ], [ 0.336805178496265, 42.690706359674849 ], [ 0.339176925720432, 42.69544717900181 ], [ 0.339176925720432, 42.695447179001803 ], [ 0.337195564624864, 42.699499424162006 ], [ 0.338055556917863, 42.703143441368802 ], [ 0.341270981738, 42.706399832681512 ], [ 0.346355918223848, 42.709289200159397 ], [ 0.352824445513979, 42.711832145861742 ], [ 0.360190642746965, 42.714049271847834 ], [ 0.367968589061378, 42.715961180176947 ], [ 0.37567236359579, 42.717588472908389 ], [ 0.382816045488775, 42.718951752101418 ], [ 0.388913713878904, 42.720071619815336 ], [ 0.388913713878901, 42.720071619815336 ], [ 0.392565339621293, 42.717065025502556 ], [ 0.396024725947701, 42.714295164052182 ], [ 0.39929612511187, 42.711693135972645 ], [ 0.402383789367546, 42.709190041772352 ], [ 0.405291970968481, 42.706716981959758 ], [ 0.408024922168417, 42.704205057043282 ], [ 0.410586895221106, 42.701585367531379 ], [ 0.412982142380294, 42.698789013932448 ], [ 0.415214915899727, 42.695747096754943 ], [ 0.417289468033155, 42.692390716507283 ], [ 0.417289468033157, 42.692390716507276 ], [ 0.422665509471715, 42.692395467215022 ], [ 0.42850016573937, 42.692005926264251 ], [ 0.434707028959048, 42.69137680955324 ], [ 0.441199691253681, 42.690662832980301 ], [ 0.447891744746199, 42.690018712443717 ], [ 0.454696781559528, 42.689599163841777 ], [ 0.4615283938166, 42.689558903072793 ], [ 0.468300173640343, 42.690052646035042 ], [ 0.474925713153686, 42.691235108626827 ], [ 0.481318604479558, 42.693261006746432 ], [ 0.481318604479562, 42.693261006746432 ], [ 0.485761228606825, 42.697153624441803 ], [ 0.49083361022438, 42.698648121226157 ], [ 0.49639504460444, 42.698367950293097 ], [ 0.502304827019226, 42.696936564836243 ], [ 0.50842225274095, 42.694977418049199 ], [ 0.51460661704183, 42.693113963125597 ], [ 0.52071721519408, 42.691969653259036 ], [ 0.526613342469919, 42.692167941643142 ], [ 0.532154294141561, 42.694332281471517 ], [ 0.537199365481222, 42.699086125937768 ], [ 0.537199365481226, 42.699086125937775 ], [ 0.542840469571559, 42.700007195009185 ], [ 0.548787060453822, 42.700220711690015 ], [ 0.554987965755977, 42.699871234263618 ], [ 0.561392013105979, 42.699103321013318 ], [ 0.567948030131787, 42.698061530222461 ], [ 0.574604844461362, 42.69689042017437 ], [ 0.581311283722662, 42.695734549152405 ], [ 0.588016175543645, 42.69473847543987 ], [ 0.59466834755227, 42.694046757320137 ], [ 0.601216627376497, 42.693803953076532 ], [ 0.601216627376501, 42.693803953076518 ], [ 0.605795264524276, 42.697962615346128 ], [ 0.61010730670219, 42.700428369524936 ], [ 0.614295518753959, 42.701472515172924 ], [ 0.618502665523295, 42.701366351850027 ], [ 0.622871511853917, 42.700381179116192 ], [ 0.627544822589536, 42.698788296531369 ], [ 0.63266536257387, 42.696859003655504 ], [ 0.638375896650633, 42.694864600048547 ], [ 0.64481918966354, 42.693076385270444 ], [ 0.652138006456307, 42.69176565888116 ], [ 0.652138006456301, 42.69176565888116 ], [ 0.654084965545113, 42.692361978388497 ], [ 0.660050525455078, 42.690870588411009 ], [ 0.696234347370878, 42.658373300777242 ], [ 0.708830636631422, 42.620611365908282 ], [ 0.796657501613067, 42.605243328437645 ], [ 0.814877304331831, 42.609903078232009 ], [ 0.928488068678524, 42.611139424831272 ], [ 0.957568554372428, 42.701054949563002 ], [ 1.002238178765098, 42.723997774299306 ], [ 1.019704708285337, 42.786877964243565 ], [ 1.014799964928133, 42.786238215110018 ], [ 1.000996214150536, 42.792130028393146 ], [ 0.986901786669875, 42.799659928006101 ], [ 0.978503052486193, 42.801880283020175 ], [ 0.972210548777977, 42.801206045617086 ], [ 0.967015128717709, 42.79859801908632 ], [ 0.961609046944305, 42.793771160360066 ], [ 0.954488657600376, 42.7908603515219 ], [ 0.948055704052889, 42.791198528150012 ], [ 0.939817465306198, 42.794530171254664 ], [ 0.920471193208275, 42.808792079470678 ], [ 0.911004455942428, 42.812951603470843 ], [ 0.903919289705435, 42.813423947886648 ], [ 0.870213946454203, 42.827249600653964 ], [ 0.842938348899747, 42.831540107593412 ], [ 0.842007839401702, 42.833331154303593 ], [ 0.837585938478762, 42.837723040266511 ], [ 0.831611543963147, 42.840039295273833 ], [ 0.821216022406499, 42.840759308915452 ], [ 0.825530997976649, 42.85813762036085 ], [ 0.827028538254978, 42.863933142273197 ], [ 0.828526078533306, 42.869728664185537 ], [ 0.830023618811633, 42.875524186097891 ], [ 0.831521159089961, 42.881319708010231 ], [ 0.83301869936829, 42.887115229922578 ], [ 0.834516239646616, 42.892910751834933 ], [ 0.836013779924945, 42.89870627374728 ], [ 0.836013779924945, 42.89870627374728 ], [ 0.83717256020773, 42.901100438195193 ], [ 0.838331340490515, 42.903494602643114 ], [ 0.839490120773299, 42.905888767091035 ], [ 0.840648901056083, 42.908282931538956 ], [ 0.841807681338868, 42.910677095986884 ], [ 0.842966461621654, 42.913071260434798 ], [ 0.844125241904439, 42.915465424882719 ], [ 0.845284022187224, 42.917859589330646 ], [ 0.846442802470007, 42.92025375377856 ], [ 0.847601582752792, 42.922647918226481 ], [ 0.847601582752792, 42.922647918226481 ], [ 0.84990990817625, 42.923446470952605 ], [ 0.852218233599708, 42.924245023678715 ], [ 0.854526559023166, 42.925043576404839 ], [ 0.856834884446623, 42.925842129130956 ], [ 0.85914320987008, 42.926640681857066 ], [ 0.861451535293538, 42.927439234583197 ], [ 0.863759860716997, 42.928237787309314 ], [ 0.866068186140454, 42.929036340035424 ], [ 0.868376511563911, 42.929834892761548 ], [ 0.870684836987369, 42.930633445487665 ], [ 0.870684836987369, 42.930633445487665 ], [ 0.876966562769269, 42.929571062546565 ], [ 0.883248288551169, 42.928508679605464 ], [ 0.88953001433307, 42.927446296664364 ], [ 0.895811740114969, 42.926383913723264 ], [ 0.90209346589687, 42.925321530782156 ], [ 0.90837519167877, 42.924259147841063 ], [ 0.914656917460669, 42.923196764899963 ], [ 0.920938643242569, 42.922134381958855 ], [ 0.927220369024469, 42.921071999017755 ], [ 0.933502094806369, 42.920009616076655 ], [ 0.933502094806369, 42.920009616076655 ], [ 0.938897086395103, 42.924621451692566 ], [ 0.944292077983835, 42.929233287308492 ], [ 0.949687069572568, 42.933845122924417 ], [ 0.955082061161301, 42.938456958540328 ], [ 0.960477052750035, 42.943068794156261 ], [ 0.965872044338766, 42.947680629772179 ], [ 0.971267035927499, 42.952292465388098 ], [ 0.976662027516232, 42.956904301004016 ], [ 0.982057019104966, 42.961516136619935 ], [ 0.987452010693698, 42.966127972235867 ], [ 0.987452010693698, 42.966127972235867 ], [ 0.987713283859908, 42.968610570693208 ], [ 0.987974557026118, 42.971093169150549 ], [ 0.988235830192328, 42.973575767607898 ], [ 0.988497103358538, 42.976058366065239 ], [ 0.988758376524749, 42.978540964522587 ], [ 0.98901964969096, 42.981023562979928 ], [ 0.989280922857169, 42.983506161437276 ], [ 0.98954219602338, 42.985988759894624 ], [ 0.989803469189589, 42.988471358351966 ], [ 0.9900647423558, 42.990953956809307 ], [ 0.9900647423558, 42.990953956809307 ], [ 0.986217874190258, 42.991130367451937 ], [ 0.982371006024715, 42.991306778094554 ], [ 0.978524137859174, 42.991483188737178 ], [ 0.974677269693631, 42.991659599379801 ], [ 0.970830401528089, 42.991836010022418 ], [ 0.966983533362546, 42.992012420665041 ], [ 0.963136665197004, 42.992188831307672 ], [ 0.959289797031463, 42.992365241950289 ], [ 0.95544292886592, 42.992541652592912 ], [ 0.951596060700378, 42.992718063235543 ], [ 0.951596060700378, 42.992718063235543 ], [ 0.950444980877686, 42.994313674574336 ], [ 0.949293901054994, 42.995909285913136 ], [ 0.948142821232302, 42.997504897251936 ], [ 0.94699174140961, 42.999100508590743 ], [ 0.945840661586918, 43.000696119929543 ], [ 0.944689581764226, 43.002291731268343 ], [ 0.943538501941534, 43.003887342607136 ], [ 0.942387422118842, 43.005482953945943 ], [ 0.94123634229615, 43.007078565284743 ], [ 0.940085262473459, 43.008674176623543 ], [ 0.940085262473459, 43.008674176623543 ], [ 0.941372283739176, 43.011068427769246 ], [ 0.942659305004894, 43.013462678914941 ], [ 0.943946326270612, 43.015856930060643 ], [ 0.945233347536329, 43.018251181206331 ], [ 0.946520368802046, 43.020645432352026 ], [ 0.947807390067766, 43.023039683497721 ], [ 0.949094411333483, 43.025433934643431 ], [ 0.9503814325992, 43.027828185789119 ], [ 0.951668453864919, 43.030222436934821 ], [ 0.952955475130636, 43.032616688080516 ], [ 0.952955475130636, 43.032616688080516 ], [ 0.957185012556719, 43.031376476995902 ], [ 0.961414549982801, 43.030136265911274 ], [ 0.965644087408883, 43.02889605482666 ], [ 0.969873624834966, 43.027655843742046 ], [ 0.974103162261049, 43.026415632657425 ], [ 0.97833269968713, 43.025175421572804 ], [ 0.982562237113213, 43.02393521048819 ], [ 0.986791774539295, 43.022694999403569 ], [ 0.991021311965379, 43.021454788318955 ], [ 0.99525084939146, 43.020214577234341 ], [ 0.99525084939146, 43.020214577234341 ], [ 0.997559519502022, 43.020392469386557 ], [ 0.999868189612585, 43.020570361538773 ], [ 1.002176859723146, 43.020748253691004 ], [ 1.004485529833708, 43.020926145843234 ], [ 1.00679419994427, 43.02110403799545 ], [ 1.009102870054831, 43.021281930147666 ], [ 1.011411540165393, 43.021459822299896 ], [ 1.013720210275955, 43.021637714452112 ], [ 1.016028880386517, 43.021815606604342 ], [ 1.018337550497079, 43.021993498756565 ], [ 1.018337550497079, 43.021993498756565 ], [ 1.018984907404618, 43.025185512221782 ], [ 1.019632264312157, 43.028377525687006 ], [ 1.020279621219697, 43.03156953915223 ], [ 1.020926978127236, 43.034761552617454 ], [ 1.021574335034776, 43.03795356608267 ], [ 1.022221691942314, 43.041145579547894 ], [ 1.022869048849853, 43.044337593013118 ], [ 1.023516405757392, 43.047529606478342 ], [ 1.024163762664932, 43.050721619943559 ], [ 1.024811119572472, 43.053913633408783 ], [ 1.024811119572472, 43.053913633408783 ], [ 1.028532321696964, 43.05506717071944 ], [ 1.032253523821459, 43.056220708030104 ], [ 1.035974725945953, 43.057374245340768 ], [ 1.039695928070447, 43.058527782651431 ], [ 1.043417130194941, 43.059681319962102 ], [ 1.047138332319434, 43.060834857272759 ], [ 1.050859534443929, 43.061988394583423 ], [ 1.054580736568422, 43.063141931894087 ], [ 1.058301938692917, 43.064295469204744 ], [ 1.06202314081741, 43.065449006515408 ], [ 1.06202314081741, 43.065449006515408 ], [ 1.060623272000456, 43.071034439017097 ], [ 1.059223403183503, 43.076619871518787 ], [ 1.057823534366549, 43.082205304020476 ], [ 1.056423665549595, 43.087790736522159 ], [ 1.055023796732642, 43.093376169023848 ], [ 1.053623927915688, 43.098961601525531 ], [ 1.052224059098735, 43.104547034027227 ], [ 1.050824190281781, 43.11013246652891 ], [ 1.049424321464828, 43.115717899030606 ], [ 1.048024452647874, 43.121303331532296 ], [ 1.048024452647874, 43.121303331532296 ], [ 1.040713385366209, 43.120592242988693 ], [ 1.033402318084543, 43.119881154445103 ], [ 1.026091250802878, 43.119170065901507 ], [ 1.018780183521212, 43.118458977357911 ], [ 1.011469116239545, 43.117747888814314 ], [ 1.00415804895788, 43.117036800270704 ], [ 0.996846981676213, 43.116325711727114 ], [ 0.989535914394548, 43.115614623183518 ], [ 0.982224847112883, 43.114903534639922 ], [ 0.974913779831217, 43.114192446096332 ], [ 0.974913779831217, 43.114192446096332 ], [ 0.972991885724348, 43.115078546412221 ], [ 0.971069991617479, 43.115964646728116 ], [ 0.969148097510608, 43.116850747043998 ], [ 0.967226203403739, 43.117736847359886 ], [ 0.965304309296869, 43.118622947675782 ], [ 0.96338241519, 43.11950904799167 ], [ 0.961460521083131, 43.120395148307566 ], [ 0.95953862697626, 43.121281248623454 ], [ 0.957616732869391, 43.122167348939342 ], [ 0.955694838762521, 43.123053449255231 ], [ 0.955694838762521, 43.123053449255231 ], [ 0.95454631806025, 43.125979095241142 ], [ 0.953397797357979, 43.128904741227068 ], [ 0.952249276655708, 43.131830387212979 ], [ 0.951100755953437, 43.13475603319889 ], [ 0.949952235251165, 43.137681679184801 ], [ 0.948803714548894, 43.140607325170713 ], [ 0.947655193846623, 43.143532971156631 ], [ 0.946506673144352, 43.146458617142542 ], [ 0.94535815244208, 43.149384263128454 ], [ 0.94420963173981, 43.152309909114365 ], [ 0.94420963173981, 43.152309909114365 ], [ 0.94768051254097, 43.156655235861749 ], [ 0.95115139334213, 43.161000562609139 ], [ 0.954622274143292, 43.16534588935653 ], [ 0.958093154944452, 43.169691216103914 ], [ 0.961564035745612, 43.174036542851297 ], [ 0.965034916546772, 43.178381869598688 ], [ 0.968505797347933, 43.182727196346086 ], [ 0.971976678149093, 43.18707252309347 ], [ 0.975447558950255, 43.191417849840853 ], [ 0.978918439751415, 43.195763176588244 ], [ 0.978918439751415, 43.195763176588244 ], [ 0.975334545978673, 43.199307726890417 ], [ 0.971750652205931, 43.202852277192598 ], [ 0.968166758433188, 43.206396827494778 ], [ 0.964582864660446, 43.209941377796959 ], [ 0.960998970887704, 43.213485928099125 ], [ 0.957415077114962, 43.217030478401306 ], [ 0.95383118334222, 43.220575028703479 ], [ 0.950247289569478, 43.224119579005659 ], [ 0.946663395796735, 43.227664129307833 ], [ 0.943079502023993, 43.231208679610013 ], [ 0.943079502023993, 43.231208679610013 ], [ 0.938976152103708, 43.231385026243927 ], [ 0.934872802183421, 43.231561372877842 ], [ 0.930769452263134, 43.231737719511763 ], [ 0.926666102342847, 43.231914066145677 ], [ 0.922562752422561, 43.232090412779591 ], [ 0.918459402502276, 43.232266759413513 ], [ 0.914356052581989, 43.232443106047427 ], [ 0.910252702661703, 43.232619452681341 ], [ 0.906149352741416, 43.232795799315262 ], [ 0.90204600282113, 43.232972145949169 ], [ 0.90204600282113, 43.232972145949169 ], [ 0.898078594238309, 43.237138300374163 ], [ 0.894111185655487, 43.241304454799156 ], [ 0.890143777072666, 43.245470609224149 ], [ 0.886176368489844, 43.249636763649143 ], [ 0.882208959907023, 43.253802918074136 ], [ 0.878241551324202, 43.257969072499122 ], [ 0.874274142741381, 43.262135226924116 ], [ 0.870306734158559, 43.266301381349102 ], [ 0.866339325575736, 43.270467535774095 ], [ 0.862371916992916, 43.274633690199082 ], [ 0.862371916992916, 43.274633690199082 ], [ 0.860707541906939, 43.275253935490298 ], [ 0.859043166820965, 43.2758741807815 ], [ 0.85737879173499, 43.276494426072702 ], [ 0.855714416649015, 43.277114671363911 ], [ 0.85405004156304, 43.277734916655128 ], [ 0.852385666477064, 43.27835516194633 ], [ 0.850721291391089, 43.278975407237532 ], [ 0.849056916305114, 43.279595652528741 ], [ 0.847392541219139, 43.28021589781995 ], [ 0.845728166133163, 43.280836143111152 ], [ 0.845728166133163, 43.280836143111152 ], [ 0.847018778446192, 43.285890244396356 ], [ 0.848309390759221, 43.290944345681559 ], [ 0.849600003072248, 43.295998446966756 ], [ 0.850890615385278, 43.30105254825196 ], [ 0.852181227698306, 43.306106649537163 ], [ 0.853471840011335, 43.311160750822367 ], [ 0.854762452324364, 43.316214852107564 ], [ 0.856053064637391, 43.32126895339276 ], [ 0.857343676950421, 43.326323054677971 ], [ 0.858634289263449, 43.331377155963175 ], [ 0.858634289263449, 43.331377155963175 ], [ 0.857364382941649, 43.337051278894087 ], [ 0.856094476619848, 43.342725401824993 ], [ 0.854824570298049, 43.348399524755905 ], [ 0.853554663976248, 43.354073647686818 ], [ 0.852284757654447, 43.359747770617737 ], [ 0.851014851332647, 43.365421893548643 ], [ 0.849744945010846, 43.371096016479562 ], [ 0.848475038689046, 43.376770139410468 ], [ 0.847205132367246, 43.382444262341387 ], [ 0.845935226045446, 43.3881183852723 ], [ 0.845935226045446, 43.3881183852723 ], [ 0.839736819472436, 43.383518108232813 ], [ 0.833538412899427, 43.378917831193313 ], [ 0.827340006326417, 43.374317554153826 ], [ 0.821141599753408, 43.36971727711434 ], [ 0.814943193180399, 43.365117000074846 ], [ 0.808744786607389, 43.36051672303536 ], [ 0.80254638003438, 43.355916445995867 ], [ 0.79634797346137, 43.35131616895638 ], [ 0.790149566888361, 43.34671589191688 ], [ 0.783951160315352, 43.342115614877393 ], [ 0.783951160315352, 43.342115614877393 ], [ 0.777059684560348, 43.341862852322137 ], [ 0.770168208805341, 43.341610089766881 ], [ 0.763276733050338, 43.341357327211625 ], [ 0.756385257295334, 43.341104564656355 ], [ 0.749493781540328, 43.340851802101099 ], [ 0.742602305785324, 43.340599039545843 ], [ 0.735710830030319, 43.340346276990587 ], [ 0.728819354275315, 43.340093514435324 ], [ 0.72192787852031, 43.339840751880068 ], [ 0.715036402765306, 43.339587989324805 ], [ 0.715036402765306, 43.339587989324805 ], [ 0.711579684723986, 43.334571796914325 ], [ 0.708122966682666, 43.329555604503845 ], [ 0.704666248641347, 43.324539412093365 ], [ 0.701209530600028, 43.319523219682878 ], [ 0.697752812558709, 43.314507027272398 ], [ 0.694296094517389, 43.309490834861919 ], [ 0.69083937647607, 43.304474642451424 ], [ 0.68738265843475, 43.299458450040952 ], [ 0.68392594039343, 43.294442257630465 ], [ 0.680469222352111, 43.289426065219992 ], [ 0.680469222352111, 43.289426065219992 ], [ 0.677201930190671, 43.287293082463385 ], [ 0.673934638029229, 43.285160099706786 ], [ 0.67066734586779, 43.283027116950194 ], [ 0.667400053706348, 43.280894134193588 ], [ 0.664132761544908, 43.278761151436989 ], [ 0.660865469383467, 43.276628168680396 ], [ 0.657598177222027, 43.274495185923804 ], [ 0.654330885060587, 43.272362203167198 ], [ 0.651063592899147, 43.270229220410599 ], [ 0.647796300737705, 43.268096237653999 ], [ 0.647796300737705, 43.268096237653999 ], [ 0.636538005183386, 43.261197958060507 ], [ 0.625279709629066, 43.254299678467007 ], [ 0.614021414074745, 43.247401398873507 ], [ 0.602763118520425, 43.240503119280007 ], [ 0.591504822966105, 43.233604839686521 ], [ 0.580246527411785, 43.226706560093014 ], [ 0.568988231857464, 43.219808280499521 ], [ 0.557729936303145, 43.212910000906021 ], [ 0.546471640748823, 43.206011721312521 ], [ 0.535213345194504, 43.199113441719021 ], [ 0.535213345194504, 43.199113441719021 ], [ 0.528485706334129, 43.190084180152475 ], [ 0.521758067473754, 43.181054918585914 ], [ 0.515030428613379, 43.172025657019361 ], [ 0.508302789753004, 43.162996395452815 ], [ 0.501575150892629, 43.153967133886262 ], [ 0.494847512032255, 43.144937872319709 ], [ 0.48811987317188, 43.135908610753162 ], [ 0.481392234311505, 43.126879349186616 ], [ 0.47466459545113, 43.117850087620063 ], [ 0.467936956590755, 43.108820826053517 ], [ 0.467936956590755, 43.108820826053517 ], [ 0.463764894020698, 43.10781670796932 ], [ 0.459592831450642, 43.106812589885131 ], [ 0.455420768880585, 43.105808471800941 ], [ 0.451248706310528, 43.104804353716752 ], [ 0.447076643740472, 43.103800235632555 ], [ 0.442904581170415, 43.102796117548365 ], [ 0.438732518600358, 43.101791999464176 ], [ 0.4345604560303, 43.100787881379979 ], [ 0.430388393460245, 43.09978376329579 ], [ 0.426216330890188, 43.0987796452116 ] ] ] } }
]
}
