{
    "type": "FeatureCollection",
    "features": [
        {
            "type": "Feature",
            "geometry": {
                "coordinates": [
                    [
                        [
                            -7.133454416999939,
                            40.830662733000054
                        ],
                        [
                            -7.096648080999955,
                            40.837741676000064
                        ],
                        [
                            -7.117445056999941,
                            40.86324873500007
                        ],
                        [
                            -7.099228536999931,
                            40.88027978400004
                        ],
                        [
                            -7.097471462999977,
                            40.92039446000007
                        ],
                        [
                            -7.117674239999928,
                            41.043190924000044
                        ],
                        [
                            -7.072846086999959,
                            41.136400285000036
                        ],
                        [
                            -7.11973986199996,
                            41.14425707000004
                        ],
                        [
                            -7.100654614999939,
                            41.17022396500005
                        ],
                        [
                            -7.1191936339999415,
                            41.18525111100007
                        ],
                        [
                            -7.161720043999935,
                            41.12467755400007
                        ],
                        [
                            -7.1863198959999295,
                            41.124140434000026
                        ],
                        [
                            -7.221871275999945,
                            41.14177028700004
                        ],
                        [
                            -7.287571459999981,
                            41.134076451000055
                        ],
                        [
                            -7.3588753779999365,
                            41.14669570900003
                        ],
                        [
                            -7.393457778999959,
                            41.19580713200003
                        ],
                        [
                            -7.446965426999952,
                            41.21304107100008
                        ],
                        [
                            -7.520349042999953,
                            41.18040227400007
                        ],
                        [
                            -7.548573510999972,
                            41.18711020600006
                        ],
                        [
                            -7.594623957999943,
                            41.15490587200003
                        ],
                        [
                            -7.666819175999933,
                            41.16072171500008
                        ],
                        [
                            -7.702174034999928,
                            41.14036401000004
                        ],
                        [
                            -7.794274928999926,
                            41.15937964300008
                        ],
                        [
                            -7.814774805999946,
                            41.144615041000066
                        ],
                        [
                            -7.870035342999927,
                            41.15669541800003
                        ],
                        [
                            -7.902972721999959,
                            41.11682327800003
                        ],
                        [
                            -7.950508667999941,
                            41.120941548000076
                        ],
                        [
                            -8.056989184999964,
                            41.08834642800008
                        ],
                        [
                            -8.112088454999935,
                            41.10252241300003
                        ],
                        [
                            -8.158953788999952,
                            41.08691330400006
                        ],
                        [
                            -8.221421128999964,
                            41.09535802700003
                        ],
                        [
                            -8.28349796599997,
                            41.067383878000044
                        ],
                        [
                            -8.31632738999997,
                            41.074845362000076
                        ],
                        [
                            -8.36783184199993,
                            41.04273557100004
                        ],
                        [
                            -8.406217117999972,
                            41.053699566000034
                        ],
                        [
                            -8.365811563999955,
                            40.990938130000075
                        ],
                        [
                            -8.351788459999966,
                            40.90904930000005
                        ],
                        [
                            -8.202588971999944,
                            40.93410842900005
                        ],
                        [
                            -8.145957815999964,
                            40.913749360000054
                        ],
                        [
                            -8.13012368699998,
                            40.92796657700006
                        ],
                        [
                            -8.090336100999934,
                            40.92602713800005
                        ],
                        [
                            -8.04541463299995,
                            40.89833004800005
                        ],
                        [
                            -8.01100336199994,
                            40.89606634900008
                        ],
                        [
                            -7.984839028999943,
                            40.91284002400005
                        ],
                        [
                            -7.941924125999947,
                            40.87892440100006
                        ],
                        [
                            -7.880165614999953,
                            40.87031250700005
                        ],
                        [
                            -7.873510582999927,
                            40.84047033100006
                        ],
                        [
                            -7.766174417999935,
                            40.82572405500008
                        ],
                        [
                            -7.655653344999962,
                            40.86635829200003
                        ],
                        [
                            -7.61639585599994,
                            40.82256947400003
                        ],
                        [
                            -7.600986267999929,
                            40.85141871600007
                        ],
                        [
                            -7.559352720999925,
                            40.870035829000074
                        ],
                        [
                            -7.457388117999926,
                            40.79882354700004
                        ],
                        [
                            -7.399732593999943,
                            40.85476931300008
                        ],
                        [
                            -7.388722444999928,
                            40.90830776400003
                        ],
                        [
                            -7.353783524999926,
                            40.911002136000036
                        ],
                        [
                            -7.357348720999937,
                            40.868418217000055
                        ],
                        [
                            -7.322409800999935,
                            40.88405347300005
                        ],
                        [
                            -7.234705980999934,
                            40.830662733000054
                        ],
                        [
                            -7.133454416999939,
                            40.830662733000054
                        ]
                    ]
                ],
                "type": "Polygon"
            },
            "properties": {
                "diocese": "Lamecen",
                "province": "Ulixbonen",
                "start": 1592,
                "end": 1612
            }
        },
        {
            "type": "Feature",
            "geometry": {
                "coordinates": [
                    [
                        [
                            -6.903453081353664,
                            39.87313423312814
                        ],
                        [
                            -6.90325699999994,
                            39.87145700000008
                        ],
                        [
                            -6.987157998999976,
                            39.80989100000005
                        ],
                        [
                            -6.977017998999941,
                            39.77169500000008
                        ],
                        [
                            -7.01588550799994,
                            39.67082226200006
                        ],
                        [
                            -7.14790499999998,
                            39.65337400000004
                        ],
                        [
                            -7.25417699999997,
                            39.66664100000003
                        ],
                        [
                            -7.336145999999928,
                            39.640949000000035
                        ],
                        [
                            -7.541562516999932,
                            39.66389768600004
                        ],
                        [
                            -7.4996419999999375,
                            39.58977900000008
                        ],
                        [
                            -7.4668309999999565,
                            39.57678400000003
                        ],
                        [
                            -7.427289999999971,
                            39.53288700000007
                        ],
                        [
                            -7.391316999999958,
                            39.52982900000006
                        ],
                        [
                            -7.381586999999968,
                            39.49153200000006
                        ],
                        [
                            -7.2939139999999725,
                            39.457250000000045
                        ],
                        [
                            -7.322282836999932,
                            39.378674301000046
                        ],
                        [
                            -7.307347999999934,
                            39.336024000000066
                        ],
                        [
                            -7.231569942999954,
                            39.277941095000074
                        ],
                        [
                            -7.248557999999946,
                            39.25318000000004
                        ],
                        [
                            -7.241687999999954,
                            39.20792400000005
                        ],
                        [
                            -7.135342999999978,
                            39.17102100000005
                        ],
                        [
                            -7.1437009999999646,
                            39.10837500100007
                        ],
                        [
                            -7.106353999999953,
                            39.09935500000006
                        ],
                        [
                            -7.038130999999964,
                            39.11817700000006
                        ],
                        [
                            -7.050285832999975,
                            39.05918827000005
                        ],
                        [
                            -7.120639032999975,
                            39.028175849000036
                        ],
                        [
                            -7.185287917999972,
                            39.05623529200005
                        ],
                        [
                            -7.253739679999967,
                            39.04885230900004
                        ],
                        [
                            -7.409657580999976,
                            39.172783966000054
                        ],
                        [
                            -7.491419407999956,
                            39.20373282000003
                        ],
                        [
                            -7.559871168999962,
                            39.190470694000055
                        ],
                        [
                            -7.548462541999982,
                            39.112320741000076
                        ],
                        [
                            -7.774733642999934,
                            39.14034674100003
                        ],
                        [
                            -7.873608409999974,
                            39.21699244300004
                        ],
                        [
                            -7.959173111999974,
                            39.22141176000008
                        ],
                        [
                            -8.082766569999933,
                            39.20225937400005
                        ],
                        [
                            -8.170232709999937,
                            39.219938685000045
                        ],
                        [
                            -8.23488159599998,
                            39.20078589800005
                        ],
                        [
                            -8.25769884899995,
                            39.267061752000075
                        ],
                        [
                            -8.366080804999967,
                            39.425868276000074
                        ],
                        [
                            -8.347066426999959,
                            39.47578821500008
                        ],
                        [
                            -8.265304600999968,
                            39.56672652700007
                        ],
                        [
                            -8.228241417999925,
                            39.665354097000034
                        ],
                        [
                            -8.232995012999936,
                            39.76379084700005
                        ],
                        [
                            -8.245924789999947,
                            39.77957445000004
                        ],
                        [
                            -8.26569974299997,
                            39.768613999000024
                        ],
                        [
                            -8.283192970999949,
                            39.77782089500005
                        ],
                        [
                            -8.29346073499994,
                            39.806164555000066
                        ],
                        [
                            -8.270263193999938,
                            39.82296069500006
                        ],
                        [
                            -8.276728082999966,
                            39.84077472200005
                        ],
                        [
                            -8.208466464999958,
                            39.85157770100005
                        ],
                        [
                            -8.186029498999972,
                            39.880766434000066
                        ],
                        [
                            -8.151423329999943,
                            39.88368462400007
                        ],
                        [
                            -8.118148167999948,
                            39.946978760000036
                        ],
                        [
                            -8.089246312999933,
                            39.941001862000064
                        ],
                        [
                            -8.085710827999947,
                            39.96475147900003
                        ],
                        [
                            -8.034164036999925,
                            39.96065259400007
                        ],
                        [
                            -8.031787238999925,
                            39.98364871200005
                        ],
                        [
                            -8.00519681999998,
                            39.97237930400007
                        ],
                        [
                            -8.01173301199998,
                            39.988656742000046
                        ],
                        [
                            -7.9628601179999805,
                            39.97670515500005
                        ],
                        [
                            -7.95347176459631,
                            40.0008295136683
                        ],
                        [
                            -6.903453081353664,
                            39.87313423312814
                        ]
                    ]
                ],
                "type": "Polygon"
            },
            "properties": {
                "diocese": "Portalegren",
                "province": "Ulixbonen",
                "start": 1592,
                "end": 1612
            }
        },
        {
            "type": "Feature",
            "geometry": {
                "coordinates": [
                    [
                        [
                            [
                                -8.724927305999927,
                                38.56943547800006
                            ],
                            [
                                -8.695753511999953,
                                38.69078989900004
                            ],
                            [
                                -8.748341110999945,
                                38.74380827600004
                            ],
                            [
                                -8.794688657999927,
                                38.73453873400007
                            ],
                            [
                                -8.82796381999998,
                                38.759563736000075
                            ],
                            [
                                -8.905031471999962,
                                38.73231386500004
                            ],
                            [
                                -8.945966839999926,
                                38.76164674700004
                            ],
                            [
                                -9.042407512999944,
                                38.71777665600007
                            ],
                            [
                                -9.048878668999976,
                                38.68980193200008
                            ],
                            [
                                -9.031749843999933,
                                38.70060753800004
                            ],
                            [
                                -8.96937501399998,
                                38.69989204400008
                            ],
                            [
                                -8.989807366999969,
                                38.69630312900006
                            ],
                            [
                                -8.98206305499997,
                                38.69359183300003
                            ],
                            [
                                -8.975960850999968,
                                38.68541264600003
                            ],
                            [
                                -9.009676455999966,
                                38.68257176800006
                            ],
                            [
                                -8.994837164999979,
                                38.65160393700006
                            ],
                            [
                                -9.021205901999963,
                                38.67016804300005
                            ],
                            [
                                -9.03419351599996,
                                38.65848207500005
                            ],
                            [
                                -9.057616113999927,
                                38.68383705600007
                            ],
                            [
                                -9.091382144999955,
                                38.66057467500008
                            ],
                            [
                                -9.065939545999981,
                                38.64894604700004
                            ],
                            [
                                -9.050655603999928,
                                38.60382223100004
                            ],
                            [
                                -9.082296609999958,
                                38.64419257700007
                            ],
                            [
                                -9.106660961999978,
                                38.64300465600007
                            ],
                            [
                                -9.106556057999967,
                                38.62054455300006
                            ],
                            [
                                -9.113340258999926,
                                38.637141943000074
                            ],
                            [
                                -9.13866233799996,
                                38.642086267000025
                            ],
                            [
                                -9.100370644999941,
                                38.64883232100004
                            ],
                            [
                                -9.14599347099994,
                                38.665351749000024
                            ],
                            [
                                -9.14678990799996,
                                38.687902450000024
                            ],
                            [
                                -9.257853030999968,
                                38.664131879000024
                            ],
                            [
                                -9.211260556999946,
                                38.60732567400004
                            ],
                            [
                                -9.181857228999945,
                                38.51618552200006
                            ],
                            [
                                -9.143984555999964,
                                38.523655414000075
                            ],
                            [
                                -9.181103944999961,
                                38.506108522000034
                            ],
                            [
                                -9.221925734999957,
                                38.412470460000065
                            ],
                            [
                                -9.107030152999926,
                                38.442709327000046
                            ],
                            [
                                -9.028641342999947,
                                38.44560945000006
                            ],
                            [
                                -8.894496559999936,
                                38.51992595200005
                            ],
                            [
                                -8.779795646999958,
                                38.47206354100007
                            ],
                            [
                                -8.754269956999963,
                                38.50147724100003
                            ],
                            [
                                -8.784324407999975,
                                38.50910747100005
                            ],
                            [
                                -8.803774356999952,
                                38.50500643300006
                            ],
                            [
                                -8.810707449999938,
                                38.50928771500003
                            ],
                            [
                                -8.781968950999953,
                                38.51488244600006
                            ],
                            [
                                -8.789062499999943,
                                38.54268956200008
                            ],
                            [
                                -8.764048933999959,
                                38.52692043800005
                            ],
                            [
                                -8.748631715999977,
                                38.56494593600007
                            ],
                            [
                                -8.724927305999927,
                                38.56943547800006
                            ]
                        ]
                    ],
                    [
                        [
                            [
                                -8.23488159599998,
                                39.20078589800005
                            ],
                            [
                                -8.25769884899995,
                                39.267061752000075
                            ],
                            [
                                -8.366080804999967,
                                39.425868276000074
                            ],
                            [
                                -8.347066426999959,
                                39.47578821500008
                            ],
                            [
                                -8.265304600999968,
                                39.56672652700007
                            ],
                            [
                                -8.23318515699998,
                                39.658474366000064
                            ],
                            [
                                -8.480884112999945,
                                39.65146264600003
                            ],
                            [
                                -8.534362051999949,
                                39.62400731200006
                            ],
                            [
                                -8.675543809999965,
                                39.47005612000004
                            ],
                            [
                                -8.822429881999938,
                                39.40562536500005
                            ],
                            [
                                -8.888029486999926,
                                39.40066668400004
                            ],
                            [
                                -8.95790732699993,
                                39.427659678000055
                            ],
                            [
                                -8.939368307999928,
                                39.515727268000035
                            ],
                            [
                                -8.955768208999928,
                                39.54212580400008
                            ],
                            [
                                -9.018515656999966,
                                39.57840740100005
                            ],
                            [
                                -9.082759218999968,
                                39.58009163400004
                            ],
                            [
                                -9.145577549999928,
                                39.52118122600007
                            ],
                            [
                                -9.13751685699998,
                                39.50345897600005
                            ],
                            [
                                -9.168445705999943,
                                39.50442957900003
                            ],
                            [
                                -9.22760653499995,
                                39.43566322300006
                            ],
                            [
                                -9.183808802999977,
                                39.401946544000054
                            ],
                            [
                                -9.22607421899994,
                                39.38577663900003
                            ],
                            [
                                -9.212222814999961,
                                39.407307744000036
                            ],
                            [
                                -9.241008400999931,
                                39.42538642900007
                            ],
                            [
                                -9.347544550999942,
                                39.362030626000035
                            ],
                            [
                                -9.379122852999956,
                                39.37635827100007
                            ],
                            [
                                -9.409166931999948,
                                39.359816075000026
                            ],
                            [
                                -9.365095138999948,
                                39.34873986200006
                            ],
                            [
                                -9.33451497599998,
                                39.26270628000003
                            ],
                            [
                                -9.35772406999996,
                                39.17079675200006
                            ],
                            [
                                -9.422430038999948,
                                39.074080467000044
                            ],
                            [
                                -9.427714228999946,
                                39.00100135800005
                            ],
                            [
                                -9.410254001999931,
                                38.93815422000006
                            ],
                            [
                                -9.50031673899997,
                                38.779367328000035
                            ],
                            [
                                -9.47257327999995,
                                38.749557853000056
                            ],
                            [
                                -9.486430525999936,
                                38.70894622800006
                            ],
                            [
                                -9.426545977999979,
                                38.68948340500003
                            ],
                            [
                                -9.39259827099994,
                                38.70152711900005
                            ],
                            [
                                -9.324764847999973,
                                38.67304980800003
                            ],
                            [
                                -9.28096175199994,
                                38.69858694000004
                            ],
                            [
                                -9.215267061999953,
                                38.691655755000056
                            ],
                            [
                                -9.131663560999925,
                                38.706498742000065
                            ],
                            [
                                -9.090829372999963,
                                38.75620055200005
                            ],
                            [
                                -9.087352632999966,
                                38.813456178000024
                            ],
                            [
                                -9.068253159999927,
                                38.84826743600007
                            ],
                            [
                                -9.022412776999943,
                                38.88578987100004
                            ],
                            [
                                -9.00494694699995,
                                38.93111705800004
                            ],
                            [
                                -8.987128376999976,
                                38.95360565100003
                            ],
                            [
                                -8.96110415499993,
                                38.967450142000075
                            ],
                            [
                                -8.925422310999977,
                                39.02593696100007
                            ],
                            [
                                -8.890015840999979,
                                39.03591585200007
                            ],
                            [
                                -8.860833167999942,
                                39.02500176400008
                            ],
                            [
                                -8.919763445999934,
                                39.022189737000076
                            ],
                            [
                                -8.946276545999979,
                                38.973292351000055
                            ],
                            [
                                -8.99273145199993,
                                38.93567764800008
                            ],
                            [
                                -8.995626448999928,
                                38.88475525400003
                            ],
                            [
                                -8.97836732899998,
                                38.86681735500008
                            ],
                            [
                                -8.989568948999931,
                                38.85199105700008
                            ],
                            [
                                -8.971083521999958,
                                38.827374458000065
                            ],
                            [
                                -8.91131809999996,
                                38.88798903300005
                            ],
                            [
                                -8.89491819899996,
                                38.941804766000075
                            ],
                            [
                                -8.849996730999976,
                                38.95788608100003
                            ],
                            [
                                -8.83430986899998,
                                38.98671240600004
                            ],
                            [
                                -8.664606542999934,
                                38.94125017300007
                            ],
                            [
                                -8.59971997699995,
                                38.98061550800003
                            ],
                            [
                                -8.554798508999966,
                                39.07810285100004
                            ],
                            [
                                -8.500607530999957,
                                39.09138616000007
                            ],
                            [
                                -8.437860082999975,
                                39.06426341100007
                            ],
                            [
                                -8.383669104999967,
                                39.06426341100007
                            ],
                            [
                                -8.350869302999968,
                                39.079209889000026
                            ],
                            [
                                -8.303701760999957,
                                39.15632762900003
                            ],
                            [
                                -8.23488159599998,
                                39.20078589800005
                            ]
                        ]
                    ]
                ],
                "type": "MultiPolygon"
            },
            "properties": {
                "diocese": "Ulixbonen",
                "province": "Ulixbonen",
                "start": 1592,
                "end": 1612
            }
        },
        {
            "type": "Feature",
            "geometry": {
                "coordinates": [
                    [
                        [
                            [
                                -8.826563115497857,
                                40.145610227612195
                            ],
                            [
                                -8.875100612999972,
                                40.14561605500006
                            ],
                            [
                                -8.87012946599998,
                                40.159504414000025
                            ],
                            [
                                -8.909340977999932,
                                40.186984539000036
                            ],
                            [
                                -8.900823704557657,
                                40.205591629220784
                            ],
                            [
                                -8.826563115497857,
                                40.145610227612195
                            ]
                        ]
                    ],
                    [
                        [
                            [
                                -8.78614550348339,
                                40.112964310726895
                            ],
                            [
                                -8.790899157999945,
                                40.11332714500003
                            ],
                            [
                                -8.794474363596539,
                                40.119691657085355
                            ],
                            [
                                -8.78614550348339,
                                40.112964310726895
                            ]
                        ]
                    ],
                    [
                        [
                            [
                                -8.232869378671852,
                                39.66607481169477
                            ],
                            [
                                -8.23318515699998,
                                39.658474366000064
                            ],
                            [
                                -8.480884112999945,
                                39.65146264600003
                            ],
                            [
                                -8.534362051999949,
                                39.62400731200006
                            ],
                            [
                                -8.675543809999965,
                                39.47005612000004
                            ],
                            [
                                -8.746847728999967,
                                39.435370042000045
                            ],
                            [
                                -8.822429881999938,
                                39.40562536500005
                            ],
                            [
                                -8.888029486999926,
                                39.40066668400004
                            ],
                            [
                                -8.95790732699993,
                                39.427659678000055
                            ],
                            [
                                -8.939368307999928,
                                39.52122779100006
                            ],
                            [
                                -8.992133206999938,
                                39.56961360500003
                            ],
                            [
                                -9.082759218999968,
                                39.58009163400004
                            ],
                            [
                                -9.072151660999964,
                                39.58407175600007
                            ],
                            [
                                -9.083439707999958,
                                39.621749401000045
                            ],
                            [
                                -9.031611441999928,
                                39.765888810000035
                            ],
                            [
                                -8.893503307999936,
                                40.04282915600004
                            ],
                            [
                                -8.862404107999964,
                                40.12906670500007
                            ],
                            [
                                -8.873948931999962,
                                40.143250942000066
                            ],
                            [
                                -8.859242200999972,
                                40.14472985300006
                            ],
                            [
                                -8.843845963999968,
                                40.121940970000026
                            ],
                            [
                                -8.819275140999935,
                                40.12042951600006
                            ],
                            [
                                -8.855061649999925,
                                40.14464104100006
                            ],
                            [
                                -8.832643865999955,
                                40.14320755000006
                            ],
                            [
                                -8.789686440999958,
                                40.11081635900007
                            ],
                            [
                                -8.784201975504734,
                                40.11139449376609
                            ],
                            [
                                -8.232869378671852,
                                39.66607481169477
                            ]
                        ]
                    ]
                ],
                "type": "MultiPolygon"
            },
            "properties": {
                "diocese": "Leirien",
                "province": "Ulixbonen",
                "start": 1592,
                "end": 1612
            }
        },
        {
            "type": "Feature",
            "geometry": {
                "type": "Polygon",
                "coordinates": [
                    [
                        [
                            -17.25956055326951,
                            32.81733993304422
                        ],
                        [
                            -17.21294497009789,
                            32.73416152842854
                        ],
                        [
                            -16.939271699997704,
                            32.63656737238358
                        ],
                        [
                            -16.811573138756085,
                            32.64499332595643
                        ],
                        [
                            -16.731757577302993,
                            32.743814869908874
                        ],
                        [
                            -16.82405719243316,
                            32.77012570755147
                        ],
                        [
                            -16.900659852762182,
                            32.837777622958384
                        ],
                        [
                            -17.05420737590681,
                            32.807508144636856
                        ],
                        [
                            -17.197431790706165,
                            32.87397667398171
                        ],
                        [
                            -17.25956055326951,
                            32.81733993304422
                        ]
                    ]
                ]
            },
            "properties": {
                "diocese": "Funchalen",
                "province": "Ulixbonen",
                "start": 1592,
                "end": 1612
            }
        },
        {
            "type": "Feature",
            "geometry": {
                "coordinates": [
                    [
                        [
                            -7.95347176459631,
                            40.0008295136683
                        ],
                        [
                            -7.953204378999942,
                            40.00151658900006
                        ],
                        [
                            -7.902103237999938,
                            40.00288209400003
                        ],
                        [
                            -7.881009161999941,
                            40.02779776800003
                        ],
                        [
                            -7.881306261999953,
                            40.01357760700006
                        ],
                        [
                            -7.845505752999941,
                            40.005044088000034
                        ],
                        [
                            -7.8484767489999285,
                            40.01915226300008
                        ],
                        [
                            -7.801832102999981,
                            40.04588153000003
                        ],
                        [
                            -7.79728757099997,
                            40.07632191000005
                        ],
                        [
                            -7.81725266899997,
                            40.07719487800006
                        ],
                        [
                            -7.788160669999968,
                            40.08606942100005
                        ],
                        [
                            -7.774470317999942,
                            40.06351708900007
                        ],
                        [
                            -7.7307372479999685,
                            40.10774171800006
                        ],
                        [
                            -7.741955730999962,
                            40.130424780000055
                        ],
                        [
                            -7.808315910999966,
                            40.15557086500007
                        ],
                        [
                            -7.80318202899997,
                            40.189713932000075
                        ],
                        [
                            -7.774090029999968,
                            40.21933909000006
                        ],
                        [
                            -7.7950296139999296,
                            40.247871917000055
                        ],
                        [
                            -7.78938471999993,
                            40.34666846500005
                        ],
                        [
                            -7.83246417099997,
                            40.405741299000056
                        ],
                        [
                            -7.845167600999957,
                            40.49307406600008
                        ],
                        [
                            -7.704178267999964,
                            40.546825726000066
                        ],
                        [
                            -7.628374913999949,
                            40.55439028200004
                        ],
                        [
                            -7.588071722999928,
                            40.59012124900005
                        ],
                        [
                            -7.493967027999929,
                            40.62018169000004
                        ],
                        [
                            -7.42480222699993,
                            40.697622368000054
                        ],
                        [
                            -7.353498308999974,
                            40.699424340000064
                        ],
                        [
                            -7.3281378819999645,
                            40.66773857600003
                        ],
                        [
                            -7.269312148999973,
                            40.67693224300007
                        ],
                        [
                            -7.26717303199996,
                            40.647724449000066
                        ],
                        [
                            -7.21048641699997,
                            40.65232282000005
                        ],
                        [
                            -7.210842935999949,
                            40.62824548100008
                        ],
                        [
                            -7.160217153999952,
                            40.63906783200008
                        ],
                        [
                            -7.057896031999974,
                            40.61363252600006
                        ],
                        [
                            -7.036504855999965,
                            40.63717404700003
                        ],
                        [
                            -7.05611343399994,
                            40.560836908000056
                        ],
                        [
                            -7.104243578999956,
                            40.52588767300006
                        ],
                        [
                            -7.094261029999927,
                            40.47275161300007
                        ],
                        [
                            -7.05611343399994,
                            40.47139555000007
                        ],
                        [
                            -7.041496129999928,
                            40.45566322700006
                        ],
                        [
                            -7.015343786999949,
                            40.46465064200004
                        ],
                        [
                            -7.068774189999942,
                            40.36881572500005
                        ],
                        [
                            -7.091021012999931,
                            40.36504903000008
                        ],
                        [
                            -7.09447139699995,
                            40.28499150600004
                        ],
                        [
                            -7.059444103999965,
                            40.27625874300003
                        ],
                        [
                            -7.013870789999942,
                            40.290138212000045
                        ],
                        [
                            -6.945050999999978,
                            40.25612800000005
                        ],
                        [
                            -7.01210599999996,
                            40.225847000000044
                        ],
                        [
                            -7.02912299999997,
                            40.18480000000005
                        ],
                        [
                            -7.016848999999979,
                            40.17763300000007
                        ],
                        [
                            -7.021073999999942,
                            40.143661000000066
                        ],
                        [
                            -6.993590999999981,
                            40.112554000000046
                        ],
                        [
                            -6.941546999999957,
                            40.11206200000004
                        ],
                        [
                            -6.863863999999978,
                            40.01274600000005
                        ],
                        [
                            -6.887096999999926,
                            39.979430000000036
                        ],
                        [
                            -6.885774999999967,
                            39.94051700000006
                        ],
                        [
                            -6.908706999999936,
                            39.918075000000044
                        ],
                        [
                            -6.903453081353664,
                            39.87313423312814
                        ],
                        [
                            -7.95347176459631,
                            40.0008295136683
                        ]
                    ]
                ],
                "type": "Polygon"
            },
            "properties": {
                "diocese": "Egitanien",
                "province": "Ulixbonen",
                "start": 1592,
                "end": 1612
            }
        },
        {
            "type": "Feature",
            "properties": {
                "diocese": "S. Iacobi Capitis Viridis",
                "province": "Ulixbonen",
                "start": 1592,
                "end": 1612
            },
            "geometry": {
                "type": "MultiPolygon",
                "coordinates": [
                    [
                        [
                            [
                                -25.37120050338462,
                                17.072608721959806
                            ],
                            [
                                -25.301721953583183,
                                16.919458880325752
                            ],
                            [
                                -25.170112124328032,
                                16.924490932854535
                            ],
                            [
                                -24.953605983333166,
                                17.102491562436498
                            ],
                            [
                                -25.080350506048873,
                                17.20509674274095
                            ],
                            [
                                -25.37120050338462,
                                17.072608721959806
                            ]
                        ]
                    ],
                    [
                        [
                            [
                                -25.083387522225504,
                                16.835392948232183
                            ],
                            [
                                -24.981563087190196,
                                16.773577805945607
                            ],
                            [
                                -24.860535824665348,
                                16.823198512046297
                            ],
                            [
                                -24.959475714798913,
                                16.922322073114234
                            ],
                            [
                                -25.083387522225504,
                                16.835392948232183
                            ]
                        ]
                    ],
                    [
                        [
                            [
                                -24.428740056750165,
                                16.64060263751212
                            ],
                            [
                                -24.32036358400892,
                                16.48461841454339
                            ],
                            [
                                -24.236684309999212,
                                16.59988579776702
                            ],
                            [
                                -24.024725203425415,
                                16.542708406704445
                            ],
                            [
                                -24.002102129838,
                                16.584497099742457
                            ],
                            [
                                -24.36720996680806,
                                16.679323982472717
                            ],
                            [
                                -24.428740056750165,
                                16.64060263751212
                            ]
                        ]
                    ],
                    [
                        [
                            [
                                -22.98821553949043,
                                16.82441044138176
                            ],
                            [
                                -22.97870035538492,
                                16.70114232272515
                            ],
                            [
                                -22.914854464246897,
                                16.579902127689113
                            ],
                            [
                                -22.883267795928127,
                                16.594671114264806
                            ],
                            [
                                -22.900894572138608,
                                16.863715313181487
                            ],
                            [
                                -22.98821553949043,
                                16.82441044138176
                            ]
                        ]
                    ],
                    [
                        [
                            [
                                -22.912822968725497,
                                16.229662941722403
                            ],
                            [
                                -22.9711396087631,
                                16.021073670264894
                            ],
                            [
                                -22.79281652693351,
                                15.964167558771551
                            ],
                            [
                                -22.67112705497975,
                                16.05393611413536
                            ],
                            [
                                -22.701925796801913,
                                16.211511534147753
                            ],
                            [
                                -22.912822968725497,
                                16.229662941722403
                            ]
                        ]
                    ],
                    [
                        [
                            [
                                -23.22943184800073,
                                15.274914735459996
                            ],
                            [
                                -23.234680435111265,
                                15.14631288227949
                            ],
                            [
                                -23.163622640382528,
                                15.117106425870809
                            ],
                            [
                                -23.08921071897914,
                                15.16739826665184
                            ],
                            [
                                -23.110341717027033,
                                15.319519807531659
                            ],
                            [
                                -23.178977086935713,
                                15.330907705656664
                            ],
                            [
                                -23.22943184800073,
                                15.274914735459996
                            ]
                        ]
                    ],
                    [
                        [
                            [
                                -23.763073401876735,
                                15.336592436838039
                            ],
                            [
                                -23.776291145511635,
                                15.047746727845626
                            ],
                            [
                                -23.647703866973462,
                                14.919631413939808
                            ],
                            [
                                -23.478264567811546,
                                14.90803533722418
                            ],
                            [
                                -23.41963567581454,
                                15.018496731133176
                            ],
                            [
                                -23.67875438409321,
                                15.258340439764526
                            ],
                            [
                                -23.692220581555826,
                                15.337952196821496
                            ],
                            [
                                -23.763073401876735,
                                15.336592436838039
                            ]
                        ]
                    ],
                    [
                        [
                            [
                                -24.49839783339525,
                                14.88447489598898
                            ],
                            [
                                -24.409051189606984,
                                14.813611045208186
                            ],
                            [
                                -24.333472694842094,
                                14.815802041229121
                            ],
                            [
                                -24.27100558865604,
                                14.879778550015475
                            ],
                            [
                                -24.29757546200696,
                                15.012877564325533
                            ],
                            [
                                -24.370744700837516,
                                15.057273715385623
                            ],
                            [
                                -24.483493114481927,
                                14.990641512290427
                            ],
                            [
                                -24.49839783339525,
                                14.88447489598898
                            ]
                        ]
                    ]
                ]
            }
        }
    ]
}