{
    "type": "FeatureCollection",
    "features": [
        {
            "type": "Feature",
            "geometry": {
                "coordinates": [
                    [
                        [
                            -7.95347176459631,
                            40.0008295136683
                        ],
                        [
                            -7.953204378999942,
                            40.00151658900006
                        ],
                        [
                            -7.902103237999938,
                            40.00288209400003
                        ],
                        [
                            -7.881009161999941,
                            40.02779776800003
                        ],
                        [
                            -7.881306261999953,
                            40.01357760700006
                        ],
                        [
                            -7.845505752999941,
                            40.005044088000034
                        ],
                        [
                            -7.8484767489999285,
                            40.01915226300008
                        ],
                        [
                            -7.801832102999981,
                            40.04588153000003
                        ],
                        [
                            -7.79728757099997,
                            40.07632191000005
                        ],
                        [
                            -7.81725266899997,
                            40.07719487800006
                        ],
                        [
                            -7.788160669999968,
                            40.08606942100005
                        ],
                        [
                            -7.774470317999942,
                            40.06351708900007
                        ],
                        [
                            -7.7307372479999685,
                            40.10774171800006
                        ],
                        [
                            -7.741955730999962,
                            40.130424780000055
                        ],
                        [
                            -7.808315910999966,
                            40.15557086500007
                        ],
                        [
                            -7.80318202899997,
                            40.189713932000075
                        ],
                        [
                            -7.774090029999968,
                            40.21933909000006
                        ],
                        [
                            -7.7950296139999296,
                            40.247871917000055
                        ],
                        [
                            -7.78938471999993,
                            40.34666846500005
                        ],
                        [
                            -7.83246417099997,
                            40.405741299000056
                        ],
                        [
                            -7.845167600999957,
                            40.49307406600008
                        ],
                        [
                            -7.704178267999964,
                            40.546825726000066
                        ],
                        [
                            -7.628374913999949,
                            40.55439028200004
                        ],
                        [
                            -7.588071722999928,
                            40.59012124900005
                        ],
                        [
                            -7.493967027999929,
                            40.62018169000004
                        ],
                        [
                            -7.42480222699993,
                            40.697622368000054
                        ],
                        [
                            -7.353498308999974,
                            40.699424340000064
                        ],
                        [
                            -7.3281378819999645,
                            40.66773857600003
                        ],
                        [
                            -7.269312148999973,
                            40.67693224300007
                        ],
                        [
                            -7.26717303199996,
                            40.647724449000066
                        ],
                        [
                            -7.21048641699997,
                            40.65232282000005
                        ],
                        [
                            -7.210842935999949,
                            40.62824548100008
                        ],
                        [
                            -7.160217153999952,
                            40.63906783200008
                        ],
                        [
                            -7.057896031999974,
                            40.61363252600006
                        ],
                        [
                            -7.036504855999965,
                            40.63717404700003
                        ],
                        [
                            -7.05611343399994,
                            40.560836908000056
                        ],
                        [
                            -7.104243578999956,
                            40.52588767300006
                        ],
                        [
                            -7.094261029999927,
                            40.47275161300007
                        ],
                        [
                            -7.05611343399994,
                            40.47139555000007
                        ],
                        [
                            -7.041496129999928,
                            40.45566322700006
                        ],
                        [
                            -7.015343786999949,
                            40.46465064200004
                        ],
                        [
                            -7.068774189999942,
                            40.36881572500005
                        ],
                        [
                            -7.091021012999931,
                            40.36504903000008
                        ],
                        [
                            -7.09447139699995,
                            40.28499150600004
                        ],
                        [
                            -7.059444103999965,
                            40.27625874300003
                        ],
                        [
                            -7.013870789999942,
                            40.290138212000045
                        ],
                        [
                            -6.945050999999978,
                            40.25612800000005
                        ],
                        [
                            -7.01210599999996,
                            40.225847000000044
                        ],
                        [
                            -7.02912299999997,
                            40.18480000000005
                        ],
                        [
                            -7.016848999999979,
                            40.17763300000007
                        ],
                        [
                            -7.021073999999942,
                            40.143661000000066
                        ],
                        [
                            -6.993590999999981,
                            40.112554000000046
                        ],
                        [
                            -6.941546999999957,
                            40.11206200000004
                        ],
                        [
                            -6.863863999999978,
                            40.01274600000005
                        ],
                        [
                            -6.887096999999926,
                            39.979430000000036
                        ],
                        [
                            -6.885774999999967,
                            39.94051700000006
                        ],
                        [
                            -6.908706999999936,
                            39.918075000000044
                        ],
                        [
                            -6.903453081353664,
                            39.87313423312814
                        ],
                        [
                            -7.95347176459631,
                            40.0008295136683
                        ]
                    ]
                ],
                "type": "Polygon"
            },
            "properties": {
                "diocese": "Egitanien",
                "province": "Ulixbonen",
                "date": 1592
            }
        }
    ]
}