{
  "type": "FeatureCollection",
  "features": [
    {
      "type": "Feature",
      "geometry": {
        "coordinates": [
          [
            [
              [
                -8.826563115497857,
                40.145610227612195
              ],
              [
                -8.875100612999972,
                40.14561605500006
              ],
              [
                -8.87012946599998,
                40.159504414000025
              ],
              [
                -8.909340977999932,
                40.186984539000036
              ],
              [
                -8.900823704557657,
                40.205591629220784
              ],
              [
                -8.826563115497857,
                40.145610227612195
              ]
            ]
          ],
          [
            [
              [
                -8.78614550348339,
                40.112964310726895
              ],
              [
                -8.790899157999945,
                40.11332714500003
              ],
              [
                -8.794474363596539,
                40.119691657085355
              ],
              [
                -8.78614550348339,
                40.112964310726895
              ]
            ]
          ],
          [
            [
              [
                -8.232869378671852,
                39.66607481169477
              ],
              [
                -8.23318515699998,
                39.658474366000064
              ],
              [
                -8.480884112999945,
                39.65146264600003
              ],
              [
                -8.534362051999949,
                39.62400731200006
              ],
              [
                -8.675543809999965,
                39.47005612000004
              ],
              [
                -8.746847728999967,
                39.435370042000045
              ],
              [
                -8.822429881999938,
                39.40562536500005
              ],
              [
                -8.888029486999926,
                39.40066668400004
              ],
              [
                -8.95790732699993,
                39.427659678000055
              ],
              [
                -8.939368307999928,
                39.52122779100006
              ],
              [
                -8.992133206999938,
                39.56961360500003
              ],
              [
                -9.082759218999968,
                39.58009163400004
              ],
              [
                -9.072151660999964,
                39.58407175600007
              ],
              [
                -9.083439707999958,
                39.621749401000045
              ],
              [
                -9.031611441999928,
                39.765888810000035
              ],
              [
                -8.893503307999936,
                40.04282915600004
              ],
              [
                -8.862404107999964,
                40.12906670500007
              ],
              [
                -8.873948931999962,
                40.143250942000066
              ],
              [
                -8.859242200999972,
                40.14472985300006
              ],
              [
                -8.843845963999968,
                40.121940970000026
              ],
              [
                -8.819275140999935,
                40.12042951600006
              ],
              [
                -8.855061649999925,
                40.14464104100006
              ],
              [
                -8.832643865999955,
                40.14320755000006
              ],
              [
                -8.789686440999958,
                40.11081635900007
              ],
              [
                -8.784201975504734,
                40.11139449376609
              ],
              [
                -8.232869378671852,
                39.66607481169477
              ]
            ]
          ]
        ],
        "type": "MultiPolygon"
      },
      "properties": {
                "diocese": "Lerien",
                "province": "Ulixbonen",
                "date": 1592
            }
    }
  ]
}