{
  "type": "FeatureCollection",
  "features": [
    {
      "type": "Feature",
      "geometry": {
        "coordinates": [
          [
            [
              -6.903453081353664,
              39.87313423312814
            ],
            [
              -6.90325699999994,
              39.87145700000008
            ],
            [
              -6.987157998999976,
              39.80989100000005
            ],
            [
              -6.977017998999941,
              39.77169500000008
            ],
            [
              -7.01588550799994,
              39.67082226200006
            ],
            [
              -7.14790499999998,
              39.65337400000004
            ],
            [
              -7.25417699999997,
              39.66664100000003
            ],
            [
              -7.336145999999928,
              39.640949000000035
            ],
            [
              -7.541562516999932,
              39.66389768600004
            ],
            [
              -7.4996419999999375,
              39.58977900000008
            ],
            [
              -7.4668309999999565,
              39.57678400000003
            ],
            [
              -7.427289999999971,
              39.53288700000007
            ],
            [
              -7.391316999999958,
              39.52982900000006
            ],
            [
              -7.381586999999968,
              39.49153200000006
            ],
            [
              -7.2939139999999725,
              39.457250000000045
            ],
            [
              -7.322282836999932,
              39.378674301000046
            ],
            [
              -7.307347999999934,
              39.336024000000066
            ],
            [
              -7.231569942999954,
              39.277941095000074
            ],
            [
              -7.248557999999946,
              39.25318000000004
            ],
            [
              -7.241687999999954,
              39.20792400000005
            ],
            [
              -7.135342999999978,
              39.17102100000005
            ],
            [
              -7.1437009999999646,
              39.10837500100007
            ],
            [
              -7.106353999999953,
              39.09935500000006
            ],
            [
              -7.038130999999964,
              39.11817700000006
            ],
            [
              -7.050285832999975,
              39.05918827000005
            ],
            [
              -7.120639032999975,
              39.028175849000036
            ],
            [
              -7.185287917999972,
              39.05623529200005
            ],
            [
              -7.253739679999967,
              39.04885230900004
            ],
            [
              -7.409657580999976,
              39.172783966000054
            ],
            [
              -7.491419407999956,
              39.20373282000003
            ],
            [
              -7.559871168999962,
              39.190470694000055
            ],
            [
              -7.548462541999982,
              39.112320741000076
            ],
            [
              -7.774733642999934,
              39.14034674100003
            ],
            [
              -7.873608409999974,
              39.21699244300004
            ],
            [
              -7.959173111999974,
              39.22141176000008
            ],
            [
              -8.082766569999933,
              39.20225937400005
            ],
            [
              -8.170232709999937,
              39.219938685000045
            ],
            [
              -8.23488159599998,
              39.20078589800005
            ],
            [
              -8.25769884899995,
              39.267061752000075
            ],
            [
              -8.366080804999967,
              39.425868276000074
            ],
            [
              -8.347066426999959,
              39.47578821500008
            ],
            [
              -8.265304600999968,
              39.56672652700007
            ],
            [
              -8.228241417999925,
              39.665354097000034
            ],
            [
              -8.232995012999936,
              39.76379084700005
            ],
            [
              -8.245924789999947,
              39.77957445000004
            ],
            [
              -8.26569974299997,
              39.768613999000024
            ],
            [
              -8.283192970999949,
              39.77782089500005
            ],
            [
              -8.29346073499994,
              39.806164555000066
            ],
            [
              -8.270263193999938,
              39.82296069500006
            ],
            [
              -8.276728082999966,
              39.84077472200005
            ],
            [
              -8.208466464999958,
              39.85157770100005
            ],
            [
              -8.186029498999972,
              39.880766434000066
            ],
            [
              -8.151423329999943,
              39.88368462400007
            ],
            [
              -8.118148167999948,
              39.946978760000036
            ],
            [
              -8.089246312999933,
              39.941001862000064
            ],
            [
              -8.085710827999947,
              39.96475147900003
            ],
            [
              -8.034164036999925,
              39.96065259400007
            ],
            [
              -8.031787238999925,
              39.98364871200005
            ],
            [
              -8.00519681999998,
              39.97237930400007
            ],
            [
              -8.01173301199998,
              39.988656742000046
            ],
            [
              -7.9628601179999805,
              39.97670515500005
            ],
            [
              -7.95347176459631,
              40.0008295136683
            ],
            [
              -6.903453081353664,
              39.87313423312814
            ]
          ]
        ],
        "type": "Polygon"
      },
      "properties": {
                "diocese": "Portalegren",
                "province": "Ulixbonen",
                "date": 1592
            }
    }
  ]
}