{
    "type": "FeatureCollection",
    "features": [
        {
            "type": "Feature",
            "properties": {
                "diocese": "S. Iacobi Capitis Viridis",
                "province": "Ulixbonen",
                "date": 1592
            },
            "geometry": {
                "type": "MultiPolygon",
                "coordinates": [
                    [
                        [
                            [
                                -25.37120050338462,
                                17.072608721959806
                            ],
                            [
                                -25.301721953583183,
                                16.919458880325752
                            ],
                            [
                                -25.170112124328032,
                                16.924490932854535
                            ],
                            [
                                -24.953605983333166,
                                17.102491562436498
                            ],
                            [
                                -25.080350506048873,
                                17.20509674274095
                            ],
                            [
                                -25.37120050338462,
                                17.072608721959806
                            ]
                        ]
                    ],
                    [
                        [
                            [
                                -25.083387522225504,
                                16.835392948232183
                            ],
                            [
                                -24.981563087190196,
                                16.773577805945607
                            ],
                            [
                                -24.860535824665348,
                                16.823198512046297
                            ],
                            [
                                -24.959475714798913,
                                16.922322073114234
                            ],
                            [
                                -25.083387522225504,
                                16.835392948232183
                            ]
                        ]
                    ],
                    [
                        [
                            [
                                -24.428740056750165,
                                16.64060263751212
                            ],
                            [
                                -24.32036358400892,
                                16.48461841454339
                            ],
                            [
                                -24.236684309999212,
                                16.59988579776702
                            ],
                            [
                                -24.024725203425415,
                                16.542708406704445
                            ],
                            [
                                -24.002102129838,
                                16.584497099742457
                            ],
                            [
                                -24.36720996680806,
                                16.679323982472717
                            ],
                            [
                                -24.428740056750165,
                                16.64060263751212
                            ]
                        ]
                    ],
                    [
                        [
                            [
                                -22.98821553949043,
                                16.82441044138176
                            ],
                            [
                                -22.97870035538492,
                                16.70114232272515
                            ],
                            [
                                -22.914854464246897,
                                16.579902127689113
                            ],
                            [
                                -22.883267795928127,
                                16.594671114264806
                            ],
                            [
                                -22.900894572138608,
                                16.863715313181487
                            ],
                            [
                                -22.98821553949043,
                                16.82441044138176
                            ]
                        ]
                    ],
                    [
                        [
                            [
                                -22.912822968725497,
                                16.229662941722403
                            ],
                            [
                                -22.9711396087631,
                                16.021073670264894
                            ],
                            [
                                -22.79281652693351,
                                15.964167558771551
                            ],
                            [
                                -22.67112705497975,
                                16.05393611413536
                            ],
                            [
                                -22.701925796801913,
                                16.211511534147753
                            ],
                            [
                                -22.912822968725497,
                                16.229662941722403
                            ]
                        ]
                    ],
                    [
                        [
                            [
                                -23.22943184800073,
                                15.274914735459996
                            ],
                            [
                                -23.234680435111265,
                                15.14631288227949
                            ],
                            [
                                -23.163622640382528,
                                15.117106425870809
                            ],
                            [
                                -23.08921071897914,
                                15.16739826665184
                            ],
                            [
                                -23.110341717027033,
                                15.319519807531659
                            ],
                            [
                                -23.178977086935713,
                                15.330907705656664
                            ],
                            [
                                -23.22943184800073,
                                15.274914735459996
                            ]
                        ]
                    ],
                    [
                        [
                            [
                                -23.763073401876735,
                                15.336592436838039
                            ],
                            [
                                -23.776291145511635,
                                15.047746727845626
                            ],
                            [
                                -23.647703866973462,
                                14.919631413939808
                            ],
                            [
                                -23.478264567811546,
                                14.90803533722418
                            ],
                            [
                                -23.41963567581454,
                                15.018496731133176
                            ],
                            [
                                -23.67875438409321,
                                15.258340439764526
                            ],
                            [
                                -23.692220581555826,
                                15.337952196821496
                            ],
                            [
                                -23.763073401876735,
                                15.336592436838039
                            ]
                        ]
                    ],
                    [
                        [
                            [
                                -24.49839783339525,
                                14.88447489598898
                            ],
                            [
                                -24.409051189606984,
                                14.813611045208186
                            ],
                            [
                                -24.333472694842094,
                                14.815802041229121
                            ],
                            [
                                -24.27100558865604,
                                14.879778550015475
                            ],
                            [
                                -24.29757546200696,
                                15.012877564325533
                            ],
                            [
                                -24.370744700837516,
                                15.057273715385623
                            ],
                            [
                                -24.483493114481927,
                                14.990641512290427
                            ],
                            [
                                -24.49839783339525,
                                14.88447489598898
                            ]
                        ]
                    ]
                ]
            }
        }
    ]
}