{
  "type": "FeatureCollection",
  "features": [
    {
      "type": "Feature",
      "properties": {
                "diocese": "Feltren",
                "province": "Utinen",
                "date": 1751
            },
      "geometry": {
        "type": "MultiPolygon",
        "coordinates": [
          [
            [
              [
                12.057775868644681,
                46.07875618353626
              ],
              [
                12.006089893000023,
                46.05608197300006
              ],
              [
                11.985067121000043,
                46.03654976800004
              ],
              [
                11.980625896135729,
                45.991986289126366
              ],
              [
                11.95085564711395,
                45.98159290176289
              ],
              [
                11.920863710000049,
                45.988651633000075
              ],
              [
                11.895413345000065,
                45.97148920200004
              ],
              [
                11.854915647671122,
                45.941651769361336
              ],
              [
                11.847084584699429,
                45.880961031330706
              ],
              [
                11.84579752873872,
                45.83145994120776
              ],
              [
                11.81323296482501,
                45.75261952334847
              ],
              [
                11.70586064473674,
                45.79962548518298
              ],
              [
                11.644817959548051,
                45.86837870607287
              ],
              [
                11.504475579687771,
                45.88291879707363
              ],
              [
                11.426254074535779,
                45.911546255144714
              ],
              [
                11.364353339298457,
                45.87144482023118
              ],
              [
                11.241648729123868,
                45.87976774388062
              ],
              [
                11.248461993000035,
                45.926684685000055
              ],
              [
                11.176445036000075,
                46.00020545900003
              ],
              [
                11.18856670200006,
                46.03585677600006
              ],
              [
                11.29029362500006,
                46.130320433000065
              ],
              [
                11.393921987000056,
                46.16983830400005
              ],
              [
                11.496837309000057,
                46.18711845000007
              ],
              [
                11.609497500000032,
                46.24467972000008
              ],
              [
                11.623995963000027,
                46.266537182000036
              ],
              [
                11.752343016000054,
                46.27360201700003
              ],
              [
                11.768267558000048,
                46.31728517400006
              ],
              [
                11.721206972000061,
                46.349450467000054
              ],
              [
                11.815328144000034,
                46.36929816700007
              ],
              [
                11.840997554000069,
                46.39110591800005
              ],
              [
                11.852643861000047,
                46.43420387300006
              ],
              [
                11.910376783171829,
                46.45337362174504
              ],
              [
                12.057775868644681,
                46.07875618353626
              ]
            ]
          ]
        ]
      }
    }
  ]
}