{
  "type": "FeatureCollection",
  "features": [
    {
      "type": "Feature",
      "properties": {
                "diocese": "Patavin",
                "province": "Utinen",
                "date": 1751
            },
      "geometry": {
        "type": "MultiPolygon",
        "coordinates": [
          [
            [
              [
                12.204483288000063,
                45.25655035400007
              ],
              [
                12.188856368370802,
                45.2311593294132
              ],
              [
                12.184903898246857,
                45.2298857557066
              ],
              [
                12.154335528000047,
                45.22039009300005
              ],
              [
                12.153883746000076,
                45.20628029300008
              ],
              [
                12.156911412572276,
                45.204768620640124
              ],
              [
                12.179654443524042,
                45.19286353316951
              ],
              [
                12.148161179000056,
                45.17889942000005
              ],
              [
                12.129959065113752,
                45.17684209852142
              ],
              [
                12.057235909641484,
                45.16920450685082
              ],
              [
                11.973924065000062,
                45.13780341200004
              ],
              [
                11.837752786000067,
                45.12841739000004
              ],
              [
                11.768825665000065,
                45.098561145000076
              ],
              [
                11.676368251000042,
                45.127243563000036
              ],
              [
                11.641904690000047,
                45.106949308000026
              ],
              [
                11.570600772000034,
                45.12456044000004
              ],
              [
                11.488553730000035,
                45.102386300000035
              ],
              [
                11.411050929020323,
                45.13239925294433
              ],
              [
                11.419721681000055,
                45.16315172900005
              ],
              [
                11.398615721000056,
                45.21993495300006
              ],
              [
                11.428181676153903,
                45.25544481542308
              ],
              [
                11.573365318000072,
                45.26236646500007
              ],
              [
                11.642589539000028,
                45.248144729000046
              ],
              [
                11.620158515000071,
                45.34000027500008
              ],
              [
                11.630259903000024,
                45.363906358000065
              ],
              [
                11.794704565000075,
                45.39427026100003
              ],
              [
                11.667397361000042,
                45.41627650100003
              ],
              [
                11.651502529000027,
                45.432541006000065
              ],
              [
                11.654473525000071,
                45.470785817000035
              ],
              [
                11.689531285000044,
                45.49213743400003
              ],
              [
                11.826939878000076,
                45.50494451900005
              ],
              [
                11.846548455000061,
                45.51983039600003
              ],
              [
                11.817878338000071,
                45.51951814600005
              ],
              [
                11.825305830000048,
                45.53159057700003
              ],
              [
                11.808816799000056,
                45.54813392500006
              ],
              [
                11.877595370000051,
                45.56581639600006
              ],
              [
                11.912028519964517,
                45.60037160482352
              ],
              [
                11.91533127300005,
                45.59901771600005
              ],
              [
                11.922610215000077,
                45.55950787300003
              ],
              [
                12.035210986000038,
                45.53068975800005
              ],
              [
                12.031794340000033,
                45.495193018000066
              ],
              [
                12.058384759000035,
                45.485612349000064
              ],
              [
                12.069674546000044,
                45.44831554400008
              ],
              [
                12.124935083000025,
                45.41933619900004
              ],
              [
                12.259312516740277,
                45.40064906337796
              ],
              [
                12.259526384098566,
                45.40135743621963
              ],
              [
                12.241236349087728,
                45.34077706444852
              ],
              [
                12.238760118000073,
                45.33305665800003
              ],
              [
                12.238870094135098,
                45.332939539553095
              ],
              [
                12.238831237713246,
                45.33281083906236
              ],
              [
                12.250267575789497,
                45.31896685086479
              ],
              [
                12.182496583000045,
                45.30370435400005
              ],
              [
                12.182582551138035,
                45.3035199815996
              ],
              [
                12.18254718595905,
                45.30351217192218
              ],
              [
                12.204483288000063,
                45.25655035400007
              ]
            ]
          ]
        ]
      }
    }
  ]
}