{
  "type": "FeatureCollection",
  "features": [
    {
      "type": "Feature",
      "properties": {
                "diocese": "Vicentin",
                "province": "Utinen",
                "date": 1751
            },
      "geometry": {
        "type": "MultiPolygon",
        "coordinates": [
          [
            [
              [
                11.364368217000049,
                45.87152528300004
              ],
              [
                11.426243535299184,
                45.91156978028122
              ],
              [
                11.50446690734149,
                45.882953771186486
              ],
              [
                11.644847645931874,
                45.868427663707315
              ],
              [
                11.705913986000041,
                45.799689716000046
              ],
              [
                11.78183911476695,
                45.77132296727688
              ],
              [
                11.774044188666624,
                45.73823271753197
              ],
              [
                11.818138090000048,
                45.70846004800006
              ],
              [
                11.808185252000044,
                45.64286185600008
              ],
              [
                11.912451714000042,
                45.60079629900008
              ],
              [
                11.877595370000051,
                45.56581639600006
              ],
              [
                11.808816799000056,
                45.54813392500006
              ],
              [
                11.825305830000048,
                45.53159057700003
              ],
              [
                11.817878338000071,
                45.51951814600005
              ],
              [
                11.846548455000061,
                45.51983039600003
              ],
              [
                11.826939878000076,
                45.50494451900005
              ],
              [
                11.689531285000044,
                45.49213743400003
              ],
              [
                11.654473525000071,
                45.470785817000035
              ],
              [
                11.651502529000027,
                45.432541006000065
              ],
              [
                11.667397361000042,
                45.41627650100003
              ],
              [
                11.794704565000075,
                45.39427026100003
              ],
              [
                11.630259903000024,
                45.363906358000065
              ],
              [
                11.620158515000071,
                45.34000027500008
              ],
              [
                11.642589539000028,
                45.248144729000046
              ],
              [
                11.573365318000072,
                45.26236646500007
              ],
              [
                11.4281816761539,
                45.25544481542308
              ],
              [
                11.431274509000048,
                45.25915942800003
              ],
              [
                11.24480679800007,
                45.34232763800003
              ],
              [
                11.255502386000046,
                45.34917659400003
              ],
              [
                11.242192321000061,
                45.39609469700008
              ],
              [
                11.284736992000035,
                45.41077990800005
              ],
              [
                11.297334018000072,
                45.435969499000066
              ],
              [
                11.28521235200003,
                45.455979703000025
              ],
              [
                11.318725193000034,
                45.48048252900003
              ],
              [
                11.31682375500003,
                45.498811009000065
              ],
              [
                11.23506192900004,
                45.48581506600004
              ],
              [
                11.232685132000029,
                45.53112124900008
              ],
              [
                11.251699510000037,
                45.55292849600005
              ],
              [
                11.239577844000053,
                45.591528209000046
              ],
              [
                11.210105558000066,
                45.62544741700003
              ],
              [
                11.182534709000038,
                45.62195668100003
              ],
              [
                11.144819565045418,
                45.71469530918454
              ],
              [
                11.175404317000073,
                45.73023434300006
              ],
              [
                11.190996108000036,
                45.81809709400005
              ],
              [
                11.238722197000072,
                45.85982478900007
              ],
              [
                11.241627180339373,
                45.879813708574176
              ],
              [
                11.24405528400007,
                45.880774978000034
              ],
              [
                11.364368217000049,
                45.87152528300004
              ]
            ]
          ]
        ]
      }
    }
  ]
}