{"type": "FeatureCollection", "features": [{"type": "Feature", "properties": {"diocese": "Dijon", "province": "X_Lyon", "source": "65_Dijon.txt"}, "geometry": {"type": "Polygon", "coordinates": [[[5.657764803264065, 47.58562729858157], [5.6483550911083675, 47.591088951795854], [5.638945378952668, 47.59655060501014], [5.629535666796974, 47.60201225822442], [5.620125954641274, 47.607473911438696], [5.6107162424855765, 47.61293556465297], [5.601306530329879, 47.618397217867255], [5.591896818174181, 47.62385887108153], [5.582487106018485, 47.629320524295814], [5.5730773938627856, 47.6347821775101], [5.56366768170709, 47.64024383072437], [5.56366768170709, 47.64024383072437], [5.561857866076728, 47.642375568293154], [5.560048050446365, 47.644507305861936], [5.558238234816001, 47.64663904343071], [5.556428419185638, 47.648770780999484], [5.5546186035552765, 47.650902518568266], [5.5528087879249135, 47.65303425613705], [5.550998972294552, 47.65516599370582], [5.549189156664189, 47.657297731274596], [5.547379341033826, 47.65942946884338], [5.545569525403463, 47.66156120641216], [5.545569525403463, 47.66156120641216], [5.543211731713949, 47.66156061799088], [5.54085393802443, 47.6615600295696], [5.538496144334912, 47.66155944114831], [5.536138350645398, 47.661558852727026], [5.533780556955881, 47.66155826430574], [5.531422763266363, 47.66155767588445], [5.529064969576847, 47.66155708746317], [5.52670717588733, 47.66155649904189], [5.524349382197816, 47.661555910620606], [5.521991588508298, 47.66155532219933], [5.521991588508298, 47.66155532219933], [5.518725749826119, 47.66017541864689], [5.515459911143937, 47.65879551509445], [5.512194072461758, 47.65741561154201], [5.508928233779574, 47.65603570798956], [5.505662395097396, 47.65465580443713], [5.502396556415215, 47.65327590088469], [5.499130717733033, 47.651895997332254], [5.495864879050854, 47.65051609377981], [5.492599040368672, 47.64913619022737], [5.489333201686492, 47.64775628667493], [5.489333201686492, 47.64775628667493], [5.4771887894536935, 47.65163947872037], [5.465044377220895, 47.65552267076581], [5.452899964988093, 47.659405862811255], [5.440755552755297, 47.66328905485671], [5.428611140522497, 47.667172246902155], [5.416466728289697, 47.6710554389476], [5.4043223160569, 47.67493863099304], [5.392177903824097, 47.67882182303849], [5.380033491591297, 47.682705015083926], [5.3678890793585, 47.686588207129375], [5.3678890793585, 47.686588207129375], [5.361540772364915, 47.68595957396958], [5.35519246537133, 47.68533094080979], [5.348844158377744, 47.68470230765], [5.342495851384157, 47.684073674490215], [5.336147544390574, 47.68344504133042], [5.3297992373969905, 47.68281640817063], [5.323450930403405, 47.682187775010846], [5.317102623409818, 47.681559141851054], [5.310754316416233, 47.68093050869126], [5.304406009422648, 47.68030187553146], [5.304406009422648, 47.68030187553146], [5.303131828219122, 47.67817043482821], [5.301857647015597, 47.676038994124944], [5.300583465812069, 47.673907553421685], [5.299309284608544, 47.671776112718426], [5.298035103405018, 47.66964467201515], [5.296760922201493, 47.6675132313119], [5.295486740997962, 47.665381790608635], [5.29421255979444, 47.663250349905375], [5.292938378590913, 47.66111890920211], [5.2916641973873855, 47.65898746849885], [5.2916641973873855, 47.65898746849885], [5.296371961771232, 47.654976368660925], [5.301079726155077, 47.65096526882299], [5.305787490538924, 47.64695416898507], [5.310495254922769, 47.64294306914715], [5.315203019306615, 47.63893196930921], [5.31991078369046, 47.63492086947129], [5.324618548074307, 47.63090976963336], [5.329326312458152, 47.62689866979544], [5.3340340768419985, 47.622887569957506], [5.338741841225845, 47.61887647011958], [5.338741841225845, 47.61887647011958], [5.344540313311462, 47.616369716347876], [5.350338785397081, 47.61386296257618], [5.356137257482702, 47.61135620880447], [5.361935729568319, 47.60884945503277], [5.367734201653937, 47.606342701261056], [5.373532673739554, 47.60383594748936], [5.379331145825173, 47.601329193717646], [5.385129617910792, 47.598822439945955], [5.390928089996411, 47.59631568617425], [5.39672656208203, 47.593808932402546], [5.39672656208203, 47.593808932402546], [5.39690326071376, 47.59092581958963], [5.397079959345486, 47.58804270677672], [5.3972566579772145, 47.5851595939638], [5.397433356608943, 47.58227648115089], [5.397610055240673, 47.579393368337975], [5.397786753872397, 47.576510255525065], [5.397963452504126, 47.573627142712155], [5.3981401511358555, 47.570744029899245], [5.398316849767584, 47.567860917086335], [5.398493548399312, 47.56497780427342], [5.398493548399312, 47.56497780427342], [5.395766438801447, 47.56171688862279], [5.393039329203578, 47.55845597297215], [5.390312219605711, 47.55519505732153], [5.387585110007844, 47.551934141670884], [5.384858000409979, 47.548673226020256], [5.382130890812114, 47.54541231036962], [5.379403781214247, 47.54215139471899], [5.376676671616378, 47.53889047906836], [5.373949562018511, 47.53562956341773], [5.371222452420646, 47.53236864776709], [5.371222452420646, 47.53236864776709], [5.367041773736924, 47.527728275372596], [5.362861095053207, 47.52308790297809], [5.358680416369484, 47.51844753058359], [5.354499737685764, 47.51380715818909], [5.350319059002045, 47.50916678579459], [5.346138380318324, 47.504526413400086], [5.341957701634604, 47.49988604100559], [5.337777022950883, 47.49524566861108], [5.333596344267164, 47.490605296216586], [5.3294156655834435, 47.48596492382209], [5.3294156655834435, 47.48596492382209], [5.322527367704888, 47.48734229326389], [5.315639069826336, 47.4887196627057], [5.308750771947782, 47.4900970321475], [5.301862474069228, 47.4914744015893], [5.294974176190676, 47.49285177103111], [5.288085878312122, 47.49422914047292], [5.2811975804335685, 47.495606509914715], [5.274309282555015, 47.49698387935653], [5.267420984676459, 47.49836124879832], [5.2605326867979105, 47.49973861824013], [5.2605326867979105, 47.49973861824013], [5.254913359308301, 47.50136733612153], [5.249294031818689, 47.50299605400295], [5.243674704329079, 47.50462477188435], [5.238055376839469, 47.506253489765754], [5.232436049349859, 47.507882207647164], [5.226816721860249, 47.509510925528566], [5.221197394370641, 47.511139643409976], [5.215578066881029, 47.512768361291386], [5.2099587393914195, 47.51439707917279], [5.204339411901811, 47.51602579705419], [5.204339411901811, 47.51602579705419], [5.19999951196327, 47.52254518956168], [5.195659612024727, 47.52906458206917], [5.191319712086186, 47.535583974576646], [5.1869798121476425, 47.54210336708414], [5.182639912209101, 47.54862275959162], [5.17830001227056, 47.555142152099116], [5.173960112332017, 47.5616615446066], [5.169620212393475, 47.568180937114086], [5.165280312454932, 47.57470032962157], [5.160940412516391, 47.581219722129056], [5.160940412516391, 47.581219722129056], [5.161854637320369, 47.584981187796], [5.1627688621243415, 47.58874265346293], [5.1636830869283195, 47.59250411912985], [5.164597311732292, 47.59626558479678], [5.16551153653627, 47.600027050463716], [5.1664257613402444, 47.603788516130656], [5.167339986144221, 47.607549981797575], [5.168254210948195, 47.61131144746451], [5.169168435752171, 47.61507291313144], [5.170082660556147, 47.61883437879838], [5.170082660556147, 47.61883437879838], [5.167729705769965, 47.621340931396524], [5.165376750983787, 47.62384748399468], [5.163023796197606, 47.62635403659283], [5.160670841411427, 47.628860589190985], [5.158317886625246, 47.63136714178914], [5.1559649318390655, 47.63387369438728], [5.1536119770528845, 47.63638024698544], [5.151259022266705, 47.63888679958359], [5.148906067480526, 47.641393352181744], [5.146553112694345, 47.64389990477989], [5.146553112694345, 47.64389990477989], [5.142018495333495, 47.64314673890345], [5.1374838779726435, 47.642393573026986], [5.132949260611795, 47.64164040715054], [5.128414643250945, 47.64088724127408], [5.123880025890093, 47.640134075397626], [5.119345408529242, 47.63938090952118], [5.1148107911683915, 47.63862774364472], [5.1102761738075415, 47.63787457776826], [5.1057415564466915, 47.63712141189182], [5.101206939085841, 47.63636824601536], [5.101206939085841, 47.63636824601536], [5.098664028721252, 47.63411044228165], [5.09612111835666, 47.63185263854796], [5.093578207992071, 47.62959483481426], [5.0910352976274815, 47.627337031080565], [5.088492387262889, 47.625079227346866], [5.0859494768983, 47.62282142361317], [5.083406566533711, 47.62056361987947], [5.08086365616912, 47.618305816145764], [5.078320745804529, 47.61604801241207], [5.075777835439938, 47.613790208678374], [5.075777835439938, 47.613790208678374], [5.065803845967576, 47.614289783025654], [5.0558298564952135, 47.61478935737294], [5.045855867022853, 47.61528893172022], [5.035881877550487, 47.61578850606751], [5.025907888078125, 47.6162880804148], [5.015933898605763, 47.616787654762085], [5.0059599091334, 47.617287229109365], [4.995985919661036, 47.61778680345665], [4.986011930188672, 47.61828637780394], [4.97603794071631, 47.61878595215122], [4.97603794071631, 47.61878595215122], [4.974047362800013, 47.620916578086955], [4.972056784883714, 47.623047204022676], [4.970066206967417, 47.62517782995841], [4.968075629051121, 47.62730845589414], [4.966085051134822, 47.629439081829865], [4.964094473218523, 47.63156970776559], [4.962103895302224, 47.63370033370132], [4.960113317385931, 47.63583095963705], [4.958122739469632, 47.63796158557277], [4.956132161553333, 47.6400922115085], [4.956132161553333, 47.6400922115085], [4.94707699457096, 47.646735412602325], [4.938021827588583, 47.65337861369616], [4.928966660606209, 47.660021814789985], [4.919911493623834, 47.66666501588382], [4.910856326641461, 47.67330821697764], [4.901801159659083, 47.679951418071475], [4.8927459926767085, 47.6865946191653], [4.883690825694334, 47.69323782025913], [4.874635658711959, 47.69988102135296], [4.865580491729585, 47.70652422244678], [4.865580491729585, 47.70652422244678], [4.858336109395413, 47.71153775518264], [4.8510917270612435, 47.716551287918485], [4.84384734472707, 47.721564820654336], [4.8366029623929006, 47.72657835339018], [4.829358580058731, 47.731591886126026], [4.822114197724561, 47.73660541886188], [4.8148698153903915, 47.74161895159772], [4.80762543305622, 47.74663248433358], [4.800381050722049, 47.751646017069426], [4.793136668387879, 47.75665954980528], [4.793136668387879, 47.75665954980528], [4.789693164125122, 47.75766176184604], [4.786249659862367, 47.75866397388679], [4.782806155599609, 47.75966618592754], [4.7793626513368554, 47.7606683979683], [4.7759191470741005, 47.761670610009055], [4.7724756428113455, 47.76267282204981], [4.7690321385485905, 47.763675034090575], [4.765588634285832, 47.76467724613132], [4.762145130023077, 47.76567945817208], [4.758701625760322, 47.766681670212826], [4.758701625760322, 47.766681670212826], [4.751623162502115, 47.764046711998645], [4.744544699243914, 47.76141175378445], [4.737466235985707, 47.758776795570256], [4.730387772727502, 47.756141837356076], [4.723309309469295, 47.75350687914188], [4.716230846211088, 47.750871920927686], [4.709152382952883, 47.7482369627135], [4.702073919694675, 47.74560200449931], [4.694995456436471, 47.74296704628512], [4.6879169931782645, 47.74033208807093], [4.6879169931782645, 47.74033208807093], [4.67993830793314, 47.74033009687542], [4.671959622688014, 47.74032810567991], [4.663980937442888, 47.7403261144844], [4.656002252197762, 47.740324123288886], [4.648023566952636, 47.74032213209338], [4.640044881707512, 47.740320140897865], [4.632066196462386, 47.74031814970236], [4.624087511217262, 47.74031615850685], [4.616108825972134, 47.74031416731133], [4.608130140727008, 47.74031217611582], [4.608130140727008, 47.74031217611582], [4.6063096762242495, 47.736926501382534], [4.604489211721491, 47.73354082664924], [4.602668747218731, 47.73015515191596], [4.600848282715971, 47.726769477182664], [4.599027818213209, 47.72338380244938], [4.59720735371045, 47.71999812771609], [4.595386889207692, 47.7166124529828], [4.593566424704932, 47.71322677824951], [4.5917459602021715, 47.70984110351622], [4.589925495699413, 47.706455428782945], [4.589925495699413, 47.706455428782945], [4.593753393260963, 47.703655486047026], [4.597581290822513, 47.700855543311114], [4.601409188384064, 47.69805560057521], [4.605237085945614, 47.6952556578393], [4.609064983507164, 47.692455715103385], [4.612892881068715, 47.68965577236748], [4.616720778630263, 47.686855829631575], [4.620548676191815, 47.684055886895656], [4.624376573753365, 47.681255944159744], [4.628204471314916, 47.67845600142384], [4.628204471314916, 47.67845600142384], [4.632692257077185, 47.67810246755701], [4.637180042839452, 47.67774893369018], [4.641667828601719, 47.67739539982336], [4.646155614363986, 47.67704186595653], [4.650643400126253, 47.676688332089704], [4.655131185888521, 47.676334798222875], [4.659618971650788, 47.675981264356054], [4.664106757413057, 47.67562773048923], [4.668594543175324, 47.675274196622404], [4.673082328937591, 47.674920662755575], [4.673082328937591, 47.674920662755575], [4.679100867463065, 47.67040034448394], [4.685119405988541, 47.6658800262123], [4.691137944514015, 47.66135970794066], [4.697156483039487, 47.65683938966903], [4.703175021564965, 47.652319071397386], [4.709193560090435, 47.647798753125755], [4.715212098615911, 47.64327843485412], [4.7212306371413835, 47.63875811658248], [4.7272491756668575, 47.63423779831084], [4.733267714192333, 47.629717480039204], [4.733267714192333, 47.629717480039204], [4.73595084156554, 47.62457675710647], [4.73863396893875, 47.61943603417374], [4.741317096311954, 47.614295311241], [4.744000223685163, 47.60915458830827], [4.746683351058373, 47.60401386537554], [4.749366478431581, 47.598873142442805], [4.752049605804785, 47.59373241951007], [4.754732733177995, 47.58859169657734], [4.757415860551202, 47.58345097364461], [4.760098987924408, 47.57831025071187], [4.760098987924408, 47.57831025071187], [4.757271201720343, 47.57494034428273], [4.754443415516279, 47.57157043785358], [4.751615629312212, 47.56820053142444], [4.748787843108147, 47.564830624995295], [4.74596005690408, 47.56146071856614], [4.7431322707000145, 47.558090812136996], [4.740304484495951, 47.55472090570785], [4.737476698291884, 47.55135099927871], [4.734648912087819, 47.54798109284956], [4.731821125883755, 47.54461118642042], [4.731821125883755, 47.54461118642042], [4.7321952150849445, 47.53911416685458], [4.732569304286134, 47.53361714728876], [4.732943393487327, 47.52812012772293], [4.733317482688516, 47.52262310815709], [4.7336915718897075, 47.517126088591276], [4.734065661090897, 47.51162906902544], [4.73443975029209, 47.50613204945961], [4.734813839493279, 47.500635029893786], [4.7351879286944705, 47.495138010327956], [4.735562017895662, 47.48964099076212], [4.735562017895662, 47.48964099076212], [4.727593302409122, 47.48041804002618], [4.719624586922583, 47.471195089290234], [4.7116558714360455, 47.46197213855429], [4.703687155949504, 47.45274918781834], [4.695718440462965, 47.4435262370824], [4.6877497249764275, 47.434303286346456], [4.679781009489886, 47.42508033561051], [4.671812294003349, 47.415857384874556], [4.663843578516808, 47.40663443413862], [4.655874863030268, 47.39741148340268], [4.655874863030268, 47.39741148340268], [4.649458449033334, 47.395104637485254], [4.643042035036398, 47.392797791567844], [4.636625621039464, 47.39049094565043], [4.63020920704253, 47.38818409973301], [4.623792793045592, 47.38587725381559], [4.6173763790486575, 47.38357040789817], [4.610959965051723, 47.38126356198076], [4.604543551054789, 47.378956716063335], [4.598127137057853, 47.376649870145926], [4.591710723060917, 47.3743430242285], [4.591710723060917, 47.3743430242285], [4.590039984701857, 47.37168271427372], [4.588369246342795, 47.36902240431895], [4.5866985079837335, 47.366362094364156], [4.585027769624672, 47.36370178440937], [4.58335703126561, 47.361041474454595], [4.581686292906554, 47.35838116449982], [4.580015554547492, 47.35572085454503], [4.57834481618843, 47.35306054459025], [4.57667407782937, 47.35040023463547], [4.57500333947031, 47.34773992468069], [4.57500333947031, 47.34773992468069], [4.575119935989093, 47.34171086006652], [4.57523653250788, 47.33568179545235], [4.5753531290266665, 47.329652730838184], [4.575469725545451, 47.323623666224016], [4.57558632206424, 47.31759460160984], [4.575702918583026, 47.31156553699568], [4.575819515101811, 47.30553647238151], [4.575936111620598, 47.299507407767344], [4.5760527081393825, 47.293478343153176], [4.576169304658169, 47.28744927853901], [4.576169304658169, 47.28744927853901], [4.578988229486088, 47.28700667018875], [4.581807154314005, 47.28656406183848], [4.58462607914192, 47.28612145348823], [4.5874450039698385, 47.28567884513796], [4.590263928797755, 47.2852362367877], [4.5930828536256705, 47.28479362843744], [4.595901778453589, 47.28435102008718], [4.598720703281506, 47.28390841173692], [4.601539628109421, 47.283465803386655], [4.60435855293734, 47.28302319503639], [4.60435855293734, 47.28302319503639], [4.606918238818709, 47.28036500736598], [4.60947792470008, 47.27770681969555], [4.612037610581449, 47.27504863202513], [4.61459729646282, 47.27239044435471], [4.61715698234419, 47.26973225668429], [4.619716668225559, 47.26707406901387], [4.62227635410693, 47.26441588134345], [4.624836039988299, 47.26175769367303], [4.62739572586967, 47.25909950600261], [4.629955411751043, 47.25644131833219], [4.629955411751043, 47.25644131833219], [4.626873305118922, 47.25422396800363], [4.623791198486801, 47.25200661767507], [4.620709091854682, 47.24978926734651], [4.617626985222564, 47.24757191701794], [4.614544878590445, 47.24535456668938], [4.611462771958326, 47.24313721636082], [4.608380665326205, 47.24091986603226], [4.605298558694086, 47.23870251570369], [4.602216452061967, 47.23648516537513], [4.599134345429848, 47.23426781504657], [4.599134345429848, 47.23426781504657], [4.599772680268961, 47.232760706393414], [4.600411015108076, 47.23125359774025], [4.601049349947189, 47.22974648908709], [4.601687684786301, 47.22823938043394], [4.602326019625417, 47.226732271780776], [4.602964354464529, 47.225225163127625], [4.603602689303644, 47.22371805447446], [4.604241024142757, 47.22221094582131], [4.60487935898187, 47.220703837168145], [4.605517693820984, 47.219196728514994], [4.605517693820984, 47.219196728514994], [4.60756847364542, 47.21866525952922], [4.609619253469857, 47.21813379054343], [4.611670033294292, 47.217602321557656], [4.613720813118729, 47.21707085257188], [4.615771592943169, 47.216539383586095], [4.617822372767604, 47.21600791460032], [4.619873152592042, 47.21547644561455], [4.621923932416477, 47.21494497662877], [4.623974712240914, 47.21441350764299], [4.626025492065352, 47.21388203865721], [4.626025492065352, 47.21388203865721], [4.628713922229483, 47.21148880698922], [4.63140235239362, 47.209095575321236], [4.634090782557752, 47.20670234365324], [4.636779212721883, 47.20430911198525], [4.6394676428860215, 47.201915880317266], [4.642156073050154, 47.19952264864928], [4.644844503214289, 47.19712941698129], [4.647532933378422, 47.1947361853133], [4.650221363542556, 47.1923429536453], [4.652909793706689, 47.189949721977314], [4.652909793706689, 47.189949721977314], [4.655604384333902, 47.190748360162786], [4.658298974961115, 47.19154699834825], [4.660993565588328, 47.192345636533716], [4.663688156215539, 47.193144274719195], [4.6663827468427534, 47.19394291290466], [4.669077337469968, 47.194741551090125], [4.671771928097179, 47.1955401892756], [4.674466518724392, 47.19633882746106], [4.677161109351607, 47.197137465646534], [4.679855699978818, 47.197936103832006], [4.679855699978818, 47.197936103832006], [4.688316983558728, 47.19660826896785], [4.696778267138642, 47.195280434103694], [4.7052395507185505, 47.19395259923954], [4.7137008342984625, 47.19262476437538], [4.722162117878375, 47.19129692951123], [4.730623401458283, 47.189969094647076], [4.739084685038197, 47.188641259782926], [4.747545968618107, 47.187313424918756], [4.756007252198019, 47.18598559005461], [4.764468535777931, 47.18465775519046], [4.764468535777931, 47.18465775519046], [4.768832708934063, 47.18669809854802], [4.773196882090195, 47.18873844190559], [4.777561055246327, 47.190778785263156], [4.781925228402459, 47.19281912862072], [4.786289401558589, 47.19485947197829], [4.790653574714723, 47.196899815335854], [4.795017747870855, 47.19894015869342], [4.799381921026987, 47.20098050205098], [4.8037460941831185, 47.203020845408545], [4.80811026733925, 47.205061188766116], [4.80811026733925, 47.205061188766116], [4.809781824237984, 47.20736684506696], [4.811453381136721, 47.20967250136778], [4.813124938035456, 47.21197815766861], [4.814796494934191, 47.214283813969445], [4.816468051832926, 47.21658947027027], [4.818139608731663, 47.21889512657111], [4.819811165630398, 47.22120078287194], [4.821482722529133, 47.22350643917277], [4.82315427942787, 47.22581209547361], [4.824825836326603, 47.22811775177444], [4.824825836326603, 47.22811775177444], [4.827646948682471, 47.228029792359], [4.830468061038339, 47.22794183294355], [4.833289173394208, 47.227853873528105], [4.836110285750076, 47.22776591411266], [4.838931398105945, 47.22767795469722], [4.841752510461813, 47.227589995281775], [4.844573622817682, 47.22750203586632], [4.84739473517355, 47.227414076450884], [4.850215847529418, 47.22732611703543], [4.853036959885285, 47.22723815761999], [4.853036959885285, 47.22723815761999], [4.856497354711513, 47.226175065105885], [4.8599577495377435, 47.225111972591776], [4.863418144363973, 47.224048880077675], [4.866878539190202, 47.22298578756356], [4.8703389340164325, 47.22192269504945], [4.873799328842663, 47.220859602535356], [4.877259723668891, 47.21979651002124], [4.88072011849512, 47.21873341750714], [4.8841805133213505, 47.21767032499303], [4.88764090814758, 47.21660723247892], [4.88764090814758, 47.21660723247892], [4.888404395705958, 47.2135042126974], [4.889167883264339, 47.21040119291588], [4.8899313708227155, 47.207298173134355], [4.890694858381098, 47.204195153352835], [4.891458345939476, 47.20109213357131], [4.892221833497858, 47.19798911378979], [4.892985321056239, 47.19488609400827], [4.8937488086146175, 47.19178307422675], [4.894512296172998, 47.18868005444523], [4.895275783731375, 47.1855770346637], [4.895275783731375, 47.1855770346637], [4.902063456914304, 47.18087958141155], [4.908851130097233, 47.176182128159404], [4.915638803280157, 47.17148467490725], [4.922426476463084, 47.16678722165511], [4.929214149646013, 47.162089768402964], [4.936001822828938, 47.157392315150815], [4.942789496011864, 47.15269486189866], [4.949577169194789, 47.14799740864651], [4.9563648423777185, 47.143299955394376], [4.963152515560644, 47.13860250214222], [4.963152515560644, 47.13860250214222], [4.966872877914, 47.139312738328535], [4.970593240267355, 47.14002297451486], [4.974313602620711, 47.14073321070117], [4.978033964974067, 47.1414434468875], [4.9817543273274225, 47.14215368307382], [4.98547468968078, 47.142863919260144], [4.989195052034132, 47.14357415544646], [4.992915414387491, 47.14428439163277], [4.996635776740845, 47.1449946278191], [5.000356139094203, 47.14570486400542], [5.000356139094203, 47.14570486400542], [5.0026633848519175, 47.14517345902439], [5.004970630609636, 47.14464205404338], [5.007277876367352, 47.144110649062355], [5.009585122125069, 47.14357924408134], [5.011892367882787, 47.14304783910032], [5.014199613640505, 47.1425164341193], [5.016506859398222, 47.14198502913828], [5.018814105155938, 47.14145362415726], [5.0211213509136545, 47.14092221917624], [5.023428596671371, 47.140390814195214], [5.023428596671371, 47.140390814195214], [5.02522470091839, 47.140745916297064], [5.027020805165408, 47.1411010183989], [5.028816909412425, 47.14145612050074], [5.030613013659444, 47.14181122260259], [5.032409117906461, 47.14216632470443], [5.034205222153481, 47.14252142680627], [5.036001326400498, 47.14287652890811], [5.037797430647517, 47.143231631009954], [5.039593534894534, 47.143586733111796], [5.041389639141553, 47.14394183521364], [5.041389639141553, 47.14394183521364], [5.041651923298758, 47.14695644752666], [5.041914207455967, 47.1499710598397], [5.042176491613175, 47.15298567215273], [5.042438775770382, 47.15600028446576], [5.042701059927587, 47.15901489677879], [5.0429633440847965, 47.16202950909182], [5.043225628242002, 47.165044121404854], [5.043487912399209, 47.16805873371789], [5.043750196556417, 47.171073346030916], [5.044012480713622, 47.17408795834395], [5.044012480713622, 47.17408795834395], [5.041967268870383, 47.17754530664165], [5.039922057027143, 47.18100265493935], [5.037876845183902, 47.18446000323706], [5.035831633340662, 47.18791735153475], [5.033786421497421, 47.191374699832465], [5.031741209654179, 47.19483204813016], [5.02969599781094, 47.19828939642787], [5.027650785967699, 47.20174674472557], [5.0256055741244605, 47.20520409302327], [5.023560362281218, 47.20866144132097], [5.023560362281218, 47.20866144132097], [5.023819131944922, 47.209814130939904], [5.024077901608626, 47.21096682055883], [5.02433667127233, 47.21211951017775], [5.024595440936034, 47.21327219979668], [5.024854210599738, 47.214424889415604], [5.025112980263442, 47.21557757903453], [5.025371749927146, 47.21673026865345], [5.02563051959085, 47.21788295827238], [5.025889289254554, 47.219035647891296], [5.026148058918258, 47.22018833751022], [5.026148058918258, 47.22018833751022], [5.027687104739556, 47.22027737959644], [5.029226150560856, 47.22036642168264], [5.030765196382156, 47.22045546376886], [5.032304242203454, 47.22054450585506], [5.0338432880247534, 47.220633547941276], [5.0353823338460515, 47.22072259002748], [5.0369213796673495, 47.220811632113694], [5.038460425488649, 47.220900674199896], [5.039999471309947, 47.22098971628611], [5.041538517131247, 47.221078758372315], [5.041538517131247, 47.221078758372315], [5.043717016558318, 47.22028133633647], [5.0458955159853875, 47.219483914300625], [5.04807401541246, 47.21868649226478], [5.05025251483953, 47.21788907022893], [5.0524310142666025, 47.21709164819308], [5.054609513693672, 47.21629422615723], [5.0567880131207446, 47.215496804121386], [5.058966512547814, 47.214699382085534], [5.061145011974885, 47.2139019600497], [5.063323511401954, 47.21310453801385], [5.063323511401954, 47.21310453801385], [5.064983168721005, 47.20920377617269], [5.066642826040054, 47.205303014331534], [5.068302483359105, 47.201402252490375], [5.069962140678156, 47.19750149064922], [5.0716217979972065, 47.19360072880807], [5.073281455316254, 47.18969996696691], [5.074941112635305, 47.185799205125754], [5.076600769954355, 47.181898443284595], [5.078260427273404, 47.17799768144343], [5.079920084592455, 47.174096919602285], [5.079920084592455, 47.174096919602285], [5.08287011441438, 47.174363646218275], [5.085820144236305, 47.17463037283426], [5.088770174058229, 47.17489709945025], [5.091720203880151, 47.17516382606624], [5.094670233702079, 47.17543055268222], [5.097620263524002, 47.17569727929821], [5.1005702933459265, 47.175964005914196], [5.103520323167851, 47.17623073253018], [5.106470352989776, 47.17649745914618], [5.109420382811699, 47.17676418576216], [5.109420382811699, 47.17676418576216], [5.111470515221315, 47.17667603393759], [5.113520647630933, 47.176587882113026], [5.115570780040549, 47.176499730288455], [5.117620912450166, 47.1764115784639], [5.11967104485978, 47.176323426639335], [5.121721177269398, 47.176235274814765], [5.1237713096790145, 47.1761471229902], [5.125821442088631, 47.17605897116563], [5.127871574498249, 47.17597081934107], [5.129921706907865, 47.17588266751651], [5.129921706907865, 47.17588266751651], [5.130687853346034, 47.17419825836211], [5.131453999784201, 47.17251384920772], [5.132220146222371, 47.17082944005333], [5.132986292660538, 47.16914503089894], [5.133752439098707, 47.167460621744546], [5.134518585536876, 47.16577621259016], [5.135284731975046, 47.16409180343576], [5.136050878413213, 47.162407394281374], [5.13681702485138, 47.16072298512698], [5.137583171289551, 47.159038575972595], [5.137583171289551, 47.159038575972595], [5.137066645811611, 47.157176519779895], [5.13655012033367, 47.15531446358719], [5.13603359485573, 47.153452407394475], [5.135517069377789, 47.151590351201776], [5.135000543899849, 47.14972829500906], [5.134484018421912, 47.14786623881637], [5.13396749294397, 47.146004182623656], [5.133450967466029, 47.14414212643095], [5.132934441988089, 47.14228007023824], [5.13241791651015, 47.14041801404554], [5.13241791651015, 47.14041801404554], [5.129467165114768, 47.13899866767957], [5.126516413719386, 47.1375793213136], [5.123565662324008, 47.13615997494764], [5.1206149109286265, 47.13474062858168], [5.117664159533245, 47.13332128221572], [5.114713408137865, 47.13190193584975], [5.111762656742485, 47.130482589483776], [5.108811905347103, 47.12906324311782], [5.105861153951722, 47.12764389675185], [5.102910402556342, 47.126224550385885], [5.102910402556342, 47.126224550385885], [5.103543090285825, 47.12179155146237], [5.1041757780153105, 47.11735855253886], [5.104808465744794, 47.112925553615355], [5.105441153474278, 47.10849255469184], [5.106073841203763, 47.10405955576833], [5.10670652893325, 47.099626556844825], [5.107339216662734, 47.09519355792131], [5.107971904392217, 47.0907605589978], [5.1086045921217025, 47.08632756007429], [5.109237279851186, 47.08189456115079], [5.109237279851186, 47.08189456115079], [5.1132106436180145, 47.08162956236711], [5.117184007384845, 47.08136456358345], [5.121157371151675, 47.08109956479978], [5.125130734918505, 47.08083456601611], [5.129104098685334, 47.08056956723244], [5.133077462452164, 47.080304568448774], [5.137050826218994, 47.08003956966511], [5.1410241899858224, 47.07977457088144], [5.144997553752653, 47.07950957209777], [5.148970917519481, 47.0792445733141], [5.148970917519481, 47.0792445733141], [5.151756689652199, 47.07605232823697], [5.154542461784917, 47.07286008315982], [5.157328233917635, 47.06966783808269], [5.160114006050355, 47.06647559300554], [5.162899778183071, 47.06328334792841], [5.165685550315789, 47.06009110285126], [5.168471322448507, 47.05689885777413], [5.171257094581225, 47.05370661269698], [5.174042866713943, 47.05051436761985], [5.176828638846663, 47.0473221225427], [5.176828638846663, 47.0473221225427], [5.185619549472557, 47.04947146431885], [5.194410460098451, 47.051620806094995], [5.203201370724347, 47.05377014787114], [5.211992281350243, 47.05591948964728], [5.220783191976137, 47.05806883142343], [5.229574102602031, 47.06021817319957], [5.238365013227927, 47.06236751497572], [5.247155923853825, 47.064516856751865], [5.255946834479717, 47.06666619852801], [5.264737745105613, 47.06881554030414], [5.264737745105613, 47.06881554030414], [5.2577831624422195, 47.072696817043756], [5.250828579778831, 47.07657809378337], [5.24387399711544, 47.08045937052296], [5.236919414452048, 47.08434064726257], [5.229964831788658, 47.08822192400218], [5.223010249125268, 47.09210320074178], [5.216055666461877, 47.09598447748139], [5.209101083798485, 47.099865754221], [5.202146501135092, 47.1037470309606], [5.1951919184717, 47.1076283077002], [5.1951919184717, 47.1076283077002], [5.18944182457707, 47.11835511360767], [5.183691730682439, 47.129081919515144], [5.177941636787807, 47.13980872542261], [5.172191542893174, 47.15053553133008], [5.166441448998546, 47.16126233723755], [5.160691355103912, 47.17198914314501], [5.154941261209281, 47.182715949052486], [5.149191167314649, 47.19344275495995], [5.143441073420018, 47.20416956086742], [5.1376909795253844, 47.21489636677489], [5.1376909795253844, 47.21489636677489], [5.138846695445595, 47.215694620912075], [5.140002411365808, 47.21649287504925], [5.141158127286019, 47.21729112918643], [5.14231384320623, 47.218089383323615], [5.1434695591264425, 47.21888763746079], [5.144625275046657, 47.21968589159797], [5.145780990966868, 47.220484145735156], [5.146936706887081, 47.22128239987233], [5.1480924228072915, 47.22208065400952], [5.149248138727502, 47.22287890814669], [5.149248138727502, 47.22287890814669], [5.1577049730823195, 47.21924583303237], [5.166161807437138, 47.21561275791806], [5.1746186417919535, 47.21197968280374], [5.183075476146772, 47.208346607689414], [5.191532310501588, 47.20471353257509], [5.199989144856405, 47.20108045746077], [5.208445979211223, 47.19744738234645], [5.216902813566039, 47.19381430723214], [5.225359647920856, 47.19018123211781], [5.233816482275673, 47.18654815700349], [5.233816482275673, 47.18654815700349], [5.2365093616649006, 47.186460165585665], [5.239202241054128, 47.18637217416785], [5.241895120443358, 47.18628418275002], [5.244587999832584, 47.18619619133219], [5.247280879221812, 47.18610819991437], [5.249973758611043, 47.186020208496544], [5.252666638000271, 47.18593221707872], [5.255359517389499, 47.1858442256609], [5.258052396778728, 47.18575623424308], [5.2607452761679525, 47.18566824282526], [5.2607452761679525, 47.18566824282526], [5.2617746414949185, 47.187441763539944], [5.262804006821886, 47.18921528425465], [5.263833372148852, 47.19098880496935], [5.264862737475822, 47.19276232568405], [5.265892102802788, 47.19453584639876], [5.266921468129755, 47.19630936711345], [5.267950833456721, 47.19808288782816], [5.268980198783689, 47.19985640854285], [5.270009564110653, 47.20162992925756], [5.271038929437621, 47.20340344997226], [5.271038929437621, 47.20340344997226], [5.27565538243377, 47.203315938609855], [5.280271835429918, 47.20322842724745], [5.284888288426069, 47.20314091588505], [5.289504741422219, 47.20305340452265], [5.294121194418368, 47.202965893160254], [5.298737647414518, 47.20287838179785], [5.303354100410667, 47.20279087043545], [5.3079705534068164, 47.202703359073055], [5.312587006402966, 47.20261584771066], [5.3172034593991135, 47.20252833634826], [5.3172034593991135, 47.20252833634826], [5.319386487158601, 47.20403615458232], [5.3215695149180835, 47.20554397281637], [5.323752542677569, 47.20705179105043], [5.3259355704370535, 47.2085596092845], [5.328118598196539, 47.21006742751856], [5.330301625956029, 47.21157524575262], [5.332484653715513, 47.21308306398669], [5.334667681474999, 47.21459088222075], [5.336850709234483, 47.21609870045481], [5.339033736993969, 47.21760651868887], [5.339033736993969, 47.21760651868887], [5.342305777756572, 47.218183109063304], [5.3455778185191765, 47.21875969943775], [5.348849859281781, 47.21933628981219], [5.352121900044386, 47.21991288018663], [5.355393940806991, 47.22048947056107], [5.358665981569597, 47.2210660609355], [5.361938022332199, 47.22164265130994], [5.365210063094803, 47.222219241684385], [5.36848210385741, 47.22279583205882], [5.371754144620015, 47.223372422433265], [5.371754144620015, 47.223372422433265], [5.371434358291882, 47.22421517879989], [5.37111457196375, 47.225057935166525], [5.3707947856356135, 47.225900691533155], [5.370474999307483, 47.226743447899786], [5.370155212979348, 47.227586204266416], [5.369835426651218, 47.228428960633046], [5.369515640323083, 47.229271716999676], [5.369195853994949, 47.23011447336631], [5.368876067666818, 47.230957229732944], [5.368556281338684, 47.231799986099574], [5.368556281338684, 47.231799986099574], [5.368306487184606, 47.23525671594832], [5.368056693030528, 47.23871344579707], [5.367806898876452, 47.242170175645825], [5.3675571047223745, 47.245626905494575], [5.3673073105682985, 47.24908363534333], [5.367057516414221, 47.252540365192075], [5.366807722260141, 47.255997095040826], [5.366557928106065, 47.25945382488958], [5.366308133951989, 47.26291055473833], [5.366058339797911, 47.26636728458709], [5.366058339797911, 47.26636728458709], [5.369779386640127, 47.26743216933312], [5.373500433482345, 47.26849705407915], [5.377221480324561, 47.26956193882518], [5.380942527166775, 47.27062682357121], [5.384663574008991, 47.27169170831724], [5.388384620851209, 47.27275659306328], [5.392105667693425, 47.27382147780931], [5.395826714535639, 47.27488636255534], [5.399547761377857, 47.275951247301364], [5.403268808220075, 47.27701613204741], [5.403268808220075, 47.27701613204741], [5.4057054848184105, 47.27710540361961], [5.408142161416746, 47.27719467519181], [5.4105788380150805, 47.27728394676401], [5.413015514613415, 47.277373218336216], [5.415452191211751, 47.277462489908416], [5.4178888678100865, 47.277551761480616], [5.420325544408422, 47.277641033052824], [5.4227622210067565, 47.27773030462503], [5.425198897605092, 47.27781957619724], [5.427635574203428, 47.27790884776943], [5.427635574203428, 47.27790884776943], [5.4282819518684615, 47.28056890208029], [5.428928329533491, 47.28322895639115], [5.4295747071985225, 47.285889010702], [5.430221084863554, 47.28854906501285], [5.4308674625285835, 47.29120911932371], [5.4315138401936185, 47.29386917363456], [5.432160217858648, 47.29652922794543], [5.432806595523681, 47.29918928225628], [5.433452973188711, 47.30184933656714], [5.434099350853744, 47.304509390877996], [5.434099350853744, 47.304509390877996], [5.4329489397828965, 47.30645969452729], [5.431798528712051, 47.30840999817659], [5.430648117641201, 47.3103603018259], [5.429497706570356, 47.3123106054752], [5.428347295499506, 47.314260909124506], [5.427196884428659, 47.31621121277381], [5.426046473357813, 47.3181615164231], [5.424896062286967, 47.32011182007241], [5.4237456512161195, 47.322062123721714], [5.42259524014527, 47.32401242737102], [5.42259524014527, 47.32401242737102], [5.4247804925173035, 47.32667286573016], [5.426965744889337, 47.329333304089296], [5.42915099726137, 47.33199374244845], [5.431336249633404, 47.3346541808076], [5.433521502005437, 47.33731461916674], [5.435706754377469, 47.339975057525876], [5.437892006749502, 47.34263549588503], [5.440077259121534, 47.34529593424417], [5.442262511493565, 47.347956372603306], [5.444447763865599, 47.35061681096245], [5.444447763865599, 47.35061681096245], [5.449193647702366, 47.35114997615327], [5.453939531539135, 47.3516831413441], [5.458685415375902, 47.35221630653493], [5.463431299212671, 47.35274947172575], [5.468177183049436, 47.35328263691657], [5.4729230668862066, 47.3538158021074], [5.477668950722974, 47.354348967298215], [5.4824148345597425, 47.35488213248904], [5.48716071839651, 47.35541529767987], [5.491906602233277, 47.35594846287069], [5.491906602233277, 47.35594846287069], [5.491526523683307, 47.35834227062098], [5.491146445133333, 47.360736078371275], [5.490766366583362, 47.36312988612157], [5.490386288033392, 47.36552369387186], [5.490006209483418, 47.36791750162215], [5.489626130933448, 47.37031130937245], [5.489246052383475, 47.37270511712274], [5.488865973833503, 47.375098924873036], [5.488485895283532, 47.37749273262333], [5.48810581673356, 47.37988654037361], [5.48810581673356, 47.37988654037361], [5.490033326191012, 47.38192627015742], [5.491960835648465, 47.38396599994121], [5.493888345105919, 47.386005729725014], [5.4958158545633715, 47.388045459508824], [5.497743364020826, 47.39008518929261], [5.49967087347828, 47.392124919076416], [5.501598382935734, 47.39416464886022], [5.503525892393187, 47.396204378644015], [5.505453401850639, 47.39824410842782], [5.507380911308092, 47.40028383821161], [5.507380911308092, 47.40028383821161], [5.518160813961741, 47.40427637345754], [5.528940716615393, 47.40826890870348], [5.539720619269044, 47.412261443949404], [5.550500521922695, 47.41625397919533], [5.561280424576344, 47.42024651444126], [5.572060327229995, 47.424239049687195], [5.582840229883647, 47.42823158493312], [5.593620132537296, 47.43222412017905], [5.604400035190945, 47.43621665542498], [5.615179937844596, 47.440209190670906], [5.615179937844596, 47.440209190670906], [5.615311079923202, 47.44171649682742], [5.615442222001803, 47.443223802983944], [5.615573364080408, 47.444731109140456], [5.615704506159011, 47.446238415296975], [5.6158356482376135, 47.44774572145349], [5.615966790316218, 47.449253027610006], [5.616097932394823, 47.45076033376652], [5.616229074473425, 47.452267639923036], [5.61636021655203, 47.45377494607955], [5.616491358630634, 47.45528225223607], [5.616491358630634, 47.45528225223607], [5.617654090648751, 47.45971569923236], [5.618816822666867, 47.464149146228664], [5.619979554684983, 47.46858259322496], [5.621142286703101, 47.47301604022126], [5.622305018721219, 47.477449487217555], [5.623467750739337, 47.48188293421385], [5.624630482757455, 47.48631638121015], [5.625793214775573, 47.490749828206454], [5.626955946793689, 47.49518327520275], [5.628118678811806, 47.49961672219904], [5.628118678811806, 47.49961672219904], [5.632091871453783, 47.49926305990812], [5.636065064095757, 47.49890939761719], [5.640038256737732, 47.498555735326256], [5.644011449379708, 47.498202073035316], [5.647984642021681, 47.49784841074439], [5.65195783466366, 47.49749474845346], [5.655931027305636, 47.49714108616253], [5.6599042199476095, 47.496787423871595], [5.663877412589585, 47.49643376158067], [5.667850605231562, 47.49608009928974], [5.667850605231562, 47.49608009928974], [5.670162379321692, 47.49785393457863], [5.672474153411825, 47.49962776986751], [5.674785927501956, 47.501401605156396], [5.677097701592087, 47.50317544044529], [5.679409475682217, 47.50494927573417], [5.681721249772352, 47.50672311102306], [5.684033023862483, 47.50849694631195], [5.686344797952614, 47.510270781600845], [5.688656572042747, 47.51204461688973], [5.690968346132877, 47.51381845217862], [5.690968346132877, 47.51381845217862], [5.686359727774308, 47.517186502746185], [5.681751109415739, 47.52055455331376], [5.67714249105717, 47.523922603881324], [5.672533872698603, 47.52729065444889], [5.667925254340032, 47.53065870501646], [5.663316635981461, 47.53402675558403], [5.658708017622894, 47.537394806151596], [5.654099399264323, 47.540762856719155], [5.649490780905756, 47.54413090728673], [5.6448821625471854, 47.547498957854295], [5.6448821625471854, 47.547498957854295], [5.646170426618873, 47.55131179192703], [5.647458690690561, 47.55512462599975], [5.648746954762251, 47.55893746007248], [5.650035218833938, 47.56275029414521], [5.6513234829056245, 47.566563128217936], [5.652611746977312, 47.57037596229066], [5.653900011049, 47.574188796363394], [5.65518827512069, 47.57800163043612], [5.6564765391923775, 47.581814464508845], [5.657764803264065, 47.58562729858157]]]}}, {"type": "Feature", "properties": {"diocese": "Dijon", "province": "X_Lyon", "source": "65_Dijon.txt"}, "geometry": {"type": "Polygon", "coordinates": [[[5.169958634049594, 47.322176108985886], [5.173035870089032, 47.321910886560666], [5.176113106128472, 47.32164566413546], [5.179190342167914, 47.32138044171024], [5.1822675782073535, 47.321115219285026], [5.185344814246793, 47.32084999685981], [5.188422050286233, 47.32058477443459], [5.191499286325675, 47.32031955200938], [5.194576522365114, 47.320054329584174], [5.197653758404554, 47.319789107158954], [5.200730994443992, 47.319523884733734], [5.200730994443992, 47.319523884733734], [5.200853751436412, 47.31668669544237], [5.200976508428836, 47.313849506151], [5.201099265421259, 47.31101231685963], [5.201222022413678, 47.30817512756826], [5.201344779406099, 47.3053379382769], [5.201467536398521, 47.30250074898553], [5.201590293390941, 47.29966355969416], [5.201713050383363, 47.2968263704028], [5.201835807375785, 47.29398918111143], [5.201958564368205, 47.29115199182006], [5.201958564368205, 47.29115199182006], [5.205160439773461, 47.28902487868338], [5.208362315178718, 47.2868977655467], [5.2115641905839745, 47.28477065241001], [5.214766065989231, 47.28264353927333], [5.2179679413944875, 47.28051642613664], [5.221169816799744, 47.27838931299996], [5.2243716922050005, 47.276262199863275], [5.227573567610259, 47.274135086726595], [5.230775443015514, 47.27200797358991], [5.23397731842077, 47.26988086045323], [5.23397731842077, 47.26988086045323], [5.232691831468671, 47.26828566927003], [5.23140634451657, 47.26669047808684], [5.23012085756447, 47.265095286903644], [5.228835370612371, 47.26350009572046], [5.22754988366027, 47.26190490453727], [5.226264396708167, 47.26030971335407], [5.22497890975607, 47.258714522170884], [5.223693422803969, 47.2571193309877], [5.222407935851869, 47.2555241398045], [5.221122448899768, 47.25392894862131], [5.221122448899768, 47.25392894862131], [5.214710655263339, 47.25401601193066], [5.208298861626908, 47.25410307524002], [5.201887067990478, 47.25419013854937], [5.195475274354047, 47.25427720185873], [5.189063480717616, 47.25436426516808], [5.1826516870811865, 47.25445132847743], [5.176239893444755, 47.25453839178679], [5.169828099808324, 47.25462545509614], [5.163416306171893, 47.25471251840549], [5.1570045125354635, 47.25479958171484], [5.1570045125354635, 47.25479958171484], [5.154316593687453, 47.25745773738289], [5.1516286748394435, 47.26011589305093], [5.148940755991433, 47.262774048718974], [5.146252837143422, 47.26543220438702], [5.143564918295413, 47.26809036005505], [5.1408769994474035, 47.27074851572309], [5.138189080599394, 47.27340667139113], [5.13550116175138, 47.27606482705918], [5.132813242903371, 47.27872298272722], [5.130125324055362, 47.281381138395254], [5.130125324055362, 47.281381138395254], [5.130130457779872, 47.28404103267448], [5.130135591504384, 47.2867009269537], [5.130140725228895, 47.28936082123291], [5.130145858953403, 47.29202071551214], [5.130150992677915, 47.29468060979136], [5.130156126402426, 47.297340504070576], [5.130161260126938, 47.300000398349795], [5.130166393851447, 47.30266029262901], [5.130171527575957, 47.30532018690823], [5.130176661300469, 47.307980081187445], [5.130176661300469, 47.307980081187445], [5.1341548585753785, 47.30939968396729], [5.138133055850293, 47.31081928674714], [5.142111253125206, 47.31223888952698], [5.146089450400119, 47.31365849230682], [5.15006764767503, 47.31507809508666], [5.154045844949943, 47.31649769786651], [5.158024042224854, 47.31791730064635], [5.162002239499769, 47.3193369034262], [5.1659804367746816, 47.320756506206045], [5.169958634049594, 47.322176108985886]]]}}, {"type": "Feature", "properties": {"diocese": "Dijon", "province": "X_Lyon", "source": "65_Dijon.txt"}, "geometry": {"type": "Polygon", "coordinates": [[[4.973636116679428, 47.2547538194977], [4.97632488909327, 47.25253791484425], [4.9790136615071106, 47.250322010190786], [4.981702433920953, 47.24810610553732], [4.984391206334793, 47.245890200883856], [4.987079978748637, 47.243674296230395], [4.989768751162481, 47.24145839157693], [4.992457523576322, 47.23924248692347], [4.995146295990164, 47.23702658227001], [4.9978350684040045, 47.23481067761654], [5.0005238408178485, 47.23259477296308], [5.0005238408178485, 47.23259477296308], [5.0000062094834625, 47.230200735707044], [4.9994885781490765, 47.22780669845102], [4.998970946814691, 47.225412661194994], [4.998453315480308, 47.22301862393896], [4.997935684145924, 47.22062458668294], [4.997418052811536, 47.21823054942691], [4.996900421477152, 47.215836512170874], [4.996382790142768, 47.21344247491485], [4.995865158808382, 47.21104843765882], [4.995347527473998, 47.20865440040279], [4.995347527473998, 47.20865440040279], [4.992014167750986, 47.20909688583777], [4.988680808027972, 47.20953937127276], [4.98534744830496, 47.20998185670774], [4.982014088581948, 47.21042434214272], [4.978680728858938, 47.21086682757771], [4.975347369135925, 47.21130931301269], [4.972014009412913, 47.21175179844768], [4.968680649689901, 47.21219428388267], [4.965347289966889, 47.21263676931765], [4.9620139302438755, 47.21307925475263], [4.9620139302438755, 47.21307925475263], [4.959068863021608, 47.215383758908594], [4.956123795799341, 47.21768826306457], [4.953178728577074, 47.21999276722053], [4.950233661354805, 47.2222972713765], [4.947288594132537, 47.22460177553246], [4.944343526910268, 47.226906279688436], [4.941398459687999, 47.2292107838444], [4.938453392465732, 47.231515288000374], [4.935508325243465, 47.23381979215634], [4.932563258021197, 47.23612429631231], [4.932563258021197, 47.23612429631231], [4.933206989716652, 47.23745440346382], [4.933850721412107, 47.238784510615325], [4.934494453107563, 47.24011461776683], [4.935138184803018, 47.241444724918324], [4.935781916498476, 47.24277483206983], [4.93642564819393, 47.24410493922133], [4.937069379889383, 47.24543504637284], [4.937713111584841, 47.24676515352434], [4.938356843280296, 47.248095260675846], [4.939000574975752, 47.24942536782735], [4.939000574975752, 47.24942536782735], [4.942464129146121, 47.249958212994386], [4.945927683316485, 47.25049105816142], [4.949391237486855, 47.25102390332845], [4.952854791657222, 47.25155674849549], [4.956318345827592, 47.25208959366253], [4.959781899997957, 47.25262243882956], [4.963245454168327, 47.2531552839966], [4.966709008338693, 47.253688129163635], [4.970172562509061, 47.25422097433067], [4.973636116679428, 47.2547538194977]]]}}]}