{
"type": "FeatureCollection",
"name": "Meten",
"crs": { "type": "name", "properties": { "name": "urn:ogc:def:crs:OGC:1.3:CRS84" } },
"features": [
{ "type": "Feature", "properties": { }, "geometry": { "type": "MultiPolygon", "coordinates": [ [ [ [ 5.488935794315724, 49.607027063598863 ], [ 5.573562394133146, 48.386451104693741 ], [ 6.955497245063871, 48.53767590244756 ], [ 7.158859332000077, 48.518948843000032 ], [ 7.245045297000047, 48.57284762900008 ], [ 7.266595747000054, 48.608748941000044 ], [ 7.223291456000027, 48.602690721000045 ], [ 7.196740507000072, 48.655621339000049 ], [ 7.224422584000024, 48.711179193000078 ], [ 7.220515073000058, 48.746767356000078 ], [ 7.185546680000073, 48.747759205000079 ], [ 7.169976710000071, 48.776367992000075 ], [ 7.150750078000044, 48.774819200000081 ], [ 7.14884096000003, 48.79365247000004 ], [ 7.201483440000061, 48.794259414000066 ], [ 7.203203651000024, 48.81925112700003 ], [ 7.223168942000029, 48.831204677000073 ], [ 7.225333961000047, 48.862441889000081 ], [ 7.143765500000029, 48.883515779000049 ], [ 7.181157323000036, 48.939848896000058 ], [ 7.262677690000032, 48.962571196000056 ], [ 7.312711282000066, 48.946517347000054 ], [ 7.38799898700006, 48.94847158500005 ], [ 7.448489711000036, 48.966477414000053 ], [ 7.494847647000029, 49.008885 ], [ 7.639897202000043, 49.041912977000038 ], [ 7.637364474000037, 49.071208450000029 ], [ 7.730874898000025, 49.118281348000039 ], [ 7.777852693000057, 49.163695755000049 ], [ 7.748832809000021, 49.182384888000058 ], [ 7.748374515000023, 49.216829339000071 ], [ 7.728938201000062, 49.23519748800004 ], [ 7.734914224000022, 49.249609550000059 ], [ 7.775444444000073, 49.25350105800004 ], [ 7.738263704000076, 49.271409317000064 ], [ 7.677231977000076, 49.252513720000081 ], [ 7.60326040700005, 49.294500314000061 ], [ 7.553490193000073, 49.275189651000062 ], [ 7.517743544000041, 49.291937492000045 ], [ 7.501215687000069, 49.328950403000078 ], [ 7.431266113000049, 49.341493944000035 ], [ 7.410140434000027, 49.382799066000075 ], [ 7.329121254000029, 49.354935873000045 ], [ 7.29938377600007, 49.367268237000076 ], [ 7.263159661000032, 49.447559474000059 ], [ 7.237161405000052, 49.445169159000045 ], [ 7.193189080000025, 49.486025748000031 ], [ 7.134001374000036, 49.470977333000064 ], [ 5.488935794315724, 49.607027063598863 ] ] ] ] } }
]
}
