{
    "type": "FeatureCollection",
    "features": [
        {
            "type": "Feature",
            "properties": {
                "diocese": "Tullen",
                "province": "Treviren",
                "date": 1592
            },
            "geometry": {
                "type": "Polygon",
                "coordinates": [
                    [
                        [
                            7.144265008542596,
                            49.51363077482365
                        ],
                        [
                            7.244625273504065,
                            49.55088428637547
                        ],
                        [
                            7.216103706526273,
                            49.587878283551206
                        ],
                        [
                            7.365841934527336,
                            49.654858459136264
                        ],
                        [
                            7.362276738545704,
                            49.71713655885642
                        ],
                        [
                            7.201842922545066,
                            49.71944162280514
                        ],
                        [
                            7.155495375522326,
                            49.770125355819005
                        ],
                        [
                            7.201842922545066,
                            49.83225576066094
                        ],
                        [
                            7.180451746518512,
                            49.95857115048041
                        ],
                        [
                            7.255320861531019,
                            49.99067137395998
                        ],
                        [
                            7.255320861531019,
                            50.05938547390868
                        ],
                        [
                            7.45853702851811,
                            50.089131061499394
                        ],
                        [
                            7.469232615533038,
                            50.12571568598149
                        ],
                        [
                            7.594014472510613,
                            50.130286798924445
                        ],
                        [
                            7.6474924115513225,
                            50.082268332584164
                        ],
                        [
                            8.110967880520418,
                            50.26038004629771
                        ],
                        [
                            8.246445325524922,
                            50.21477365882587
                        ],
                        [
                            8.385487965526409,
                            50.25582137136186
                        ],
                        [
                            8.463922276520522,
                            50.32643182658579
                        ],
                        [
                            8.442531100521347,
                            50.38784589997983
                        ],
                        [
                            8.553052173545042,
                            50.45826039637317
                        ],
                        [
                            8.631486484511829,
                            50.4355574815643
                        ],
                        [
                            8.795485496521527,
                            50.62139997633906
                        ],
                        [
                            8.617225700503269,
                            50.68243188406085
                        ],
                        [
                            8.446096296530357,
                            50.86730220267266
                        ],
                        [
                            8.324879635507084,
                            50.869552209675064
                        ],
                        [
                            8.192967387550945,
                            50.80876389370921
                        ],
                        [
                            7.925577692511542,
                            50.88754835766219
                        ],
                        [
                            7.911316909514932,
                            50.919024892668496
                        ],
                        [
                            7.857838971540955,
                            50.91452954766682
                        ],
                        [
                            7.847143383514002,
                            50.82227925171037
                        ],
                        [
                            7.797230640536983,
                            50.79975148173333
                        ],
                        [
                            7.800795836518615,
                            50.7343594968886
                        ],
                        [
                            7.889925734527808,
                            50.718561528933456
                        ],
                        [
                            7.897056125533751,
                            50.650795608190414
                        ],
                        [
                            7.800795836518615,
                            50.619138013352355
                        ],
                        [
                            7.693839958546684,
                            50.69598376299875
                        ],
                        [
                            7.611840452528158,
                            50.67791372106696
                        ],
                        [
                            7.579753689514003,
                            50.62366183232053
                        ],
                        [
                            7.462102224527095,
                            50.605563944421
                        ],
                        [
                            7.394363502517155,
                            50.63044674428225
                        ],
                        [
                            7.269581645512303,
                            50.605563944421
                        ],
                        [
                            7.308798799532399,
                            50.56028875967325
                        ],
                        [
                            7.290972820526805,
                            50.519503870938294
                        ],
                        [
                            6.998626755530647,
                            50.403755098844904
                        ],
                        [
                            6.927322837511747,
                            50.3150501306953
                        ],
                        [
                            6.9772355795040415,
                            50.230740857636626
                        ],
                        [
                            6.902366465530888,
                            50.13257219189788
                        ],
                        [
                            6.795410588516228,
                            50.109713351199794
                        ],
                        [
                            6.652802752533109,
                            50.15998839452866
                        ],
                        [
                            6.574368441511566,
                            50.27633197512178
                        ],
                        [
                            6.48523854451445,
                            50.33098374253707
                        ],
                        [
                            6.396108645520711,
                            50.30821980478026
                        ],
                        [
                            6.3889782535027155,
                            50.22617934668521
                        ],
                        [
                            6.3176743365231705,
                            50.230740857636626
                        ],
                        [
                            6.207153262514826,
                            50.187388883170655
                        ],
                        [
                            6.217848849502451,
                            50.10514027326675
                        ],
                        [
                            6.192892479518242,
                            50.045650517118645
                        ],
                        [
                            6.125153756523678,
                            50.013586996608744
                        ],
                        [
                            6.021763075517977,
                            50.02733112639506
                        ],
                        [
                            6.0110674875183765,
                            49.96545157235885
                        ],
                        [
                            5.779329752541517,
                            49.88511878471442
                        ],
                        [
                            5.772199360496195,
                            49.834555354619404
                        ],
                        [
                            5.63672191653102,
                            49.78624089451655
                        ],
                        [
                            5.501244471526566,
                            49.89660309451176
                        ],
                        [
                            5.22672438652055,
                            49.873631741906195
                        ],
                        [
                            5.1696812515256125,
                            49.813855062986235
                        ],
                        [
                            5.0933739154006,
                            49.76638974675625
                        ],
                        [
                            5.0992228275363,
                            49.76698638428204
                        ],
                        [
                            5.10597258152907,
                            49.76678101145234
                        ],
                        [
                            5.1121670119065525,
                            49.76567041336945
                        ],
                        [
                            5.117171000194239,
                            49.76285338298877
                        ],
                        [
                            5.121141710228211,
                            49.75799481337838
                        ],
                        [
                            5.123821068916876,
                            49.755927201946555
                        ],
                        [
                            5.126852638472518,
                            49.75330319577069
                        ],
                        [
                            5.128871287713435,
                            49.75089605417003
                        ],
                        [
                            5.131355361246002,
                            49.747257811413064
                        ],
                        [
                            5.133759173501716,
                            49.7424031314469
                        ],
                        [
                            5.13600589165791,
                            49.73396229095773
                        ],
                        [
                            5.13421054629527,
                            49.66414524828865
                        ],
                        [
                            5.101420631384128,
                            49.64502618484642
                        ],
                        [
                            5.059000097797864,
                            49.639629124240784
                        ],
                        [
                            5.059206227369031,
                            49.61749124527722
                        ],
                        [
                            5.083367176194506,
                            49.60784399074384
                        ],
                        [
                            5.100018411677979,
                            49.581226072888526
                        ],
                        [
                            5.1203834514127164,
                            49.56975143991962
                        ],
                        [
                            5.125976298886777,
                            49.54236737458537
                        ],
                        [
                            5.141294452337736,
                            49.52026664441573
                        ],
                        [
                            5.127053879493431,
                            49.48741595904289
                        ],
                        [
                            5.098807791690011,
                            49.49643906804666
                        ],
                        [
                            5.078519842322643,
                            49.5147986021996
                        ],
                        [
                            5.056631194253066,
                            49.51748899590471
                        ],
                        [
                            5.0463219203666485,
                            49.49075511305914
                        ],
                        [
                            5.05105844834679,
                            49.45885199785658
                        ],
                        [
                            5.0936370209316815,
                            49.46085267578659
                        ],
                        [
                            5.129030177805315,
                            49.437773991857966
                        ],
                        [
                            5.195360389907462,
                            49.419140280834725
                        ],
                        [
                            5.233176969880552,
                            49.42271641756681
                        ],
                        [
                            5.308878188039804,
                            49.38261544414028
                        ],
                        [
                            5.408931843216206,
                            49.41481207801557
                        ],
                        [
                            5.4694097422625285,
                            49.38186756807619
                        ],
                        [
                            5.514308558655091,
                            49.37301527593538
                        ],
                        [
                            5.554002403033817,
                            49.37935898712172
                        ],
                        [
                            5.600171802445547,
                            49.35531171288372
                        ],
                        [
                            5.636358891146748,
                            49.341267711736236
                        ],
                        [
                            5.706394176838908,
                            49.34388838148315
                        ],
                        [
                            5.731866927508267,
                            49.3280021409305
                        ],
                        [
                            5.743671760157032,
                            49.32876909554117
                        ],
                        [
                            5.776190958112679,
                            49.304845741847366
                        ],
                        [
                            5.82766223412087,
                            49.29833934499778
                        ],
                        [
                            5.842159192438704,
                            49.28656755368218
                        ],
                        [
                            5.854031037223968,
                            49.256937895426105
                        ],
                        [
                            5.923712983545477,
                            49.25843858687989
                        ],
                        [
                            5.894386577547108,
                            49.28604514492971
                        ],
                        [
                            5.909042464533591,
                            49.326442429613586
                        ],
                        [
                            5.917911623466423,
                            49.325663959707605
                        ],
                        [
                            5.968358664533549,
                            49.321235853197976
                        ],
                        [
                            6.0509203725419365,
                            49.36560354948367
                        ],
                        [
                            6.085982677518545,
                            49.458754889259744
                        ],
                        [
                            6.1351661935063415,
                            49.474501367109916
                        ],
                        [
                            6.227040828523319,
                            49.47167235150572
                        ],
                        [
                            6.233148206533439,
                            49.4329868065716
                        ],
                        [
                            6.300284262514351,
                            49.421208699337356
                        ],
                        [
                            6.282881200537442,
                            49.39654820071592
                        ],
                        [
                            6.299835969526905,
                            49.381609396714055
                        ],
                        [
                            6.30446618151735,
                            49.315843012261944
                        ],
                        [
                            6.368443638536388,
                            49.33848803621475
                        ],
                        [
                            6.3850746835331815,
                            49.31832977378274
                        ],
                        [
                            6.4604057545304965,
                            49.34172842675606
                        ],
                        [
                            6.581743513508537,
                            49.32337997160993
                        ],
                        [
                            6.59167742653443,
                            49.30021642500032
                        ],
                        [
                            6.627849363536193,
                            49.285826598503064
                        ],
                        [
                            6.664546294520106,
                            49.307905436956865
                        ],
                        [
                            6.715520531510594,
                            49.272286928796234
                        ],
                        [
                            6.722779021520534,
                            49.23249082145075
                        ],
                        [
                            6.695178205526357,
                            49.20082851187802
                        ],
                        [
                            6.737385257505345,
                            49.15497519217415
                        ],
                        [
                            6.773843705514294,
                            49.17389909694689
                        ],
                        [
                            6.757664023520595,
                            49.198278882506806
                        ],
                        [
                            6.774210370504308,
                            49.20621651784577
                        ],
                        [
                            6.82490232452856,
                            49.220605018389655
                        ],
                        [
                            6.904256992511388,
                            49.20504379789887
                        ],
                        [
                            6.899675307522301,
                            49.25938626939614
                        ],
                        [
                            6.923086232521642,
                            49.273385332916305
                        ],
                        [
                            6.946302385508808,
                            49.259229877808174
                        ],
                        [
                            7.038119154516244,
                            49.30999761351246
                        ],
                        [
                            7.0514467025082075,
                            49.34092500584571
                        ],
                        [
                            7.011864436530329,
                            49.35136225163195
                        ],
                        [
                            7.035464309527025,
                            49.39140257113513
                        ],
                        [
                            6.978584618539412,
                            49.38455976301096
                        ],
                        [
                            6.9664688435007625,
                            49.42136928791788
                        ],
                        [
                            7.017289146546921,
                            49.433591155995906
                        ],
                        [
                            7.032154517518727,
                            49.414429662035474
                        ],
                        [
                            7.101970099533901,
                            49.44487995850785
                        ],
                        [
                            7.154134680525599,
                            49.47577750376958
                        ],
                        [
                            7.144265008542596,
                            49.51363077482365
                        ]
                    ]
                ]
            }
        }
    ]
}