{"type": "FeatureCollection", "name": "Liège", "crs": {"type": "name", "properties": {"name": "urn:ogc:def:crs:OGC:1.3:CRS84"}}, "features": [{"type": "Feature", "properties": {}, "geometry": {"type": "MultiPolygon", "coordinates": [[[[4.758509720647046, 50.304483094777765], [4.718370456242074, 50.31613496434099], [4.730533869698126, 50.340206447551836], [4.785269230250364, 50.31691165412845], [4.758509720647046, 50.304483094777765]]], [[[4.923932143649365, 50.344864035953584], [4.933662874414207, 50.3572820388357], [4.99447994169447, 50.362713893869376], [5.009076037841733, 50.35184956219499], [4.923932143649365, 50.344864035953584]]], [[[4.799865326397627, 50.41854832952068], [4.779187523522337, 50.42319823153816], [4.777971182176732, 50.44489173869244], [4.801081667743232, 50.458832315747664], [4.827841177346549, 50.458832315747664], [4.827841177346549, 50.43404622769461], [4.799865326397627, 50.41854832952068]]], [[[5.344311849746501, 51.16436157018772], [5.482838976831231, 51.28318061655851], [5.5310223254306985, 51.30295397634129], [5.562642647868861, 51.30012973201997], [5.601791618619784, 51.267167373465426], [5.60028588894136, 51.22663837188616], [5.711709882543942, 51.19645407137663], [5.796030742553412, 51.21060542578619], [5.889385980363845, 51.248321117898705], [5.880351602515301, 51.278471418517974], [5.91498338429441, 51.31895474527902], [6.0520047817800515, 51.28223881555965], [6.045981863177317, 51.223809434193846], [6.012855811060832, 51.21815103715118], [6.003821433164681, 51.19079231218933], [6.018878729631761, 51.1690824568588], [6.005327162858983, 51.1624730801956], [5.961661003215478, 51.181354500857246], [5.913477654615986, 51.17191475693897], [5.851742739291321, 51.11239991997758], [5.87131722460335, 51.10010952948447], [5.844214091105324, 51.089707415609936], [5.845719820767922, 51.06227244326577], [5.866800035726646, 51.071734616061754], [5.877340143253564, 51.087815870772886], [5.892397439641384, 51.09159888311723], [5.957143814291219, 51.06605754449133], [5.960155273616313, 51.048075557087664], [5.9812354885592365, 51.035768068058644], [6.005327162858983, 51.04334229438668], [6.02038445927843, 51.0745728907011], [6.076096456032191, 51.09632721336457], [6.133314182527759, 51.13130183210972], [6.214623583132824, 51.15397391848194], [6.195049097868351, 51.16719416016426], [6.106211048902918, 51.14452856909269], [6.042970403899778, 51.15114051662681], [6.035441755650399, 51.174746883058525], [6.061039159660249, 51.1690824568588], [6.0640506189061085, 51.17946670671757], [6.046964828414407, 51.18292550248058], [6.029235197235925, 51.21995585662069], [6.0449948693963345, 51.22304037586719], [6.067649398072418, 51.20761571272371], [6.094243844863932, 51.201444400553875], [6.110003517024367, 51.20823279843561], [6.110988496517551, 51.18230807769941], [6.12576318916895, 51.16995784528824], [6.209486447436869, 51.18971662925953], [6.235095914687668, 51.16995784528824], [6.267600238469942, 51.16007527743319], [6.3198041525280315, 51.162546117878904], [6.323744070580054, 51.179838295883535], [6.279419992530773, 51.1977412163471], [6.279419992530773, 51.217488092421306], [6.249870607307337, 51.238459871779845], [6.130688086714081, 51.229208794233784], [6.116898373555893, 51.244009625494414], [6.165162369514454, 51.26805082157103], [6.201606611348725, 51.31732675857374], [6.163192410464677, 51.3345608441798], [6.190771836717646, 51.35055812487527], [6.236080894228408, 51.33394545262221], [6.269570197488015, 51.315479865240306], [6.267600238469942, 51.308091548434845], [6.300104562299798, 51.30932301716778], [6.311924316408184, 51.29762272972512], [6.321774111546155, 51.262503969058315], [6.334578845116048, 51.25757287146454], [6.341739992624342, 51.23277511315589], [6.377115356208666, 51.20992667429182], [6.362744114794179, 51.180137447450235], [6.392592077701464, 51.18221639061276], [6.450077043518059, 51.15656953872489], [6.4710811655292755, 51.133683285208946], [6.455604444020601, 51.09412575213429], [6.4014359186134095, 51.09412575213429], [6.399224958409207, 51.10176229905638], [6.341739992624342, 51.10384477478293], [6.3229468308648835, 51.0885711075557], [6.3317906716816665, 51.071208542989], [6.3572167141964755, 51.04480496446857], [6.34395095290788, 51.02394939744763], [6.305259149025165, 51.021863324515095], [6.249985143476256, 51.04827997977819], [6.220137180537242, 51.054534350397454], [6.233402941873368, 51.032987962207216], [6.201344018682596, 50.97594596792055], [6.172601535853596, 50.966200080325414], [6.1151165701638925, 50.89931603618398], [6.13280425187677, 50.87002401631618], [6.1261713712483115, 50.84420388134872], [6.143859052945337, 50.82884459096604], [6.140542612615269, 50.805097562260414], [6.15159741376312, 50.79601462470044], [6.154117240211614, 50.78344119365541], [6.126865815778558, 50.771314946518316], [6.120809943611817, 50.750884685805815], [6.159163800239513, 50.72661216492622], [6.203573528970468, 50.68570368980614], [6.217315707035844, 50.65206502862489], [6.197188176506329, 50.63504672133989], [6.234088649233575, 50.576499274379465], [6.215638412885816, 50.55412557470067], [6.175383351747501, 50.54133583358615], [6.161964998103455, 50.5200118884446], [6.091518641075833, 50.51147961166019], [6.036167932111665, 50.4922763498912], [6.0462316973447185, 50.45491431961199], [6.0059766362064035, 50.44102947307554], [6.0110085188150295, 50.3950736432421], [6.054618168443648, 50.3694044887906], [6.052940874198509, 50.34586222541306], [6.0110085188150295, 50.326591688811206], [6.037845226245815, 50.30731333483797], [6.103259700569827, 50.32980398778918], [6.1904789997477, 50.29017045666334], [6.26763453347062, 50.28052487274167], [6.3145987714785266, 50.31266921735961], [6.341435478909337, 50.3083845595848], [6.395396707007966, 50.30862835984645], [6.391214299900532, 50.269145173671724], [6.387243438180844, 50.226752257591635], [6.318029932828833, 50.23064497146084], [6.206580911513063, 50.18727604053487], [6.2174755302333855, 50.10594708686076], [6.191394783858197, 50.04578382192417], [6.126475981793675, 50.01379153164964], [6.021130984665784, 50.02773479272976], [6.009509660527088, 49.965475442577024], [5.778054688656892, 49.884625411558936], [5.769815396762724, 49.835009305310386], [5.636621083536204, 49.78615822909783], [5.499916847249934, 49.89754702353259], [5.224698254713177, 49.87399395897684], [5.16677134150014, 49.813016450118], [5.088063260097202, 49.76604900297156], [5.078991257302924, 49.76554945280343], [5.072335227071592, 49.7660758411435], [5.066466229829666, 49.768370106226605], [5.061967455044179, 49.772553735418214], [5.05413875576505, 49.772497501254534], [5.046959686097478, 49.77331869293849], [5.0402785641091805, 49.77536430810491], [5.03408443424488, 49.77781925182686], [5.027957804740109, 49.7812434589423], [5.016637696565168, 49.79043152588732], [5.006246480646146, 49.8013794536609], [4.990314314256654, 49.80177331572839], [4.981635623931623, 49.801381329526606], [4.972194005792879, 49.80011555603284], [4.966240695599816, 49.798530909080945], [4.962137167611643, 49.79700452597461], [4.951504632711677, 49.791419831925545], [4.944221097990774, 49.78903754792387], [4.936126616166108, 49.78796989593301], [4.928829621742487, 49.788013937536746], [4.921065820347555, 49.788625973436126], [4.913374945678988, 49.789905728032466], [4.892737336191585, 49.794215577092444], [4.881785818190044, 49.79582963783228], [4.876170870158945, 49.793440653781715], [4.872156146918348, 49.79301657648106], [4.8696881502911475, 49.79395817541963], [4.868883317463898, 49.79611758778054], [4.869043975375065, 49.79902004471071], [4.871716899526988, 49.80529764313521], [4.879740009107777, 49.81759162373733], [4.880445125325386, 49.82616951066271], [4.876231654953977, 49.83940625752562], [4.868860309425146, 49.849947926077114], [4.861058862587715, 49.85906985948321], [4.868812725575347, 49.87131440963212], [4.87883387171067, 49.88242809234673], [4.883603374921114, 49.89108232146915], [4.891242128252001, 49.900663629181096], [4.891236467127026, 49.909688278176745], [4.883565495815755, 49.9222923073325], [4.86468277866227, 49.93669388876786], [4.809510230651538, 49.959506703098334], [4.819078534538547, 49.99972091591207], [4.764060786966051, 50.006529830474896], [4.736039325423996, 50.02804844308761], [4.662152154483739, 49.993237048604826], [4.644365629997859, 50.00347942281982], [4.621761921794983, 49.982992492446954], [4.554691902234685, 49.964880498178964], [4.546942068092258, 49.96039337490078], [4.533226580307678, 49.951167473210766], [4.525676891548432, 49.94776107884254], [4.520837958505572, 49.94607066202811], [4.514024837889658, 49.94518582155989], [4.508539463000595, 49.94520732864092], [4.480702870197703, 49.939741521866495], [4.469147211257086, 49.9382919909677], [4.459817725575885, 49.93828444884899], [4.452557842158425, 49.93926700904021], [4.446118247751212, 49.9409982774105], [4.441763229134898, 49.94282815040778], [4.435386740574248, 49.945076496234485], [4.4303985406759505, 49.9462458142274], [4.4229403808288055, 49.947146791104544], [4.401663959324747, 49.948136978775096], [4.3959837311408725, 49.94898054968357], [4.390524712572888, 49.95043540289571], [4.38558101674192, 49.9523535761563], [4.380346630607535, 49.95158998909787], [4.370750746356083, 49.951742247725534], [4.363854318009649, 49.95294595053071], [4.356866146499792, 49.95510065683409], [4.347735893410187, 49.95979904625075], [4.34215172313042, 49.963798082881695], [4.334537550568072, 49.965992976560436], [4.3266937166555195, 49.967271956800225], [4.317718490275248, 49.96776547010165], [4.304768978960162, 49.96737327105521], [4.266329375268739, 49.96364206348664], [4.257312533874217, 49.963400082933504], [4.235854669207848, 49.96024152730274], [4.230441256029008, 49.959696620241765], [4.224217953403096, 49.959588768236365], [4.215768665080753, 49.96046956095653], [4.211921475024422, 49.9615769061772], [4.209989151444834, 49.96225573462763], [4.20735525897167, 49.96367461388794], [4.205518410309651, 49.964924736913886], [4.203719578808731, 49.966515705026694], [4.201928348967161, 49.968542087856825], [4.200262359037003, 49.970918105060605], [4.19749168607592, 49.97407714657206], [4.194054847061219, 49.97610998927599], [4.190340864171251, 49.977265806204144], [4.186464111447406, 49.977909935631786], [4.182055963183229, 49.978166058225774], [4.177459057325069, 49.97815842368819], [4.169301743417716, 49.97803238857155], [4.165574308340986, 49.97825866807582], [4.162307527839291, 49.9789464304535], [4.159478059570204, 49.97971907635812], [4.158526174122971, 49.980191970180485], [4.1579066364598924, 49.980776741115406], [4.161634321276982, 49.98468606929441], [4.16583851660475, 49.99026206352164], [4.167695395207496, 49.99406614077088], [4.168228058589569, 49.99808560913541], [4.167324597161151, 50.00078613907456], [4.165177489201887, 50.00356546774308], [4.1617335448212085, 50.006432926982924], [4.157073505429196, 50.008720082085205], [4.154559507973546, 50.012505712327105], [4.153528167479616, 50.01635756467101], [4.153861737911607, 50.020104559450964], [4.155906711469539, 50.02539290605112], [4.1603536793972085, 50.03141111652183], [4.167876375171125, 50.03824363055155], [4.175467244638428, 50.043314345026154], [4.182045418047822, 50.04254106210879], [4.187534321762202, 50.04279782223886], [4.192089198835413, 50.04402741410592], [4.196104528436548, 50.04602857462688], [4.201133964782124, 50.0494928664598], [4.206180517071581, 50.05371535256609], [4.209293229325138, 50.0561807813601], [4.213288329259841, 50.05883440235664], [4.217543186866057, 50.06079385239074], [4.223447086818058, 50.061290682580776], [4.228139318485389, 50.062550916122284], [4.232437618718808, 50.06446573982614], [4.235612102470519, 50.06693872292094], [4.237699105146468, 50.06969768896075], [4.238846748148705, 50.07306002796354], [4.2387305473664965, 50.07630442614729], [4.237050626637469, 50.079751467865115], [4.234217682047356, 50.08247254287722], [4.227746552501135, 50.0866841707718], [4.222052077985078, 50.09120771699188], [4.217893750726607, 50.09524568530676], [4.215036503414004, 50.098676991013], [4.212645116579103, 50.10230398868266], [4.210736460976443, 50.10660763504828], [4.209803102143694, 50.11117775881698], [4.209484519700867, 50.11533461490815], [4.210143204675893, 50.119345955430575], [4.211947731522317, 50.123724482103725], [4.211794769781393, 50.12787537973584], [4.209635238535901, 50.13117838593564], [4.20602150060578, 50.133513667342314], [4.201144930697308, 50.135163061859444], [4.195549008935808, 50.13606976944591], [4.189457774445177, 50.136228462324596], [4.183412250336421, 50.13565704179919], [4.177669638696156, 50.134507670930475], [4.1728885923085555, 50.13284459781295], [4.1690655091499496, 50.130479836607044], [4.161676491178231, 50.12976645005597], [4.156487400957285, 50.13019787174589], [4.152958680612508, 50.13144423902896], [4.150946234257009, 50.1335015651343], [4.149980165876022, 50.13625307476866], [4.149859544599226, 50.13949431842578], [4.151328358660368, 50.153456934171366], [4.1568270224034904, 50.15508822366745], [4.160810237669027, 50.15736501556487], [4.163253247305183, 50.15996943127499], [4.164764334404999, 50.163033882018645], [4.165669895847061, 50.166344976533594], [4.167107225037557, 50.17667711271229], [4.168493171224541, 50.18085826656116], [4.170479845038322, 50.18387831388553], [4.1730566055481395, 50.186983248964445], [4.173800070039257, 50.19030545562839], [4.173385591518563, 50.19411203294285], [4.171108386246331, 50.201303621509716], [4.170238452107599, 50.204785929867626], [4.1701724628533885, 50.20778654843707], [4.171734823618992, 50.21041804694168], [4.175106359804657, 50.21225152828237], [4.180665779814736, 50.21321372080925], [4.193206894545506, 50.22701327121346], [4.201012068353173, 50.234257777938424], [4.205092453215404, 50.23706249951809], [4.2098360712322425, 50.23946630836409], [4.215616453988086, 50.241627363476205], [4.221680129601261, 50.24320728225707], [4.2275376012372465, 50.246809293085015], [4.230783216366808, 50.25081908066348], [4.23122908513629, 50.25496461407357], [4.229575669012136, 50.25925776782765], [4.22610537059389, 50.263307443348104], [4.221004215729231, 50.26713515352753], [4.215294425512121, 50.2702345330721], [4.208780428206171, 50.272621811376126], [4.201977184251135, 50.27415522852839], [4.195206247602105, 50.27458111845325], [4.192706083595925, 50.278709607119076], [4.189179672045153, 50.281541190522006], [4.185374012038499, 50.28304559361583], [4.182096020511639, 50.28345605969026], [4.300162722578251, 50.459378251950795], [4.51149864207101, 50.41294026429195], [4.525151569952331, 50.455370200733434], [4.569277913455724, 50.44520614451669], [4.563531904084387, 50.37473398163946], [4.448830364964078, 50.37329435839734], [4.442379853070638, 50.32328014338093], [4.36151896781043, 50.32325107655283], [4.348258440524015, 50.29115744133847], [4.4160855495776055, 50.28749442975005], [4.396301521864431, 50.25918736793193], [4.484450734381109, 50.26038226805675], [4.442961830126942, 50.30261704647797], [4.478976478432468, 50.29373970489753], [4.5110393038777366, 50.32605739039778], [4.569231236889985, 50.32981388081253], [4.569454124074736, 50.284908495236685], [4.6116329349076715, 50.31557087159019], [4.623441999846661, 50.40934222739268], [4.579386177301074, 50.44641059713199], [4.581486593947054, 50.46698021520578], [4.607717751442276, 50.459299095664896], [4.625312455609425, 50.42486300576262], [4.724507884193561, 50.41823689759845], [4.633944561768106, 50.29661543134441], [4.680502392028187, 50.291308127310664], [4.672169597551155, 50.244889162565805], [4.633684272329987, 50.246141079944834], [4.624468538789322, 50.22432344641367], [4.851184959965348, 50.15982268035761], [4.9256533266451905, 50.16908843552088], [4.9639499776036455, 50.224377459265106], [4.932166344732397, 50.23203847226265], [4.853446441474492, 50.18461366946544], [4.841592094180309, 50.19191270118901], [4.90768813969545, 50.29249692592463], [4.955690286896696, 50.26820729258018], [4.9639535402531445, 50.29113888383256], [4.941730175763171, 50.32340443932895], [4.970124464624743, 50.32084563954363], [5.00215439346628, 50.28480256515407], [5.062763976645929, 50.28354220985174], [5.060911067359166, 50.292675168887804], [5.026422180528123, 50.30922646392804], [5.0702437366947155, 50.327370541648904], [5.108863286565174, 50.313194261660755], [5.130802263266498, 50.31819284368867], [5.131919110043392, 50.3692520282096], [5.092574433892835, 50.37362698769043], [5.084781352852836, 50.35426034898494], [5.0523369752235, 50.34891794383201], [5.040395246080281, 50.3748989428632], [5.0484487493811105, 50.38885187930936], [5.06846505504922, 50.38377670269159], [5.2055300797754525, 50.426089038673915], [5.229750738062201, 50.42342471016577], [5.2379120648778885, 50.42727919524552], [5.199351810192577, 50.47529385661895], [5.219602751530019, 50.51932814220759], [5.110697364455609, 50.49517468679762], [5.085042297920855, 50.5207209209227], [5.050412680711439, 50.52469922499289], [5.056895418672649, 50.55786923553316], [5.090864423804021, 50.55784300495661], [5.082835240319993, 50.62456580003478], [5.052652032615056, 50.64088609237941], [5.072710098425591, 50.66248654799981], [5.1011655996485885, 50.6319941981621], [5.1732246091931735, 50.63701127059006], [5.179589724395106, 50.65992962860956], [5.151302736257105, 50.66891905545178], [5.121037246772562, 50.656257030818416], [5.112872489812948, 50.68171787192458], [5.15512493052144, 50.680415908018375], [5.137383412977056, 50.70469102370162], [5.07275618903947, 50.70848139082231], [5.050031038472383, 50.72380543178427], [5.069714505850968, 50.737403820441294], [5.075189485442488, 50.739375952715484], [5.07583186764811, 50.744312331354514], [5.078227295808101, 50.74469852784384], [5.087139767380111, 50.74506000560786], [5.090739842249947, 50.748494691190864], [5.100856327816045, 50.745484488892195], [5.1003856647405685, 50.752218973023346], [5.090196227716037, 50.75789825337597], [5.084745032527532, 50.76056113415012], [5.08297796177081, 50.76243602827588], [5.0835951042162995, 50.76613567957274], [5.083002972468845, 50.768102693337354], [5.079966695273332, 50.76997788236043], [5.080004570905932, 50.77265343753235], [5.082854200067273, 50.774509945786065], [5.091271665119174, 50.77716432808557], [5.091311749183378, 50.7812889631659], [5.08593455691896, 50.79182856619619], [5.090222026153118, 50.79761363083159], [5.101425020569435, 50.80352298564011], [5.103209359692598, 50.810720035863014], [5.109739226080135, 50.81519099470093], [5.105544773036565, 50.82311864564467], [5.11625108574251, 50.82537867723204], [5.119863097072213, 50.83214683107156], [5.120552915498907, 50.835273895840686], [5.12458713047552, 50.840398856622905], [5.144308635106667, 50.858520198325664], [5.143648973513523, 50.86303139539464], [5.13822774415458, 50.86379823713676], [5.126399812441037, 50.866798934097744], [5.11682080338433, 50.86947870307178], [5.114420682011744, 50.872832946756674], [5.1144470075692, 50.8791854645309], [5.119779868898943, 50.88333630701711], [5.125210883563564, 50.89231107888691], [5.127559658167069, 50.902519985156204], [5.131254082164474, 50.908156451966946], [5.132460201294246, 50.91120648800591], [5.131958304594921, 50.91534619093898], [5.130774747886308, 50.92038722253442], [5.1301733356103325, 50.92618583126083], [5.12758295168414, 50.92929484289271], [5.122394444655806, 50.93322926592089], [5.12209209132407, 50.94080223139594], [5.1166729495940215, 50.94624278113378], [5.11322669088507, 50.96054036207204], [5.131138413244108, 50.96302802712095], [5.157455326968728, 50.9705328445893], [5.155817515945747, 50.97771507552892], [5.142591915249801, 50.98455531247108], [5.132690718269638, 50.98762204492762], [5.132649765688059, 50.9834471883126], [5.130989532583096, 50.98031457196404], [5.1143036022621295, 50.974005769142565], [5.1095453669577635, 50.9662757222076], [5.09711716850089, 50.96620429255229], [5.0912670999244645, 50.969927132027955], [5.07891656209129, 50.97089840786303], [5.079674769651942, 50.98810180450482], [5.090530059067961, 50.98967487610844], [5.102006294280498, 50.997384604618375], [5.106921335034262, 51.00163259150828], [5.114517332401002, 51.00168221061215], [5.117803863972771, 51.00432755387835], [5.117824027116858, 51.01382653960425], [5.116125887282656, 51.02095338087433], [5.120273343152765, 51.02461473041009], [5.12275686411861, 51.02464275784701], [5.125266932504711, 51.018853779826465], [5.14088101663146, 51.02146322719207], [5.146753544000007, 51.02306729755707], [5.151799616250102, 51.027747750551214], [5.120263432414, 51.04600100578448], [5.108689504591433, 51.037640539099044], [5.1040394314396265, 51.03480728155746], [5.095343125835233, 51.03049748300648], [5.079665911679169, 51.02730135641603], [5.0728923763127725, 51.02574296953005], [5.06052499820317, 51.01895719005843], [5.048042233611777, 51.018910488244934], [5.048075397700413, 51.02364991760858], [5.03554905285428, 51.025210951595774], [5.024050669419437, 51.023135399366616], [5.015043741126476, 51.02935507096255], [5.0074209704805845, 51.03250384089164], [5.0032917801781345, 51.03825490819362], [4.988815484466405, 51.035825209791895], [5.019705827663071, 51.073987772698835], [5.0451212592177885, 51.077909711982514], [5.100491086219082, 51.086473125546924], [5.138388198343968, 51.11850674290012], [5.1921433285539536, 51.122427722144586], [5.210357009185893, 51.14120364288427], [5.224951904132377, 51.14288942697239], [5.232535629620599, 51.135670632164555], [5.263744470549145, 51.15172223066855], [5.281071204775065, 51.1426392671869], [5.315702986506618, 51.16436157018772], [5.344311849746501, 51.16436157018772]], [[4.952319782964093, 50.09778664813977], [4.954332155849574, 50.02673478133137], [4.996591986444685, 50.039661130573855], [5.010678596643056, 50.09133173594521], [4.982505376246315, 50.10940329886178], [4.952319782964093, 50.09778664813977]], [[4.654488595912835, 50.16099877684218], [4.610216392432243, 50.153263001914326], [4.642414358599947, 50.12359760182685], [4.670587578996686, 50.12488778434308], [4.678637070538612, 50.150684132117995], [4.654488595912835, 50.16099877684218]], [[4.978480630475353, 50.157131045837595], [4.944270291422167, 50.14810512324097], [4.944270291422167, 50.12617793208347], [5.060987918780092, 50.13004816665241], [5.056963173009129, 50.157131045837595], [5.022752833955944, 50.18806413279784], [4.978480630475353, 50.157131045837595]], [[4.459288426021132, 50.22670233483425], [4.465325544677576, 50.21125080780812], [4.529721477012984, 50.21253862621544], [4.507585375272689, 50.2357134144749], [4.459288426021132, 50.22670233483425]], [[5.069037410322019, 50.27045448600437], [5.060987918780092, 50.262736436924314], [5.14148283419935, 50.21897719691119], [5.139470461313869, 50.24729658622208], [5.093185884947796, 50.27174070591398], [5.069037410322019, 50.27045448600437]], [[4.366719273288984, 50.27045448600437], [4.34659554443417, 50.25887694332827], [4.366719273288984, 50.25115701798498], [4.366719273288984, 50.27045448600437]], [[5.177705546138017, 50.29488672348983], [5.205878766534759, 50.2807432724893], [5.223990122504092, 50.288458403217966], [5.223990122504092, 50.31031114894446], [5.201854020763796, 50.32316101601659], [5.177705546138017, 50.29488672348983]], [[5.201854020763796, 50.61008834948851], [5.159594190168685, 50.589651261792014], [5.175693173252537, 50.565370692524986], [5.20990351230572, 50.562814114988726], [5.213928258076685, 50.576873575058485], [5.199841647878313, 50.592206383097924], [5.201854020763796, 50.61008834948851]], [[5.103247749375204, 50.59348389174775], [5.105260122260685, 50.589651261792014], [5.129408596886463, 50.590928839779444], [5.139470461313869, 50.61774996945988], [5.117334359573573, 50.61902678480118], [5.103247749375204, 50.59348389174775]], [[5.324608766778165, 50.689198257303715], [5.362843851602314, 50.69557228451793], [5.326621139663645, 50.71596335165622], [5.324608766778165, 50.689198257303715]], [[6.07149701689361, 50.97757622202574], [6.059541434485897, 50.98343059655407], [5.989136338084925, 50.98593938823615], [5.917402843638652, 50.96670185366269], [5.892163280777926, 50.96921154927647], [5.897476872959131, 50.98343059655407], [5.849654543328283, 50.98761184070176], [5.80847420392394, 50.929877404485694], [5.781906243017913, 50.938249159212475], [5.76065187429309, 50.9081037888877], [5.738069107522967, 50.9139669184564], [5.707515952481037, 50.87458602170485], [5.754009884066584, 50.870394604792175], [5.754009884066584, 50.8561409677808], [5.772607456700804, 50.85110923195271], [5.809802601969241, 50.87123291832877], [5.850982941373585, 50.864525987868724], [5.843012553101776, 50.84523818737599], [5.888178086642021, 50.83517182039699], [5.933343620182269, 50.86871793248722], [5.962568377178899, 50.844399406403056], [6.048914250123486, 50.84523818737599], [6.050242648168789, 50.86704119987266], [6.072825414938911, 50.886319983888036], [6.060869832531199, 50.90559079297818], [6.03430187162517, 50.9097790441285], [6.064855026667103, 50.937412051555214], [6.050242648168789, 50.95749847626504], [6.07149701689361, 50.97757622202574]], [[5.904752563665185, 51.05278579899716], [5.884648518201361, 51.051206086252265], [5.864544472737538, 51.02328894203435], [5.92234360344603, 51.021181305103916], [5.92234360344603, 51.037512985185906], [5.904752563665185, 51.05278579899716]]], [[[5.034054951622909, 50.5883529086304], [5.039502939524303, 50.56570765515059], [4.999385937704953, 50.56224700489157], [4.982546702373375, 50.58898178804176], [5.015729901409133, 50.62261459141045], [5.04891310044489, 50.626699182137166], [5.056342174855882, 50.6075299519075], [5.034054951622909, 50.5883529086304]]], [[[5.283761330094051, 51.269682063933516], [5.340809711421928, 51.3035473326701], [5.381420423553635, 51.3035473326701], [5.389155797293007, 51.27149690785856], [5.283761330094051, 51.269682063933516]]]]}}]}