{
"type": "FeatureCollection",
"name": "Ypres",
"crs": { "type": "name", "properties": { "name": "urn:ogc:def:crs:OGC:1.3:CRS84" } },
"features": [
{ "type": "Feature", "properties": { }, "geometry": {"type":"Polygon","coordinates":[[[2.3391445842911067,51.05682653614376],[2.330712161040693,50.96818105384968],[2.290355905734586,50.90445768778182],[2.3501931427972425,50.87944119846704],[2.359861805922904,50.83631422187758],[2.3629070721852066,50.79605234774379],[2.3823833401416596,50.74211165742892],[2.438955209701518,50.70543387133902],[2.49393511391753,50.69826486919889],[2.491757120729554,50.650241547885315],[2.56698946684601,50.62544811882593],[2.5723711596497276,50.6323209581243],[2.715097582741316,50.62011319257886],[2.756232025868309,50.63991166821717],[2.8128003686349703,50.63801128753698],[2.832421681061723,50.6585101026901],[2.8719119141266036,50.66563402575831],[2.9042727032276314,50.703776057743376],[2.9085672499446074,50.70111499662358],[2.91132606120985,50.69987271439678],[2.913574762806329,50.69929422756264],[2.9160511022498254,50.69920841508043],[2.91826466720885,50.699802441712414],[2.9205967307317633,50.701049334698396],[2.922861306839979,50.703081557305005],[2.924982775403457,50.70577285007741],[2.9273379130713484,50.70950331750304],[2.9268556159336785,50.71036928541851],[2.9369792068026004,50.74867399038383],[2.948506468360458,50.754086761507104],[2.972018643967653,50.751440952771354],[2.992674852250268,50.76734124344283],[2.9187123407662243,50.81120967873303],[2.9327351939764537,50.822085121646744],[2.9556456194541427,50.82136730754361],[2.9698211386514703,50.8060639432913],[3.000675966251712,50.81488631987558],[2.9658335800824682,50.84871784975318],[2.9968574532785124,50.85333110857071],[3.059784855336977,50.80334833154784],[3.093083824782446,50.806454733140114],[3.109941634874546,50.81290634225304],[3.1056563989655057,50.84032377844925],[3.1355413424689584,50.84519447890578],[3.148572720665051,50.860370833922865],[3.1385124411331913,50.877442453566466],[3.120981677356263,50.87727954845792],[3.1110455027736563,50.88163072337174],[3.099835081801342,50.881491468323354],[3.099822318585673,50.887174802877354],[3.0907585330634135,50.88998532833487],[3.0852069492309844,50.89705956901381],[3.079748436967459,50.920424282530135],[3.0670735467132704,50.91768614425558],[3.060375663832976,50.910621787782276],[3.050541706908089,50.90999352111517],[3.049302672222167,50.91417862811542],[3.0313169576312013,50.917027343753475],[3.0291800780952167,50.92188953224336],[3.0281227345960677,50.92188626689178],[3.02689460883549,50.92117263374317],[3.0180757530164595,50.91551667586575],[3.0003632488683296,50.9149059977116],[2.9768997818120146,50.91054361528057],[2.972229954547845,50.924841190841164],[2.9669216916059993,50.93231536899491],[2.9615192694557737,50.94341055783088],[2.946916586115811,50.94840135534531],[2.945783012372421,50.95185902513405],[2.9513816523174246,50.95540305632246],[2.9512593819357242,50.97581550385319],[2.9570302359395315,50.97790190271188],[2.94704829160071,50.984773893564984],[2.9389945012265253,50.98625729293852],[2.930334848793985,50.99405606918504],[2.922274844321527,50.99544810656665],[2.9222969532990204,51.00174302774322],[2.940093535572439,51.013708949128954],[2.940555953866187,51.0157458590722],[2.925793867778012,51.03185368140616],[2.885251962659782,51.03687186456194],[2.877799338071486,51.036783304489724],[2.8633771186410963,51.0383349110487],[2.849977991059324,51.03254246947171],[2.83872747271048,51.04485328648842],[2.8420109107580007,51.0657092898481],[2.835184478937686,51.06766732708106],[2.830398411126155,51.061401608967266],[2.823222801217494,51.05983468114412],[2.810288080454265,51.06417834985143],[2.801602857253252,51.064573341588314],[2.805230552273293,51.07884030371811],[2.815439891494092,51.08165325694831],[2.821734179289892,51.097927167066445],[2.818537787134862,51.10049934314828],[2.81850495500797,51.11834073349532],[2.802817024495307,51.121672891424005],[2.800618000085905,51.13179795247983],[2.7893107997868336,51.14758035619558],[2.7750539449878695,51.146209696764444],[2.7739449985915554,51.1433347520401],[2.762515057945612,51.140718377936906],[2.7615325914060858,51.142696561477386],[2.7515298947541487,51.143950370059976],[2.747144461308477,51.150956254081166],[2.74130241175404,51.15122547300607],[2.7344088696963,51.157704763717646],[2.728856780211018,51.15593165591967],[2.7252821652232804,51.15484403493927],[2.7211360000853633,51.15391186199171],[2.7196241068523865,51.15234871078165],[2.690294362151495,51.14102228742479],[2.6333544956573816,51.12170101439467],[2.5509291524011664,51.09060052505208],[2.493661160397251,51.073360977471886],[2.4466695847654707,51.06118349036357],[2.409392314416548,51.05390637010884],[2.391234943983869,51.05176512278138],[2.3855852560902244,51.05287859158906],[2.379700395497002,51.05328300759441],[2.373927578538964,51.05348882287235],[2.3594719791261767,51.05308042673252],[2.353482597320773,51.053051308775075],[2.34821338249408,51.05386411608825],[2.343530119863499,51.05497952532357],[2.3391445842911067,51.05682653614376]]]} }
]
}
