{
    "type": "FeatureCollection",
    "features": [
        {
            "type": "Feature",
            "properties": {
                "diocese": "Massilien",
                "province": "Arelaten",
                "date": 1592
            },
            "geometry": {
                "type": "Polygon",
                "coordinates": [
                    [
                        [
                            5.3177197747645835,
                            43.483217327610284
                        ],
                        [
                            5.312673019374552,
                            43.48131782441857
                        ],
                        [
                            5.307626263984519,
                            43.47941832122684
                        ],
                        [
                            5.302579508594487,
                            43.47751881803512
                        ],
                        [
                            5.297532753204454,
                            43.47561931484341
                        ],
                        [
                            5.2924859978144205,
                            43.473719811651684
                        ],
                        [
                            5.287439242424387,
                            43.47182030845996
                        ],
                        [
                            5.282392487034352,
                            43.46992080526824
                        ],
                        [
                            5.277345731644321,
                            43.46802130207652
                        ],
                        [
                            5.272298976254287,
                            43.4661217988848
                        ],
                        [
                            5.267252220864254,
                            43.46422229569308
                        ],
                        [
                            5.267252220864254,
                            43.46422229569308
                        ],
                        [
                            5.265886716274936,
                            43.46121272425365
                        ],
                        [
                            5.264521211685619,
                            43.45820315281422
                        ],
                        [
                            5.263155707096301,
                            43.4551935813748
                        ],
                        [
                            5.261790202506981,
                            43.45218400993536
                        ],
                        [
                            5.260424697917664,
                            43.449174438495945
                        ],
                        [
                            5.259059193328346,
                            43.44616486705652
                        ],
                        [
                            5.257693688739028,
                            43.44315529561708
                        ],
                        [
                            5.256328184149709,
                            43.44014572417766
                        ],
                        [
                            5.254962679560391,
                            43.437136152738226
                        ],
                        [
                            5.253597174971073,
                            43.434126581298806
                        ],
                        [
                            5.253597174971073,
                            43.434126581298806
                        ],
                        [
                            5.254316916614684,
                            43.4315566088471
                        ],
                        [
                            5.2550366582583,
                            43.42898663639541
                        ],
                        [
                            5.255756399901914,
                            43.42641666394371
                        ],
                        [
                            5.256476141545527,
                            43.42384669149202
                        ],
                        [
                            5.257195883189141,
                            43.421276719040314
                        ],
                        [
                            5.257915624832755,
                            43.41870674658862
                        ],
                        [
                            5.258635366476366,
                            43.416136774136916
                        ],
                        [
                            5.259355108119982,
                            43.41356680168522
                        ],
                        [
                            5.260074849763596,
                            43.410996829233525
                        ],
                        [
                            5.26079459140721,
                            43.40842685678183
                        ],
                        [
                            5.26079459140721,
                            43.40842685678183
                        ],
                        [
                            5.265118428856232,
                            43.403217131922766
                        ],
                        [
                            5.26944226630525,
                            43.3980074070637
                        ],
                        [
                            5.273766103754271,
                            43.39279768220462
                        ],
                        [
                            5.278089941203291,
                            43.387587957345566
                        ],
                        [
                            5.282413778652312,
                            43.3823782324865
                        ],
                        [
                            5.286737616101332,
                            43.37716850762744
                        ],
                        [
                            5.291061453550352,
                            43.37195878276837
                        ],
                        [
                            5.295385290999372,
                            43.3667490579093
                        ],
                        [
                            5.2997091284483915,
                            43.36153933305024
                        ],
                        [
                            5.304032965897411,
                            43.35632960819117
                        ],
                        [
                            5.304032965897411,
                            43.35632960819117
                        ],
                        [
                            5.311344692361587,
                            43.356896125298206
                        ],
                        [
                            5.318326946773901,
                            43.356157758423706
                        ],
                        [
                            5.324937681974832,
                            43.35429974032547
                        ],
                        [
                            5.331134850804869,
                            43.35150730376133
                        ],
                        [
                            5.336876406104489,
                            43.34796568148906
                        ],
                        [
                            5.342120300714177,
                            43.343860106266476
                        ],
                        [
                            5.346824487474416,
                            43.33937581085138
                        ],
                        [
                            5.350946919225686,
                            43.33469802800158
                        ],
                        [
                            5.35444554880848,
                            43.33001199047489
                        ],
                        [
                            5.357278329063268,
                            43.32550293102909
                        ],
                        [
                            5.357278329063268,
                            43.32550293102909
                        ],
                        [
                            5.357484386323007,
                            43.32213224321393
                        ],
                        [
                            5.3577856667922035,
                            43.318663285285325
                        ],
                        [
                            5.358099895474075,
                            43.31513035244102
                        ],
                        [
                            5.358344797371837,
                            43.31156773987872
                        ],
                        [
                            5.358438097488714,
                            43.30800974279617
                        ],
                        [
                            5.358297520827916,
                            43.3044906563911
                        ],
                        [
                            5.35784079239267,
                            43.30104477586122
                        ],
                        [
                            5.356985637186188,
                            43.29770639640428
                        ],
                        [
                            5.355649780211692,
                            43.294509813217985
                        ],
                        [
                            5.353750946472395,
                            43.29148932150009
                        ],
                        [
                            5.353750946472392,
                            43.29148932150007
                        ],
                        [
                            5.3492969538408595,
                            43.2885729387102
                        ],
                        [
                            5.3472487514790945,
                            43.28581976963152
                        ],
                        [
                            5.347204729732326,
                            43.28320799966442
                        ],
                        [
                            5.348763278945787,
                            43.28071581420928
                        ],
                        [
                            5.351522789464719,
                            43.278321398666506
                        ],
                        [
                            5.355081651634347,
                            43.27600293843646
                        ],
                        [
                            5.359038255799911,
                            43.27373861891956
                        ],
                        [
                            5.362990992306646,
                            43.27150662551618
                        ],
                        [
                            5.3665382514997795,
                            43.269285143626696
                        ],
                        [
                            5.369278423724552,
                            43.26705235865152
                        ],
                        [
                            5.36927842372455,
                            43.26705235865151
                        ],
                        [
                            5.369651689988622,
                            43.26191878087344
                        ],
                        [
                            5.368294409817377,
                            43.25719821390856
                        ],
                        [
                            5.36563623020737,
                            43.25278466416833
                        ],
                        [
                            5.362106798155157,
                            43.24857213806419
                        ],
                        [
                            5.3581357606573,
                            43.24445464200761
                        ],
                        [
                            5.354152764710355,
                            43.240326182410044
                        ],
                        [
                            5.350587457310882,
                            43.23608076568291
                        ],
                        [
                            5.347869485455435,
                            43.231612398237694
                        ],
                        [
                            5.346428496140572,
                            43.22681508648582
                        ],
                        [
                            5.346694136362856,
                            43.22158283683875
                        ],
                        [
                            5.346694136362855,
                            43.22158283683875
                        ],
                        [
                            5.351442163544238,
                            43.21723746538697
                        ],
                        [
                            5.357109923982705,
                            43.214026800144346
                        ],
                        [
                            5.363535505455575,
                            43.21176794317803
                        ],
                        [
                            5.370556995740166,
                            43.21027799655516
                        ],
                        [
                            5.378012482613801,
                            43.20937406234289
                        ],
                        [
                            5.385740053853796,
                            43.20887324260835
                        ],
                        [
                            5.393577797237478,
                            43.20859263941868
                        ],
                        [
                            5.401363800542159,
                            43.20834935484103
                        ],
                        [
                            5.408936151545163,
                            43.207960490942554
                        ],
                        [
                            5.416132938023809,
                            43.20724314979038
                        ],
                        [
                            5.4161329380238055,
                            43.20724314979037
                        ],
                        [
                            5.419882960669881,
                            43.21001986138745
                        ],
                        [
                            5.424115801612389,
                            43.21100197453152
                        ],
                        [
                            5.428684062606074,
                            43.2106653407713
                        ],
                        [
                            5.4334403454056694,
                            43.209485811655554
                        ],
                        [
                            5.438237251765921,
                            43.20793923873297
                        ],
                        [
                            5.442927383441571,
                            43.2065014735523
                        ],
                        [
                            5.447363342187357,
                            43.20564836766229
                        ],
                        [
                            5.451397729758019,
                            43.205855772611635
                        ],
                        [
                            5.454883147908303,
                            43.2075995399491
                        ],
                        [
                            5.457672198392951,
                            43.2113555212234
                        ],
                        [
                            5.457672198392947,
                            43.21135552122341
                        ],
                        [
                            5.462962385598285,
                            43.20993163766621
                        ],
                        [
                            5.468148290042079,
                            43.20815670805476
                        ],
                        [
                            5.473275012960153,
                            43.206178593021015
                        ],
                        [
                            5.478387655588328,
                            43.20414515319699
                        ],
                        [
                            5.483531319162443,
                            43.202204249214596
                        ],
                        [
                            5.488751104918315,
                            43.20050374170582
                        ],
                        [
                            5.49409211409178,
                            43.19919149130264
                        ],
                        [
                            5.499599447918655,
                            43.198415358637014
                        ],
                        [
                            5.505318207634774,
                            43.1983232043409
                        ],
                        [
                            5.511293494475964,
                            43.19906288904629
                        ],
                        [
                            5.511293494475959,
                            43.19906288904628
                        ],
                        [
                            5.514472283657417,
                            43.20089168169068
                        ],
                        [
                            5.518007831920331,
                            43.20306121681211
                        ],
                        [
                            5.521812624235398,
                            43.205342669310184
                        ],
                        [
                            5.5257991455733,
                            43.20750721408455
                        ],
                        [
                            5.529879880904732,
                            43.20932602603484
                        ],
                        [
                            5.5339673152003765,
                            43.21057028006068
                        ],
                        [
                            5.5379739334309335,
                            43.2110111510617
                        ],
                        [
                            5.5418122205670795,
                            43.21041981393754
                        ],
                        [
                            5.545394661579513,
                            43.208567443587825
                        ],
                        [
                            5.54863374143892,
                            43.20522521491218
                        ],
                        [
                            5.5486337414389215,
                            43.20522521491218
                        ],
                        [
                            5.5492974805257695,
                            43.200547198963875
                        ],
                        [
                            5.551150878841124,
                            43.19634279546883
                        ],
                        [
                            5.554029853697026,
                            43.192563668115184
                        ],
                        [
                            5.557770322405501,
                            43.18916148059101
                        ],
                        [
                            5.562208202278592,
                            43.18608789658445
                        ],
                        [
                            5.567179410628325,
                            43.1832945797836
                        ],
                        [
                            5.572519864766743,
                            43.180733193876556
                        ],
                        [
                            5.578065482005874,
                            43.178355402551425
                        ],
                        [
                            5.583652179657756,
                            43.176112869496336
                        ],
                        [
                            5.589115875034421,
                            43.17395725839939
                        ],
                        [
                            5.589115875034411,
                            43.173957258399376
                        ],
                        [
                            5.594207278012227,
                            43.17094415391313
                        ],
                        [
                            5.598627628456628,
                            43.169344445906944
                        ],
                        [
                            5.602492842539515,
                            43.16895333872834
                        ],
                        [
                            5.6059188364327905,
                            43.1695660367249
                        ],
                        [
                            5.6090215263083465,
                            43.17097774424422
                        ],
                        [
                            5.6119168283380905,
                            43.17298366563383
                        ],
                        [
                            5.614720658693917,
                            43.1753790052413
                        ],
                        [
                            5.617548933547733,
                            43.17795896741421
                        ],
                        [
                            5.620517569071428,
                            43.18051875650011
                        ],
                        [
                            5.623742481436906,
                            43.18285357684658
                        ],
                        [
                            5.623742481436906,
                            43.18285357684658
                        ],
                        [
                            5.629230979601342,
                            43.182569177413605
                        ],
                        [
                            5.634788644648097,
                            43.182418510751084
                        ],
                        [
                            5.640399759252176,
                            43.18235388138891
                        ],
                        [
                            5.646048606088584,
                            43.182327593857025
                        ],
                        [
                            5.6517194678323275,
                            43.18229195268532
                        ],
                        [
                            5.657396627158413,
                            43.18219926240369
                        ],
                        [
                            5.663064366741841,
                            43.18200182754207
                        ],
                        [
                            5.66870696925762,
                            43.18165195263036
                        ],
                        [
                            5.674308717380756,
                            43.181101942198474
                        ],
                        [
                            5.679853893786252,
                            43.180304100776304
                        ],
                        [
                            5.679853893786259,
                            43.180304100776304
                        ],
                        [
                            5.685625090957391,
                            43.1791526354451
                        ],
                        [
                            5.68959930190314,
                            43.17738173570205
                        ],
                        [
                            5.692045263768106,
                            43.175098898477
                        ],
                        [
                            5.69323171369688,
                            43.17241162069986
                        ],
                        [
                            5.6934273888340545,
                            43.169427399300474
                        ],
                        [
                            5.692901026324222,
                            43.16625373120872
                        ],
                        [
                            5.69192136331198,
                            43.16299811335448
                        ],
                        [
                            5.690757136941919,
                            43.15976804266761
                        ],
                        [
                            5.6896770843586335,
                            43.15667101607797
                        ],
                        [
                            5.688949942706714,
                            43.153814530515454
                        ],
                        [
                            5.688949942706721,
                            43.15381453051546
                        ],
                        [
                            5.692293763118236,
                            43.15182372085286
                        ],
                        [
                            5.696042831918001,
                            43.15037024039758
                        ],
                        [
                            5.700069089265744,
                            43.14927898034766
                        ],
                        [
                            5.704244475321177,
                            43.14837483190114
                        ],
                        [
                            5.708440930244027,
                            43.147482686256026
                        ],
                        [
                            5.71253039419401,
                            43.14642743461039
                        ],
                        [
                            5.716384807330844,
                            43.145033968162245
                        ],
                        [
                            5.719876109814253,
                            43.143127178109616
                        ],
                        [
                            5.722876241803954,
                            43.14053195565055
                        ],
                        [
                            5.725257143459672,
                            43.13707319198308
                        ],
                        [
                            5.7252571434596735,
                            43.13707319198307
                        ],
                        [
                            5.729854747807302,
                            43.13415564051411
                        ],
                        [
                            5.734994357738694,
                            43.13289584769692
                        ],
                        [
                            5.740511826026733,
                            43.132872664043894
                        ],
                        [
                            5.7462430054443026,
                            43.1336649400674
                        ],
                        [
                            5.752023748764291,
                            43.1348515262798
                        ],
                        [
                            5.757689908759586,
                            43.136011273193496
                        ],
                        [
                            5.76307733820307,
                            43.13672303132083
                        ],
                        [
                            5.768021889867635,
                            43.13656565117417
                        ],
                        [
                            5.772359416526159,
                            43.13511798326592
                        ],
                        [
                            5.775925770951535,
                            43.131958878108435
                        ],
                        [
                            5.775925770951542,
                            43.13195887810843
                        ],
                        [
                            5.775833600361507,
                            43.131801730276564
                        ],
                        [
                            5.77575468308515,
                            43.13165015463387
                        ],
                        [
                            5.775686168959812,
                            43.13150295924684
                        ],
                        [
                            5.775625207822841,
                            43.13135895218204
                        ],
                        [
                            5.77556894951157,
                            43.131216941506
                        ],
                        [
                            5.775514543863352,
                            43.13107573528523
                        ],
                        [
                            5.775459140715517,
                            43.13093414158628
                        ],
                        [
                            5.775399889905421,
                            43.13079096847567
                        ],
                        [
                            5.775333941270393,
                            43.130645024019955
                        ],
                        [
                            5.775258444647781,
                            43.13049511628564
                        ],
                        [
                            5.775258444647784,
                            43.13049511628563
                        ],
                        [
                            5.786511808047287,
                            43.13563718969671
                        ],
                        [
                            5.797765171446789,
                            43.140779263107795
                        ],
                        [
                            5.8090185348462935,
                            43.14592133651888
                        ],
                        [
                            5.820271898245798,
                            43.15106340992995
                        ],
                        [
                            5.831525261645298,
                            43.15620548334103
                        ],
                        [
                            5.842778625044803,
                            43.16134755675211
                        ],
                        [
                            5.854031988444307,
                            43.1664896301632
                        ],
                        [
                            5.865285351843809,
                            43.17163170357428
                        ],
                        [
                            5.8765387152433135,
                            43.176773776985364
                        ],
                        [
                            5.887792078642816,
                            43.18191585039644
                        ],
                        [
                            5.887792078642816,
                            43.18191585039644
                        ],
                        [
                            5.8986969607374355,
                            43.18422269526093
                        ],
                        [
                            5.909601842832055,
                            43.186529540125406
                        ],
                        [
                            5.920506724926675,
                            43.18883638498989
                        ],
                        [
                            5.931411607021296,
                            43.191143229854376
                        ],
                        [
                            5.942316489115916,
                            43.193450074718854
                        ],
                        [
                            5.953221371210535,
                            43.19575691958334
                        ],
                        [
                            5.964126253305153,
                            43.198063764447824
                        ],
                        [
                            5.975031135399773,
                            43.200370609312316
                        ],
                        [
                            5.985936017494392,
                            43.20267745417679
                        ],
                        [
                            5.996840899589012,
                            43.20498429904128
                        ],
                        [
                            5.996840899589012,
                            43.20498429904128
                        ],
                        [
                            5.997100788019374,
                            43.2067576331913
                        ],
                        [
                            5.997360676449738,
                            43.208530967341325
                        ],
                        [
                            5.9976205648800995,
                            43.21030430149136
                        ],
                        [
                            5.99788045331046,
                            43.212077635641386
                        ],
                        [
                            5.9981403417408234,
                            43.2138509697914
                        ],
                        [
                            5.998400230171185,
                            43.21562430394143
                        ],
                        [
                            5.998660118601544,
                            43.21739763809147
                        ],
                        [
                            5.998920007031909,
                            43.21917097224149
                        ],
                        [
                            5.9991798954622695,
                            43.220944306391516
                        ],
                        [
                            5.999439783892631,
                            43.22271764054154
                        ],
                        [
                            5.999439783892631,
                            43.22271764054154
                        ],
                        [
                            5.9970069640375065,
                            43.22466761867798
                        ],
                        [
                            5.994574144182383,
                            43.2266175968144
                        ],
                        [
                            5.992141324327257,
                            43.22856757495083
                        ],
                        [
                            5.989708504472135,
                            43.23051755308727
                        ],
                        [
                            5.9872756846170105,
                            43.23246753122369
                        ],
                        [
                            5.984842864761886,
                            43.23441750936013
                        ],
                        [
                            5.982410044906761,
                            43.23636748749656
                        ],
                        [
                            5.979977225051638,
                            43.23831746563298
                        ],
                        [
                            5.9775444051965145,
                            43.24026744376941
                        ],
                        [
                            5.97511158534139,
                            43.24221742190584
                        ],
                        [
                            5.97511158534139,
                            43.24221742190584
                        ],
                        [
                            5.977681023291559,
                            43.24461199309704
                        ],
                        [
                            5.980250461241731,
                            43.24700656428824
                        ],
                        [
                            5.982819899191901,
                            43.249401135479445
                        ],
                        [
                            5.985389337142072,
                            43.25179570667064
                        ],
                        [
                            5.987958775092245,
                            43.254190277861845
                        ],
                        [
                            5.990528213042415,
                            43.25658484905305
                        ],
                        [
                            5.993097650992585,
                            43.258979420244245
                        ],
                        [
                            5.995667088942758,
                            43.26137399143545
                        ],
                        [
                            5.998236526892928,
                            43.26376856262665
                        ],
                        [
                            6.000805964843099,
                            43.26616313381785
                        ],
                        [
                            6.000805964843099,
                            43.26616313381785
                        ],
                        [
                            5.9997872883327386,
                            43.269886734165205
                        ],
                        [
                            5.998768611822378,
                            43.273610334512554
                        ],
                        [
                            5.997749935312017,
                            43.27733393485991
                        ],
                        [
                            5.996731258801656,
                            43.28105753520725
                        ],
                        [
                            5.995712582291295,
                            43.2847811355546
                        ],
                        [
                            5.994693905780936,
                            43.28850473590196
                        ],
                        [
                            5.993675229270574,
                            43.29222833624931
                        ],
                        [
                            5.992656552760213,
                            43.29595193659666
                        ],
                        [
                            5.991637876249854,
                            43.299675536944015
                        ],
                        [
                            5.990619199739491,
                            43.30339913729136
                        ],
                        [
                            5.990619199739491,
                            43.30339913729136
                        ],
                        [
                            5.990754619928891,
                            43.307123025660125
                        ],
                        [
                            5.990890040118293,
                            43.31084691402888
                        ],
                        [
                            5.991025460307691,
                            43.31457080239764
                        ],
                        [
                            5.991160880497091,
                            43.3182946907664
                        ],
                        [
                            5.991296300686491,
                            43.322018579135154
                        ],
                        [
                            5.991431720875891,
                            43.325742467503915
                        ],
                        [
                            5.991567141065291,
                            43.32946635587268
                        ],
                        [
                            5.991702561254691,
                            43.333190244241436
                        ],
                        [
                            5.991837981444091,
                            43.336914132610204
                        ],
                        [
                            5.991973401633489,
                            43.340638020978965
                        ],
                        [
                            5.991973401633489,
                            43.340638020978965
                        ],
                        [
                            5.990307926101069,
                            43.34152423998119
                        ],
                        [
                            5.988642450568648,
                            43.34241045898341
                        ],
                        [
                            5.9869769750362245,
                            43.343296677985634
                        ],
                        [
                            5.985311499503805,
                            43.34418289698786
                        ],
                        [
                            5.983646023971385,
                            43.345069115990086
                        ],
                        [
                            5.981980548438964,
                            43.34595533499232
                        ],
                        [
                            5.980315072906546,
                            43.346841553994544
                        ],
                        [
                            5.9786495973741225,
                            43.34772777299677
                        ],
                        [
                            5.976984121841703,
                            43.34861399199899
                        ],
                        [
                            5.975318646309281,
                            43.34950021100122
                        ],
                        [
                            5.975318646309281,
                            43.34950021100122
                        ],
                        [
                            5.9718544867468175,
                            43.34861271182487
                        ],
                        [
                            5.968390327184354,
                            43.34772521264852
                        ],
                        [
                            5.964926167621892,
                            43.34683771347217
                        ],
                        [
                            5.961462008059426,
                            43.34595021429583
                        ],
                        [
                            5.957997848496964,
                            43.34506271511948
                        ],
                        [
                            5.9545336889345,
                            43.34417521594313
                        ],
                        [
                            5.951069529372038,
                            43.34328771676678
                        ],
                        [
                            5.9476053698095726,
                            43.342400217590445
                        ],
                        [
                            5.9441412102471105,
                            43.341512718414094
                        ],
                        [
                            5.9406770506846485,
                            43.340625219237744
                        ],
                        [
                            5.9406770506846485,
                            43.340625219237744
                        ],
                        [
                            5.937986909219191,
                            43.34213178848639
                        ],
                        [
                            5.935296767753737,
                            43.34363835773503
                        ],
                        [
                            5.9326066262882815,
                            43.34514492698368
                        ],
                        [
                            5.929916484822829,
                            43.34665149623232
                        ],
                        [
                            5.92722634335737,
                            43.34815806548096
                        ],
                        [
                            5.9245362018919145,
                            43.349664634729606
                        ],
                        [
                            5.921846060426461,
                            43.35117120397825
                        ],
                        [
                            5.919155918961005,
                            43.352677773226894
                        ],
                        [
                            5.916465777495549,
                            43.35418434247554
                        ],
                        [
                            5.913775636030097,
                            43.35569091172418
                        ],
                        [
                            5.913775636030097,
                            43.35569091172418
                        ],
                        [
                            5.909800690190748,
                            43.355955948398396
                        ],
                        [
                            5.9058257443514,
                            43.35622098507261
                        ],
                        [
                            5.901850798512051,
                            43.35648602174683
                        ],
                        [
                            5.897875852672701,
                            43.35675105842105
                        ],
                        [
                            5.893900906833354,
                            43.35701609509526
                        ],
                        [
                            5.889925960994006,
                            43.35728113176948
                        ],
                        [
                            5.885951015154658,
                            43.3575461684437
                        ],
                        [
                            5.881976069315309,
                            43.357811205117905
                        ],
                        [
                            5.878001123475961,
                            43.358076241792126
                        ],
                        [
                            5.874026177636615,
                            43.35834127846635
                        ],
                        [
                            5.874026177636615,
                            43.35834127846635
                        ],
                        [
                            5.869025631079859,
                            43.35878332048421
                        ],
                        [
                            5.864025084523105,
                            43.359225362502066
                        ],
                        [
                            5.85902453796635,
                            43.35966740451993
                        ],
                        [
                            5.854023991409598,
                            43.3601094465378
                        ],
                        [
                            5.8490234448528415,
                            43.36055148855566
                        ],
                        [
                            5.844022898296087,
                            43.36099353057352
                        ],
                        [
                            5.8390223517393345,
                            43.36143557259138
                        ],
                        [
                            5.834021805182582,
                            43.36187761460925
                        ],
                        [
                            5.829021258625824,
                            43.362319656627115
                        ],
                        [
                            5.824020712069071,
                            43.36276169864498
                        ],
                        [
                            5.824020712069071,
                            43.36276169864498
                        ],
                        [
                            5.824283417646644,
                            43.36595367080833
                        ],
                        [
                            5.824546123224216,
                            43.36914564297169
                        ],
                        [
                            5.824808828801787,
                            43.37233761513504
                        ],
                        [
                            5.82507153437936,
                            43.375529587298395
                        ],
                        [
                            5.825334239956934,
                            43.378721559461745
                        ],
                        [
                            5.825596945534507,
                            43.381913531625095
                        ],
                        [
                            5.8258596511120775,
                            43.385105503788445
                        ],
                        [
                            5.826122356689652,
                            43.3882974759518
                        ],
                        [
                            5.826385062267223,
                            43.391489448115166
                        ],
                        [
                            5.826647767844795,
                            43.394681420278516
                        ],
                        [
                            5.826647767844795,
                            43.394681420278516
                        ],
                        [
                            5.830757107187754,
                            43.39760832374553
                        ],
                        [
                            5.834866446530713,
                            43.40053522721254
                        ],
                        [
                            5.838975785873677,
                            43.40346213067957
                        ],
                        [
                            5.843085125216636,
                            43.40638903414658
                        ],
                        [
                            5.847194464559596,
                            43.4093159376136
                        ],
                        [
                            5.851303803902555,
                            43.41224284108061
                        ],
                        [
                            5.855413143245515,
                            43.415169744547626
                        ],
                        [
                            5.859522482588476,
                            43.418096648014654
                        ],
                        [
                            5.8636318219314365,
                            43.42102355148166
                        ],
                        [
                            5.867741161274395,
                            43.42395045494868
                        ],
                        [
                            5.867741161274395,
                            43.42395045494868
                        ],
                        [
                            5.864921509934893,
                            43.42483638590975
                        ],
                        [
                            5.8621018585953895,
                            43.425722316870825
                        ],
                        [
                            5.859282207255889,
                            43.4266082478319
                        ],
                        [
                            5.856462555916389,
                            43.42749417879298
                        ],
                        [
                            5.853642904576885,
                            43.42838010975405
                        ],
                        [
                            5.850823253237383,
                            43.42926604071512
                        ],
                        [
                            5.848003601897883,
                            43.430151971676196
                        ],
                        [
                            5.845183950558383,
                            43.43103790263727
                        ],
                        [
                            5.842364299218877,
                            43.43192383359835
                        ],
                        [
                            5.839544647879375,
                            43.432809764559416
                        ],
                        [
                            5.839544647879375,
                            43.432809764559416
                        ],
                        [
                            5.831719816680735,
                            43.43165514843578
                        ],
                        [
                            5.823894985482092,
                            43.43050053231214
                        ],
                        [
                            5.816070154283452,
                            43.429345916188495
                        ],
                        [
                            5.808245323084812,
                            43.42819130006487
                        ],
                        [
                            5.800420491886166,
                            43.427036683941225
                        ],
                        [
                            5.792595660687526,
                            43.425882067817575
                        ],
                        [
                            5.784770829488886,
                            43.42472745169394
                        ],
                        [
                            5.776945998290245,
                            43.423572835570305
                        ],
                        [
                            5.769121167091601,
                            43.42241821944666
                        ],
                        [
                            5.761296335892958,
                            43.42126360332302
                        ],
                        [
                            5.761296335892958,
                            43.42126360332302
                        ],
                        [
                            5.755394828185182,
                            43.420020863890564
                        ],
                        [
                            5.749493320477404,
                            43.418778124458115
                        ],
                        [
                            5.743591812769626,
                            43.41753538502566
                        ],
                        [
                            5.737690305061848,
                            43.4162926455932
                        ],
                        [
                            5.731788797354069,
                            43.415049906160746
                        ],
                        [
                            5.725887289646293,
                            43.41380716672828
                        ],
                        [
                            5.719985781938517,
                            43.41256442729583
                        ],
                        [
                            5.714084274230737,
                            43.41132168786337
                        ],
                        [
                            5.70818276652296,
                            43.410078948430915
                        ],
                        [
                            5.70228125881518,
                            43.40883620899846
                        ],
                        [
                            5.70228125881518,
                            43.40883620899846
                        ],
                        [
                            5.692283538309507,
                            43.410606983214834
                        ],
                        [
                            5.68228581780383,
                            43.41237775743121
                        ],
                        [
                            5.672288097298157,
                            43.41414853164759
                        ],
                        [
                            5.662290376792482,
                            43.41591930586396
                        ],
                        [
                            5.652292656286809,
                            43.417690080080334
                        ],
                        [
                            5.642294935781132,
                            43.4194608542967
                        ],
                        [
                            5.632297215275459,
                            43.42123162851308
                        ],
                        [
                            5.622299494769784,
                            43.42300240272945
                        ],
                        [
                            5.6123017742641075,
                            43.42477317694582
                        ],
                        [
                            5.602304053758434,
                            43.426543951162195
                        ],
                        [
                            5.602304053758434,
                            43.426543951162195
                        ],
                        [
                            5.595247593673847,
                            43.4248575788253
                        ],
                        [
                            5.588191133589255,
                            43.42317120648841
                        ],
                        [
                            5.581134673504668,
                            43.421484834151514
                        ],
                        [
                            5.574078213420078,
                            43.41979846181462
                        ],
                        [
                            5.567021753335489,
                            43.418112089477724
                        ],
                        [
                            5.559965293250899,
                            43.41642571714083
                        ],
                        [
                            5.55290883316631,
                            43.41473934480394
                        ],
                        [
                            5.545852373081722,
                            43.41305297246705
                        ],
                        [
                            5.5387959129971325,
                            43.41136660013015
                        ],
                        [
                            5.531739452912543,
                            43.40968022779325
                        ],
                        [
                            5.531739452912543,
                            43.40968022779325
                        ],
                        [
                            5.529690818614444,
                            43.41136432782306
                        ],
                        [
                            5.5276421843163455,
                            43.413048427852864
                        ],
                        [
                            5.5255935500182485,
                            43.41473252788266
                        ],
                        [
                            5.52354491572015,
                            43.41641662791247
                        ],
                        [
                            5.521496281422051,
                            43.41810072794227
                        ],
                        [
                            5.519447647123952,
                            43.41978482797207
                        ],
                        [
                            5.517399012825857,
                            43.42146892800187
                        ],
                        [
                            5.51535037852776,
                            43.42315302803168
                        ],
                        [
                            5.513301744229661,
                            43.424837128061476
                        ],
                        [
                            5.5112531099315625,
                            43.42652122809128
                        ],
                        [
                            5.5112531099315625,
                            43.42652122809128
                        ],
                        [
                            5.508046785322325,
                            43.42634311191649
                        ],
                        [
                            5.504840460713089,
                            43.426164995741686
                        ],
                        [
                            5.501634136103847,
                            43.42598687956689
                        ],
                        [
                            5.498427811494608,
                            43.4258087633921
                        ],
                        [
                            5.495221486885372,
                            43.4256306472173
                        ],
                        [
                            5.492015162276132,
                            43.4254525310425
                        ],
                        [
                            5.488808837666895,
                            43.42527441486771
                        ],
                        [
                            5.485602513057653,
                            43.4250962986929
                        ],
                        [
                            5.482396188448417,
                            43.424918182518105
                        ],
                        [
                            5.479189863839178,
                            43.42474006634331
                        ],
                        [
                            5.479189863839178,
                            43.42474006634331
                        ],
                        [
                            5.473415733420989,
                            43.42305401403021
                        ],
                        [
                            5.4676416030028,
                            43.4213679617171
                        ],
                        [
                            5.461867472584613,
                            43.41968190940399
                        ],
                        [
                            5.456093342166422,
                            43.417995857090894
                        ],
                        [
                            5.4503192117482335,
                            43.416309804777775
                        ],
                        [
                            5.444545081330046,
                            43.41462375246468
                        ],
                        [
                            5.438770950911858,
                            43.41293770015157
                        ],
                        [
                            5.432996820493669,
                            43.41125164783846
                        ],
                        [
                            5.427222690075478,
                            43.40956559552536
                        ],
                        [
                            5.421448559657291,
                            43.407879543212246
                        ],
                        [
                            5.421448559657291,
                            43.407879543212246
                        ],
                        [
                            5.416963762114307,
                            43.40974035125296
                        ],
                        [
                            5.412478964571324,
                            43.41160115929366
                        ],
                        [
                            5.407994167028338,
                            43.413461967334364
                        ],
                        [
                            5.4035093694853575,
                            43.415322775375074
                        ],
                        [
                            5.399024571942373,
                            43.41718358341577
                        ],
                        [
                            5.394539774399391,
                            43.41904439145648
                        ],
                        [
                            5.390054976856405,
                            43.42090519949719
                        ],
                        [
                            5.385570179313422,
                            43.422766007537895
                        ],
                        [
                            5.381085381770438,
                            43.4246268155786
                        ],
                        [
                            5.376600584227456,
                            43.4264876236193
                        ],
                        [
                            5.376600584227456,
                            43.4264876236193
                        ],
                        [
                            5.3714807031753615,
                            43.43154012507381
                        ],
                        [
                            5.366360822123266,
                            43.4365926265283
                        ],
                        [
                            5.361240941071173,
                            43.44164512798281
                        ],
                        [
                            5.356121060019083,
                            43.4466976294373
                        ],
                        [
                            5.351001178966987,
                            43.4517501308918
                        ],
                        [
                            5.345881297914893,
                            43.45680263234631
                        ],
                        [
                            5.340761416862801,
                            43.4618551338008
                        ],
                        [
                            5.335641535810707,
                            43.46690763525531
                        ],
                        [
                            5.330521654758613,
                            43.471960136709804
                        ],
                        [
                            5.325401773706519,
                            43.477012638164304
                        ],
                        [
                            5.325401773706519,
                            43.477012638164304
                        ],
                        [
                            5.324633573812324,
                            43.47763310710891
                        ],
                        [
                            5.323865373918132,
                            43.478253576053504
                        ],
                        [
                            5.323097174023937,
                            43.47887404499811
                        ],
                        [
                            5.322328974129745,
                            43.4794945139427
                        ],
                        [
                            5.321560774235552,
                            43.4801149828873
                        ],
                        [
                            5.320792574341359,
                            43.4807354518319
                        ],
                        [
                            5.320024374447165,
                            43.4813559207765
                        ],
                        [
                            5.319256174552972,
                            43.4819763897211
                        ],
                        [
                            5.318487974658778,
                            43.482596858665694
                        ],
                        [
                            5.3177197747645835,
                            43.483217327610284
                        ]
                    ]
                ]
            }
        }
    ]
}