{"type": "FeatureCollection", "features": [{"type": "Feature", "properties": {"diocese": "Troyes", "province": "XV_Sens", "source": "105_Troyes.txt"}, "geometry": {"type": "Polygon", "coordinates": [[[3.6770469035389834, 48.85474621117681], [3.6756342083003744, 48.85368189704373], [3.6742215130617626, 48.85261758291065], [3.6728088178231535, 48.85155326877759], [3.6713961225845426, 48.85048895464452], [3.6699834273459335, 48.84942464051145], [3.6685707321073218, 48.848360326378376], [3.667158036868712, 48.84729601224531], [3.665745341630101, 48.846231698112234], [3.664332646391492, 48.84516738397917], [3.66291995115288, 48.84410306984609], [3.66291995115288, 48.84410306984609], [3.6592002733094984, 48.84374749315817], [3.655480595466115, 48.843391916470246], [3.6517609176227297, 48.843036339782316], [3.648041239779347, 48.84268076309439], [3.6443215619359646, 48.84232518640647], [3.640601884092582, 48.841969609718554], [3.6368822062491986, 48.84161403303063], [3.6331625284058124, 48.84125845634271], [3.62944285056243, 48.84090287965478], [3.6257231727190473, 48.840547302966854], [3.6257231727190473, 48.840547302966854], [3.6185402775185636, 48.83979240418406], [3.6113573823180762, 48.839037505401265], [3.604174487117588, 48.83828260661847], [3.5969915919171043, 48.83752770783568], [3.589808696716618, 48.83677280905288], [3.5826258015161305, 48.83601791027009], [3.575442906315645, 48.8352630114873], [3.5682600111151603, 48.834508112704505], [3.561077115914673, 48.8337532139217], [3.5538942207141866, 48.83299831513891], [3.5538942207141866, 48.83299831513891], [3.5475490063291635, 48.83397202970964], [3.5412037919441404, 48.834945744280375], [3.5348585775591155, 48.83591945885111], [3.5285133631740906, 48.836893173421835], [3.522168148789065, 48.83786688799257], [3.5158229344040417, 48.8388406025633], [3.5094777200190186, 48.83981431713403], [3.5031325056339937, 48.84078803170476], [3.4967872912489697, 48.84176174627549], [3.490442076863945, 48.842735460846214], [3.490442076863945, 48.842735460846214], [3.486015431442351, 48.841936384932254], [3.4815887860207533, 48.84113730901829], [3.477162140599155, 48.84033823310433], [3.472735495177559, 48.839539157190366], [3.4683088497559624, 48.838740081276406], [3.4638822043343667, 48.837941005362445], [3.459455558912771, 48.837141929448485], [3.455028913491175, 48.83634285353452], [3.4506022680695767, 48.83554377762056], [3.4461756226479827, 48.8347447017066], [3.4461756226479827, 48.8347447017066], [3.4439330737682767, 48.835187459369095], [3.4416905248885734, 48.83563021703159], [3.4394479760088656, 48.83607297469409], [3.4372054271291597, 48.83651573235659], [3.4349628782494546, 48.836958490019086], [3.4327203293697495, 48.83740124768159], [3.4304777804900435, 48.83784400534409], [3.4282352316103375, 48.83828676300658], [3.4259926827306324, 48.83872952066908], [3.4237501338509264, 48.83917227833158], [3.4237501338509264, 48.83917227833158], [3.421426074306328, 48.83345132696075], [3.4191020147617315, 48.82773037558991], [3.416777955217134, 48.82200942421907], [3.4144538956725357, 48.816288472848235], [3.4121298361279373, 48.810567521477395], [3.40980577658334, 48.80484657010656], [3.4074817170387415, 48.79912561873573], [3.405157657494143, 48.79340466736489], [3.4028335979495474, 48.787683715994056], [3.400509538404949, 48.781962764623216], [3.400509538404949, 48.781962764623216], [3.4006882005451975, 48.78083475791458], [3.4008668626854477, 48.77970675120596], [3.401045524825696, 48.77857874449734], [3.4012241869659436, 48.7774507377887], [3.401402849106192, 48.77632273108007], [3.4015815112464405, 48.775194724371445], [3.401760173386689, 48.77406671766282], [3.4019388355269364, 48.772938710954186], [3.4021174976671866, 48.77181070424556], [3.402296159807435, 48.77068269753693], [3.402296159807435, 48.77068269753693], [3.404104686084756, 48.76792390532845], [3.405913212362077, 48.76516511311996], [3.407721738639394, 48.762406320911474], [3.409530264916714, 48.75964752870299], [3.411338791194035, 48.7568887364945], [3.413147317471356, 48.754129944286014], [3.414955843748674, 48.75137115207753], [3.416764370025993, 48.74861235986904], [3.418572896303314, 48.74585356766056], [3.420381422580635, 48.74309477545207], [3.420381422580635, 48.74309477545207], [3.421101285851574, 48.74058782076182], [3.4218211491225135, 48.738080866071556], [3.422541012393451, 48.7355739113813], [3.4232608756643903, 48.73306695669104], [3.4239807389353296, 48.730560002000786], [3.424700602206269, 48.72805304731052], [3.4254204654772082, 48.72554609262027], [3.4261403287481476, 48.72303913793001], [3.426860192019085, 48.72053218323975], [3.4275800552900244, 48.718025228549486], [3.4275800552900244, 48.718025228549486], [3.430302323936671, 48.71877794212829], [3.433024592583321, 48.71953065570709], [3.435746861229967, 48.72028336928589], [3.4384691298766143, 48.72103608286469], [3.441191398523262, 48.72178879644349], [3.44391366716991, 48.72254151002229], [3.446635935816557, 48.72329422360109], [3.4493582044632025, 48.72404693717988], [3.452080473109851, 48.724799650758676], [3.4548027417564993, 48.72555236433748], [3.4548027417564993, 48.72555236433748], [3.456249941358092, 48.723672640013035], [3.4576971409596866, 48.7217929156886], [3.4591443405612803, 48.719913191364164], [3.4605915401628757, 48.71803346703973], [3.4620387397644703, 48.716153742715285], [3.463485939366065, 48.714274018390846], [3.4649331389676603, 48.712394294066414], [3.466380338569253, 48.710514569741974], [3.4678275381708485, 48.708634845417535], [3.4692747377724413, 48.706755121093096], [3.4692747377724413, 48.706755121093096], [3.469629127468139, 48.702240865839016], [3.469983517163835, 48.697726610584944], [3.4703379068595326, 48.69321235533086], [3.4706922965552285, 48.68869810007678], [3.4710466862509253, 48.6841838448227], [3.471401075946621, 48.67966958956861], [3.471755465642319, 48.67515533431453], [3.4721098553380148, 48.67064107906046], [3.4724642450337107, 48.66612682380638], [3.4728186347294074, 48.6616125685523], [3.4728186347294074, 48.6616125685523], [3.4708196997966714, 48.66023298664322], [3.468820764863939, 48.65885340473416], [3.4668218299312055, 48.65747382282508], [3.4648228949984694, 48.65609424091601], [3.4628239600657342, 48.654714659006935], [3.460825025132998, 48.653335077097864], [3.458826090200264, 48.6519554951888], [3.4568271552675287, 48.650575913279724], [3.454828220334797, 48.64919633137065], [3.452829285402061, 48.647816749461576], [3.452829285402061, 48.647816749461576], [3.453185128619243, 48.644055595289025], [3.453540971836422, 48.640294441116474], [3.453896815053605, 48.63653328694392], [3.4542526582707853, 48.63277213277137], [3.4546085014879675, 48.62901097859882], [3.454964344705148, 48.62524982442627], [3.4553201879223283, 48.62148867025371], [3.4556760311395087, 48.61772751608116], [3.456031874356689, 48.6139663619086], [3.456387717573872, 48.61020520773606], [3.456387717573872, 48.61020520773606], [3.450941293831494, 48.606943613441516], [3.4454948700891177, 48.60368201914698], [3.4400484463467396, 48.60042042485244], [3.434602022604363, 48.5971588305579], [3.429155598861984, 48.593897236263366], [3.4237091751196087, 48.59063564196883], [3.4182627513772315, 48.58737404767429], [3.412816327634854, 48.58411245337976], [3.4073699038924787, 48.58085085908522], [3.4019234801500997, 48.577589264790674], [3.4019234801500997, 48.577589264790674], [3.402460566050539, 48.574078126547775], [3.4029976519509764, 48.57056698830486], [3.4035347378514156, 48.56705585006195], [3.404071823751855, 48.56354471181904], [3.4046089096522905, 48.56003357357613], [3.4051459955527297, 48.55652243533323], [3.405683081453169, 48.55301129709031], [3.4062201673536046, 48.549500158847394], [3.4067572532540455, 48.545989020604495], [3.407294339154483, 48.54247788236158], [3.407294339154483, 48.54247788236158], [3.4083745642107393, 48.53859192908929], [3.4094547892669955, 48.53470597581701], [3.410535014323249, 48.530820022544724], [3.4116152393795054, 48.52693406927245], [3.4126954644357634, 48.52304811600017], [3.413775689492018, 48.51916216272788], [3.414855914548274, 48.51527620945559], [3.4159361396045305, 48.511390256183304], [3.417016364660785, 48.50750430291103], [3.4180965897170403, 48.50361834963874], [3.4180965897170403, 48.50361834963874], [3.423172780109271, 48.50236551330845], [3.428248970501501, 48.501112676978146], [3.4333251608937325, 48.499859840647865], [3.4384013512859615, 48.49860700431757], [3.443477541678193, 48.49735416798727], [3.4485537320704247, 48.49610133165698], [3.4536299224626537, 48.49484849532669], [3.4587061128548853, 48.49359565899639], [3.4637823032471133, 48.492342822666096], [3.468858493639344, 48.491089986335815], [3.468858493639344, 48.491089986335815], [3.4679319252136085, 48.48093302187612], [3.4670053567878685, 48.47077605741643], [3.466078788362133, 48.46061909295674], [3.465152219936393, 48.450462128497044], [3.4642256515106573, 48.440305164037355], [3.4632990830849217, 48.430148199577665], [3.4623725146591817, 48.41999123511796], [3.461445946233446, 48.40983427065827], [3.460519377807707, 48.39967730619858], [3.4595928093819706, 48.38952034173889], [3.4595928093819706, 48.38952034173889], [3.4579534770073974, 48.3855076578918], [3.456314144632825, 48.381494974044706], [3.4546748122582476, 48.377482290197605], [3.4530354798836753, 48.37346960635052], [3.451396147509103, 48.369456922503424], [3.449756815134529, 48.36544423865632], [3.4481174827599568, 48.36143155480923], [3.446478150385381, 48.357418870962135], [3.4448388180108087, 48.35340618711504], [3.4431994856362356, 48.349393503267954], [3.4431994856362356, 48.349393503267954], [3.4462782737245363, 48.34751418612985], [3.449357061812837, 48.34563486899175], [3.452435849901138, 48.34375555185367], [3.455514637989437, 48.34187623471557], [3.4585934260777402, 48.33999691757747], [3.461672214166041, 48.338117600439375], [3.4647510022543417, 48.336238283301284], [3.4678297903426425, 48.334358966163194], [3.4709085784309415, 48.33247964902509], [3.4739873665192422, 48.33060033188699], [3.4739873665192422, 48.33060033188699], [3.4781570759848113, 48.32959830108118], [3.482326785450374, 48.32859627027536], [3.4864964949159405, 48.32759423946955], [3.490666204381507, 48.32659220866373], [3.4948359138470724, 48.32559017785792], [3.4990056233126414, 48.324588147052104], [3.5031753327782043, 48.32358611624629], [3.5073450422437715, 48.32258408544047], [3.511514751709337, 48.32158205463465], [3.5156844611749025, 48.32058002382884], [3.5156844611749025, 48.32058002382884], [3.5173107241961907, 48.31782119160327], [3.51893698721748, 48.31506235937772], [3.52056325023877, 48.31230352715215], [3.522189513260057, 48.3095446949266], [3.5238157762813462, 48.306785862701034], [3.5254420393026327, 48.30402703047548], [3.5270683023239218, 48.30126819824992], [3.528694565345211, 48.29850936602436], [3.530320828366499, 48.2957505337988], [3.5319470913877864, 48.29299170157324], [3.5319470913877864, 48.29299170157324], [3.5368431977769927, 48.292867943587304], [3.541739304166199, 48.29274418560135], [3.5466354105554037, 48.292620427615404], [3.551531516944611, 48.29249666962946], [3.556427623333819, 48.29237291164352], [3.5613237297230254, 48.29224915365757], [3.5662198361122317, 48.292125395671626], [3.5711159425014363, 48.29200163768568], [3.5760120488906435, 48.29187787969974], [3.580908155279848, 48.29175412171379], [3.580908155279848, 48.29175412171379], [3.581445968970248, 48.28862006727251], [3.581983782660649, 48.285486012831235], [3.582521596351047, 48.28235195838995], [3.583059410041449, 48.279217903948684], [3.583597223731847, 48.2760838495074], [3.584135037422245, 48.27294979506613], [3.584672851112647, 48.26981574062485], [3.585210664803047, 48.266681686183574], [3.585748478493447, 48.2635476317423], [3.586286292183845, 48.26041357730102], [3.586286292183845, 48.26041357730102], [3.589907782372934, 48.25715424056532], [3.5935292725620216, 48.253894903829625], [3.597150762751109, 48.250635567093916], [3.6007722529401964, 48.24737623035822], [3.604393743129284, 48.24411689362252], [3.6080152333183713, 48.240857556886816], [3.611636723507457, 48.23759822015111], [3.615258213696546, 48.23433888341542], [3.6188797038856353, 48.23107954667971], [3.6225011940747227, 48.227820209944014], [3.6225011940747227, 48.227820209944014], [3.6219517645525214, 48.224935849394164], [3.62140233503032, 48.22205148884431], [3.6208529055081216, 48.219167128294465], [3.6203034759859203, 48.21628276774461], [3.619754046463719, 48.21339840719476], [3.6192046169415195, 48.21051404664491], [3.61865518741932, 48.20762968609506], [3.6181057578971187, 48.20474532554522], [3.6175563283749175, 48.20186096499536], [3.617006898852719, 48.198976604445505], [3.617006898852719, 48.198976604445505], [3.617184271650482, 48.19722154856652], [3.6173616444482453, 48.19546649268752], [3.617539017246005, 48.193711436808535], [3.617716390043768, 48.19195638092953], [3.6178937628415304, 48.19020132505054], [3.6180711356392936, 48.18844626917155], [3.618248508437057, 48.186691213292555], [3.6184258812348173, 48.18493615741356], [3.6186032540325805, 48.183181101534565], [3.618780626830342, 48.18142604565558], [3.618780626830342, 48.18142604565558], [3.622044901435969, 48.18117582308304], [3.625309176041593, 48.1809256005105], [3.628573450647218, 48.180675377937966], [3.631837725252842, 48.18042515536543], [3.6351019998584673, 48.180174932792895], [3.638366274464094, 48.17992471022036], [3.6416305490697174, 48.179674487647816], [3.6448948236753433, 48.17942426507528], [3.6481590982809684, 48.179174042502744], [3.6514233728865944, 48.17892381993021], [3.6514233728865944, 48.17892381993021], [3.6550523141701796, 48.18030381410012], [3.658681255453764, 48.18168380827002], [3.6623101967373493, 48.18306380243994], [3.6659391380209345, 48.18444379660985], [3.6695680793045216, 48.18582379077976], [3.6731970205881077, 48.187203784949666], [3.676825961871693, 48.188583779119575], [3.6804549031552782, 48.18996377328949], [3.6840838444388635, 48.1913437674594], [3.6877127857224488, 48.19272376162932], [3.6877127857224488, 48.19272376162932], [3.689888773117745, 48.192223302230474], [3.6920647605130434, 48.19172284283165], [3.6942407479083363, 48.191222383432816], [3.6964167353036337, 48.190721924033994], [3.69859272269893, 48.19022146463516], [3.7007687100942257, 48.18972100523633], [3.702944697489525, 48.18922054583749], [3.705120684884817, 48.18872008643867], [3.707296672280115, 48.18821962703984], [3.7094726596754115, 48.18771916764101], [3.7094726596754115, 48.18771916764101], [3.7076551772060644, 48.185837562047034], [3.7058376947367164, 48.18395595645306], [3.70402021226737, 48.1820743508591], [3.7022027297980222, 48.180192745265124], [3.7003852473286742, 48.17831113967115], [3.698567764859327, 48.17642953407719], [3.6967502823899783, 48.174547928483214], [3.694932799920631, 48.17266632288925], [3.693115317451284, 48.17078471729528], [3.691297834981936, 48.168903111701304], [3.691297834981936, 48.168903111701304], [3.6927398732971093, 48.16439019987614], [3.694181911612286, 48.15987728805095], [3.69562394992746, 48.15536437622577], [3.697065988242635, 48.1508514644006], [3.69850802655781, 48.146338552575415], [3.6999500648729833, 48.14182564075024], [3.701392103188159, 48.13731272892506], [3.702834141503334, 48.13279981709988], [3.704276179818509, 48.128286905274706], [3.705718218133683, 48.123773993449525], [3.705718218133683, 48.123773993449525], [3.708259433748909, 48.12515371069252], [3.7108006493641343, 48.12653342793554], [3.7133418649793613, 48.12791314517854], [3.7158830805945837, 48.12929286242155], [3.7184242962098097, 48.13067257966455], [3.7209655118250375, 48.13205229690755], [3.723506727440261, 48.133432014150564], [3.726047943055487, 48.13481173139357], [3.728589158670712, 48.136191448636566], [3.731130374285939, 48.13757116587958], [3.731130374285939, 48.13757116587958], [3.7323994732998105, 48.137069413632496], [3.7336685723136775, 48.13656766138542], [3.734937671327549, 48.13606590913834], [3.7362067703414223, 48.13556415689126], [3.737475869355294, 48.13506240464419], [3.738744968369161, 48.13456065239711], [3.7400140673830324, 48.13405890015002], [3.741283166396905, 48.133557147902955], [3.7425522654107746, 48.13305539565587], [3.7438213644246443, 48.1325536434088], [3.7438213644246443, 48.1325536434088], [3.743090933457625, 48.12954425780781], [3.742360502490604, 48.12653487220683], [3.741630071523583, 48.12352548660584], [3.7408996405565618, 48.12051610100486], [3.740169209589538, 48.11750671540387], [3.739438778622517, 48.11449732980289], [3.738708347655496, 48.111487944201905], [3.737977916688475, 48.108478558600915], [3.7372474857214537, 48.10546917299993], [3.7365170547544344, 48.10245978739895], [3.7365170547544344, 48.10245978739895], [3.737239985119906, 48.10158294827009], [3.737962915485379, 48.10070610914123], [3.7386858458508505, 48.099829270012364], [3.7394087762163246, 48.09895243088351], [3.740131706581796, 48.09807559175464], [3.740854636947271, 48.09719875262578], [3.7415775673127443, 48.09632191349692], [3.7423004976782157, 48.09544507436806], [3.743023428043689, 48.094568235239194], [3.7437463584091604, 48.09369139611033], [3.7437463584091604, 48.09369139611033], [3.746830278194168, 48.093692165746816], [3.7499141979791744, 48.093692935383295], [3.752998117764179, 48.09369370501978], [3.7560820375491883, 48.09369447465626], [3.759165957334195, 48.09369524429274], [3.7622498771192014, 48.09369601392922], [3.765333796904209, 48.093696783565704], [3.7684177166892137, 48.093697553202176], [3.77150163647422, 48.093698322838655], [3.7745855562592276, 48.09369909247514], [3.7745855562592276, 48.09369909247514], [3.7763998409506763, 48.094702616672656], [3.778214125642124, 48.09570614087016], [3.7800284103335726, 48.096709665067685], [3.781842695025022, 48.0977131892652], [3.783656979716469, 48.09871671346271], [3.785471264407914, 48.09972023766022], [3.7872855490993618, 48.100723761857736], [3.7890998337908104, 48.10172728605526], [3.79091411848226, 48.10273081025276], [3.7927284031737067, 48.10373433445028], [3.7927284031737067, 48.10373433445028], [3.7949047088352104, 48.10335778848928], [3.797081014496714, 48.10298124252827], [3.799257320158213, 48.10260469656726], [3.801433625819716, 48.102228150606265], [3.8036099314812195, 48.101851604645255], [3.8057862371427214, 48.10147505868425], [3.807962542804223, 48.101098512723254], [3.810138848465724, 48.10072196676225], [3.8123151541272278, 48.10034542080125], [3.8144914597887305, 48.09996887484024], [3.8144914597887305, 48.09996887484024], [3.8190271252747423, 48.10122410994723], [3.823562790760755, 48.102479345054235], [3.8280984562467704, 48.10373458016123], [3.8326341217327813, 48.10498981526822], [3.837169787218794, 48.10624505037522], [3.8417054527048076, 48.10750028548221], [3.8462411181908185, 48.108755520589206], [3.850776783676833, 48.1100107556962], [3.8553124491628465, 48.1112659908032], [3.8598481146488575, 48.11252122591019], [3.8598481146488575, 48.11252122591019], [3.8654659906754216, 48.110140473468995], [3.871083866701985, 48.107759721027804], [3.876701742728549, 48.105378968586614], [3.8823196187551114, 48.102998216145416], [3.8879374947816765, 48.100617463704225], [3.8935553708082407, 48.09823671126303], [3.899173246834804, 48.095855958821836], [3.904791122861368, 48.09347520638064], [3.9104089988879305, 48.09109445393944], [3.9160268749144955, 48.08871370149825], [3.9160268749144955, 48.08871370149825], [3.920001979560707, 48.081317198404335], [3.9239770842069164, 48.07392069531043], [3.927952188853127, 48.06652419221652], [3.931927293499339, 48.059127689122604], [3.9359023981455477, 48.05173118602869], [3.93987750279176, 48.04433468293478], [3.943852607437972, 48.036938179840874], [3.94782771208418, 48.029541676746966], [3.951802816730391, 48.02214517365306], [3.9557779213766033, 48.01474867055914], [3.9557779213766033, 48.01474867055914], [3.9633962964124563, 48.015377626152], [3.971014671448311, 48.01600658174485], [3.978633046484164, 48.0166355373377], [3.986251421520017, 48.01726449293055], [3.9938697965558716, 48.01789344852341], [4.001488171591722, 48.01852240411626], [4.009106546627576, 48.01915135970911], [4.016724921663432, 48.019780315301965], [4.024343296699286, 48.020409270894824], [4.031961671735139, 48.021038226487676], [4.031961671735139, 48.021038226487676], [4.034328581668248, 48.02580312610976], [4.036695491601357, 48.03056802573184], [4.039062401534466, 48.03533292535391], [4.041429311467576, 48.040097824975994], [4.043796221400685, 48.04486272459808], [4.046163131333794, 48.04962762422015], [4.048530041266902, 48.05439252384224], [4.050896951200015, 48.05915742346432], [4.053263861133123, 48.0639223230864], [4.055630771066232, 48.068687222708476], [4.055630771066232, 48.068687222708476], [4.0594415702095255, 48.06981622504448], [4.063252369352821, 48.07094522738047], [4.067063168496116, 48.07207422971647], [4.070873967639413, 48.07320323205247], [4.074684766782708, 48.074332234388464], [4.078495565926, 48.075461236724465], [4.082306365069297, 48.076590239060465], [4.086117164212592, 48.077719241396466], [4.089927963355887, 48.07884824373246], [4.09373876249918, 48.07997724606845], [4.09373876249918, 48.07997724606845], [4.100260570346597, 48.07684468501888], [4.10678237819401, 48.0737121239693], [4.1133041860414234, 48.07057956291972], [4.119825993888838, 48.06744700187014], [4.12634780173625, 48.06431444082057], [4.132869609583665, 48.061181879770984], [4.139391417431078, 48.058049318721395], [4.145913225278491, 48.05491675767182], [4.152435033125904, 48.05178419662224], [4.158956840973319, 48.04865163557267], [4.158956840973319, 48.04865163557267], [4.160408153736171, 48.04890302951843], [4.161859466499024, 48.04915442346419], [4.1633107792618755, 48.04940581740995], [4.164762092024727, 48.049657211355715], [4.16621340478758, 48.04990860530147], [4.1676647175504336, 48.050159999247235], [4.169116030313285, 48.05041139319299], [4.1705673430761365, 48.05066278713875], [4.172018655838988, 48.05091418108451], [4.173469968601841, 48.05116557503027], [4.173469968601841, 48.05116557503027], [4.173479163952754, 48.055929886250816], [4.173488359303667, 48.06069419747135], [4.173497554654579, 48.06545850869188], [4.173506750005492, 48.07022281991243], [4.173515945356405, 48.074987131132964], [4.1735251407073175, 48.079751442353505], [4.173534336058232, 48.084515753574046], [4.1735435314091465, 48.08928006479459], [4.173552726760059, 48.09404437601513], [4.173561922110972, 48.09880868723566], [4.173561922110972, 48.09880868723566], [4.178095944423665, 48.09843380166729], [4.182629966736357, 48.09805891609891], [4.187163989049051, 48.09768403053052], [4.191698011361744, 48.09730914496213], [4.196232033674436, 48.096934259393755], [4.200766055987129, 48.09655937382537], [4.205300078299821, 48.096184488256995], [4.209834100612515, 48.09580960268862], [4.214368122925208, 48.095434717120234], [4.2189021452379, 48.09505983155185], [4.2189021452379, 48.09505983155185], [4.221443119635802, 48.096314568855036], [4.223984094033705, 48.09756930615821], [4.226525068431604, 48.0988240434614], [4.229066042829507, 48.100078780764576], [4.231607017227407, 48.10133351806776], [4.23414799162531, 48.10258825537094], [4.236688966023211, 48.103842992674124], [4.239229940421112, 48.10509772997731], [4.241770914819014, 48.106352467280495], [4.244311889216915, 48.10760720458368], [4.244311889216915, 48.10760720458368], [4.243774316743838, 48.11086623896478], [4.24323674427076, 48.11412527334587], [4.242699171797689, 48.11738430772697], [4.242161599324611, 48.120643342108075], [4.241624026851536, 48.12390237648918], [4.241086454378463, 48.12716141087027], [4.240548881905385, 48.130420445251374], [4.24001130943231, 48.13367947963248], [4.239473736959235, 48.13693851401358], [4.238936164486159, 48.140197548394674], [4.238936164486159, 48.140197548394674], [4.241119118461755, 48.144085382561386], [4.2433020724373485, 48.1479732167281], [4.245485026412943, 48.15186105089481], [4.24766798038854, 48.15574888506152], [4.249850934364137, 48.159636719228224], [4.2520338883397315, 48.163524553394936], [4.254216842315326, 48.16741238756165], [4.256399796290921, 48.17130022172835], [4.258582750266516, 48.17518805589507], [4.260765704242111, 48.179075890061775], [4.260765704242111, 48.179075890061775], [4.2671163191241845, 48.180080546365645], [4.273466934006263, 48.18108520266952], [4.279817548888339, 48.18208985897339], [4.286168163770414, 48.18309451527727], [4.292518778652489, 48.184099171581146], [4.298869393534563, 48.185103827885015], [4.30522000841664, 48.18610848418889], [4.311570623298715, 48.18711314049276], [4.3179212381807925, 48.18811779679664], [4.324271853062866, 48.18912245310051], [4.324271853062866, 48.18912245310051], [4.327181737972795, 48.19338648578206], [4.330091622882723, 48.197650518463604], [4.333001507792654, 48.201914551145144], [4.335911392702581, 48.20617858382669], [4.338821277612508, 48.21044261650824], [4.3417311625224375, 48.21470664918977], [4.344641047432365, 48.21897068187132], [4.347550932342294, 48.223234714552866], [4.350460817252225, 48.22749874723441], [4.353370702162152, 48.231762779915954], [4.353370702162152, 48.231762779915954], [4.3573656510316745, 48.23464800034465], [4.361360599901197, 48.23753322077335], [4.365355548770715, 48.24041844120204], [4.369350497640239, 48.24330366163073], [4.373345446509759, 48.24618888205943], [4.37734039537928, 48.24907410248812], [4.381335344248804, 48.25195932291682], [4.385330293118322, 48.25484454334552], [4.389325241987844, 48.257729763774215], [4.3933201908573665, 48.26061498420291], [4.3933201908573665, 48.26061498420291], [4.403475587170872, 48.26049146675774], [4.413630983484378, 48.26036794931258], [4.423786379797884, 48.26024443186741], [4.433941776111391, 48.26012091442225], [4.444097172424897, 48.259997396977084], [4.4542525687384025, 48.25987387953192], [4.46440796505191, 48.259750362086756], [4.474563361365416, 48.259626844641595], [4.484718757678921, 48.25950332719643], [4.494874153992427, 48.259379809751266], [4.494874153992427, 48.259379809751266], [4.496322561770748, 48.25812606805571], [4.497770969549071, 48.25687232636015], [4.499219377327396, 48.255618584664596], [4.500667785105714, 48.254364842969046], [4.502116192884037, 48.25311110127349], [4.50356460066236, 48.25185735957793], [4.505013008440681, 48.250603617882376], [4.506461416219004, 48.24934987618682], [4.507909823997323, 48.24809613449126], [4.509358231775646, 48.246842392795706], [4.509358231775646, 48.246842392795706], [4.5106217661652135, 48.24345748771864], [4.5118853005547805, 48.24007258264158], [4.513148834944348, 48.23668767756452], [4.514412369333915, 48.23330277248745], [4.515675903723482, 48.22991786741038], [4.516939438113049, 48.22653296233332], [4.518202972502616, 48.22314805725625], [4.519466506892183, 48.21976315217919], [4.52073004128175, 48.21637824710212], [4.5219935756713205, 48.21299334202505], [4.5219935756713205, 48.21299334202505], [4.525618888286733, 48.212493244326154], [4.529244200902147, 48.21199314662725], [4.532869513517561, 48.21149304892835], [4.5364948261329765, 48.21099295122944], [4.540120138748392, 48.210492853530546], [4.543745451363806, 48.20999275583164], [4.547370763979222, 48.20949265813273], [4.550996076594636, 48.20899256043383], [4.554621389210052, 48.20849246273493], [4.558246701825466, 48.20799236503603], [4.558246701825466, 48.20799236503603], [4.561691495441261, 48.20761720763498], [4.565136289057062, 48.20724205023393], [4.568581082672859, 48.206866892832885], [4.572025876288656, 48.20649173543184], [4.5754706699044565, 48.20611657803079], [4.578915463520252, 48.205741420629735], [4.582360257136051, 48.20536626322868], [4.585805050751848, 48.20499110582764], [4.589249844367648, 48.20461594842659], [4.592694637983444, 48.20424079102554], [4.592694637983444, 48.20424079102554], [4.5972385813785746, 48.209006233957595], [4.601782524773704, 48.21377167688965], [4.606326468168831, 48.2185371198217], [4.610870411563962, 48.22330256275375], [4.615414354959089, 48.228068005685806], [4.61995829835422, 48.23283344861786], [4.624502241749349, 48.237598891549915], [4.629046185144476, 48.24236433448196], [4.633590128539607, 48.24712977741402], [4.638134071934736, 48.25189522034607], [4.638134071934736, 48.25189522034607], [4.644662413424296, 48.25214788133728], [4.651190754913854, 48.25240054232848], [4.657719096403415, 48.25265320331968], [4.664247437892973, 48.2529058643109], [4.670775779382531, 48.2531585253021], [4.677304120872089, 48.253411186293306], [4.683832462361648, 48.253663847284514], [4.690360803851206, 48.25391650827572], [4.696889145340766, 48.25416916926693], [4.703417486830325, 48.25442183025814], [4.703417486830325, 48.25442183025814], [4.706503421699898, 48.25542567181422], [4.709589356569468, 48.25642951337031], [4.712675291439043, 48.257433354926384], [4.715761226308613, 48.25843719648246], [4.718847161178186, 48.259441038038545], [4.721933096047756, 48.26044487959463], [4.725019030917327, 48.261448721150714], [4.728104965786901, 48.26245256270679], [4.731190900656472, 48.26345640426288], [4.734276835526044, 48.26446024581896], [4.734276835526044, 48.26446024581896], [4.735732018174392, 48.26671671157336], [4.7371872008227385, 48.26897317732775], [4.7386423834710865, 48.27122964308215], [4.7400975661194344, 48.27348610883655], [4.741552748767782, 48.27574257459094], [4.74300793141613, 48.27799904034534], [4.744463114064475, 48.280255506099735], [4.745918296712823, 48.28251197185413], [4.747373479361173, 48.28476843760853], [4.748828662009517, 48.287024903362926], [4.748828662009517, 48.287024903362926], [4.751909548185067, 48.28627363804477], [4.754990434360616, 48.28552237272662], [4.7580713205361675, 48.28477110740846], [4.761152206711715, 48.28401984209031], [4.764233092887263, 48.28326857677215], [4.767313979062813, 48.282517311454], [4.770394865238362, 48.28176604613584], [4.77347575141391, 48.281014780817685], [4.77655663758946, 48.28026351549953], [4.779637523765009, 48.27951225018138], [4.779637523765009, 48.27951225018138], [4.780904445584312, 48.277882446094615], [4.782171367403615, 48.276252642007854], [4.783438289222916, 48.27462283792109], [4.7847052110422155, 48.27299303383434], [4.785972132861518, 48.27136322974758], [4.787239054680821, 48.26973342566082], [4.788505976500124, 48.26810362157405], [4.789772898319423, 48.2664738174873], [4.791039820138726, 48.264844013400534], [4.792306741958029, 48.26321420931377], [4.792306741958029, 48.26321420931377], [4.794663809916024, 48.26283878045516], [4.797020877874015, 48.26246335159655], [4.799377945832012, 48.26208792273794], [4.801735013790005, 48.26171249387933], [4.804092081747999, 48.26133706502072], [4.806449149705992, 48.26096163616211], [4.808806217663983, 48.2605862073035], [4.81116328562198, 48.260210778444886], [4.813520353579971, 48.259835349586275], [4.815877421537966, 48.259459920727664], [4.815877421537966, 48.259459920727664], [4.8155225473280705, 48.263723138641666], [4.815167673118175, 48.26798635655568], [4.81481279890828, 48.27224957446969], [4.814457924698386, 48.276512792383706], [4.814103050488491, 48.280776010297714], [4.813748176278594, 48.28503922821172], [4.8133933020687, 48.28930244612573], [4.813038427858803, 48.29356566403974], [4.81268355364891, 48.297828881953755], [4.8123286794390125, 48.30209209986776], [4.8123286794390125, 48.30209209986776], [4.810157695115494, 48.30522574672786], [4.807986710791978, 48.308359393587935], [4.805815726468461, 48.31149304044802], [4.803644742144943, 48.314626687308106], [4.801473757821425, 48.317760334168184], [4.79930277349791, 48.32089398102828], [4.797131789174392, 48.32402762788836], [4.794960804850875, 48.32716127474845], [4.792789820527357, 48.330294921608534], [4.790618836203839, 48.33342856846861], [4.790618836203839, 48.33342856846861], [4.793707676057942, 48.33593754566602], [4.796796515912044, 48.338446522863414], [4.799885355766147, 48.340955500060815], [4.80297419562025, 48.34346447725821], [4.8060630354743505, 48.3459734544556], [4.809151875328453, 48.34848243165301], [4.812240715182554, 48.350991408850405], [4.815329555036657, 48.3535003860478], [4.818418394890761, 48.35600936324521], [4.821507234744864, 48.3585183404426], [4.821507234744864, 48.3585183404426], [4.8217880807286875, 48.3631577341085], [4.822068926712509, 48.36779712777438], [4.8223497726963345, 48.37243652144028], [4.822630618680158, 48.377075915106175], [4.8229114646639815, 48.381715308772065], [4.823192310647805, 48.386354702437956], [4.8234731566316285, 48.390994096103846], [4.823754002615454, 48.39563348976974], [4.824034848599277, 48.40027288343564], [4.824315694583101, 48.40491227710153], [4.824315694583101, 48.40491227710153], [4.818334957172453, 48.40741791886507], [4.81235421976181, 48.40992356062862], [4.806373482351164, 48.41242920239217], [4.800392744940522, 48.41493484415572], [4.794412007529877, 48.41744048591927], [4.788431270119229, 48.41994612768281], [4.7824505327085856, 48.42245176944637], [4.776469795297942, 48.42495741120991], [4.770489057887296, 48.427463052973465], [4.764508320476651, 48.429968694737006], [4.764508320476651, 48.429968694737006], [4.758987264414561, 48.43529671797325], [4.753466208352471, 48.44062474120951], [4.747945152290383, 48.445952764445764], [4.742424096228291, 48.45128078768201], [4.736903040166197, 48.45660881091827], [4.731381984104111, 48.46193683415452], [4.725860928042019, 48.467264857390774], [4.720339871979927, 48.472592880627026], [4.7148188159178375, 48.47792090386328], [4.709297759855749, 48.48324892709953], [4.709297759855749, 48.48324892709953], [4.7089399897068045, 48.4851919519765], [4.708582219557865, 48.487134976853476], [4.708224449408922, 48.489078001730455], [4.707866679259983, 48.49102102660742], [4.70750890911104, 48.49296405148439], [4.707151138962097, 48.494907076361365], [4.706793368813157, 48.49685010123834], [4.706435598664216, 48.49879312611531], [4.706077828515273, 48.50073615099228], [4.70572005836633, 48.50267917586925], [4.70572005836633, 48.50267917586925], [4.707625355101076, 48.50362076063159], [4.70953065183582, 48.50456234539392], [4.711435948570559, 48.505503930156266], [4.713341245305303, 48.5064455149186], [4.715246542040045, 48.50738709968093], [4.7171518387747895, 48.50832868444327], [4.719057135509534, 48.509270269205615], [4.720962432244274, 48.51021185396795], [4.722867728979018, 48.51115343873029], [4.724773025713763, 48.51209502349263], [4.724773025713763, 48.51209502349263], [4.721694922884861, 48.514288401221314], [4.718616820055962, 48.51648177895], [4.715538717227062, 48.5186751566787], [4.712460614398163, 48.520868534407384], [4.709382511569261, 48.52306191213607], [4.706304408740362, 48.52525528986476], [4.703226305911462, 48.52744866759345], [4.700148203082561, 48.52964204532215], [4.6970701002536615, 48.53183542305083], [4.693991997424762, 48.534028800779524], [4.693991997424762, 48.534028800779524], [4.687650699542035, 48.537851484396306], [4.681309401659309, 48.541674168013095], [4.674968103776585, 48.545496851629885], [4.66862680589386, 48.549319535246674], [4.662285508011136, 48.553142218863464], [4.655944210128412, 48.55696490248025], [4.649602912245685, 48.56078758609705], [4.6432616143629595, 48.56461026971383], [4.636920316480236, 48.56843295333062], [4.63057901859751, 48.57225563694741], [4.63057901859751, 48.57225563694741], [4.622698965587228, 48.576139893224955], [4.614818912576943, 48.5800241495025], [4.606938859566659, 48.583908405780036], [4.599058806556377, 48.58779266205759], [4.591178753546094, 48.591676918335125], [4.58329870053581, 48.59556117461266], [4.575418647525526, 48.59944543089021], [4.567538594515243, 48.60332968716775], [4.559658541504961, 48.607213943445295], [4.551778488494676, 48.61109819972283], [4.551778488494676, 48.61109819972283], [4.546971649892351, 48.611035037958686], [4.542164811290027, 48.610971876194526], [4.537357972687698, 48.610908714430366], [4.532551134085372, 48.610845552666206], [4.527744295483046, 48.610782390902045], [4.522937456880719, 48.610719229137885], [4.518130618278393, 48.61065606737373], [4.513323779676069, 48.610592905609565], [4.508516941073742, 48.610529743845404], [4.503710102471414, 48.61046658208125], [4.503710102471414, 48.61046658208125], [4.501898107588044, 48.61146920128861], [4.500086112704677, 48.61247182049596], [4.498274117821307, 48.613474439703324], [4.4964621229379365, 48.61447705891068], [4.494650128054566, 48.615479678118035], [4.4928381331711975, 48.61648229732538], [4.491026138287825, 48.617484916532746], [4.489214143404457, 48.6184875357401], [4.487402148521086, 48.61949015494746], [4.485590153637718, 48.62049277415482], [4.485590153637718, 48.62049277415482], [4.483783128330494, 48.623250494747325], [4.481976103023269, 48.62600821533984], [4.480169077716045, 48.62876593593234], [4.478362052408823, 48.631523656524855], [4.476555027101597, 48.63428137711736], [4.474748001794376, 48.637039097709874], [4.47294097648715, 48.63979681830238], [4.4711339511799295, 48.64255453889489], [4.469326925872705, 48.645312259487405], [4.467519900565479, 48.64806998007991], [4.467519900565479, 48.64806998007991], [4.464345980275025, 48.6486962368311], [4.461172059984568, 48.64932249358229], [4.457998139694112, 48.64994875033347], [4.454824219403658, 48.650575007084676], [4.451650299113204, 48.651201263835866], [4.448476378822749, 48.651827520587055], [4.445302458532295, 48.652453777338245], [4.442128538241839, 48.653080034089434], [4.4389546179513815, 48.65370629084063], [4.4357806976609275, 48.65433254759183], [4.4357806976609275, 48.65433254759183], [4.432157037253759, 48.65564770310104], [4.428533376846593, 48.65696285861025], [4.424909716439426, 48.65827801411947], [4.421286056032258, 48.65959316962868], [4.4176623956250936, 48.660908325137896], [4.414038735217925, 48.662223480647114], [4.410415074810759, 48.663538636156325], [4.4067914144035925, 48.66485379166554], [4.403167753996426, 48.66616894717476], [4.399544093589256, 48.66748410268397], [4.399544093589256, 48.66748410268397], [4.396279940621513, 48.667797348487284], [4.39301578765377, 48.6681105942906], [4.389751634686027, 48.66842384009392], [4.386487481718284, 48.66873708589724], [4.383223328750541, 48.66905033170056], [4.379959175782794, 48.66936357750387], [4.376695022815053, 48.66967682330719], [4.373430869847308, 48.66999006911051], [4.370166716879565, 48.67030331491383], [4.36690256391182, 48.67061656071715], [4.36690256391182, 48.67061656071715], [4.36236532532488, 48.66854626781958], [4.357828086737941, 48.666475974922015], [4.353290848150998, 48.66440568202446], [4.348753609564058, 48.66233538912689], [4.34421637097712, 48.660265096229324], [4.339679132390179, 48.65819480333176], [4.335141893803241, 48.65612451043419], [4.330604655216298, 48.654054217536626], [4.326067416629359, 48.65198392463906], [4.321530178042419, 48.6499136317415], [4.321530178042419, 48.6499136317415], [4.318719601581249, 48.65066496451933], [4.315909025120078, 48.65141629729716], [4.313098448658911, 48.652167630074985], [4.3102878721977405, 48.65291896285281], [4.307477295736568, 48.65367029563063], [4.304666719275399, 48.65442162840846], [4.301856142814231, 48.655172961186295], [4.29904556635306, 48.65592429396412], [4.2962349898918895, 48.656675626741944], [4.2934244134307225, 48.65742695951977], [4.2934244134307225, 48.65742695951977], [4.290891020800128, 48.66005951348791], [4.288357628169534, 48.662692067456064], [4.285824235538939, 48.665324621424205], [4.283290842908345, 48.66795717539235], [4.280757450277752, 48.67058972936049], [4.278224057647158, 48.67322228332865], [4.275690665016564, 48.67585483729679], [4.273157272385969, 48.67848739126493], [4.270623879755377, 48.681119945233085], [4.268090487124782, 48.683752499201226], [4.268090487124782, 48.683752499201226], [4.263830585443493, 48.68450347027913], [4.259570683762206, 48.68525444135703], [4.255310782080917, 48.68600541243492], [4.251050880399628, 48.68675638351283], [4.246790978718337, 48.68750735459072], [4.242531077037054, 48.68825832566863], [4.238271175355763, 48.689009296746526], [4.234011273674476, 48.689760267824425], [4.229751371993185, 48.690511238902324], [4.225491470311896, 48.69126220998022], [4.225491470311896, 48.69126220998022], [4.221953005002476, 48.690321284158436], [4.218414539693052, 48.68938035833665], [4.21487607438363, 48.688439432514855], [4.211337609074208, 48.68749850669307], [4.207799143764786, 48.68655758087129], [4.204260678455364, 48.68561665504949], [4.2007222131459425, 48.6846757292277], [4.197183747836519, 48.68373480340592], [4.193645282527097, 48.682793877584125], [4.190106817217675, 48.68185295176233], [4.190106817217675, 48.68185295176233], [4.183124725997059, 48.68185120928118], [4.176142634776443, 48.681849466800024], [4.169160543555831, 48.68184772431887], [4.162178452335215, 48.68184598183771], [4.155196361114598, 48.68184423935655], [4.148214269893982, 48.6818424968754], [4.14123217867337, 48.68184075439424], [4.134250087452752, 48.681839011913084], [4.127267996232137, 48.681837269431924], [4.120285905011523, 48.68183552695076], [4.120285905011523, 48.68183552695076], [4.116564984725239, 48.680016469526976], [4.112844064438955, 48.67819741210318], [4.1091231441526705, 48.676378354679386], [4.105402223866388, 48.67455929725559], [4.101681303580104, 48.6727402398318], [4.097960383293822, 48.670921182408], [4.094239463007536, 48.66910212498421], [4.090518542721254, 48.66728306756042], [4.08679762243497, 48.665464010136624], [4.083076702148686, 48.66364495271283], [4.083076702148686, 48.66364495271283], [4.080357137741368, 48.66433435152482], [4.077637573334048, 48.665023750336815], [4.07491800892673, 48.66571314914881], [4.07219844451941, 48.66640254796081], [4.069478880112092, 48.6670919467728], [4.066759315704774, 48.66778134558479], [4.064039751297454, 48.668470744396785], [4.061320186890136, 48.66916014320878], [4.058600622482816, 48.66984954202077], [4.055881058075498, 48.67053894083276], [4.055881058075498, 48.67053894083276], [4.053518423424203, 48.6680301448703], [4.051155788772913, 48.665521348907845], [4.048793154121622, 48.66301255294539], [4.046430519470329, 48.66050375698293], [4.044067884819036, 48.65799496102048], [4.041705250167745, 48.65548616505801], [4.039342615516455, 48.65297736909556], [4.036979980865162, 48.650468573133104], [4.034617346213869, 48.64795977717064], [4.0322547115625795, 48.64545098120818], [4.0322547115625795, 48.64545098120818], [4.027629730841074, 48.645136838548794], [4.02300475011957, 48.64482269588942], [4.018379769398065, 48.644508553230025], [4.013754788676561, 48.644194410570634], [4.009129807955054, 48.64388026791125], [4.004504827233548, 48.643566125251866], [3.999879846512044, 48.643251982592474], [3.995254865790542, 48.64293783993309], [3.9906298850690356, 48.6426236972737], [3.986004904347532, 48.64230955461432], [3.986004904347532, 48.64230955461432], [3.9832889776327565, 48.644063976960716], [3.9805730509179793, 48.64581839930712], [3.977857124203204, 48.64757282165351], [3.9751411974884285, 48.64932724399992], [3.9724252707736514, 48.65108166634631], [3.969709344058876, 48.652836088692716], [3.9669934173440997, 48.65459051103911], [3.9642774906293234, 48.656344933385505], [3.961561563914549, 48.65809935573191], [3.958845637199772, 48.65985377807831], [3.958845637199772, 48.65985377807831], [3.954310647938233, 48.659727666426974], [3.949775658676694, 48.65960155477564], [3.945240669415153, 48.6594754431243], [3.9407056801536124, 48.65934933147297], [3.9361706908920726, 48.65922321982162], [3.9316357016305337, 48.65909710817029], [3.927100712368993, 48.65897099651895], [3.9225657231074504, 48.65884488486762], [3.9180307338459115, 48.65871877321628], [3.9134957445843725, 48.65859266156495], [3.9134957445843725, 48.65859266156495], [3.911597103129655, 48.66109932207417], [3.9096984616749375, 48.663605982583405], [3.9077998202202235, 48.66611264309264], [3.905901178765506, 48.66861930360187], [3.9040025373107903, 48.67112596411109], [3.9021038958560728, 48.673632624620325], [3.900205254401356, 48.67613928512956], [3.8983066129466404, 48.67864594563879], [3.8964079714919246, 48.68115260614802], [3.894509330037207, 48.683659266657244], [3.894509330037207, 48.683659266657244], [3.891973766053868, 48.688404784589004], [3.8894382020705263, 48.69315030252077], [3.8869026380871863, 48.69789582045253], [3.8843670741038463, 48.70264133838429], [3.8818315101205063, 48.70738685631605], [3.879295946137169, 48.712132374247815], [3.876760382153829, 48.71687789217957], [3.87422481817049, 48.72162341011133], [3.871689254187148, 48.72636892804309], [3.869153690203808, 48.731114445974846], [3.869153690203808, 48.731114445974846], [3.8706355315349676, 48.73439534757022], [3.872117372866127, 48.737676249165595], [3.8735992141972875, 48.74095715076097], [3.875081055528445, 48.744238052356344], [3.8765628968596055, 48.747518953951705], [3.878044738190767, 48.750799855547086], [3.8795265795219263, 48.754080757142454], [3.8810084208530866, 48.75736165873783], [3.8824902621842443, 48.760642560333196], [3.8839721035154064, 48.76392346192858], [3.8839721035154064, 48.76392346192858], [3.8844891423679075, 48.76605150864307], [3.8850061812204095, 48.76817955535758], [3.8855232200729124, 48.77030760207206], [3.8860402589254144, 48.772435648786555], [3.8865572977779164, 48.77456369550106], [3.8870743366304192, 48.776691742215554], [3.8875913754829203, 48.77881978893005], [3.888108414335423, 48.78094783564455], [3.888625453187926, 48.78307588235904], [3.889142492040428, 48.78520392907353], [3.889142492040428, 48.78520392907353], [3.8861948579559056, 48.786178486089895], [3.8832472238713813, 48.78715304310625], [3.880299589786859, 48.788127600122614], [3.8773519557023373, 48.78910215713898], [3.8744043216178112, 48.790076714155326], [3.871456687533288, 48.79105127117169], [3.8685090534487654, 48.792025828188045], [3.865561419364241, 48.7930003852044], [3.8626137852797187, 48.793974942220764], [3.8596661511951953, 48.79494949923712], [3.8596661511951953, 48.79494949923712], [3.8518450902325676, 48.79578931156236], [3.844024029269939, 48.79662912388759], [3.8362029683073096, 48.79746893621281], [3.8283819073446836, 48.79830874853804], [3.820560846382056, 48.79914856086327], [3.8127397854194274, 48.799988373188505], [3.8049187244567997, 48.80082818551374], [3.7970976634941738, 48.80166799783897], [3.789276602531546, 48.80250781016419], [3.7814555415689157, 48.80334762248942], [3.7814555415689157, 48.80334762248942], [3.7785094476080787, 48.80512015107116], [3.7755633536472426, 48.80689267965288], [3.7726172596864083, 48.808665208234615], [3.7696711657255713, 48.81043773681634], [3.7667250717647316, 48.81221026539807], [3.7637789778038973, 48.813982793979804], [3.7608328838430602, 48.815755322561536], [3.757886789882224, 48.81752785114327], [3.754940695921389, 48.81930037972499], [3.751994601960551, 48.82107290830672], [3.751994601960551, 48.82107290830672], [3.750846159844189, 48.824043370081085], [3.749697717727828, 48.82701383185544], [3.748549275611467, 48.8299842936298], [3.747400833495105, 48.83295475540417], [3.7462523913787407, 48.83592521717851], [3.7451039492623797, 48.83889567895288], [3.7439555071460178, 48.84186614072724], [3.7428070650296568, 48.844836602501594], [3.741658622913295, 48.84780706427596], [3.740510180796934, 48.85077752605032], [3.740510180796934, 48.85077752605032], [3.7341638530711383, 48.851174394562975], [3.7278175253453436, 48.85157126307561], [3.721471197619548, 48.851968131588265], [3.7151248698937533, 48.85236500010091], [3.7087785421679578, 48.85276186861356], [3.702432214442162, 48.85315873712621], [3.6960858867163693, 48.85355560563885], [3.6897395589905737, 48.853952474151505], [3.683393231264778, 48.85434934266415], [3.6770469035389834, 48.85474621117681]]]}}]}