{
  "type": "FeatureCollection",
  "features": [
    {
      "type": "Feature",
      "properties": {
                "diocese": "Ferrarien",
                "province": "Ferrarien",
                "date": 1735
            },
      "geometry": {
        "type": "Polygon",
        "coordinates": [
          [
            [
              11.688566502000072,
              44.637223250000034
            ],
            [
              11.707954433000054,
              44.672275796000065
            ],
            [
              11.774504757000045,
              44.703029909000065
            ],
            [
              11.912358999000048,
              44.810877953000045
            ],
            [
              11.897648743000047,
              44.977368014000035
            ],
            [
              11.836357035000049,
              44.972360980000076
            ],
            [
              11.749614963000056,
              44.93132944900003
            ],
            [
              11.751311046000069,
              44.99811462400004
            ],
            [
              11.691605898000034,
              44.99475311600003
            ],
            [
              11.658520880000026,
              45.00967670600005
            ],
            [
              11.59159026900005,
              44.99529097000004
            ],
            [
              11.549948781000069,
              45.024327620000065
            ],
            [
              11.478644862000067,
              45.026881065000055
            ],
            [
              11.363416538000024,
              45.05803697300007
            ],
            [
              11.31338495500006,
              45.08992805300005
            ],
            [
              11.22152174100006,
              45.08439035300006
            ],
            [
              11.204646480000065,
              45.110479971000075
            ],
            [
              11.145464228000037,
              45.125323080000044
            ],
            [
              11.129420846000073,
              45.10486038500005
            ],
            [
              11.097859007325802,
              45.11220344596307
            ],
            [
              11.092223969000031,
              45.09487796600007
            ],
            [
              11.146025491692512,
              45.04674451110837
            ],
            [
              11.268817582000054,
              45.05341656600007
            ],
            [
              11.265540187367975,
              45.02008594929778
            ],
            [
              11.308964956041269,
              45.01343834429985
            ],
            [
              11.33154020763811,
              44.991298858398864
            ],
            [
              11.42155223900005,
              44.96395628000005
            ],
            [
              11.42764278200002,
              44.94902919400005
            ],
            [
              11.309694217000072,
              44.96237965900008
            ],
            [
              11.244855364688332,
              44.95268632448694
            ],
            [
              11.260476227000026,
              44.93394688200004
            ],
            [
              11.23492565600003,
              44.90213720400004
            ],
            [
              11.355414550891048,
              44.866170782795685
            ],
            [
              11.42171832200006,
              44.88494523600008
            ],
            [
              11.554174948639579,
              44.777613212089165
            ],
            [
              11.577690781000058,
              44.71014762400006
            ],
            [
              11.652591178901691,
              44.653692673056696
            ],
            [
              11.688566502000072,
              44.637223250000034
            ]
          ]
        ]
      }
    }
  ]
}