{"type": "FeatureCollection", "features": [{"type": "Feature", "properties": {"diocese": "Narbonne", "province": "XI_Narbonne", "source": "68_Narbonne.txt"}, "geometry": {"type": "Polygon", "coordinates": [[[3.2320649762391027, 43.17704387177994], [3.22411725382104, 43.1818948880486], [3.216169531402977, 43.18674590431728], [3.208221808984914, 43.19159692058595], [3.2002740865668495, 43.19644793685461], [3.1923263641487876, 43.201298953123285], [3.1843786417307247, 43.20614996939196], [3.176430919312662, 43.211000985660625], [3.168483196894599, 43.21585200192929], [3.160535474476536, 43.22070301819795], [3.152587752058474, 43.22555403446663], [3.152587752058474, 43.22555403446663], [3.1500220788339823, 43.22511004949654], [3.1474564056094887, 43.22466606452646], [3.144890732384995, 43.22422207955636], [3.1423250591605005, 43.22377809458628], [3.139759385936007, 43.22333410961618], [3.137193712711515, 43.222890124646085], [3.1346280394870214, 43.222446139676], [3.132062366262526, 43.22200215470592], [3.129496693038035, 43.22155816973582], [3.1269310198135414, 43.22111418476573], [3.1269310198135414, 43.22111418476573], [3.124625406239272, 43.22253224667702], [3.122319792665, 43.2239503085883], [3.120014179090727, 43.22536837049958], [3.117708565516455, 43.22678643241086], [3.115402951942182, 43.22820449432214], [3.113097338367908, 43.22962255623343], [3.110791724793637, 43.231040618144704], [3.108486111219366, 43.23245868005599], [3.106180497645092, 43.23387674196727], [3.103874884070821, 43.235294803878546], [3.103874884070821, 43.235294803878546], [3.1042676257649924, 43.23946204644168], [3.1046603674591613, 43.2436292890048], [3.105053109153332, 43.24779653156792], [3.105445850847501, 43.25196377413104], [3.10583859254167, 43.25613101669417], [3.1062313342358414, 43.26029825925729], [3.1066240759300103, 43.26446550182042], [3.107016817624181, 43.268632744383545], [3.10740955931835, 43.272799986946666], [3.1078023010125198, 43.276967229509786], [3.1078023010125198, 43.276967229509786], [3.1026730872535526, 43.27714326543125], [3.0975438734945864, 43.27731930135271], [3.0924146597356157, 43.277495337274175], [3.0872854459766494, 43.277671373195645], [3.082156232217683, 43.27784740911711], [3.077027018458716, 43.27802344503856], [3.0718978046997463, 43.27819948096003], [3.0667685909407774, 43.278375516881496], [3.061639377181811, 43.27855155280296], [3.056510163422843, 43.278727588724415], [3.056510163422843, 43.278727588724415], [3.054855126495967, 43.28502227620038], [3.053200089569089, 43.29131696367633], [3.05154505264221, 43.29761165115228], [3.049890015715335, 43.303906338628245], [3.048234978788457, 43.310201026104195], [3.0465799418615807, 43.31649571358015], [3.044924904934702, 43.3227904010561], [3.043269868007824, 43.32908508853206], [3.041614831080946, 43.33537977600801], [3.0399597941540697, 43.34167446348397], [3.0399597941540697, 43.34167446348397], [3.035990061062105, 43.34459935070241], [3.0320203279701397, 43.347524237920844], [3.028050594878175, 43.350449125139285], [3.0240808617862087, 43.35337401235772], [3.0201111286942424, 43.35629889957617], [3.0161413956022765, 43.359223786794615], [3.012171662510312, 43.36214867401304], [3.0082019294183455, 43.36507356123149], [3.0042321963263796, 43.36799844844993], [3.0002624632344133, 43.37092333566837], [3.0002624632344133, 43.37092333566837], [2.9970579838928617, 43.370922535944516], [2.9938535045513106, 43.370921736220666], [2.9906490252097586, 43.37092093649682], [2.987444545868208, 43.37092013677297], [2.9842400665266546, 43.370919337049116], [2.9810355871851013, 43.37091853732527], [2.97783110784355, 43.370917737601424], [2.9746266285019987, 43.370916937877574], [2.9714221491604476, 43.370916138153724], [2.968217669818896, 43.37091533842987], [2.968217669818896, 43.37091533842987], [2.9659046979075683, 43.36852088593685], [2.9635917259962374, 43.36612643344383], [2.9612787540849084, 43.36373198095081], [2.958965782173579, 43.36133752845779], [2.956652810262248, 43.35894307596477], [2.9543398383509167, 43.35654862347174], [2.952026866439588, 43.354154170978724], [2.949713894528258, 43.3517597184857], [2.9474009226169278, 43.34936526599268], [2.9450879507055983, 43.34697081349966], [2.9450879507055983, 43.34697081349966], [2.9445661203677376, 43.342360194051125], [2.9440442900298787, 43.3377495746026], [2.943522459692016, 43.33313895515407], [2.9430006293541555, 43.32852833570554], [2.942478799016295, 43.32391771625701], [2.941956968678434, 43.31930709680847], [2.9414351383405735, 43.31469647735994], [2.9409133080027123, 43.31008585791141], [2.940391477664852, 43.30547523846288], [2.9398696473269896, 43.30086461901435], [2.9398696473269896, 43.30086461901435], [2.9351274490663557, 43.30228201814752], [2.9303852508057195, 43.303699417280704], [2.925643052545086, 43.305116816413886], [2.9209008542844503, 43.30653421554706], [2.9161586560238146, 43.30795161468023], [2.9114164577631794, 43.30936901381341], [2.906674259502545, 43.31078641294659], [2.9019320612419093, 43.312203812079765], [2.897189862981274, 43.31362121121295], [2.89244766472064, 43.315038610346114], [2.89244766472064, 43.315038610346114], [2.892326618976758, 43.31876243471012], [2.8922055732328795, 43.322486259074125], [2.8920845274889992, 43.32621008343813], [2.891963481745117, 43.32993390780213], [2.8918424360012387, 43.33365773216613], [2.891721390257358, 43.33738155653013], [2.8916003445134764, 43.341105380894135], [2.8914792987695974, 43.34482920525814], [2.8913582530257154, 43.34855302962214], [2.8912372072818346, 43.35227685398614], [2.8912372072818346, 43.35227685398614], [2.8891895076625476, 43.35440424422529], [2.887141808043262, 43.356531634464446], [2.8850941084239743, 43.35865902470359], [2.8830464088046868, 43.360786414942744], [2.8809987091853992, 43.3629138051819], [2.87895100956611, 43.36504119542105], [2.876903309946824, 43.3671685856602], [2.8748556103275367, 43.369295975899355], [2.872807910708249, 43.3714233661385], [2.8707602110889616, 43.373550756377654], [2.8707602110889616, 43.373550756377654], [2.8696032973475516, 43.372131885036346], [2.8684463836061416, 43.370713013695024], [2.867289469864732, 43.36929414235371], [2.866132556123324, 43.367875271012394], [2.864975642381911, 43.36645639967109], [2.863818728640501, 43.36503752832977], [2.862661814899091, 43.36361865698845], [2.861504901157681, 43.36219978564715], [2.8603479874162714, 43.360780914305835], [2.859191073674863, 43.35936204296452], [2.859191073674863, 43.35936204296452], [2.8585397333573943, 43.35413073053499], [2.8578883930399255, 43.34889941810547], [2.8572370527224566, 43.34366810567595], [2.856585712404989, 43.33843679324642], [2.8559343720875203, 43.3332054808169], [2.8552830317700515, 43.32797416838738], [2.8546316914525827, 43.32274285595786], [2.853980351135115, 43.31751154352833], [2.8533290108176463, 43.3122802310988], [2.8526776705001793, 43.30704891866929], [2.8526776705001793, 43.30704891866929], [2.848571411425704, 43.30571796927169], [2.8444651523512303, 43.304387019874106], [2.8403588932767554, 43.30305607047652], [2.8362526342022822, 43.30172512107893], [2.832146375127807, 43.30039417168134], [2.8280401160533333, 43.29906322228374], [2.8239338569788583, 43.297732272886165], [2.819827597904385, 43.29640132348857], [2.81572133882991, 43.29507037409098], [2.8116150797554362, 43.29373942469339], [2.8116150797554362, 43.29373942469339], [2.809425457286743, 43.288773757042506], [2.8072358348180484, 43.28380808939163], [2.8050462123493545, 43.27884242174074], [2.8028565898806614, 43.27387675408986], [2.8006669674119675, 43.268911086438976], [2.7984773449432723, 43.26394541878809], [2.796287722474579, 43.25897975113722], [2.7940981000058835, 43.254014083486325], [2.7919084775371923, 43.24904841583545], [2.7897188550684966, 43.24408274818456], [2.7897188550684966, 43.24408274818456], [2.78689346452794, 43.24195408710237], [2.7840680739873838, 43.23982542602018], [2.7812426834468233, 43.23769676493797], [2.778417292906267, 43.23556810385578], [2.7755919023657123, 43.233439442773594], [2.7727665118251554, 43.23131078169139], [2.769941121284599, 43.2291821206092], [2.7671157307440404, 43.227053459527006], [2.7642903402034844, 43.2249247984448], [2.7614649496629258, 43.222796137362614], [2.7614649496629258, 43.222796137362614], [2.7546712871628873, 43.22439039520725], [2.747877624662847, 43.22598465305189], [2.7410839621628083, 43.227578910896526], [2.7342902996627685, 43.22917316874117], [2.7274966371627283, 43.23076742658581], [2.720702974662688, 43.232361684430444], [2.7139093121626496, 43.23395594227508], [2.707115649662611, 43.23555020011972], [2.7003219871625705, 43.23714445796436], [2.693528324662531, 43.238738715809006], [2.693528324662531, 43.238738715809006], [2.6937919778185706, 43.24246263618014], [2.694055630974612, 43.24618655655128], [2.6943192841306502, 43.249910476922416], [2.69458293728669, 43.25363439729355], [2.6948465904427317, 43.25735831766469], [2.6951102435987697, 43.261082238035826], [2.6953738967548095, 43.26480615840698], [2.695637549910851, 43.26853007877811], [2.695901203066889, 43.27225399914925], [2.696164856222929, 43.275977919520386], [2.696164856222929, 43.275977919520386], [2.693215853118462, 43.27624315753995], [2.6902668500139932, 43.27650839555952], [2.6873178469095262, 43.27677363357908], [2.6843688438050575, 43.277038871598656], [2.681419840700587, 43.27730410961822], [2.67847083759612, 43.27756934763779], [2.675521834491651, 43.27783458565735], [2.6725728313871824, 43.27809982367692], [2.6696238282827154, 43.27836506169649], [2.666674825178247, 43.278630299716056], [2.666674825178247, 43.278630299716056], [2.6647453542611923, 43.275615282271296], [2.6628158833441353, 43.27260026482655], [2.6608864124270775, 43.269585247381784], [2.6589569415100205, 43.26657022993703], [2.6570274705929644, 43.26355521249227], [2.655097999675908, 43.26054019504752], [2.6531685287588513, 43.257525177602766], [2.651239057841793, 43.25451016015801], [2.6493095869247365, 43.25149514271325], [2.64738011600768, 43.24848012526849], [2.64738011600768, 43.24848012526849], [2.6445567790498217, 43.2474154700282], [2.6417334420919616, 43.2463508147879], [2.6389101051341037, 43.24528615954761], [2.6360867681762437, 43.24422150430731], [2.633263431218384, 43.24315684906702], [2.6304400942605253, 43.24209219382672], [2.627616757302665, 43.24102753858643], [2.6247934203448096, 43.23996288334614], [2.621970083386949, 43.23889822810584], [2.619146746429091, 43.23783357286554], [2.619146746429091, 43.23783357286554], [2.616457973983579, 43.24004946111097], [2.6137692015380694, 43.24226534935642], [2.6110804290925596, 43.24448123760185], [2.6083916566470498, 43.246697125847284], [2.6057028842015377, 43.24891301409272], [2.603014111756028, 43.25112890233816], [2.600325339310518, 43.25334479058359], [2.5976365668650083, 43.25556067882903], [2.594947794419498, 43.257776567074465], [2.5922590219739883, 43.259992455319896], [2.5922590219739883, 43.259992455319896], [2.5907276767183425, 43.26389324371384], [2.5891963314626967, 43.267794032107766], [2.587664986207051, 43.2716948205017], [2.5861336409514055, 43.27559560889564], [2.584602295695762, 43.27949639728958], [2.5830709504401144, 43.28339718568352], [2.5815396051844703, 43.28729797407744], [2.5800082599288228, 43.29119876247139], [2.578476914673177, 43.29509955086532], [2.5769455694175334, 43.29900033925926], [2.5769455694175334, 43.29900033925926], [2.5741254838424568, 43.29962029612631], [2.571305398267382, 43.30024025299336], [2.5684853126923075, 43.30086020986042], [2.5656652271172313, 43.301480166727465], [2.5628451415421565, 43.30210012359451], [2.5600250559670803, 43.30272008046157], [2.557204970392006, 43.303340037328624], [2.5543848848169315, 43.30395999419568], [2.5515647992418566, 43.30457995106273], [2.5487447136667822, 43.305199907929776], [2.5487447136667822, 43.305199907929776], [2.5486212722171673, 43.30768246506946], [2.548497830767554, 43.31016502220914], [2.548374389317941, 43.31264757934883], [2.548250947868328, 43.31513013648851], [2.548127506418713, 43.31761269362819], [2.5480040649691023, 43.32009525076788], [2.5478806235194873, 43.32257780790756], [2.547757182069874, 43.32506036504724], [2.547633740620261, 43.32754292218693], [2.547510299170648, 43.330025479326615], [2.547510299170648, 43.330025479326615], [2.551495170272645, 43.33490293701236], [2.555480041374643, 43.33978039469811], [2.5594649124766415, 43.34465785238386], [2.563449783578639, 43.34953531006961], [2.567434654680636, 43.35441276775536], [2.5714195257826358, 43.3592902254411], [2.5754043968846325, 43.36416768312685], [2.579389267986633, 43.3690451408126], [2.583374139088629, 43.37392259849835], [2.5873590101906254, 43.3788000561841], [2.5873590101906254, 43.3788000561841], [2.586388713980338, 43.38119478315833], [2.58541841777005, 43.383589510132545], [2.584448121559764, 43.385984237106776], [2.5834778253494726, 43.388378964081], [2.5825075291391837, 43.390773691055216], [2.5815372329288975, 43.39316841802944], [2.58056693671861, 43.39556314500367], [2.579596640508322, 43.39795787197789], [2.5786263442980326, 43.40035259895211], [2.577656048087745, 43.40274732592634], [2.577656048087745, 43.40274732592634], [2.57293852472091, 43.40174307171457], [2.5682210013540767, 43.4007388175028], [2.5635034779872417, 43.39973456329103], [2.558785954620409, 43.39873030907926], [2.5540684312535724, 43.397726054867505], [2.549350907886737, 43.396721800655726], [2.544633384519904, 43.39571754644396], [2.5399158611530703, 43.39471329223219], [2.5351983377862344, 43.393709038020425], [2.530480814419401, 43.392704783808654], [2.530480814419401, 43.392704783808654], [2.527706790902449, 43.39317199351561], [2.5249327673854958, 43.39363920322256], [2.5221587438685438, 43.394106412929524], [2.51938472035159, 43.39457362263648], [2.5166106968346384, 43.39504083234343], [2.513836673317687, 43.39550804205039], [2.511062649800735, 43.395975251757335], [2.508288626283781, 43.39644246146429], [2.5055146027668296, 43.396909671171244], [2.5027405792498763, 43.3973768808782], [2.5027405792498763, 43.3973768808782], [2.4996529508078313, 43.39143782951869], [2.496565322365783, 43.38549877815918], [2.493477693923738, 43.37955972679968], [2.490390065481693, 43.37362067544017], [2.48730243703965, 43.36768162408067], [2.4842148085976032, 43.361742572721155], [2.4811271801555583, 43.35580352136166], [2.478039551713512, 43.349864470002146], [2.4749519232714667, 43.34392541864264], [2.471864294829421, 43.337986367283136], [2.471864294829421, 43.337986367283136], [2.466602624947066, 43.33523649222592], [2.461340955064713, 43.33248661716869], [2.4560792851823567, 43.32973674211147], [2.450817615300004, 43.32698686705425], [2.445555945417649, 43.32423699199703], [2.4402942755352948, 43.32148711693981], [2.435032605652942, 43.31873724188259], [2.429770935770586, 43.315987366825375], [2.4245092658882323, 43.313237491768156], [2.419247596005878, 43.31048761671092], [2.419247596005878, 43.31048761671092], [2.4217984184315497, 43.30401583680067], [2.4243492408572194, 43.29754405689042], [2.4269000632828894, 43.291072276980174], [2.4294508857085613, 43.28460049706993], [2.432001708134232, 43.278128717159674], [2.4345525305599023, 43.271656937249425], [2.437103352985574, 43.26518515733917], [2.4396541754112437, 43.258713377428926], [2.4422049978369156, 43.252241597518676], [2.444755820262585, 43.245769817608426], [2.444755820262585, 43.245769817608426], [2.4432090387861387, 43.240894007557486], [2.441662257309691, 43.23601819750655], [2.4401154758332453, 43.23114238745562], [2.4385686943567975, 43.22626657740468], [2.437021912880351, 43.221390767353746], [2.4354751314039054, 43.21651495730282], [2.433928349927457, 43.21163914725188], [2.432381568451011, 43.20676333720095], [2.430834786974565, 43.201887527150014], [2.4292880054981167, 43.19701171709908], [2.4292880054981167, 43.19701171709908], [2.433259144705181, 43.19559412553704], [2.4372302839122435, 43.194176533974996], [2.4412014231193058, 43.19275894241296], [2.4451725623263685, 43.19134135085092], [2.4491437015334308, 43.18992375928888], [2.453114840740493, 43.188506167726835], [2.4570859799475575, 43.187088576164804], [2.46105711915462, 43.18567098460276], [2.4650282583616825, 43.18425339304073], [2.468999397568745, 43.18283580147869], [2.468999397568745, 43.18283580147869], [2.4710565881095485, 43.18558487681206], [2.4731137786503496, 43.18833395214543], [2.475170969191153, 43.191083027478804], [2.4772281597319545, 43.19383210281216], [2.4792853502727596, 43.19658117814554], [2.4813425408135625, 43.199330253478905], [2.4833997313543645, 43.20207932881228], [2.485456921895168, 43.20482840414565], [2.487514112435969, 43.20757747947903], [2.4895713029767723, 43.2103265548124], [2.4895713029767723, 43.2103265548124], [2.4917530516542956, 43.21121264007675], [2.4939348003318176, 43.21209872534112], [2.496116549009343, 43.21298481060549], [2.4982982976868655, 43.21387089586985], [2.500480046364387, 43.214756981134215], [2.5026617950419108, 43.21564306639859], [2.5048435437194345, 43.216529151662954], [2.5070252923969583, 43.217415236927316], [2.5092070410744802, 43.218301322191685], [2.5113887897520057, 43.219187407456054], [2.5113887897520057, 43.219187407456054], [2.5208748204201545, 43.217240283417624], [2.530360851088303, 43.21529315937919], [2.5398468817564495, 43.213346035340756], [2.5493329124245996, 43.21139891130232], [2.5588189430927497, 43.20945178726389], [2.5683049737608963, 43.20750466322546], [2.5777910044290446, 43.20555753918702], [2.5872770350971948, 43.20361041514858], [2.596763065765343, 43.20166329111015], [2.6062490964334915, 43.19971616707171], [2.6062490964334915, 43.19971616707171], [2.6056041667690524, 43.19776536614529], [2.6049592371046146, 43.19581456521886], [2.6043143074401733, 43.19386376429244], [2.6036693777757356, 43.191912963366], [2.603024448111296, 43.18996216243958], [2.602379518446857, 43.18801136151315], [2.6017345887824175, 43.186060560586725], [2.6010896591179797, 43.184109759660295], [2.6004447294535384, 43.182158958733865], [2.5997997997891007, 43.18020815780744], [2.5997997997891007, 43.18020815780744], [2.6028719021145856, 43.17728304657234], [2.605944004440071, 43.174357935337255], [2.609016106765558, 43.17143282410216], [2.6120882090910436, 43.16850771286707], [2.6151603114165303, 43.16558260163198], [2.618232413742014, 43.16265749039689], [2.621304516067499, 43.159732379161795], [2.624376618392986, 43.1568072679267], [2.627448720718473, 43.15388215669161], [2.6305208230439567, 43.15095704545652], [2.6305208230439567, 43.15095704545652], [2.6253807494490915, 43.145547351502096], [2.620240675854223, 43.14013765754767], [2.6151006022593566, 43.13472796359324], [2.60996052866449, 43.12931826963881], [2.604820455069625, 43.123908575684375], [2.5996803814747564, 43.118498881729955], [2.5945403078798894, 43.11308918777552], [2.589400234285023, 43.107679493821095], [2.5842601606901563, 43.10226979986667], [2.5791200870952897, 43.096860105912235], [2.5791200870952897, 43.096860105912235], [2.5806490365396404, 43.09171799560056], [2.582177985983993, 43.08657588528888], [2.583706935428344, 43.08143377497721], [2.585235884872694, 43.076291664665526], [2.586764834317045, 43.07114955435386], [2.588293783761396, 43.06600744404217], [2.58982273320575, 43.0608653337305], [2.591351682650101, 43.05572322341881], [2.592880632094452, 43.05058111310714], [2.5944095815388026, 43.045439002795455], [2.5944095815388026, 43.045439002795455], [2.5905622632106633, 43.0453493846467], [2.586714944882522, 43.04525976649792], [2.582867626554381, 43.04517014834915], [2.579020308226242, 43.04508053020038], [2.575172989898103, 43.04499091205162], [2.571325671569958, 43.044901293902846], [2.567478353241819, 43.04481167575407], [2.5636310349136795, 43.0447220576053], [2.5597837165855366, 43.04463243945653], [2.5559363982573973, 43.04454282130777], [2.5559363982573973, 43.04454282130777], [2.5502910933616243, 43.043122829823965], [2.5446457884658513, 43.041702838340164], [2.5390004835700757, 43.040282846856364], [2.5333551786743045, 43.038862855372564], [2.527709873778531, 43.037442863888764], [2.5220645688827594, 43.03602287240496], [2.516419263986986, 43.03460288092117], [2.5107739590912113, 43.03318288943737], [2.5051286541954396, 43.03176289795358], [2.4994833492996666, 43.03034290646978], [2.4994833492996666, 43.03034290646978], [2.497307166492119, 43.03238160664889], [2.4951309836845748, 43.03442030682799], [2.492954800877026, 43.0364590070071], [2.49077861806948, 43.03849770718621], [2.4886024352619347, 43.04053640736532], [2.486426252454389, 43.04257510754443], [2.4842500696468437, 43.04461380772354], [2.4820738868392955, 43.04665250790264], [2.4798977040317483, 43.04869120808175], [2.4777215212242045, 43.05072990826086], [2.4777215212242045, 43.05072990826086], [2.475799487751524, 43.05152740524015], [2.4738774542788473, 43.05232490221944], [2.4719554208061685, 43.05312239919873], [2.4700333873334914, 43.05391989617802], [2.4681113538608126, 43.054717393157304], [2.466189320388134, 43.05551489013659], [2.464267286915457, 43.05631238711589], [2.4623452534427765, 43.05710988409517], [2.4604232199701, 43.05790738107447], [2.4585011864974207, 43.05870487805375], [2.4585011864974207, 43.05870487805375], [2.4555504350492594, 43.057285504341074], [2.4525996836011, 43.0558661306284], [2.449648932152938, 43.05444675691572], [2.4466981807047765, 43.053027383203045], [2.443747429256613, 43.05160800949037], [2.440796677808453, 43.050188635777694], [2.437845926360292, 43.048769262065015], [2.4348951749121306, 43.04734988835234], [2.431944423463969, 43.045930514639664], [2.428993672015809, 43.044511140926986], [2.428993672015809, 43.044511140926986], [2.424636594096571, 43.04610600685631], [2.420279516177334, 43.04770087278563], [2.415922438258094, 43.049295738714946], [2.411565360338858, 43.05089060464427], [2.407208282419621, 43.05248547057359], [2.4028512045003843, 43.05408033650291], [2.3984941265811464, 43.055675202432234], [2.394137048661908, 43.057270068361554], [2.389779970742671, 43.058864934290874], [2.3854228928234344, 43.060459800220194], [2.3854228928234344, 43.060459800220194], [2.3824733763760717, 43.06045906412599], [2.379523859928709, 43.0604583280318], [2.3765743434813484, 43.0604575919376], [2.3736248270339857, 43.060456855843405], [2.370675310586623, 43.060456119749205], [2.36772579413926, 43.06045538365501], [2.3647762776918975, 43.06045464756082], [2.361826761244537, 43.06045391146662], [2.3588772447971738, 43.060453175372416], [2.355927728349811, 43.06045243927822], [2.355927728349811, 43.06045243927822], [2.35361218951289, 43.05672800682954], [2.35129665067597, 43.05300357438085], [2.348981111839045, 43.04927914193217], [2.3466655730021238, 43.04555470948348], [2.3443500341652035, 43.0418302770348], [2.3420344953282823, 43.03810584458611], [2.339718956491359, 43.034381412137435], [2.3374034176544374, 43.03065697968874], [2.335087878817516, 43.02693254724006], [2.3327723399805924, 43.02320811479137], [2.3327723399805924, 43.02320811479137], [2.328542981579542, 43.02453698391589], [2.3243136231784884, 43.02586585304041], [2.320084264777436, 43.027194722164914], [2.315854906376384, 43.02852359128943], [2.311625547975332, 43.02985246041394], [2.30739618957428, 43.031181329538455], [2.3031668311732276, 43.03251019866297], [2.2989374727721743, 43.03383906778748], [2.294708114371122, 43.035167936911996], [2.29047875597007, 43.03649680603651], [2.29047875597007, 43.03649680603651], [2.285991391607055, 43.03702768881497], [2.2815040272440417, 43.03755857159344], [2.2770166628810267, 43.03808945437191], [2.272529298518011, 43.03862033715037], [2.268041934154998, 43.03915121992884], [2.263554569791982, 43.039682102707296], [2.2590672054289676, 43.040212985485766], [2.254579841065954, 43.04074386826423], [2.250092476702939, 43.04127475104269], [2.2456051123399257, 43.041805633821156], [2.2456051123399257, 43.041805633821156], [2.24548073610594, 43.04384484605807], [2.2453563598719577, 43.04588405829499], [2.2452319836379697, 43.04792327053189], [2.2451076074039857, 43.0499624827688], [2.2449832311700018, 43.052001695005714], [2.244858854936018, 43.05404090724263], [2.244734478702032, 43.05608011947954], [2.244610102468048, 43.05811933171645], [2.244485726234062, 43.060158543953364], [2.244361350000078, 43.06219775619027], [2.244361350000078, 43.06219775619027], [2.2402711765141023, 43.06920109990466], [2.2361810030281273, 43.07620444361904], [2.232090829542153, 43.08320778733343], [2.228000656056178, 43.09021113104781], [2.223910482570203, 43.0972144747622], [2.2198203090842292, 43.104217818476585], [2.2157301355982537, 43.11122116219097], [2.2116399621122804, 43.11822450590535], [2.2075497886263054, 43.12522784961974], [2.203459615140331, 43.13223119333412], [2.203459615140331, 43.13223119333412], [2.1970473081504505, 43.132052277060374], [2.1906350011605698, 43.13187336078662], [2.1842226941706886, 43.13169444451286], [2.177810387180808, 43.13151552823912], [2.1713980801909267, 43.13133661196536], [2.1649857732010473, 43.13115769569162], [2.1585734662111666, 43.13097877941786], [2.152161159221286, 43.130799863144105], [2.145748852231405, 43.13062094687036], [2.1393365452415236, 43.130442030596605], [2.1393365452415236, 43.130442030596605], [2.1315284763446396, 43.134808115373836], [2.1237204074477574, 43.139174200151075], [2.115912338550874, 43.1435402849283], [2.1081042696539916, 43.14790636970553], [2.1002962007571075, 43.15227245448276], [2.0924881318602235, 43.156638539259994], [2.0846800629633413, 43.161004624037226], [2.0768719940664573, 43.16537070881446], [2.0690639251695733, 43.16973679359169], [2.0612558562726906, 43.17410287836893], [2.0612558562726906, 43.17410287836893], [2.054993168082636, 43.170622049720166], [2.048730479892583, 43.167141221071404], [2.0424677917025282, 43.16366039242264], [2.0362051035124744, 43.16017956377389], [2.0299424153224206, 43.156698735125126], [2.0236797271323645, 43.153217906476364], [2.0174170389423116, 43.1497370778276], [2.0111543507522573, 43.14625624917884], [2.0048916625622035, 43.14277542053008], [1.9986289743721493, 43.13929459188132], [1.9986289743721493, 43.13929459188132], [1.9968090160679024, 43.136158893441625], [1.994989057763655, 43.13302319500195], [1.993169099459407, 43.12988749656225], [1.9913491411551605, 43.126751798122555], [1.9895291828509132, 43.123616099682856], [1.9877092245466668, 43.12048040124317], [1.9858892662424186, 43.11734470280347], [1.9840693079381713, 43.11420900436379], [1.982249349633924, 43.111073305924094], [1.9804293913296775, 43.1079376074844], [1.9804293913296775, 43.1079376074844], [1.981330299679081, 43.10480362725059], [1.9822312080284852, 43.101669647016784], [1.9831321163778908, 43.09853566678297], [1.9840330247272946, 43.09540168654917], [1.9849339330766989, 43.09226770631536], [1.9858348414261044, 43.08913372608155], [1.9867357497755083, 43.08599974584775], [1.987636658124913, 43.08286576561394], [1.9885375664743177, 43.07973178538013], [1.989438474823722, 43.07659780514633], [1.989438474823722, 43.07659780514633], [1.9907058574039134, 43.07521902745502], [1.9919732399841061, 43.07384024976373], [1.9932406225643002, 43.072461472072426], [1.9945080051444917, 43.07108269438113], [1.9957753877246835, 43.06970391668984], [1.9970427703048768, 43.06832513899854], [1.9983101528850695, 43.066946361307245], [1.9995775354652623, 43.065567583615945], [2.000844918045454, 43.064188805924644], [2.002112300625647, 43.06281002823335], [2.002112300625647, 43.06281002823335], [2.000837174199812, 43.060176551141275], [1.9995620477739764, 43.057543074049185], [1.9982869213481416, 43.05490959695709], [1.9970117949223058, 43.05227611986501], [1.9957366684964701, 43.04964264277293], [1.9944615420706353, 43.04700916568084], [1.9931864156448005, 43.04437568858876], [1.9919112892189648, 43.04174221149667], [1.990636162793129, 43.039108734404586], [1.9893610363672942, 43.0364752573125], [1.9893610363672942, 43.0364752573125], [1.9904463415125435, 43.035221408591454], [1.9915316466577906, 43.03396755987039], [1.9926169518030399, 43.03271371114935], [1.9937022569482878, 43.03145986242829], [1.9947875620935362, 43.03020601370725], [1.995872867238785, 43.02895216498619], [1.996958172384033, 43.02769831626514], [1.9980434775292815, 43.02644446754409], [1.9991287826745285, 43.02519061882303], [2.0002140878197774, 43.023936770101976], [2.0002140878197774, 43.023936770101976], [2.0032965877846673, 43.02318550518657], [2.0063790877495555, 43.02243424027117], [2.0094615877144437, 43.02168297535575], [2.012544087679334, 43.02093171044034], [2.015626587644222, 43.020180445524936], [2.018709087609111, 43.01942918060952], [2.0217915875740005, 43.01867791569411], [2.024874087538889, 43.0179266507787], [2.027956587503778, 43.01717538586329], [2.0310390874686677, 43.01642412094788], [2.0310390874686677, 43.01642412094788], [2.0357483270899794, 43.01316507755303], [2.0404575667112916, 43.00990603415818], [2.045166806332604, 43.006646990763336], [2.049876045953916, 43.00338794736849], [2.054585285575228, 43.00012890397364], [2.0592945251965404, 42.9968698605788], [2.064003764817852, 42.99361081718395], [2.068713004439164, 42.990351773789094], [2.0734222440604784, 42.98709273039426], [2.07813148368179, 42.983833686999404], [2.07813148368179, 42.983833686999404], [2.0914086185607053, 42.98564018707798], [2.104685753439624, 42.987446687156556], [2.117962888318541, 42.989253187235136], [2.1312400231974573, 42.99105968731371], [2.144517158076374, 42.99286618739228], [2.1577942929552907, 42.99467268747085], [2.1710714278342076, 42.99647918754943], [2.1843485627131245, 42.99828568762802], [2.197625697592041, 43.000092187706585], [2.2109028324709596, 43.001898687785165], [2.2109028324709596, 43.001898687785165], [2.2218032674939256, 43.0019014081453], [2.2327037025168956, 43.00190412850544], [2.243604137539865, 43.001906848865566], [2.254504572562831, 43.00190956922571], [2.265405007585801, 43.001912289585846], [2.2763054426087708, 43.00191500994598], [2.2872058776317368, 43.00191773030612], [2.2981063126547068, 43.001920450666255], [2.3090067476776768, 43.0019231710264], [2.319907182700643, 43.00192589138653], [2.319907182700643, 43.00192589138653], [2.321823911313402, 42.99837983115142], [2.323740639926159, 42.9948337709163], [2.3256573685389177, 42.99128771068119], [2.327574097151675, 42.987741650446075], [2.329490825764434, 42.984195590210966], [2.331407554377191, 42.98064952997584], [2.3333242829899485, 42.97710346974074], [2.335241011602706, 42.97355740950561], [2.3371577402154644, 42.9700113492705], [2.3390744688282217, 42.96646528903538], [2.3390744688282217, 42.96646528903538], [2.3418960945375384, 42.96664330920305], [2.344717720246857, 42.96682132937072], [2.3475393459561755, 42.96699934953837], [2.3503609716654927, 42.96717736970603], [2.353182597374809, 42.967355389873696], [2.3560042230841294, 42.967533410041355], [2.358825848793448, 42.967711430209015], [2.361647474502765, 42.96788945037668], [2.3644691002120832, 42.96806747054434], [2.367290725921402, 42.96824549071199], [2.367290725921402, 42.96824549071199], [2.3681860400894705, 42.96700444752407], [2.369081354257537, 42.965763404336144], [2.3699766684256054, 42.96452236114823], [2.370871982593672, 42.963281317960295], [2.371767296761742, 42.96204027477237], [2.372662610929811, 42.960799231584446], [2.373557925097879, 42.959558188396514], [2.374453239265948, 42.958317145208596], [2.3753485534340157, 42.957076102020665], [2.3762438676020805, 42.95583505883275], [2.3762438676020805, 42.95583505883275], [2.374828434344695, 42.95335211764477], [2.373413001087305, 42.9508691764568], [2.371997567829919, 42.94838623526883], [2.3705821345725293, 42.94590329408086], [2.3691667013151436, 42.943420352892886], [2.3677512680577544, 42.940937411704915], [2.3663358348003665, 42.938454470516945], [2.3649204015429786, 42.93597152932898], [2.363504968285591, 42.933488588141], [2.3620895350282027, 42.93100564695304], [2.3620895350282027, 42.93100564695304], [2.3645232105603786, 42.92949901369963], [2.3669568860925536, 42.927992380446234], [2.3693905616247286, 42.92648574719283], [2.3718242371569027, 42.92497911393943], [2.3742579126890777, 42.92347248068603], [2.3766915882212527, 42.92196584743263], [2.3791252637534277, 42.92045921417922], [2.3815589392856054, 42.918952580925826], [2.3839926148177804, 42.91744594767242], [2.3864262903499536, 42.91593931441902], [2.3864262903499536, 42.91593931441902], [2.3860350886844666, 42.91256999419719], [2.385643887018979, 42.90920067397536], [2.385252685353492, 42.90583135375353], [2.3848614836880024, 42.90246203353169], [2.384470282022515, 42.899092713309855], [2.384079080357028, 42.895723393088026], [2.3836878786915383, 42.8923540728662], [2.3832966770260513, 42.88898475264436], [2.3829054753605634, 42.885615432422526], [2.3825142736950764, 42.8822461122007], [2.3825142736950764, 42.8822461122007], [2.380330219207579, 42.880206323861735], [2.3781461647200817, 42.87816653552277], [2.375962110232581, 42.87612674718382], [2.3737780557450856, 42.87408695884486], [2.3715940012575865, 42.87204717050591], [2.3694099467700873, 42.870007382166946], [2.3672258922825917, 42.86796759382799], [2.365041837795091, 42.86592780548904], [2.3628577833075957, 42.86388801715008], [2.3606737288200965, 42.86184822881113], [2.3606737288200965, 42.86184822881113], [2.361695393486405, 42.8596318698216], [2.3627170581527124, 42.85741551083208], [2.3637387228190208, 42.85519915184254], [2.364760387485329, 42.85298279285303], [2.3657820521516366, 42.8507664338635], [2.3668037168179468, 42.84855007487396], [2.3678253814842543, 42.84633371588444], [2.3688470461505626, 42.84411735689492], [2.369868710816871, 42.8419009979054], [2.3708903754831785, 42.83968463891587], [2.3708903754831785, 42.83968463891587], [2.3787100749418544, 42.83818038899663], [2.386529774400534, 42.8366761390774], [2.394349473859211, 42.83517188915816], [2.4021691733178865, 42.833667639238925], [2.4099888727765655, 42.83216338931969], [2.417808572235241, 42.830659139400446], [2.4256282716939186, 42.82915488948122], [2.4334479711525936, 42.82765063956197], [2.441267670611271, 42.82614638964274], [2.4490873700699485, 42.8246421397235], [2.4490873700699485, 42.8246421397235], [2.452551393607606, 42.826237918346514], [2.456015417145268, 42.82783369696952], [2.459479440682927, 42.82942947559252], [2.4629434642205847, 42.83102525421553], [2.466407487758246, 42.83262103283854], [2.4698715112959038, 42.834216811461545], [2.473335534833565, 42.83581259008455], [2.476799558371223, 42.83740836870756], [2.4802635819088836, 42.839004147330556], [2.483727605446543, 42.84059992595357], [2.483727605446543, 42.84059992595357], [2.4962950560306147, 42.84051434965277], [2.508862506614685, 42.840428773351974], [2.5214299571987566, 42.84034319705117], [2.5339974077828282, 42.84025762075038], [2.5465648583669, 42.84017204444958], [2.559132308950971, 42.840086468148776], [2.571699759535043, 42.84000089184799], [2.5842672101191146, 42.83991531554719], [2.5968346607031845, 42.83982973924639], [2.609402111287256, 42.83974416294559], [2.609402111287256, 42.83974416294559], [2.617339005204158, 42.83252065383477], [2.625275899121059, 42.82529714472394], [2.6332127930379614, 42.81807363561312], [2.641149686954861, 42.81085012650229], [2.649086580871763, 42.80362661739147], [2.6570234747886645, 42.79640310828064], [2.6649603687055645, 42.78917959916981], [2.6728972626224663, 42.78195609005899], [2.6808341565393694, 42.77473258094816], [2.6887710504562716, 42.767509071837345], [2.6887710504562716, 42.767509071837345], [2.692107827282144, 42.76879607448264], [2.695444604108019, 42.77008307712792], [2.698781380933895, 42.77137007977322], [2.7021181577597697, 42.77265708241851], [2.705454934585644, 42.7739440850638], [2.7087917114115188, 42.7752310877091], [2.712128488237393, 42.776518090354394], [2.7154652650632696, 42.77780509299968], [2.718802041889144, 42.77909209564498], [2.722138818715017, 42.78037909829027], [2.722138818715017, 42.78037909829027], [2.727669236292664, 42.78871372840847], [2.733199653870311, 42.79704835852667], [2.738730071447955, 42.80538298864489], [2.7442604890256, 42.81371761876308], [2.749790906603248, 42.822052248881285], [2.7553213241808936, 42.8303868789995], [2.7608517417585388, 42.8387215091177], [2.7663821593361826, 42.8470561392359], [2.7719125769138317, 42.8553907693541], [2.777442994491475, 42.86372539947231], [2.777442994491475, 42.86372539947231], [2.7844994545760633, 42.8654117718092], [2.7915559146606563, 42.86709814414609], [2.7986123747452445, 42.86878451648299], [2.805668834829832, 42.87047088881989], [2.812725294914423, 42.87215726115678], [2.819781754999011, 42.87384363349368], [2.8268382150836007, 42.87553000583057], [2.8338946751681884, 42.87721637816746], [2.84095113525278, 42.87890275050435], [2.8480075953373696, 42.88058912284125], [2.8480075953373696, 42.88058912284125], [2.854540513835557, 42.87677824065698], [2.8610734323337446, 42.87296735847271], [2.867606350831932, 42.86915647628843], [2.874139269330121, 42.86534559410416], [2.8806721878283086, 42.86153471191989], [2.8872051063264945, 42.857723829735626], [2.893738024824683, 42.85391294755135], [2.900270943322871, 42.850102065367075], [2.9068038618210585, 42.84629118318281], [2.9133367803192454, 42.84248030099853], [2.9133367803192454, 42.84248030099853], [2.921369977853432, 42.84109254660129], [2.9294031753876193, 42.839704792204046], [2.9374363729218054, 42.838317037806796], [2.9454695704559914, 42.836929283409546], [2.9535027679901806, 42.8355415290123], [2.9615359655243667, 42.83415377461506], [2.969569163058553, 42.83276602021781], [2.977602360592742, 42.83137826582057], [2.9856355581269263, 42.829990511423325], [2.993668755661114, 42.82860275702608], [2.993668755661114, 42.82860275702608], [2.9935916202608186, 42.82862967263265], [2.99352164374242, 42.8286596977046], [2.9934569116884946, 42.82869200151839], [2.993395509681617, 42.82872575335052], [2.9933355233043546, 42.828760122477426], [2.993275038139289, 42.828794278175614], [2.9932121397689873, 42.82882738972157], [2.9931449137760286, 42.828858626391735], [2.9930714457429812, 42.8288871574626], [2.992989821252421, 42.82891215221065], [2.99298982125241, 42.828912152210656], [2.9926334607929803, 42.83166139419685], [2.993071653064029, 42.83422577171204], [2.994209530102958, 42.83662447815221], [2.9959522239471834, 42.8388767069134], [2.9982048666341132, 42.84100165139163], [3.000872590201156, 42.843018504982936], [3.0038605266857252, 42.84494646108331], [3.0070738081252304, 42.846804713088794], [3.010417566557081, 42.8486124543954], [3.0137969340186834, 42.85038887839914], [3.013796934018678, 42.850388878399144], [3.015053318587164, 42.85105263487625], [3.016297856055988, 42.85171639495994], [3.0175251560029275, 42.85238095145307], [3.0187298280057573, 42.85304709715852], [3.0199064816422507, 42.85371562487912], [3.0210497264901837, 42.85438732741773], [3.0221541721273293, 42.85506299757722], [3.0232144281314652, 42.855743428160444], [3.0242251040803656, 42.85642941197024], [3.0251808095518062, 42.857121741809465], [3.02518080955181, 42.85712174180947], [3.0315756613279086, 42.85997620325664], [3.036170973872546, 42.86361329158444], [3.039303053279703, 42.86787913756356], [3.041308205643356, 42.872619871964716], [3.042522737057491, 42.87768162555859], [3.043282953616084, 42.882910529115875], [3.0439251614131186, 42.88815271340727], [3.044785666542572, 42.89325430920349], [3.0462007750984257, 42.89806144727522], [3.048506793174663, 42.902420258393136], [3.048506793174663, 42.902420258393136], [3.0525339219379197, 42.901117324725696], [3.056658015931474, 42.89999159560816], [3.0608654356332132, 42.8990169198177], [3.0651425415210327, 42.898167146131534], [3.069475694072828, 42.8974161233269], [3.0738512537664957, 42.89673770018099], [3.078255581079928, 42.89610572547102], [3.0826750364910205, 42.895494047974196], [3.0870959804776654, 42.89487651646776], [3.09150477351776, 42.89422697972889], [3.0915047735177565, 42.89422697972889], [3.0926411298860903, 42.89703175089327], [3.093446516817743, 42.900126510261614], [3.0938766914427007, 42.90342941343924], [3.0938874108909578, 42.90685861603146], [3.0934344322925065, 42.91033227364359], [3.0924735127773357, 42.91376854188095], [3.090960409475436, 42.91708557634885], [3.088850879516802, 42.920201532652605], [3.0861006800314255, 42.92303456639754], [3.082665568149292, 42.92550283318895], [3.082665568149301, 42.92550283318896], [3.0751916610999017, 42.92667275101016], [3.0682061854093825, 42.92865629373807], [3.061852757229753, 42.931364132580285], [3.0562749927130235, 42.93470693874437], [3.051616508011205, 42.93859538343792], [3.04802091927631, 42.9429401378685], [3.04563184266035, 42.947651873243686], [3.044592894315335, 42.95264126077107], [3.045047690393275, 42.957818971658206], [3.0471398470461817, 42.963095677112705], [3.047139847046187, 42.9630956771127], [3.0474108050932682, 42.966567590733], [3.049445816705845, 42.96981690711631], [3.0527875080232385, 42.97269480296191], [3.0569785051847735, 42.97505245496907], [3.061561434329773, 42.9767410398371], [3.066078921597564, 42.977611734265295], [3.0700735931274674, 42.97751571495294], [3.0730880750588123, 42.97630415859932], [3.074664993530915, 42.97382824190371], [3.0743469746831047, 42.969939141565426], [3.074346974683101, 42.96993914156543], [3.071156323719061, 42.9671305285353], [3.067904813392246, 42.96369944571354], [3.0648682668707203, 42.959844170803535], [3.062322507322556, 42.95576298150873], [3.0605433579158237, 42.9516541555325], [3.05980664181859, 42.94771597057829], [3.0603881821989245, 42.944146704349485], [3.0625638022249047, 42.94114463454951], [3.0666093250645923, 42.93890803888178], [3.07280057388606, 42.93763519504968], [3.0728005738860635, 42.93763519504968], [3.0800775808004555, 42.94249504156683], [3.0859921325484794, 42.94799432297174], [3.0907052224129106, 42.954026716101154], [3.0943778436765297, 42.96048589779184], [3.097170989622113, 42.96726554488056], [3.09924565353244, 42.974259334204056], [3.100762828690289, 42.98136094259909], [3.101883508378442, 42.988464046902415], [3.10276868587967, 42.99546232395079], [3.1035793544767594, 43.00224945058097], [3.1035793544767647, 43.00224945058097], [3.1032952133186975, 43.0064454838246], [3.104194842428773, 43.01025756622794], [3.106058374126404, 43.01375780210517], [3.108665940730996, 43.01701829577048], [3.1117976745619527, 43.02011115153806], [3.1152337079386787, 43.02310847372208], [3.1187541731805797, 43.026082366636736], [3.1221392026070602, 43.02910493459622], [3.1251689285375277, 43.032248281914704], [3.1276234832913867, 43.03558451290639], [3.1276234832913956, 43.03558451290639], [3.1292218560717644, 43.039228199721805], [3.1303993789341322, 43.042946910544806], [3.1310429692505255, 43.046574056073], [3.131039544392968, 43.049943047003985], [3.130276021733485, 43.05288729403536], [3.1286393186441033, 43.055240207864706], [3.12601635249685, 43.05683519918964], [3.122294040663746, 43.057505678707756], [3.1173593005168194, 43.05708505711665], [3.111099049428099, 43.05540674511391], [3.111099049428099, 43.05540674511391], [3.1042311746773117, 43.057021840670586], [3.0990677072463986, 43.05950985142604], [3.095383797597179, 43.062724995087166], [3.0929545961914635, 43.066521489360866], [3.0915552534910735, 43.07075355195406], [3.090960919957825, 43.07527540057363], [3.0909467460535285, 43.0799412529265], [3.0912878822400027, 43.08460532671957], [3.0917594789790646, 43.08912183965971], [3.092136686732531, 43.093345009453856], [3.0921366867325397, 43.09334500945386], [3.0892813729230757, 43.0964773889271], [3.087722237679993, 43.09962585998644], [3.0873577660824627, 43.10270286051678], [3.0880864432096646, 43.10562082840301], [3.0898067541407737, 43.10829220153004], [3.092417183954965, 43.110629417782754], [3.095816217731414, 43.11254491504607], [3.099902340549298, 43.113951131204864], [3.1045740374877906, 43.11476050414406], [3.109729793626071, 43.114885471748515], [3.1097297936260655, 43.114885471748515], [3.1152287607337317, 43.115653974216585], [3.12045954255437, 43.11542539617901], [3.125169276111475, 43.11437859084943], [3.12910509842853, 43.11269241144144], [3.13201414652903, 43.11054571116867], [3.1336435574364647, 43.108117343244736], [3.1337404681743224, 43.10558616088327], [3.1320520157660945, 43.10313101729787], [3.1283253372352715, 43.10093076570216], [3.122307569605344, 43.09916425930978], [3.1223075696053493, 43.099164259309774], [3.116932956411722, 43.09830785730296], [3.113081822399488, 43.09677572339569], [3.110636592734673, 43.0947174332798], [3.109479692583298, 43.09228256264711], [3.109493547111392, 43.089620687189466], [3.1105605814849784, 43.086881382598705], [3.112563220870085, 43.084214224566644], [3.115383890432733, 43.08176878878513], [3.118905015338958, 43.07969465094601], [3.123009020754776, 43.07814138674109], [3.123009020754776, 43.07814138674109], [3.123860703351571, 43.07374476490223], [3.125952794782903, 43.070800893735935], [3.1289717344967074, 43.06917131303921], [3.13260396194092, 43.06871756260914], [3.1365359165634827, 43.06930118224272], [3.1404540378123316, 43.070783711736986], [3.1440447651354035, 43.07302669088899], [3.1469945379806394, 43.075891659495746], [3.148989795795974, 43.07924015735431], [3.1497169780293466, 43.082933724261714], [3.149716978029352, 43.082933724261714], [3.1504252834377042, 43.08650994068275], [3.1519650767979397, 43.08952914501159], [3.1541555062107407, 43.09213725456821], [3.1568157197767825, 43.09448018667253], [3.1597648655967396, 43.09670385864452], [3.16282209177129, 43.09895418780411], [3.1658065464011123, 43.10137709147126], [3.1685373775868793, 43.10411848696591], [3.170833733429267, 43.107324291608], [3.172514762028959, 43.111140422717504], [3.17251476202895, 43.111140422717504], [3.1791535628205847, 43.117399053273324], [3.1856105452506367, 43.12374305859991], [3.1918961369218137, 43.13016735481379], [3.1980207654368207, 43.13666685803148], [3.2039948583983686, 43.14323648436948], [3.2098288434091624, 43.149871149944325], [3.2155331480719123, 43.1565657708725], [3.221118199989324, 43.163315263270526], [3.2265944267641022, 43.17011454325493], [3.2319722559989583, 43.176958526942215], [3.23197225599896, 43.176958526942215], [3.2319830426862164, 43.17696611670211], [3.231992772133587, 43.17697433626608], [3.2320017145840896, 43.17698302818458], [3.232010140280748, 43.176992035008084], [3.2320183194665817, 43.17700119928704], [3.23202652238461, 43.17701036357193], [3.2320350192778595, 43.1770193704132], [3.2320440803893455, 43.177028062361316], [3.232053975962089, 43.177036281966735], [3.2320649762391116, 43.17704387177993], [3.2320649762391027, 43.17704387177994]]]}}]}