{
    "type": "FeatureCollection",
    "name": "Algaren",
    "crs": {
        "type": "name",
        "properties": {
                "diocese": "Algaren",
                "province": "Turritan",
                "date": 1592
            }
    },
    "features": [
        {
            "type": "Feature",
            "properties": {
                "diocese": "Algaren",
                "province": "Turritan",
                "date": 1592
            },
            "geometry": {
                "type": "MultiPolygon",
                "coordinates": [
                    [
                        [
                            [
                                8.412943152919503,
                                40.433860781473044
                            ],
                            [
                                8.364662491427181,
                                40.490374047665981
                            ],
                            [
                                8.333094366605277,
                                40.518612849899128
                            ],
                            [
                                8.33123741808634,
                                40.556716372506486
                            ],
                            [
                                8.313596407156453,
                                40.58633746170208
                            ],
                            [
                                8.289456076410291,
                                40.597618236977389
                            ],
                            [
                                8.265315745664131,
                                40.593388169271272
                            ],
                            [
                                8.223534403988081,
                                40.560948759450369
                            ],
                            [
                                8.211464238614999,
                                40.570118013203242
                            ],
                            [
                                8.215178135652872,
                                40.596208244145494
                            ],
                            [
                                8.226319826766485,
                                40.613126195428805
                            ],
                            [
                                8.210535764355532,
                                40.62369774029716
                            ],
                            [
                                8.19103780490671,
                                40.613126195428805
                            ],
                            [
                                8.172468319717353,
                                40.574349552786913
                            ],
                            [
                                8.160398154344273,
                                40.57787563135669
                            ],
                            [
                                8.145542566192788,
                                40.630744507466467
                            ],
                            [
                                8.19103780490671,
                                40.650471499708864
                            ],
                            [
                                8.208678815836596,
                                40.668079959049571
                            ],
                            [
                                8.211881160391586,
                                40.668390482037978
                            ],
                            [
                                8.212001608131605,
                                40.667385665484353
                            ],
                            [
                                8.237604421771849,
                                40.668268381121784
                            ],
                            [
                                8.330705562281823,
                                40.647079981150185
                            ],
                            [
                                8.383074953818685,
                                40.642664884132358
                            ],
                            [
                                8.440099402381046,
                                40.659440698974031
                            ],
                            [
                                8.494796322430656,
                                40.662089126297687
                            ],
                            [
                                8.514580314789024,
                                40.653260626298625
                            ],
                            [
                                8.522726664583649,
                                40.548111817951764
                            ],
                            [
                                8.587897462940631,
                                40.502112520291185
                            ],
                            [
                                8.587897462940631,
                                40.441911965814903
                            ],
                            [
                                8.587947682821206,
                                40.441840295214739
                            ],
                            [
                                8.412943152919503,
                                40.433860781473044
                            ]
                        ]
                    ]
                ]
            }
        }
    ]
}