{"type": "FeatureCollection", "features": [{"type": "Feature", "properties": {"diocese": "Angoul\u00eame", "province": "VI_Bordeaux", "source": "37_Angoul\u00eame.txt"}, "geometry": {"type": "Polygon", "coordinates": [[[0.5930814203653794, 45.93172536003698], [0.5828242432064084, 45.93278675084708], [0.5725670660474362, 45.93384814165719], [0.562309888888465, 45.93490953246729], [0.5520527117294938, 45.935970923277395], [0.5417955345705225, 45.9370323140875], [0.5315383574115524, 45.938093704897604], [0.5212811802525812, 45.93915509570771], [0.51102400309361, 45.94021648651781], [0.5007668259346387, 45.94127787732792], [0.49050964877566683, 45.94233926813802], [0.49050964877566683, 45.94233926813802], [0.4865328284842121, 45.94162901170366], [0.4825560081927567, 45.9409187552693], [0.47857918790130194, 45.94020849883493], [0.4746023676098463, 45.93949824240056], [0.4706255473183918, 45.9387879859662], [0.46664872702693705, 45.93807772953184], [0.4626719067354814, 45.93736747309747], [0.458695086444026, 45.9366572166631], [0.4547182661525704, 45.93594696022874], [0.45074144586111564, 45.935236703794374], [0.45074144586111564, 45.935236703794374], [0.447281524813564, 45.936565764943026], [0.4438216037660123, 45.937894826091686], [0.44036168271846066, 45.939223887240345], [0.436901761670909, 45.940552948389005], [0.4334418406233582, 45.94188200953766], [0.4299819195758059, 45.94321107068632], [0.426521998528254, 45.94454013183498], [0.42306207748070235, 45.94586919298363], [0.4196021564331498, 45.94719825413228], [0.4161422353855979, 45.94852731528094], [0.4161422353855979, 45.94852731528094], [0.4153763837327453, 45.950389051438016], [0.41461053207989274, 45.95225078759509], [0.41384468042704015, 45.95411252375216], [0.41307882877418756, 45.95597425990923], [0.4123129771213341, 45.95783599606631], [0.4115471254684806, 45.95969773222338], [0.410781273815628, 45.96155946838045], [0.4100154221627763, 45.963421204537525], [0.4092495705099226, 45.965282940694586], [0.40848371885707024, 45.96714467685167], [0.40848371885707024, 45.96714467685167], [0.4047662893689865, 45.96794172576409], [0.4010488598809028, 45.96873877467652], [0.39733143039281793, 45.96953582358894], [0.3936140009047331, 45.97033287250136], [0.38989657141665024, 45.971129921413784], [0.3861791419285667, 45.971926970326216], [0.38246171244048277, 45.97272401923863], [0.37874428295239815, 45.97352106815106], [0.3750268534643135, 45.97431811706348], [0.37130942397623024, 45.97511516597591], [0.37130942397623024, 45.97511516597591], [0.368361260727349, 45.975823748874554], [0.3654130974784673, 45.9765323317732], [0.36246493422958537, 45.977240914671846], [0.3595167709807048, 45.97794949757049], [0.3565686077318222, 45.97865808046914], [0.35362044448294117, 45.979366663367784], [0.3506722812340608, 45.98007524626644], [0.3477241179851789, 45.980783829165084], [0.3447759547362972, 45.98149241206372], [0.3418277914874155, 45.98220099496237], [0.3418277914874155, 45.98220099496237], [0.3382375785438634, 45.981668096308454], [0.3346473656003113, 45.98113519765456], [0.3310571526567583, 45.980602299000644], [0.32746693971320506, 45.98006940034673], [0.32387672676965185, 45.97953650169282], [0.3202865138261004, 45.97900360303891], [0.3166963008825472, 45.978470704384996], [0.3131060879389942, 45.97793780573109], [0.3095158749954421, 45.97740490707718], [0.3059256620518891, 45.976872008423264], [0.3059256620518891, 45.976872008423264], [0.30438164568853265, 45.9742117191551], [0.302837629325178, 45.97155142988694], [0.30129361296182244, 45.96889114061877], [0.299749596598466, 45.9662308513506], [0.29820558023511046, 45.96357056208244], [0.29666156387175313, 45.96091027281428], [0.2951175475083978, 45.95824998354611], [0.29357353114504137, 45.95558969427795], [0.2920295147816856, 45.952929405009776], [0.2904854984183294, 45.95026911574161], [0.2904854984183294, 45.95026911574161], [0.2903505837666529, 45.94681125617806], [0.29021566911497576, 45.94335339661452], [0.2900807544632986, 45.93989553705096], [0.28994583981162236, 45.93643767748742], [0.2898109251599452, 45.932979817923865], [0.2896760105082681, 45.92952195836032], [0.28954109585659094, 45.92606409879677], [0.2894061812049147, 45.922606239233225], [0.28927126655323754, 45.91914837966968], [0.2891363519015613, 45.91569052010613], [0.2891363519015613, 45.91569052010613], [0.281057208270046, 45.91568850383978], [0.27297806463853136, 45.91568648757344], [0.26489892100701784, 45.915684471307095], [0.25681977737550343, 45.915682455040745], [0.24874063374398903, 45.9156804387744], [0.24066149011247484, 45.91567842250806], [0.2325823464809602, 45.91567640624172], [0.2245032028494458, 45.91567438997537], [0.21642405921793118, 45.91567237370903], [0.20834491558641677, 45.915670357442686], [0.20834491558641677, 45.915670357442686], [0.2051378826822301, 45.91513755441685], [0.20193084977804232, 45.91460475139103], [0.19872381687385476, 45.914071948365205], [0.19551678396966743, 45.91353914533937], [0.19230975106548076, 45.91300634231355], [0.18910271816129232, 45.912473539287724], [0.18589568525710565, 45.91194073626189], [0.18268865235291876, 45.91140793323607], [0.1794816194487303, 45.910875130210236], [0.17627458654454276, 45.91034232718441], [0.17627458654454276, 45.91034232718441], [0.17537313567726032, 45.90839151693283], [0.17447168480997854, 45.90644070668125], [0.17357023394269544, 45.904489896429666], [0.172668783075413, 45.90253908617808], [0.17176733220812967, 45.900588275926495], [0.17086588134084724, 45.89863746567491], [0.1699644304735648, 45.89668665542333], [0.16906297960628147, 45.894735845171745], [0.16816152873899926, 45.892785034920166], [0.1672600778717177, 45.89083422466858], [0.1672600778717177, 45.89083422466858], [0.1469979581693055, 45.890756535135424], [0.1267358384668933, 45.89067884560227], [0.10647371876448042, 45.89060115606911], [0.0862115990620691, 45.89052346653595], [0.06594947935965689, 45.890445777002796], [0.04568735965724491, 45.89036808746963], [0.0254252399548327, 45.89029039793648], [0.0051631202524207165, 45.89021270840332], [-0.015098999449990491, 45.89013501887017], [-0.03536111915240259, 45.890057329337004], [-0.03536111915240259, 45.890057329337004], [-0.03473055541474168, 45.88454433767432], [-0.03409999167708144, 45.87903134601164], [-0.03346942793942054, 45.873518354348946], [-0.03283886420175963, 45.868005362686255], [-0.03220830046409762, 45.86249237102358], [-0.03157773672643671, 45.85697937936089], [-0.030947172988775806, 45.851466387698196], [-0.03031660925111468, 45.84595339603552], [-0.029686045513453774, 45.84044040437283], [-0.029055481775792646, 45.83492741271014], [-0.029055481775792646, 45.83492741271014], [-0.030089793923176678, 45.830582639350055], [-0.031124106070560376, 45.82623786598999], [-0.03215841821794252, 45.82189309262991], [-0.03319273036532644, 45.81754831926983], [-0.03422704251271125, 45.81320354590975], [-0.03526135466009428, 45.80885877254968], [-0.03629566680747731, 45.8045139991896], [-0.03732997895486123, 45.80016922582953], [-0.03836429110224415, 45.795824452469446], [-0.03939860324962807, 45.79147967910937], [-0.03939860324962807, 45.79147967910937], [-0.042225360593348915, 45.78864284759226], [-0.04505211793707198, 45.78580601607514], [-0.04787887528079382, 45.782969184558034], [-0.050705632624515995, 45.78013235304092], [-0.053532389968238614, 45.777295521523804], [-0.05635914731196057, 45.77445869000669], [-0.05918590465568252, 45.771621858489574], [-0.06201266199940447, 45.76878502697246], [-0.06483941934312643, 45.76594819545535], [-0.06766617668684749, 45.763111363938236], [-0.06766617668684749, 45.763111363938236], [-0.06896295990608847, 45.75566333116194], [-0.07025974312532945, 45.74821529838565], [-0.07155652634456877, 45.74076726560935], [-0.07285330956380953, 45.73331923283306], [-0.07415009278305074, 45.725871200056766], [-0.07544687600229083, 45.71842316728047], [-0.07674365922153181, 45.71097513450419], [-0.0780404424407718, 45.7035271017279], [-0.07933722566001189, 45.6960790689516], [-0.08063400887925287, 45.6886310361753], [-0.08063400887925287, 45.6886310361753], [-0.07910334017006715, 45.68437561563166], [-0.07757267146088198, 45.68012019508802], [-0.07604200275169615, 45.675864774544365], [-0.07451133404251109, 45.67160935400072], [-0.07298066533332448, 45.66735393345707], [-0.07144999662413953, 45.66309851291343], [-0.06991932791495348, 45.658843092369786], [-0.06838865920576864, 45.654587671826135], [-0.0668579904965827, 45.65033225128249], [-0.06532732178739775, 45.64607683073884], [-0.06532732178739775, 45.64607683073884], [-0.067901706547429, 45.64111101237161], [-0.07047609130746013, 45.63614519400438], [-0.07305047606749215, 45.631179375637146], [-0.07562486082752362, 45.6262135572699], [-0.07819924558755564, 45.62124773890267], [-0.080773630347587, 45.61628192053543], [-0.08334801510761825, 45.611316102168196], [-0.08592239986765027, 45.60635028380096], [-0.08849678462768151, 45.601384465433725], [-0.09107116938771265, 45.596418647066486], [-0.09107116938771265, 45.596418647066486], [-0.09300589770029832, 45.59065506637776], [-0.09494062601288322, 45.58489148568903], [-0.09687535432546868, 45.579127905000284], [-0.09881008263805435, 45.57336432431155], [-0.10074481095063825, 45.56760074362281], [-0.10267953926322382, 45.56183716293408], [-0.1046142675758086, 45.55607358224535], [-0.10654899588839428, 45.5503100015566], [-0.10848372420097974, 45.544546420867874], [-0.11041845251356364, 45.53878284017914], [-0.11041845251356364, 45.53878284017914], [-0.10901602468175087, 45.534527387631144], [-0.1076135968499381, 45.53027193508314], [-0.10621116901812522, 45.52601648253514], [-0.10480874118631145, 45.52176102998714], [-0.10340631335449779, 45.51750557743914], [-0.1020038855226838, 45.513250124891144], [-0.10060145769087037, 45.50899467234314], [-0.09919902985905726, 45.50473921979514], [-0.0977966020272436, 45.50048376724715], [-0.09639417419543073, 45.49622831469914], [-0.09639417419543073, 45.49622831469914], [-0.09332017368564205, 45.49427849657855], [-0.09024617317585337, 45.49232867845797], [-0.08717217266606458, 45.49037886033739], [-0.08409817215627569, 45.4884290422168], [-0.0810241716464879, 45.48647922409621], [-0.07795017113669922, 45.48452940597562], [-0.07487617062691043, 45.48257958785503], [-0.07180217011712264, 45.48062976973445], [-0.06872816960733297, 45.47867995161386], [-0.06565416909754518, 45.47673013349327], [-0.06565416909754518, 45.47673013349327], [-0.06360506101021413, 45.47531200756736], [-0.06155595292288207, 45.47389388164145], [-0.059506844835549244, 45.47247575571554], [-0.0574577367482173, 45.471057629789634], [-0.05540862866088625, 45.469639503863725], [-0.053359520573555086, 45.46822137793781], [-0.051310412486223256, 45.46680325201189], [-0.049261304398890315, 45.46538512608599], [-0.047212196311558596, 45.463967000160075], [-0.04516308822422743, 45.462548874234166], [-0.04516308822422743, 45.462548874234166], [-0.04478384156632986, 45.45971174895348], [-0.044404594908432515, 45.456874623672796], [-0.044025348250534946, 45.45403749839211], [-0.0436461015926376, 45.45120037311142], [-0.04326685493474014, 45.448363247830734], [-0.04288760827684268, 45.44552612255005], [-0.042508361618944335, 45.442688997269364], [-0.042129114961047875, 45.43985187198867], [-0.04174986830315042, 45.43701474670799], [-0.04137062164525285, 45.434177621427295], [-0.04137062164525285, 45.434177621427295], [-0.04099239966748558, 45.43080958709411], [-0.04061417768971731, 45.427441552760925], [-0.040235955711950155, 45.42407351842774], [-0.039857733734182, 45.420705484094555], [-0.03947951175641484, 45.417337449761355], [-0.0391012897786458, 45.41396941542818], [-0.03872306780087931, 45.41060138109499], [-0.03834484582311204, 45.40723334676181], [-0.037966623845343994, 45.403865312428614], [-0.037588401867576615, 45.40049727809543], [-0.037588401867576615, 45.40049727809543], [-0.0342570639259927, 45.398990868866576], [-0.03092572598440879, 45.397484459637724], [-0.027594388042825768, 45.39597805040888], [-0.024263050101241745, 45.39447164118002], [-0.020931712159657057, 45.392965231951166], [-0.017600374218074033, 45.39145882272231], [-0.01426903627649101, 45.38995241349346], [-0.010937698334907986, 45.388446004264615], [-0.007606360393323186, 45.38693959503576], [-0.004275022451739274, 45.38543318580691], [-0.004275022451739274, 45.38543318580691], [0.0009799285448642836, 45.38392720194993], [0.00623487954146873, 45.382421218092944], [0.011489830538073287, 45.38091523423597], [0.016744781534677622, 45.379409250378984], [0.02199973253128129, 45.37790326652201], [0.027254683527885515, 45.376397282665025], [0.03250963452449107, 45.374891298808045], [0.03776458552109441, 45.373385314951065], [0.043019536517699075, 45.371879331094085], [0.04827448751430352, 45.37037334723711], [0.04827448751430352, 45.37037334723711], [0.05109269863727084, 45.368778097261476], [0.0539109097602406, 45.36718284728584], [0.056729120883208806, 45.36558759731021], [0.05954733200617701, 45.363992347334566], [0.06236554312914522, 45.36239709735894], [0.0651837542521132, 45.36080184738331], [0.0680019653750823, 45.35920659740766], [0.07082017649804961, 45.35761134743203], [0.0736383876210196, 45.356016097456404], [0.07645659874398669, 45.35442084748077], [0.07645659874398669, 45.35442084748077], [0.07568321763977925, 45.352381411195616], [0.0749098365355707, 45.350341974910464], [0.07413645543136194, 45.34830253862531], [0.07336307432715339, 45.34626310234016], [0.07258969322294417, 45.34422366605501], [0.07181631211873629, 45.34218422976985], [0.07104293101452774, 45.340144793484704], [0.0702695499103192, 45.33810535719956], [0.06949616880611087, 45.33606592091441], [0.06872278770190299, 45.334026484629256], [0.06872278770190299, 45.334026484629256], [0.06769018680305972, 45.33056834634181], [0.06665758590421711, 45.32711020805437], [0.06562498500537539, 45.32365206976693], [0.06459238410653301, 45.32019393147949], [0.06355978320768974, 45.316735793192045], [0.06252718230884624, 45.3132776549046], [0.061494581410004745, 45.30981951661717], [0.06046198051116214, 45.30636137832972], [0.059429379612318645, 45.302903240042276], [0.05839677871347715, 45.29944510175484], [0.05839677871347715, 45.29944510175484], [0.06121464771341012, 45.297672590396786], [0.06403251671334398, 45.295900079038724], [0.06685038571327695, 45.294127567680675], [0.0696682547132097, 45.29235505632261], [0.07248612371314378, 45.29058254496457], [0.07530399271307742, 45.28881003360651], [0.07812186171300972, 45.287037522248454], [0.08093973071294358, 45.2852650108904], [0.08375759971287744, 45.28349249953235], [0.08657546871281019, 45.28171998817429], [0.08657546871281019, 45.28171998817429], [0.0874656252974988, 45.277818985069125], [0.08835578188218651, 45.27391798196395], [0.08924593846687401, 45.27001697885876], [0.09013609505156239, 45.26611597575359], [0.09102625163625166, 45.262214972648415], [0.09191640822093938, 45.25831396954324], [0.09280656480562688, 45.25441296643807], [0.09369672139031548, 45.2505119633329], [0.09458687797500298, 45.24661096022772], [0.09547703455969048, 45.24270995712255], [0.09547703455969048, 45.24270995712255], [0.10409480251807568, 45.25601162749385], [0.11271257047646088, 45.269313297865146], [0.1213303384348452, 45.28261496823645], [0.1299481063932293, 45.29591663860776], [0.1385658743516145, 45.30921830897906], [0.14718364230999992, 45.32251997935036], [0.155801410268384, 45.33582164972166], [0.16441917822676722, 45.349123320092964], [0.1730369461851533, 45.36242499046427], [0.18165471414353762, 45.375726660835575], [0.18165471414353762, 45.375726660835575], [0.1892215866334881, 45.37608318123816], [0.19678845912343856, 45.376439701640756], [0.20435533161338726, 45.37679622204334], [0.21192220410333795, 45.377152742445936], [0.21948907659328842, 45.37750926284853], [0.227055949083238, 45.37786578325112], [0.2346228215731876, 45.37822230365371], [0.24218969406313717, 45.3785788240563], [0.24975656655308764, 45.37893534445889], [0.2573234390430381, 45.379291864861486], [0.2573234390430381, 45.379291864861486], [0.2564332802415703, 45.383191719404785], [0.2555431214401025, 45.38709157394809], [0.25465296263863446, 45.39099142849139], [0.25376280383716643, 45.39489128303469], [0.25287264503569773, 45.398791137577994], [0.2519824862342297, 45.4026909921213], [0.25109232743276166, 45.40659084666459], [0.2502021686312941, 45.4104907012079], [0.24931200982982515, 45.414390555751204], [0.248421851028358, 45.418290410294496], [0.248421851028358, 45.418290410294496], [0.25496793035051524, 45.4213066345736], [0.2615140096726716, 45.42432285885268], [0.2680600889948288, 45.42733908313178], [0.27460616831698426, 45.43035530741087], [0.28115224763914237, 45.433371531689964], [0.2876983269612996, 45.436387755969065], [0.29424440628345594, 45.43940398024815], [0.30079048560561317, 45.44242020452725], [0.3073365649277695, 45.44543642880634], [0.31388264424992673, 45.44845265308543], [0.31388264424992673, 45.44845265308543], [0.31670871668360645, 45.45173386827563], [0.31953478911728705, 45.455015083465824], [0.32236086155096677, 45.45829629865602], [0.32518693398464626, 45.461577513846215], [0.32801300641832576, 45.46485872903641], [0.3308390788520055, 45.46813994422661], [0.3336651512856852, 45.4714211594168], [0.3364912237193658, 45.474702374607], [0.3393172961530455, 45.47798358979719], [0.342143368586725, 45.48126480498738], [0.342143368586725, 45.48126480498738], [0.34714628711701545, 45.482064030187914], [0.35214920564730745, 45.482863255388445], [0.357152124177599, 45.48366248058898], [0.36215504270788834, 45.48446170578951], [0.3671579612381788, 45.48526093099005], [0.372160879768471, 45.48606015619058], [0.37716379829876234, 45.48685938139112], [0.3821667168290528, 45.48765860659165], [0.387169635359343, 45.48845783179219], [0.39217255388963435, 45.48925705699272], [0.39217255388963435, 45.48925705699272], [0.3971684484007312, 45.486421083862815], [0.402164342911828, 45.48358511073292], [0.4071602374229266, 45.48074913760301], [0.41215613193402345, 45.477913164473115], [0.4171520264451194, 45.47507719134321], [0.42214792095621734, 45.47224121821331], [0.42714381546731417, 45.469405245083415], [0.432139709978411, 45.46656927195351], [0.43713560448950783, 45.46373329882361], [0.44213149900060555, 45.46089732569371], [0.44213149900060555, 45.46089732569371], [0.4464945821639812, 45.462405709869266], [0.45085766532735594, 45.46391409404483], [0.45522074849073135, 45.4654224782204], [0.45958383165410677, 45.46693086239595], [0.4639469148174822, 45.468439246571506], [0.4683099979808567, 45.46994763074708], [0.47267308114423323, 45.47145601492264], [0.47703616430760776, 45.47296439909819], [0.4813992474709843, 45.474472783273754], [0.4857623306343588, 45.47598116744932], [0.4857623306343588, 45.47598116744932], [0.48884438184912904, 45.478198495886694], [0.49192643306389905, 45.480415824324055], [0.49500848427866995, 45.48263315276143], [0.4980905354934402, 45.48485048119881], [0.5011725867082111, 45.48706780963619], [0.5042546379229806, 45.48928513807356], [0.5073366891377513, 45.49150246651093], [0.5104187403525213, 45.493719794948305], [0.5135007915672918, 45.49593712338569], [0.5165828427820625, 45.498154451823055], [0.5165828427820625, 45.498154451823055], [0.5182614315684995, 45.50409528457892], [0.5199400203549356, 45.510036117334806], [0.5216186091413726, 45.51597695009067], [0.5232971979278087, 45.52191778284654], [0.5249757867142466, 45.52785861560241], [0.5266543755006836, 45.53379944835829], [0.5283329642871197, 45.539740281114156], [0.5300115530735572, 45.54568111387003], [0.5316901418599942, 45.5516219466259], [0.5333687306464312, 45.557562779381776], [0.5333687306464312, 45.557562779381776], [0.534913773801136, 45.56075507157089], [0.5364588169558404, 45.56394736376001], [0.5380038601105461, 45.56713965594912], [0.5395489032652501, 45.57033194813823], [0.5410939464199545, 45.57352424032736], [0.5426389895746602, 45.57671653251647], [0.544184032729365, 45.57990882470559], [0.5457290758840707, 45.583101116894696], [0.5472741190387751, 45.58629340908382], [0.5488191621934799, 45.589485701272935], [0.5488191621934799, 45.589485701272935], [0.5525424098843792, 45.5917031897301], [0.5562656575752778, 45.59392067818727], [0.5599889052661768, 45.59613816664443], [0.5637121529570752, 45.598355655101585], [0.5674354006479727, 45.60057314355876], [0.5711586483388729, 45.60279063201592], [0.5748818960297712, 45.605008120473094], [0.5786051437206696, 45.60722560893026], [0.5823283914115689, 45.60944309738742], [0.5860516391024682, 45.61166058584459], [0.5860516391024682, 45.61166058584459], [0.5879788379636959, 45.61352299409109], [0.5899060368249258, 45.61538540233761], [0.5918332356861562, 45.61724781058412], [0.5937604345473853, 45.619110218830635], [0.5956876334086147, 45.620972627077144], [0.5976148322698436, 45.62283503532366], [0.5995420311310724, 45.62469744357018], [0.6014692299923028, 45.62655985181668], [0.6033964288535323, 45.62842226006319], [0.6053236277147613, 45.630284668309706], [0.6053236277147613, 45.630284668309706], [0.6048142657273845, 45.63214646847746], [0.6043049037400083, 45.6340082686452], [0.6037955417526315, 45.63587006881296], [0.6032861797652558, 45.637731868980715], [0.6027768177778796, 45.63959366914847], [0.6022674557905017, 45.64145546931622], [0.601758093803126, 45.643317269483966], [0.60124873181575, 45.645179069651725], [0.6007393698283732, 45.64704086981948], [0.6002300078409961, 45.64890266998723], [0.6002300078409961, 45.64890266998723], [0.597407347429598, 45.64819264689665], [0.5945846870181977, 45.647482623806056], [0.5917620266067991, 45.64677260071547], [0.5889393661954001, 45.64606257762489], [0.5861167057840002, 45.64535255453431], [0.5832940453726008, 45.64464253144372], [0.5804713849612027, 45.64393250835314], [0.577648724549803, 45.64322248526255], [0.5748260641384038, 45.642512462171965], [0.5720034037270048, 45.64180243908138], [0.5720034037270048, 45.64180243908138], [0.5716250127461582, 45.645082909245104], [0.5712466217653118, 45.64836337940882], [0.570868230784465, 45.65164384957253], [0.5704898398036178, 45.654924319736246], [0.5701114488227712, 45.65820478989996], [0.5697330578419244, 45.66148526006368], [0.569354666861078, 45.664765730227394], [0.5689762758802317, 45.6680462003911], [0.5685978848993849, 45.671326670554826], [0.5682194939185385, 45.67460714071854], [0.5682194939185385, 45.67460714071854], [0.5689956129570752, 45.67806516030385], [0.5697717319956133, 45.68152317988917], [0.5705478510341502, 45.684981199474485], [0.5713239700726871, 45.68843921905979], [0.5721000891112258, 45.691897238645105], [0.5728762081497634, 45.695355258230414], [0.5736523271883005, 45.69881327781574], [0.5744284462268372, 45.702271297401055], [0.575204565265375, 45.705729316986364], [0.575980684303913, 45.709187336571674], [0.575980684303913, 45.709187336571674], [0.5789355135219276, 45.711936635923664], [0.5818903427399433, 45.71468593527567], [0.5848451719579573, 45.717435234627665], [0.5878000011759721, 45.72018453397966], [0.5907548303939869, 45.72293383333166], [0.5937096596120024, 45.725683132683656], [0.5966644888300183, 45.728432432035646], [0.5996193180480334, 45.73118173138765], [0.6025741472660489, 45.73393103073964], [0.6055289764840635, 45.73668033009164], [0.6055289764840635, 45.73668033009164], [0.6054086151973745, 45.74075878660732], [0.6052882539106865, 45.744837243123015], [0.6051678926239985, 45.74891569963871], [0.6050475313373092, 45.75299415615439], [0.604927170050622, 45.75707261267008], [0.6048068087639338, 45.76115106918576], [0.6046864474772446, 45.76522952570145], [0.6045660861905566, 45.769307982217136], [0.6044457249038684, 45.77338643873282], [0.6043253636171795, 45.77746489524851], [0.6043253636171795, 45.77746489524851], [0.5998516633990785, 45.78508776473368], [0.5953779631809746, 45.79271063421885], [0.5909042629628736, 45.80033350370401], [0.5864305627447717, 45.807956373189185], [0.5819568625266687, 45.81557924267435], [0.5774831623085679, 45.82320211215952], [0.573009462090464, 45.83082498164469], [0.568535761872363, 45.83844785112986], [0.5640620616542602, 45.84607072061503], [0.5595883614361585, 45.85369359010021], [0.5595883614361585, 45.85369359010021], [0.5588259322803877, 45.857328596402546], [0.5580635031246168, 45.860963602704885], [0.5573010739688462, 45.864598609007224], [0.5565386448130754, 45.86823361530956], [0.5557762156573038, 45.87186862161192], [0.5550137865015325, 45.875503627914256], [0.5542513573457626, 45.879138634216595], [0.5534889281899911, 45.882773640518934], [0.5527264990342202, 45.88640864682127], [0.5519640698784494, 45.89004365312362], [0.5519640698784494, 45.89004365312362], [0.5560758049271426, 45.894211823814956], [0.5601875399758351, 45.898379994506286], [0.5642992750245281, 45.902548165197615], [0.5684110100732211, 45.90671633588896], [0.5725227451219141, 45.91088450658029], [0.5766344801706067, 45.91505267727163], [0.5807462152192997, 45.91922084796297], [0.5848579502679931, 45.923389018654305], [0.5889696853166864, 45.92755718934564], [0.5930814203653794, 45.93172536003698]]]}}]}