{"type": "FeatureCollection", "features": [{"type": "Feature", "properties": {"diocese": "P\u00e9rigueux", "province": "VI_Bordeaux", "source": "40_P\u00e9rigueux.txt"}, "geometry": {"type": "Polygon", "coordinates": [[[0.44213149900060555, 45.46089732569371], [0.43713560448950783, 45.46373329882361], [0.432139709978411, 45.46656927195351], [0.42714381546731417, 45.469405245083415], [0.42214792095621734, 45.47224121821331], [0.4171520264451194, 45.47507719134321], [0.41215613193402345, 45.477913164473115], [0.4071602374229266, 45.48074913760301], [0.402164342911828, 45.48358511073292], [0.3971684484007312, 45.486421083862815], [0.39217255388963435, 45.48925705699272], [0.39217255388963435, 45.48925705699272], [0.387169635359343, 45.48845783179219], [0.3821667168290528, 45.48765860659165], [0.37716379829876234, 45.48685938139112], [0.372160879768471, 45.48606015619058], [0.3671579612381788, 45.48526093099005], [0.36215504270788834, 45.48446170578951], [0.357152124177599, 45.48366248058898], [0.35214920564730745, 45.482863255388445], [0.34714628711701545, 45.482064030187914], [0.342143368586725, 45.48126480498738], [0.342143368586725, 45.48126480498738], [0.3393172961530455, 45.47798358979719], [0.3364912237193658, 45.474702374607], [0.3336651512856852, 45.4714211594168], [0.3308390788520055, 45.46813994422661], [0.32801300641832576, 45.46485872903641], [0.32518693398464626, 45.461577513846215], [0.32236086155096677, 45.45829629865602], [0.31953478911728705, 45.455015083465824], [0.31670871668360645, 45.45173386827563], [0.31388264424992673, 45.44845265308543], [0.31388264424992673, 45.44845265308543], [0.3073365649277695, 45.44543642880634], [0.30079048560561317, 45.44242020452725], [0.29424440628345594, 45.43940398024815], [0.2876983269612996, 45.436387755969065], [0.28115224763914237, 45.433371531689964], [0.27460616831698426, 45.43035530741087], [0.2680600889948288, 45.42733908313178], [0.2615140096726716, 45.42432285885268], [0.25496793035051524, 45.4213066345736], [0.248421851028358, 45.418290410294496], [0.248421851028358, 45.418290410294496], [0.24931200982982515, 45.414390555751204], [0.2502021686312941, 45.4104907012079], [0.25109232743276166, 45.40659084666459], [0.2519824862342297, 45.4026909921213], [0.25287264503569773, 45.398791137577994], [0.25376280383716643, 45.39489128303469], [0.25465296263863446, 45.39099142849139], [0.2555431214401025, 45.38709157394809], [0.2564332802415703, 45.383191719404785], [0.2573234390430381, 45.379291864861486], [0.2573234390430381, 45.379291864861486], [0.24975656655308764, 45.37893534445889], [0.24218969406313717, 45.3785788240563], [0.2346228215731876, 45.37822230365371], [0.227055949083238, 45.37786578325112], [0.21948907659328842, 45.37750926284853], [0.21192220410333795, 45.377152742445936], [0.20435533161338726, 45.37679622204334], [0.19678845912343856, 45.376439701640756], [0.1892215866334881, 45.37608318123816], [0.18165471414353762, 45.375726660835575], [0.18165471414353762, 45.375726660835575], [0.1730369461851533, 45.36242499046427], [0.16441917822676722, 45.349123320092964], [0.155801410268384, 45.33582164972166], [0.14718364230999992, 45.32251997935036], [0.1385658743516145, 45.30921830897906], [0.1299481063932293, 45.29591663860776], [0.1213303384348452, 45.28261496823645], [0.11271257047646088, 45.269313297865146], [0.10409480251807568, 45.25601162749385], [0.09547703455969048, 45.24270995712255], [0.09547703455969048, 45.24270995712255], [0.09059465634111796, 45.23792093344622], [0.08571227812254634, 45.233131909769895], [0.08082989990397493, 45.22834288609357], [0.07594752168540042, 45.22355386241724], [0.07106514346682791, 45.21876483874092], [0.06618276524825628, 45.21397581506459], [0.06130038702968399, 45.20918679138828], [0.056418008811111475, 45.20439776771194], [0.05153563059253807, 45.19960874403562], [0.04665325237396556, 45.19481972035929], [0.04665325237396556, 45.19481972035929], [0.04754357226778039, 45.19100742998349], [0.048433892161595216, 45.18719513960769], [0.04932421205541093, 45.18338284923188], [0.05021453194922576, 45.17957055885608], [0.05110485184304059, 45.175758268480266], [0.051995171736856305, 45.17194597810446], [0.05288549163067113, 45.168133687728655], [0.05377581152448574, 45.16432139735285], [0.05466613141830057, 45.16050910697704], [0.05555645131211562, 45.15669681660124], [0.05555645131211562, 45.15669681660124], [0.05324316881511826, 45.15412504804027], [0.05092988631812112, 45.1515532794793], [0.048616603821122206, 45.14898151091835], [0.04630332132412507, 45.14640974235738], [0.04399003882712793, 45.14383797379641], [0.04167675633013057, 45.141266205235446], [0.039363473833132545, 45.13869443667447], [0.03705019133613452, 45.1361226681135], [0.03473690883913738, 45.13355089955254], [0.032423626342140244, 45.13097913099158], [0.032423626342140244, 45.13097913099158], [0.03126295568022286, 45.12760961873771], [0.030102285018306585, 45.124240106483825], [0.02894161435639031, 45.120870594229956], [0.027780943694473814, 45.11750108197608], [0.02662027303255665, 45.114131569722204], [0.025459602370640155, 45.11076205746833], [0.024298931708722993, 45.10739254521446], [0.023138261046805608, 45.10402303296058], [0.021977590384890222, 45.100653520706715], [0.020816919722972838, 45.09728400845284], [0.020816919722972838, 45.09728400845284], [0.017991187059381297, 45.094978085988224], [0.015165454395788647, 45.09267216352361], [0.012339721732196884, 45.090366241059], [0.009513989068605122, 45.08806031859438], [0.0066882564050124715, 45.085754396129765], [0.0038625237414214864, 45.08344847366514], [0.0010367910778289469, 45.081142551200536], [-0.0017889415857629265, 45.07883662873592], [-0.004614674249355466, 45.076530706271306], [-0.007440406912947228, 45.074224783806685], [-0.007440406912947228, 45.074224783806685], [-0.006292407464302041, 45.07103316370504], [-0.005144408015656854, 45.067841543603386], [-0.003996408567012555, 45.06464992350174], [-0.0028484091183673677, 45.06145830340009], [-0.0017004096697212923, 45.058266683298434], [-0.000552410221076105, 45.05507506319678], [0.0005955892275690822, 45.051883443095136], [0.0017435886762142694, 45.04869182299348], [0.0028915881248584574, 45.04550020289183], [0.004039587573503645, 45.04230858279018], [0.004039587573503645, 45.04230858279018], [0.0072474760491809676, 45.04328467600562], [0.010455364524859845, 45.04426076922105], [0.013663253000537057, 45.04523686243648], [0.01687114147621327, 45.04621295565192], [0.02007902995189048, 45.047189048867345], [0.02328691842756858, 45.04816514208279], [0.02649480690324668, 45.049141235298215], [0.029702695378923893, 45.05011732851365], [0.032910583854601105, 45.051093421729085], [0.03611847233027832, 45.05206951494452], [0.03611847233027832, 45.05206951494452], [0.03842081300635014, 45.04896798948183], [0.040723153682422186, 45.04586646401916], [0.043025494358494454, 45.04276493855648], [0.04532783503456628, 45.0396634130938], [0.04763017571063832, 45.036561887631116], [0.0499325163867097, 45.03346036216845], [0.052234857062781526, 45.03035883670576], [0.05453719773885446, 45.02725731124308], [0.05683953841492673, 45.02415578578041], [0.05914187909099766, 45.02105426031772], [0.05914187909099766, 45.02105426031772], [0.06157126062757645, 45.01733101203208], [0.06400064216415591, 45.01360776374643], [0.06643002370073359, 45.00988451546079], [0.06885940523731149, 45.00616126717514], [0.07128878677388983, 45.00243801888948], [0.07371816831046862, 44.99871477060384], [0.0761475498470463, 44.99499152231819], [0.07857693138362487, 44.99126827403255], [0.08100631292020344, 44.9875450257469], [0.08343569445678112, 44.98382177746125], [0.08343569445678112, 44.98382177746125], [0.08304446905909746, 44.9804524572335], [0.08265324366141291, 44.977083137005735], [0.08226201826372948, 44.97371381677798], [0.08187079286604493, 44.970344496550226], [0.08147956746835949, 44.96697517632248], [0.08108834207067672, 44.963605856094716], [0.0806971166729924, 44.96023653586696], [0.08030589127530874, 44.95686721563921], [0.07991466587762419, 44.95349789541145], [0.07952344047994053, 44.9501285751837], [0.07952344047994053, 44.9501285751837], [0.08054286473334948, 44.94675960700383], [0.08156228898675821, 44.94339063882395], [0.08258171324016716, 44.94002167064408], [0.08360113749357612, 44.93665270246421], [0.08462056174698596, 44.93328373428434], [0.08563998600039491, 44.92991476610447], [0.08665941025380453, 44.9265457979246], [0.08767883450721348, 44.923176829744726], [0.08869825876062243, 44.919807861564856], [0.08971768301403116, 44.91643889338498], [0.08971768301403116, 44.91643889338498], [0.0856134774166939, 44.91617189513586], [0.08150927181935685, 44.91590489688675], [0.07740506622201959, 44.91563789863764], [0.07330086062468233, 44.91537090038853], [0.06919665502734507, 44.915103902139414], [0.06509244943000891, 44.914836903890304], [0.06098824383267076, 44.914569905641194], [0.0568840382353335, 44.91430290739208], [0.05277983263799557, 44.91403590914296], [0.0486756270406592, 44.91376891089385], [0.0486756270406592, 44.91376891089385], [0.046358914135847806, 44.90942387218564], [0.04404220123103619, 44.90507883347743], [0.041725488326223914, 44.900733794769216], [0.03940877542141341, 44.896388756061015], [0.03709206251660113, 44.892043717352806], [0.03477534961178974, 44.88769867864459], [0.03245863670697924, 44.88335363993638], [0.03014192380216696, 44.87900860122817], [0.027825210897355568, 44.87466356251996], [0.025508497992543955, 44.870318523811754], [0.025508497992543955, 44.870318523811754], [0.026915032673069605, 44.86819091886729], [0.028321567353596144, 44.866063313922815], [0.029728102034122683, 44.863935708978346], [0.031134636714648112, 44.86180810403388], [0.03254117139517465, 44.859680499089414], [0.03394770607570208, 44.857552894144945], [0.03535424075622773, 44.85542528920048], [0.036760775436754045, 44.85329768425601], [0.038167310117280584, 44.851170079311544], [0.0395738447978069, 44.849042474367074], [0.0395738447978069, 44.849042474367074], [0.033951522473309126, 44.843524749989875], [0.02832920014881135, 44.83800702561268], [0.022706877824314464, 44.832489301235476], [0.017084555499817466, 44.82697157685827], [0.011462233175319914, 44.82145385248108], [0.005839910850821917, 44.81593612810387], [0.00021758852632414172, 44.81041840372667], [-0.005404733798171746, 44.80490067934947], [-0.011027056122668744, 44.79938295497227], [-0.016649378447166407, 44.793865230595074], [-0.016649378447166407, 44.793865230595074], [-0.010125980574278826, 44.790732653534285], [-0.003602582701388357, 44.7876000764735], [0.002920815171500224, 44.78446749941272], [0.009444213044388805, 44.78133492235194], [0.015967610917277386, 44.77820234529115], [0.022491008790167077, 44.77506976823037], [0.029014406663055547, 44.77193719116958], [0.03553780453594335, 44.7688046141088], [0.04206120240883271, 44.76567203704801], [0.0485846002817214, 44.76253945998723], [0.0485846002817214, 44.76253945998723], [0.05311806276141873, 44.7626655657882], [0.05765152524111672, 44.76279167158916], [0.062184987720813156, 44.762917777390136], [0.06671845020050937, 44.763043883191095], [0.0712519126802067, 44.76316998899206], [0.07578537515990491, 44.76329609479303], [0.08031883763960201, 44.763422200594], [0.08485230011929756, 44.76354830639496], [0.08938576259899578, 44.76367441219593], [0.09391922507869288, 44.76380051799689], [0.09391922507869288, 44.76380051799689], [0.10154741224112529, 44.76310704988146], [0.1091755994035597, 44.76241358176604], [0.11680378656599388, 44.76172011365061], [0.12443197372842629, 44.76102664553519], [0.13206016089085892, 44.76033317741976], [0.1396883480532931, 44.75963970930434], [0.14731653521572752, 44.75894624118891], [0.15494472237815993, 44.75825277307348], [0.16257290954059256, 44.75755930495806], [0.17020109670302697, 44.756865836842636], [0.17020109670302697, 44.756865836842636], [0.17501395487307736, 44.75926091321818], [0.1798268130431271, 44.76165598959372], [0.18463967121317681, 44.76405106596927], [0.18945252938322654, 44.76644614234482], [0.19426538755327805, 44.76884121872036], [0.19907824572332777, 44.7712362950959], [0.2038911038933775, 44.77363137147145], [0.20870396206342656, 44.776026447847], [0.21351682023347784, 44.778421524222544], [0.21832967840352757, 44.780816600598094], [0.21832967840352757, 44.780816600598094], [0.22314408718262202, 44.783211732054006], [0.22795849596171536, 44.785606863509926], [0.2327729047408098, 44.78800199496585], [0.2375873135199038, 44.79039712642176], [0.24240172229899826, 44.792792257877686], [0.24721613107809248, 44.7951873893336], [0.25203053985718693, 44.797582520789526], [0.25684494863628116, 44.799977652245445], [0.2616593574153747, 44.802372783701365], [0.26647376619447005, 44.80476791515728], [0.26647376619447005, 44.80476791515728], [0.27198484634798104, 44.80388265588093], [0.2774959265014938, 44.80299739660457], [0.2830070066550068, 44.802112137328216], [0.28851808680851887, 44.801226878051864], [0.29402916696203096, 44.80034161877551], [0.29954024711554306, 44.79945635949916], [0.30505132726905515, 44.79857110022281], [0.310562407422569, 44.79768584094646], [0.3160734875760798, 44.7968005816701], [0.321584567729593, 44.79591532239375], [0.321584567729593, 44.79591532239375], [0.3291456220167279, 44.79325730542675], [0.3367066763038631, 44.79059928845975], [0.3442677305909989, 44.787941271492755], [0.35182878487813385, 44.78528325452576], [0.3593898391652699, 44.78262523755876], [0.36695089345240306, 44.779967220591764], [0.3745119477395391, 44.777309203624775], [0.38207300202667405, 44.77465118665777], [0.389634056313809, 44.77199316969077], [0.39719511060094415, 44.76933515272378], [0.39719511060094415, 44.76933515272378], [0.39937809884899345, 44.77084299282534], [0.40156108709704297, 44.77235083292689], [0.40374407534509316, 44.77385867302846], [0.40592706359314246, 44.77536651313001], [0.40811005184119264, 44.77687435323157], [0.41029304008924217, 44.77838219333313], [0.41247602833729147, 44.77989003343469], [0.41465901658534077, 44.78139787353624], [0.4168420048333903, 44.78290571363781], [0.4190249930814396, 44.78441355373937], [0.4190249930814396, 44.78441355373937], [0.4223570232853857, 44.783261721970746], [0.4256890534893336, 44.78210989020213], [0.42902108369327996, 44.78095805843352], [0.4323531138972272, 44.779806226664896], [0.4356851441011742, 44.77865439489628], [0.43901717430512055, 44.77750256312767], [0.4423492045090667, 44.77635073135905], [0.445681234713013, 44.775198899590436], [0.4490132649169609, 44.77404706782182], [0.45234529512090726, 44.7728952360532], [0.45234529512090726, 44.7728952360532], [0.4558103499140822, 44.77422608012245], [0.45927540470725714, 44.7755569241917], [0.4627404595004312, 44.77688776826095], [0.4662055142936061, 44.778218612330186], [0.46967056908678106, 44.77954945639944], [0.4731356238799542, 44.78088030046868], [0.4766006786731303, 44.78221114453793], [0.4800657334663043, 44.783541988607176], [0.48353078825948037, 44.78487283267643], [0.4869958430526533, 44.78620367674567], [0.4869958430526533, 44.78620367674567], [0.4919948256374085, 44.78496360299375], [0.4969938082221623, 44.783723529241826], [0.5019927908069157, 44.7824834554899], [0.5069917733916705, 44.78124338173798], [0.511990755976425, 44.780003307986064], [0.5169897385611781, 44.778763234234134], [0.5219887211459313, 44.77752316048221], [0.5269877037306872, 44.776283086730295], [0.5319866863154412, 44.77504301297837], [0.5369856689001944, 44.77380293922645], [0.5369856689001944, 44.77380293922645], [0.5432726995420163, 44.77548911954118], [0.5495597301838369, 44.7771752998559], [0.5558467608256574, 44.77886148017062], [0.5621337914674773, 44.780547660485354], [0.5684208221092988, 44.782233840800075], [0.5747078527511202, 44.783920021114795], [0.5809948833929401, 44.785606201429516], [0.5872819140347616, 44.787292381744244], [0.5935689446765822, 44.78897856205897], [0.599855975318403, 44.79066474237369], [0.599855975318403, 44.79066474237369], [0.6087004493491437, 44.78853904836722], [0.6175449233798853, 44.78641335436076], [0.626389397410626, 44.784287660354295], [0.6352338714413668, 44.78216196634782], [0.6440783454721075, 44.78003627234136], [0.6529228195028494, 44.7779105783349], [0.661767293533591, 44.775784884328424], [0.6706117675643308, 44.77365919032197], [0.6794562415950725, 44.7715334963155], [0.6883007156258132, 44.76940780230903], [0.6883007156258132, 44.76940780230903], [0.6943276709015103, 44.76923199043186], [0.7003546261772073, 44.769056178554685], [0.7063815814529038, 44.76888036667752], [0.7124085367285999, 44.768704554800344], [0.718435492004297, 44.76852874292317], [0.7244624472799943, 44.768352931046], [0.7304894025556905, 44.768177119168826], [0.7365163578313876, 44.768001307291655], [0.742543313107084, 44.76782549541448], [0.7485702683827802, 44.767649683537314], [0.7485702683827802, 44.767649683537314], [0.7535791762301842, 44.77155210414535], [0.7585880840775885, 44.7754545247534], [0.7635969919249925, 44.77935694536144], [0.7686058997723957, 44.783259365969485], [0.7736148076197991, 44.78716178657753], [0.7786237154672033, 44.79106420718558], [0.7836326233146065, 44.79496662779361], [0.7886415311620105, 44.79886904840166], [0.7936504390094137, 44.8027714690097], [0.7986593468568177, 44.80667388961775], [0.7986593468568177, 44.80667388961775], [0.8039136054854978, 44.8048132736071], [0.8091678641141775, 44.802952657596464], [0.8144221227428594, 44.80109204158583], [0.8196763813715391, 44.799231425575194], [0.8249306400002183, 44.797370809564555], [0.8301848986288998, 44.795510193553916], [0.8354391572575797, 44.79364957754327], [0.8406934158862596, 44.79178896153263], [0.8459476745149395, 44.78992834552199], [0.8512019331436202, 44.78806772951136], [0.8512019331436202, 44.78806772951136], [0.8553128101623151, 44.79259058666283], [0.8594236871810093, 44.79711344381429], [0.8635345641997043, 44.80163630096576], [0.8676454412183991, 44.80615915811723], [0.871756318237094, 44.810682015268696], [0.8758671952557902, 44.81520487242016], [0.879978072274485, 44.819727729571625], [0.8840889492931789, 44.824250586723096], [0.8881998263118742, 44.82877344387457], [0.8923107033305688, 44.833296301026024], [0.8923107033305688, 44.833296301026024], [0.8959038277812554, 44.834538464368286], [0.8994969522319447, 44.83578062771054], [0.903090076682632, 44.837022791052796], [0.9066832011333188, 44.83826495439506], [0.9102763255840072, 44.83950711773731], [0.9138694500346956, 44.84074928107957], [0.9174625744853819, 44.84199144442182], [0.9210556989360694, 44.843233607764084], [0.9246488233867587, 44.84447577110634], [0.9282419478374462, 44.845717934448594], [0.9282419478374462, 44.845717934448594], [0.9331147431275257, 44.84554183453422], [0.9379875384176053, 44.84536573461984], [0.9428603337076855, 44.84518963470546], [0.9477331289977653, 44.84501353479109], [0.9526059242878455, 44.844837434876716], [0.9574787195779251, 44.84466133496234], [0.9623515148680046, 44.84448523504796], [0.9672243101580849, 44.844309135133585], [0.9720971054481644, 44.844133035219215], [0.9769699007382449, 44.84395693530484], [0.9769699007382449, 44.84395693530484], [0.9841624812908896, 44.84972182816612], [0.9913550618435352, 44.85548672102741], [0.9985476423961801, 44.8612516138887], [1.0057402229488248, 44.867016506749984], [1.0129328035014713, 44.87278139961127], [1.0201253840541153, 44.87854629247256], [1.0273179646067616, 44.88431118533385], [1.034510545159407, 44.890076078195136], [1.0417031257120506, 44.89584097105642], [1.0488957062646973, 44.90160586391771], [1.0488957062646973, 44.90160586391771], [1.0544216845758632, 44.907636314840126], [1.059947662887029, 44.913666765762535], [1.0654736411981944, 44.91969721668494], [1.0709996195093603, 44.92572766760735], [1.0765255978205261, 44.931758118529764], [1.0820515761316938, 44.937788569452174], [1.0875775544428588, 44.94381902037458], [1.0931035327540246, 44.94984947129699], [1.0986295110651905, 44.9558799222194], [1.1041554893763563, 44.961910373141805], [1.1041554893763563, 44.961910373141805], [1.1060796080746607, 44.962176882012315], [1.1080037267729659, 44.962443390882825], [1.1099278454712689, 44.962709899753335], [1.1118519641695732, 44.96297640862384], [1.1137760828678784, 44.96324291749434], [1.1157002015661832, 44.96350942636485], [1.117624320264488, 44.96377593523536], [1.1195484389627919, 44.964042444105864], [1.1214725576610958, 44.964308952976374], [1.1233966763594005, 44.96457546184688], [1.1233966763594005, 44.96457546184688], [1.1281516692720914, 44.96980774370846], [1.1329066621847814, 44.97504002557004], [1.1376616550974714, 44.98027230743162], [1.1424166480101623, 44.98550458929319], [1.1471716409228532, 44.99073687115477], [1.1519266338355427, 44.995969153016354], [1.1566816267482327, 45.001201434877935], [1.1614366196609236, 45.00643371673951], [1.1661916125736145, 45.01166599860109], [1.1709466054863045, 45.01689828046266], [1.1709466054863045, 45.01689828046266], [1.1764672711323785, 45.02018022282069], [1.181987936778453, 45.02346216517873], [1.187508602424526, 45.02674410753676], [1.193029268070601, 45.03002604989479], [1.198549933716675, 45.03330799225284], [1.2040705993627485, 45.036589934610866], [1.2095912650088216, 45.0398718769689], [1.2151119306548965, 45.04315381932693], [1.220632596300971, 45.04643576168496], [1.226153261947045, 45.049717704043], [1.226153261947045, 45.049717704043], [1.2337238891407214, 45.05202371679628], [1.2412945163343982, 45.05432972954956], [1.248865143528075, 45.05663574230283], [1.2564357707217524, 45.058941755056104], [1.2640063979154292, 45.061247767809384], [1.271577025109106, 45.063553780562664], [1.2791476523027834, 45.065859793315944], [1.286718279496459, 45.06816580606922], [1.2942889066901357, 45.0704718188225], [1.3018595338838144, 45.07277783157578], [1.3018595338838144, 45.07277783157578], [1.300196688562842, 45.07499403054946], [1.2985338432418696, 45.077210229523146], [1.2968709979208959, 45.079426428496824], [1.2952081525999235, 45.08164262747051], [1.2935453072789511, 45.083858826444185], [1.2918824619579787, 45.08607502541787], [1.2902196166370064, 45.08829122439156], [1.2885567713160322, 45.09050742336524], [1.2868939259950616, 45.09272362233892], [1.2852310806740888, 45.09493982131261], [1.2852310806740888, 45.09493982131261], [1.2885689212756777, 45.096802581605026], [1.2919067618772693, 45.098665341897444], [1.295244602478859, 45.10052810218988], [1.2985824430804498, 45.102390862482295], [1.3019202836820414, 45.10425362277471], [1.3052581242836303, 45.10611638306713], [1.308595964885221, 45.10797914335955], [1.3119338054868117, 45.109841903651976], [1.3152716460884024, 45.1117046639444], [1.3186094866899922, 45.11356742423682], [1.3186094866899922, 45.11356742423682], [1.3182292132407465, 45.11587254659656], [1.3178489397914994, 45.118177668956285], [1.3174686663422537, 45.12048279131603], [1.3170883928930075, 45.122787913675765], [1.3167081194437604, 45.1250930360355], [1.3163278459945142, 45.12739815839524], [1.3159475725452672, 45.12970328075498], [1.3155672990960205, 45.13200840311472], [1.315187025646774, 45.134313525474454], [1.3148067521975286, 45.1366186478342], [1.3148067521975286, 45.1366186478342], [1.3096773119491387, 45.136706025703916], [1.304547871700748, 45.136793403573634], [1.2994184314523585, 45.13688078144337], [1.2942889912039681, 45.136968159313085], [1.2891595509555782, 45.1370555371828], [1.2840301107071883, 45.13714291505253], [1.278900670458797, 45.13723029292225], [1.2737712302104085, 45.13731767079198], [1.2686417899620186, 45.1374050486617], [1.2635123497136274, 45.13749242653141], [1.2635123497136274, 45.13749242653141], [1.26403130264579, 45.140595804649756], [1.264550255577952, 45.14369918276811], [1.2650692085101145, 45.14680256088645], [1.2655881614422761, 45.149905939004796], [1.2661071143744391, 45.153009317123136], [1.2666260673066008, 45.15611269524149], [1.2671450202387633, 45.15921607335983], [1.2676639731709254, 45.16231945147817], [1.2681829261030884, 45.165422829596515], [1.2687018790352496, 45.16852620771486], [1.2687018790352496, 45.16852620771486], [1.2731913206075962, 45.1690592760908], [1.2776807621799446, 45.16959234446673], [1.2821702037522922, 45.17012541284267], [1.2866596453246406, 45.1706584812186], [1.2911490868969873, 45.17119154959454], [1.295638528469334, 45.171724617970476], [1.3001279700416823, 45.17225768634641], [1.304617411614029, 45.17279075472234], [1.3091068531863783, 45.17332382309828], [1.313596294758725, 45.173856891474216], [1.313596294758725, 45.173856891474216], [1.3133483692466847, 45.178290002828675], [1.3131004437346459, 45.18272311418315], [1.312852518222606, 45.18715622553761], [1.3126045927105667, 45.191589336892086], [1.3123566671985278, 45.19602244824655], [1.312108741686488, 45.20045555960102], [1.3118608161744487, 45.204888670955484], [1.3116128906624085, 45.20932178230996], [1.3113649651503696, 45.21375489366442], [1.3111170396383294, 45.21818800501889], [1.3111170396383294, 45.21818800501889], [1.3082955771325766, 45.21809864288717], [1.3054741146268252, 45.21800928075547], [1.3026526521210724, 45.21791991862375], [1.2998311896153205, 45.21783055649203], [1.2970097271095677, 45.217741194360315], [1.2941882646038163, 45.21765183222861], [1.2913668020980635, 45.217562470096894], [1.2885453395923117, 45.217473107965176], [1.2857238770865593, 45.21738374583346], [1.2829024145808066, 45.217294383701756], [1.2829024145808066, 45.217294383701756], [1.2827825587262809, 45.22163881432923], [1.2826627028717543, 45.2259832449567], [1.2825428470172286, 45.23032767558418], [1.282422991162702, 45.234672106211654], [1.2823031353081755, 45.23901653683913], [1.282183279453649, 45.24336096746661], [1.2820634235991224, 45.247705398094084], [1.2819435677445967, 45.25204982872156], [1.2818237118900697, 45.25639425934903], [1.2817038560355432, 45.26073868997652], [1.2817038560355432, 45.26073868997652], [1.2852997185261201, 45.263399491312356], [1.2888955810166984, 45.26606029264819], [1.2924914435072754, 45.268721093984034], [1.2960873059978537, 45.27138189531988], [1.2996831684884307, 45.27404269665572], [1.303279030979009, 45.27670349799156], [1.306874893469586, 45.2793642993274], [1.3104707559601634, 45.28202510066324], [1.3140666184507412, 45.284685901999076], [1.3176624809413182, 45.287346703334926], [1.3176624809413182, 45.287346703334926], [1.3189503656892576, 45.2901842446722], [1.320238250437198, 45.29302178600947], [1.321526135185139, 45.295859327346754], [1.322814019933078, 45.298696868684026], [1.3241019046810183, 45.30153441002131], [1.3253897894289586, 45.304371951358576], [1.326677674176897, 45.307209492695854], [1.3279655589248383, 45.31004703403314], [1.3292534436727772, 45.31288457537041], [1.3305413284207175, 45.31572211670769], [1.3305413284207175, 45.31572211670769], [1.3272104960168574, 45.31749455474175], [1.3238796636129955, 45.31926699277582], [1.3205488312091354, 45.32103943080988], [1.3172179988052735, 45.32281186884395], [1.3138871664014133, 45.324584306878016], [1.3105563339975532, 45.326356744912076], [1.3072255015936913, 45.328129182946135], [1.3038946691898312, 45.3299016209802], [1.3005638367859693, 45.331674059014276], [1.2972330043821092, 45.33344649704834], [1.2972330043821092, 45.33344649704834], [1.2950517194718678, 45.33282529201744], [1.2928704345616286, 45.332204086986536], [1.2906891496513864, 45.33158288195564], [1.2885078647411459, 45.33096167692474], [1.2863265798309054, 45.33034047189384], [1.2841452949206653, 45.329719266862945], [1.2819640100104248, 45.32909806183204], [1.279782725100183, 45.328476856801146], [1.2776014401899425, 45.32785565177025], [1.2754201552797033, 45.327234446739354], [1.2754201552797033, 45.327234446739354], [1.2751693285242065, 45.33016026206428], [1.274918501768712, 45.33308607738922], [1.2746676750132164, 45.33601189271416], [1.2744168482577218, 45.3389377080391], [1.274166021502225, 45.34186352336403], [1.2739151947467304, 45.34478933868896], [1.273664367991235, 45.3477151540139], [1.2734135412357395, 45.35064096933884], [1.2731627144802435, 45.353566784663776], [1.272911887724749, 45.356492599988705], [1.272911887724749, 45.356492599988705], [1.2765036432610524, 45.3570254990276], [1.2800953987973558, 45.35755839806648], [1.28368715433366, 45.35809129710537], [1.2872789098699644, 45.358624196144255], [1.2908706654062674, 45.35915709518314], [1.2944624209425712, 45.35968999422202], [1.298054176478875, 45.36022289326091], [1.301645932015178, 45.3607557922998], [1.3052376875514824, 45.361288691338686], [1.3088294430877858, 45.361821590377566], [1.3088294430877858, 45.361821590377566], [1.3097288325672003, 45.3627084494787], [1.310628222046613, 45.36359530857984], [1.311527611526027, 45.36448216768097], [1.3124270010054402, 45.3653690267821], [1.313326390484853, 45.36625588588323], [1.3142257799642678, 45.36714274498437], [1.315125169443681, 45.3680296040855], [1.3160245589230954, 45.36891646318662], [1.3169239484025086, 45.36980332228776], [1.3178233378819226, 45.37069018138889], [1.3178233378819226, 45.37069018138889], [1.3170573230255038, 45.37246325951001], [1.3162913081690846, 45.374236337631146], [1.3155252933126662, 45.376009415752264], [1.3147592784562474, 45.37778249387339], [1.313993263599829, 45.379555571994516], [1.3132272487434107, 45.381328650115634], [1.3124612338869919, 45.38310172823677], [1.3116952190305735, 45.38487480635789], [1.3109292041741543, 45.38664788447901], [1.3101631893177355, 45.38842096260014], [1.3101631893177355, 45.38842096260014], [1.306573308233539, 45.38886335666984], [1.3029834271493423, 45.38930575073953], [1.299393546065145, 45.38974814480923], [1.295803664980947, 45.39019053887892], [1.2922137838967518, 45.39063293294863], [1.288623902812554, 45.391075327018314], [1.285034021728357, 45.39151772108801], [1.2814441406441603, 45.3919601151577], [1.277854259559963, 45.3924025092274], [1.2742643784757663, 45.392844903297096], [1.2742643784757663, 45.392844903297096], [1.2736262622681243, 45.39444069734673], [1.2729881460604813, 45.396036491396366], [1.2723500298528392, 45.397632285446], [1.2717119136451962, 45.399228079495636], [1.2710737974375528, 45.40082387354528], [1.2704356812299102, 45.40241966759491], [1.2697975650222673, 45.40401546164455], [1.2691594488146252, 45.40561125569418], [1.2685213326069826, 45.40720704974381], [1.2678832163993397, 45.40880284379345], [1.2678832163993397, 45.40880284379345], [1.2673721331414711, 45.40977691501815], [1.266861049883604, 45.41075098624284], [1.2663499666257354, 45.41172505746754], [1.2658388833678664, 45.412699128692225], [1.265327800109998, 45.41367319991693], [1.264816716852129, 45.41464727114161], [1.2643056335942613, 45.41562134236631], [1.2637945503363928, 45.416595413591], [1.2632834670785247, 45.417569484815694], [1.2627723838206557, 45.41854355604039], [1.2627723838206557, 45.41854355604039], [1.2598214846431035, 45.417834594813904], [1.2568705854655513, 45.41712563358742], [1.2539196862879987, 45.416416672360924], [1.250968787110447, 45.41570771113444], [1.2480178879328943, 45.41499874990796], [1.2450669887553416, 45.414289788681465], [1.2421160895777894, 45.41358082745498], [1.2391651904002376, 45.41287186622849], [1.2362142912226846, 45.412162905002006], [1.2332633920451332, 45.41145394377551], [1.2332633920451332, 45.41145394377551], [1.2299344479091858, 45.41420063574708], [1.2266055037732362, 45.416947327718646], [1.2232765596372888, 45.41969401969022], [1.2199476155013422, 45.422440711661785], [1.2166186713653944, 45.425187403633345], [1.2132897272294452, 45.42793409560491], [1.2099607830934977, 45.430680787576485], [1.2066318389575499, 45.433427479548044], [1.203302894821603, 45.43617417151961], [1.1999739506856542, 45.43892086349118], [1.1999739506856542, 45.43892086349118], [1.1974069163519485, 45.43776755952628], [1.1948398820182424, 45.43661425556136], [1.1922728476845363, 45.43546095159646], [1.1897058133508307, 45.43430764763155], [1.1871387790171255, 45.43315434366664], [1.1845717446834185, 45.43200103970174], [1.1820047103497129, 45.430847735736826], [1.1794376760160072, 45.42969443177192], [1.1768706416822998, 45.42854112780701], [1.174303607348595, 45.42738782384211], [1.174303607348595, 45.42738782384211], [1.173024115639794, 45.42889479983205], [1.171744623930993, 45.430401775822006], [1.1704651322221924, 45.43190875181195], [1.1691856405133914, 45.43341572780191], [1.1679061488045908, 45.43492270379185], [1.166626657095788, 45.4364296797818], [1.165347165386987, 45.43793665577175], [1.1640676736781859, 45.439443631761705], [1.1627881819693848, 45.44095060775165], [1.1615086902605838, 45.4424575837416], [1.1615086902605838, 45.4424575837416], [1.1638230074596616, 45.44556135522549], [1.1661373246587403, 45.448665126709386], [1.1684516418578204, 45.45176889819327], [1.170765959056899, 45.45487266967716], [1.1730802762559769, 45.45797644116105], [1.1753945934550556, 45.461080212644944], [1.1777089106541334, 45.46418398412884], [1.1800232278532121, 45.46728775561273], [1.1823375450522908, 45.470391527096616], [1.1846518622513695, 45.47349529858051], [1.1846518622513695, 45.47349529858051], [1.1842698776591427, 45.47491384056104], [1.1838878930669172, 45.47633238254156], [1.1835059084746904, 45.477750924522084], [1.183123923882464, 45.47916946650261], [1.1827419392902372, 45.48058800848313], [1.1823599546980104, 45.48200655046366], [1.1819779701057844, 45.483425092444186], [1.181595985513559, 45.484843634424706], [1.181214000921332, 45.48626217640523], [1.1808320163291053, 45.48768071838576], [1.1808320163291053, 45.48768071838576], [1.1772423142699382, 45.48821177049535], [1.1736526122107716, 45.48874282260495], [1.1700629101516054, 45.489273874714534], [1.1664732080924378, 45.48980492682412], [1.1628835060332707, 45.490335978933715], [1.1592938039741045, 45.4908670310433], [1.1557041019149366, 45.4913980831529], [1.1521143998557708, 45.49192913526249], [1.1485246977966042, 45.49246018737208], [1.144934995737437, 45.49299123948167], [1.144934995737437, 45.49299123948167], [1.1428816094759724, 45.492192750379274], [1.1408282232145077, 45.491394261276895], [1.1387748369530426, 45.4905957721745], [1.1367214506915788, 45.489797283072114], [1.1346680644301141, 45.48899879396972], [1.1326146781686495, 45.48820030486734], [1.1305612919071844, 45.48740181576495], [1.1285079056457206, 45.48660332666257], [1.126454519384256, 45.485804837560174], [1.1244011331227912, 45.485006348457794], [1.1244011331227912, 45.485006348457794], [1.1213259269021845, 45.48633556031095], [1.1182507206815777, 45.487664772164116], [1.1151755144609714, 45.488993984017284], [1.112100308240365, 45.490323195870445], [1.1090251020197583, 45.491652407723606], [1.1059498957991516, 45.492981619576774], [1.1028746895785448, 45.494310831429935], [1.099799483357939, 45.4956400432831], [1.0967242771373313, 45.49696925513627], [1.093649070916725, 45.49829846698943], [1.093649070916725, 45.49829846698943], [1.0937812476340731, 45.50033774325282], [1.0939134243514208, 45.50237701951621], [1.094045601068769, 45.5044162957796], [1.094177777786117, 45.50645557204298], [1.0943099545034651, 45.50849484830637], [1.0944421312208128, 45.51053412456975], [1.0945743079381605, 45.51257340083313], [1.0947064846555086, 45.51461267709652], [1.0948386613728567, 45.51665195335991], [1.0949708380902043, 45.51869122962329], [1.0949708380902043, 45.51869122962329], [1.0936904907043528, 45.519754860730224], [1.0924101433185007, 45.52081849183714], [1.0911297959326487, 45.52188212294406], [1.089849448546797, 45.52294575405098], [1.0885691011609455, 45.524009385157896], [1.0872887537750926, 45.52507301626483], [1.0860084063892406, 45.52613664737174], [1.0847280590033876, 45.52720027847866], [1.083447711617536, 45.52826390958558], [1.0821673642316845, 45.529327540692506], [1.0821673642316845, 45.529327540692506], [1.0784478812664635, 45.52906063845645], [1.0747283983012426, 45.52879373622039], [1.0710089153360216, 45.52852683398435], [1.067289432370801, 45.528259931748295], [1.063569949405581, 45.52799302951224], [1.0598504664403592, 45.52772612727618], [1.0561309834751387, 45.52745922504013], [1.0524115005099186, 45.52719232280408], [1.0486920175446959, 45.52692542056803], [1.044972534579475, 45.52665851833197], [1.044972534579475, 45.52665851833197], [1.0430544053038453, 45.529495259562395], [1.0411362760282148, 45.53233200079282], [1.039218146752583, 45.535168742023245], [1.0373000174769529, 45.53800548325368], [1.035381888201322, 45.5408422244841], [1.0334637589256919, 45.54367896571453], [1.031545629650061, 45.54651570694495], [1.0296275003744295, 45.54935244817537], [1.027709371098799, 45.5521891894058], [1.025791241823168, 45.555025930636226], [1.025791241823168, 45.555025930636226], [1.0233570687695637, 45.55626658977981], [1.0209228957159575, 45.5575072489234], [1.0184887226623531, 45.558747908066984], [1.0160545496087487, 45.55998856721057], [1.0136203765551435, 45.56122922635416], [1.0111862035015373, 45.56246988549774], [1.0087520304479336, 45.563710544641324], [1.0063178573943283, 45.564951203784915], [1.003883684340722, 45.5661918629285], [1.0014495112871176, 45.56743252207208], [1.0014495112871176, 45.56743252207208], [0.9991398143852068, 45.56672262699892], [0.9968301174832961, 45.566012731925746], [0.9945204205813853, 45.56530283685257], [0.9922107236794746, 45.56459294177939], [0.9899010267775639, 45.56388304670622], [0.987591329875654, 45.56317315163305], [0.9852816329737433, 45.56246325655988], [0.9829719360718316, 45.5617533614867], [0.9806622391699209, 45.56104346641352], [0.9783525422680102, 45.56033357134036], [0.9783525422680102, 45.56033357134036], [0.9752764803703529, 45.561219438310495], [0.9722004184726947, 45.562105305280625], [0.9691243565750376, 45.56299117225077], [0.9660482946773805, 45.563877039220905], [0.9629722327797232, 45.564762906191035], [0.959896170882065, 45.56564877316118], [0.9568201089844077, 45.56653464013131], [0.9537440470867504, 45.567420507101446], [0.9506679851890931, 45.56830637407158], [0.9475919232914349, 45.56919224104172], [0.9475919232914349, 45.56919224104172], [0.9438700446204815, 45.56768407158135], [0.9401481659495279, 45.56617590212097], [0.9364262872785736, 45.5646677326606], [0.932704408607619, 45.56315956320023], [0.9289825299366665, 45.56165139373985], [0.925260651265712, 45.560143224279486], [0.9215387725947577, 45.55863505481911], [0.9178168939238049, 45.557126885358734], [0.9140950152528498, 45.55561871589837], [0.9103731365818961, 45.554110546438], [0.9103731365818961, 45.554110546438], [0.9076821474556844, 45.555173825499004], [0.9049911583294712, 45.55623710456001], [0.9023001692032566, 45.557300383621026], [0.8996091800770438, 45.55836366268204], [0.896918190950831, 45.559426941743055], [0.8942272018246182, 45.56049022080406], [0.8915362126984052, 45.56155349986507], [0.8888452235721918, 45.562616778926085], [0.8861542344459787, 45.5636800579871], [0.8834632453197657, 45.564743337048114], [0.8834632453197657, 45.564743337048114], [0.8797377754959399, 45.5605752627548], [0.8760123056721141, 45.556407188461506], [0.8722868358482891, 45.55223911416821], [0.8685613660244629, 45.548071039874905], [0.8648358962006379, 45.5439029655816], [0.8611104263768119, 45.5397348912883], [0.8573849565529872, 45.535566816995], [0.8536594867291611, 45.531398742701704], [0.8499340169053353, 45.52723066840841], [0.8462085470815102, 45.52306259411511], [0.8462085470815102, 45.52306259411511], [0.83953525367333, 45.520578340752614], [0.8328619602651499, 45.51809408739011], [0.8261886668569698, 45.515609834027615], [0.8195153734487897, 45.51312558066512], [0.8128420800406086, 45.51064132730262], [0.8061687866324292, 45.508157073940126], [0.7994954932242491, 45.50567282057762], [0.7928221998160689, 45.503188567215126], [0.7861489064078895, 45.50070431385263], [0.7794756129997094, 45.498220060490134], [0.7794756129997094, 45.498220060490134], [0.7722859335849579, 45.493962408964954], [0.7650962541702084, 45.489704757439775], [0.7579065747554581, 45.485447105914595], [0.7507168953407073, 45.481189454389416], [0.7435272159259578, 45.476931802864236], [0.7363375365112073, 45.47267415133906], [0.7291478570964567, 45.46841649981388], [0.7219581776817061, 45.464158848288704], [0.7147684982669564, 45.459901196763525], [0.7075788188522059, 45.455643545238345], [0.7075788188522059, 45.455643545238345], [0.7032157437051232, 45.454135215758185], [0.6988526685580414, 45.45262688627802], [0.6944895934109596, 45.45111855679786], [0.690126518263876, 45.44961022731769], [0.6857634431167943, 45.44810189783753], [0.6814003679697116, 45.446593568357365], [0.6770372928226291, 45.445085238877205], [0.672674217675548, 45.443576909397045], [0.6683111425284645, 45.44206857991688], [0.6639480673813827, 45.44056025043671], [0.6639480673813827, 45.44056025043671], [0.6581774148354, 45.4406474682827], [0.6524067622894183, 45.44073468612868], [0.6466361097434348, 45.44082190397466], [0.640865457197453, 45.440909121820646], [0.6350948046514704, 45.440996339666626], [0.6293241521054869, 45.441083557512606], [0.6235534995595042, 45.44117077535859], [0.6177828470135216, 45.44125799320458], [0.612012194467539, 45.44134521105057], [0.6062415419215563, 45.44143242889655], [0.6062415419215563, 45.44143242889655], [0.6009848875871429, 45.442051777682856], [0.5957282332527303, 45.44267112646918], [0.5904715789183177, 45.443290475255495], [0.5852149245839042, 45.44390982404182], [0.5799582702494899, 45.44452917282814], [0.5747016159150773, 45.445148521614456], [0.5694449615806647, 45.44576787040078], [0.5641883072462512, 45.446387219187095], [0.5589316529118378, 45.44700656797342], [0.5536749985774243, 45.44762591675973], [0.5536749985774243, 45.44762591675973], [0.5505950007342308, 45.446472484777416], [0.5475150028910363, 45.4453190527951], [0.5444350050478417, 45.444165620812775], [0.5413550072046482, 45.44301218883046], [0.5382750093614539, 45.44185875684814], [0.5351950115182587, 45.44070532486582], [0.5321150136750643, 45.4395518928835], [0.5290350158318706, 45.438398460901176], [0.5259550179886752, 45.43724502891886], [0.5228750201454819, 45.436091596936535], [0.5228750201454819, 45.436091596936535], [0.5183867842839529, 45.43617913482803], [0.5138985484224221, 45.43626667271952], [0.5094103125608931, 45.436354210611], [0.5049220766993641, 45.43644174850249], [0.5004338408378342, 45.43652928639398], [0.49594560497630513, 45.436616824285466], [0.4914573691147752, 45.436704362176954], [0.486969133253246, 45.436791900068435], [0.4824808973917163, 45.436879437959924], [0.47799266153018705, 45.43696697585141], [0.47799266153018705, 45.43696697585141], [0.47440654527722836, 45.43936001083564], [0.47082042902427057, 45.44175304581987], [0.467234312771313, 45.44414608080411], [0.46364819651835343, 45.44653911578833], [0.4600620802653963, 45.44893215077256], [0.4564759640124385, 45.451325185756794], [0.4528898477594798, 45.45371822074102], [0.44930373150652225, 45.456111255725254], [0.44571761525356335, 45.458504290709485], [0.44213149900060555, 45.46089732569371]]]}}]}