{
    "type": "FeatureCollection",
    "name": "Leodien",
    "crs": {
        "type": "name"
    },
    "features": [
        {
            "type": "Feature",
            "properties": {
                "diocese": "Leodien",
                "province": "Colonien",
                "date": 1592},
            "geometry": {
                "type": "MultiPolygon",
                "coordinates": [
                    [
                        [
                            [
                                6.252237614000023,
                                50.504982949000066
                            ],
                            [
                                6.294306926000047,
                                50.474134822000053
                            ],
                            [
                                6.305715553000027,
                                50.49659243900004
                            ],
                            [
                                6.344576189000065,
                                50.487066268000035
                            ],
                            [
                                6.341724032000059,
                                50.462561582000035
                            ],
                            [
                                6.37309775600005,
                                50.448942378000027
                            ],
                            [
                                6.36061957000004,
                                50.406016255000054
                            ],
                            [
                                6.331028444000026,
                                50.375330911000049
                            ],
                            [
                                6.38914113800007,
                                50.345763291000026
                            ],
                            [
                                6.402688882000064,
                                50.331427741000027
                            ],
                            [
                                6.395677509000052,
                                50.308093993000057
                            ],
                            [
                                6.388560393842018,
                                50.226206078336133
                            ],
                            [
                                6.31767433652317,
                                50.230740857636626
                            ],
                            [
                                6.317337664595861,
                                50.230608797819734
                            ],
                            [
                                6.317243200000064,
                                50.230614841000033
                            ],
                            [
                                6.206722126000045,
                                50.187262752000038
                            ],
                            [
                                6.217417713000032,
                                50.105013925000037
                            ],
                            [
                                6.192461343000048,
                                50.045524012000044
                            ],
                            [
                                6.125025950830291,
                                50.013603986322131
                            ],
                            [
                                6.021763075517977,
                                50.027331126395062
                            ],
                            [
                                6.021732008931306,
                                50.027151389990784
                            ],
                            [
                                6.021331939000049,
                                50.027204573000063
                            ],
                            [
                                6.010636351000073,
                                49.965324856000052
                            ],
                            [
                                5.778898616000049,
                                49.884991857000045
                            ],
                            [
                                5.771768224000027,
                                49.834428294000077
                            ],
                            [
                                5.63669923429832,
                                49.786259371843911
                            ],
                            [
                                5.501244471526566,
                                49.896603094511761
                            ],
                            [
                                5.22672438652055,
                                49.873631741906195
                            ],
                            [
                                5.169681251525613,
                                49.813855062986235
                            ],
                            [
                                5.0933739154006,
                                49.766389746756253
                            ],
                            [
                                5.078624969971039,
                                49.765317857447876
                            ],
                            [
                                5.071831784299002,
                                49.766375145974266
                            ],
                            [
                                5.066528749814164,
                                49.76840488768314
                            ],
                            [
                                5.062011350067818,
                                49.772464116133783
                            ],
                            [
                                5.054155002682871,
                                49.772337270390459
                            ],
                            [
                                5.046887881351794,
                                49.773605712884525
                            ],
                            [
                                5.03922794265147,
                                49.77563515182338
                            ],
                            [
                                5.031960821320394,
                                49.779313293286648
                            ],
                            [
                                5.024104473935447,
                                49.784005689131206
                            ],
                            [
                                5.017819396027488,
                                49.789458443062493
                            ],
                            [
                                5.006231283634691,
                                49.801249509324613
                            ],
                            [
                                4.991893449657161,
                                49.801883356294724
                            ],
                            [
                                4.980305337264364,
                                49.801249509324613
                            ],
                            [
                                4.969502859610062,
                                49.799601468366951
                            ],
                            [
                                4.961842920909737,
                                49.79719269221463
                            ],
                            [
                                4.953397347470919,
                                49.792628366678869
                            ],
                            [
                                4.951040443255435,
                                49.791360422128214
                            ],
                            [
                                4.944212664217262,
                                49.789108741378577
                            ],
                            [
                                4.936494443661837,
                                49.787987574710336
                            ],
                            [
                                4.928776223106411,
                                49.788112150066112
                            ],
                            [
                                4.92115448030793,
                                49.78861044828539
                            ],
                            [
                                4.912182048912248,
                                49.790105312186746
                            ],
                            [
                                4.890474553600115,
                                49.794714185462013
                            ],
                            [
                                4.882177466503034,
                                49.795959751600542
                            ],
                            [
                                4.87619584557258,
                                49.793593148545781
                            ],
                            [
                                4.871661390996268,
                                49.793094901586713
                            ],
                            [
                                4.869731835857411,
                                49.794029110430102
                            ],
                            [
                                4.869183982675648,
                                49.798591669190358
                            ],
                            [
                                4.877622128425905,
                                49.814355646867817
                            ],
                            [
                                4.880286806031251,
                                49.819800191621276
                            ],
                            [
                                4.880286806031251,
                                49.828968566538641
                            ],
                            [
                                4.874069224952112,
                                49.843577072789849
                            ],
                            [
                                4.861189949859613,
                                49.859040092889792
                            ],
                            [
                                4.863854627464957,
                                49.865910958304724
                            ],
                            [
                                4.877622128425905,
                                49.880794481253268
                            ],
                            [
                                4.883839709505043,
                                49.891668001188116
                            ],
                            [
                                4.891833742321078,
                                49.900536690220591
                            ],
                            [
                                4.891833742321078,
                                49.909403749310762
                            ],
                            [
                                4.88783672591306,
                                49.917125343773819
                            ],
                            [
                                4.879398580162802,
                                49.92656116916271
                            ],
                            [
                                4.86547465586667,
                                49.936792177882168
                            ],
                            [
                                4.809639155783292,
                                49.959727661898683
                            ],
                            [
                                4.819330716455702,
                                50.000151928553976
                            ],
                            [
                                4.764275711698917,
                                50.006448125712247
                            ],
                            [
                                4.734786150155141,
                                50.028364648754469
                            ],
                            [
                                4.661716834263433,
                                49.993786520632177
                            ],
                            [
                                4.643930955136378,
                                50.003746895217482
                            ],
                            [
                                4.622007301356074,
                                49.983075425442038
                            ],
                            [
                                4.554849954533338,
                                49.965399960118646
                            ],
                            [
                                4.530735809487142,
                                49.950014016112242
                            ],
                            [
                                4.523722217347893,
                                49.947058057798884
                            ],
                            [
                                4.515563494861476,
                                49.9453552930526
                            ],
                            [
                                4.508948314467084,
                                49.9453552930526
                            ],
                            [
                                4.494183263212533,
                                49.942287207701007
                            ],
                            [
                                4.48262419521674,
                                49.939967863946279
                            ],
                            [
                                4.467698777837529,
                                49.938555218579204
                            ],
                            [
                                4.454529291914694,
                                49.938837750966101
                            ],
                            [
                                4.446627600360994,
                                49.941097950418666
                            ],
                            [
                                4.435214045894537,
                                49.945335538608283
                            ],
                            [
                                4.423361508563987,
                                49.947595433227349
                            ],
                            [
                                4.407119142592491,
                                49.947595433227349
                            ],
                            [
                                4.394388639533752,
                                49.949290284611855
                            ],
                            [
                                4.385608982251866,
                                49.952397357254469
                            ],
                            [
                                4.382430556566392,
                                49.95186114562123
                            ],
                            [
                                4.37508491794975,
                                49.951320981266882
                            ],
                            [
                                4.364801023886454,
                                49.952806418662909
                            ],
                            [
                                4.357665260658859,
                                49.954696909083616
                            ],
                            [
                                4.34885049431889,
                                49.959017751357372
                            ],
                            [
                                4.342179444497675,
                                49.96377543611699
                            ],
                            [
                                4.334213839252447,
                                49.966000300823289
                            ],
                            [
                                4.326038612816554,
                                49.967146403115848
                            ],
                            [
                                4.317653765189998,
                                49.967685735928448
                            ],
                            [
                                4.311469940065413,
                                49.967618319657362
                            ],
                            [
                                4.30654384208481,
                                49.967348653628768
                            ],
                            [
                                4.298368615648918,
                                49.966809356698981
                            ],
                            [
                                4.279817140275162,
                                49.964786751004056
                            ],
                            [
                                4.265982141691343,
                                49.963640592526751
                            ],
                            [
                                4.257073241088127,
                                49.963303481898663
                            ],
                            [
                                4.247912250888247,
                                49.962012724610993
                            ],
                            [
                                4.235388350828833,
                                49.960244199927878
                            ],
                            [
                                4.223891428794806,
                                49.959561085715627
                            ],
                            [
                                4.220855309730466,
                                49.959697698458264
                            ],
                            [
                                4.21791230868889,
                                49.960002794256788
                            ],
                            [
                                4.215079457568708,
                                49.960496918888722
                            ],
                            [
                                4.212373788268529,
                                49.961200618131592
                            ],
                            [
                                4.209812332686969,
                                49.962134437762913
                            ],
                            [
                                4.20741212272265,
                                49.963318923560202
                            ],
                            [
                                4.205190190274184,
                                49.96477462130099
                            ],
                            [
                                4.203163567240189,
                                49.966522076762793
                            ],
                            [
                                4.201349285519283,
                                49.968581835723128
                            ],
                            [
                                4.199764377010085,
                                49.970974443959527
                            ],
                            [
                                4.19976437701008,
                                49.970974443959527
                            ],
                            [
                                4.19708772728581,
                                49.973922120237155
                            ],
                            [
                                4.193782361176039,
                                49.975936013163711
                            ],
                            [
                                4.189991517885154,
                                49.977186447141335
                            ],
                            [
                                4.185858436617547,
                                49.977843746572155
                            ],
                            [
                                4.181526356577606,
                                49.978078235858305
                            ],
                            [
                                4.177138516969721,
                                49.978060239401927
                            ],
                            [
                                4.172838156998285,
                                49.977960081605133
                            ],
                            [
                                4.168768515867685,
                                49.977948086870079
                            ],
                            [
                                4.165072832782315,
                                49.978194579598878
                            ],
                            [
                                4.161894346946559,
                                49.978869884193678
                            ],
                            [
                                4.16189434694655,
                                49.978869884193678
                            ],
                            [
                                4.161168799819769,
                                49.979094698565405
                            ],
                            [
                                4.160689110378196,
                                49.9792383994088
                            ],
                            [
                                4.160192831297955,
                                49.979366944990943
                            ],
                            [
                                4.159689620108332,
                                49.979489345706938
                            ],
                            [
                                4.159189134123578,
                                49.979614611930138
                            ],
                            [
                                4.158701030787209,
                                49.979751754063308
                            ],
                            [
                                4.158234967520902,
                                49.979909782407361
                            ],
                            [
                                4.157800601703516,
                                49.980097707379784
                            ],
                            [
                                4.157407590713884,
                                49.980324539356225
                            ],
                            [
                                4.157065592059789,
                                49.980599288668465
                            ],
                            [
                                4.156784262969662,
                                49.980930965716688
                            ],
                            [
                                4.156825936967095,
                                49.980975387714054
                            ],
                            [
                                4.1568656737017,
                                49.981019433160867
                            ],
                            [
                                4.156903957499946,
                                49.981063192088911
                            ],
                            [
                                4.156941272645327,
                                49.98110675455036
                            ],
                            [
                                4.156978103442687,
                                49.981150210548712
                            ],
                            [
                                4.157014934261598,
                                49.981193650107798
                            ],
                            [
                                4.157052249234822,
                                49.981237163334178
                            ],
                            [
                                4.157090532860988,
                                49.981280840237275
                            ],
                            [
                                4.157130269337458,
                                49.981324770798459
                            ],
                            [
                                4.157171943119758,
                                49.981369045137171
                            ],
                            [
                                4.159934440604214,
                                49.984308625320011
                            ],
                            [
                                4.162443484822674,
                                49.987207284901132
                            ],
                            [
                                4.16455083840416,
                                49.990066760448386
                            ],
                            [
                                4.166108263934615,
                                49.992888788753355
                            ],
                            [
                                4.166967524064536,
                                49.995675106513026
                            ],
                            [
                                4.166980381551973,
                                49.998427450425559
                            ],
                            [
                                4.165998598918291,
                                50.001147557154582
                            ],
                            [
                                4.163873938727908,
                                50.003837163451273
                            ],
                            [
                                4.160458163760476,
                                50.006498006020571
                            ],
                            [
                                4.155603036472808,
                                50.009131821545232
                            ],
                            [
                                4.153321411784454,
                                50.012823204347114
                            ],
                            [
                                4.152460786814679,
                                50.016623805524858
                            ],
                            [
                                4.152835541173043,
                                50.020471376549125
                            ],
                            [
                                4.15426005451193,
                                50.024303668930784
                            ],
                            [
                                4.156548706333294,
                                50.028058434208837
                            ],
                            [
                                4.159515876440403,
                                50.031673423829183
                            ],
                            [
                                4.162975944292032,
                                50.035086389280202
                            ],
                            [
                                4.166743289519218,
                                50.038235082102901
                            ],
                            [
                                4.17063229177452,
                                50.041057253741421
                            ],
                            [
                                4.174457330559816,
                                50.043490655708901
                            ],
                            [
                                4.180861394982999,
                                50.042701227367992
                            ],
                            [
                                4.186260254565835,
                                50.042984248892893
                            ],
                            [
                                4.190847684381436,
                                50.044148703376671
                            ],
                            [
                                4.194817459029364,
                                50.046003573969784
                            ],
                            [
                                4.198363353561154,
                                50.048357843805263
                            ],
                            [
                                4.201679142683949,
                                50.051020495983458
                            ],
                            [
                                4.204958601255548,
                                50.053800513653528
                            ],
                            [
                                4.208395504176879,
                                50.056506879892275
                            ],
                            [
                                4.212183626176637,
                                50.05894857786496
                            ],
                            [
                                4.216516742220176,
                                50.060934590679146
                            ],
                            [
                                4.222308399403328,
                                50.06143271085871
                            ],
                            [
                                4.227305791441005,
                                50.062734391288309
                            ],
                            [
                                4.23142546642967,
                                50.06470191145835
                            ],
                            [
                                4.234583972444132,
                                50.067197550763751
                            ],
                            [
                                4.236697857774463,
                                50.070083588679694
                            ],
                            [
                                4.237683670431121,
                                50.073222304684776
                            ],
                            [
                                4.237457958661048,
                                50.076475978215768
                            ],
                            [
                                4.235937270367129,
                                50.079706888767916
                            ],
                            [
                                4.233038154075961,
                                50.082777315716392
                            ],
                            [
                                4.228677157604348,
                                50.085549538585177
                            ],
                            [
                                4.224197212830478,
                                50.088758192551659
                            ],
                            [
                                4.220139313592419,
                                50.09214482739857
                            ],
                            [
                                4.216570813688445,
                                50.09569574322547
                            ],
                            [
                                4.213559067346993,
                                50.099397240079462
                            ],
                            [
                                4.211171428280152,
                                50.103235618143529
                            ],
                            [
                                4.209475250608934,
                                50.10719717745846
                            ],
                            [
                                4.208537888195985,
                                50.111268218137113
                            ],
                            [
                                4.208426695140762,
                                50.115435040243483
                            ],
                            [
                                4.209209025413543,
                                50.119683943922531
                            ],
                            [
                                4.210952232941577,
                                50.124001229270597
                            ],
                            [
                                4.210705096701337,
                                50.128065728900914
                            ],
                            [
                                4.208556222081221,
                                50.131285428106864
                            ],
                            [
                                4.204881007759516,
                                50.133693877068524
                            ],
                            [
                                4.200054852651244,
                                50.135324625892672
                            ],
                            [
                                4.194453155305766,
                                50.136211224782308
                            ],
                            [
                                4.188451314551949,
                                50.136387223796419
                            ],
                            [
                                4.182424729111181,
                                50.135886173087748
                            ],
                            [
                                4.17674879794159,
                                50.134741622795026
                            ],
                            [
                                4.171798919463301,
                                50.132987123077712
                            ],
                            [
                                4.167950492655866,
                                50.130656224077569
                            ],
                            [
                                4.160645645041987,
                                50.129914116546672
                            ],
                            [
                                4.155396097801252,
                                50.130282671821981
                            ],
                            [
                                4.151893958861718,
                                50.131599477783944
                            ],
                            [
                                4.149831336151389,
                                50.133702122405829
                            ],
                            [
                                4.148900337641398,
                                50.136428193476711
                            ],
                            [
                                4.148793071173722,
                                50.139615279010101
                            ],
                            [
                                4.149201644783919,
                                50.143100966860814
                            ],
                            [
                                4.149818166270966,
                                50.146722844915828
                            ],
                            [
                                4.150334743734946,
                                50.150318501173125
                            ],
                            [
                                4.150443484888861,
                                50.153725523412263
                            ],
                            [
                                4.155976264212024,
                                50.155341292479008
                            ],
                            [
                                4.15986245153089,
                                50.157524706368847
                            ],
                            [
                                4.16241963254591,
                                50.16018324088752
                            ],
                            [
                                4.163965393409296,
                                50.163224371787436
                            ],
                            [
                                4.164817319907706,
                                50.16655557485241
                            ],
                            [
                                4.165292997870666,
                                50.170084325878776
                            ],
                            [
                                4.165710013278311,
                                50.173718100711021
                            ],
                            [
                                4.166385951831217,
                                50.177364375019906
                            ],
                            [
                                4.167638399638624,
                                50.180930624675412
                            ],
                            [
                                4.169784942487057,
                                50.184324325437622
                            ],
                            [
                                4.172221324764223,
                                50.187288389820992
                            ],
                            [
                                4.172970731551376,
                                50.190662313127596
                            ],
                            [
                                4.172547674336206,
                                50.194287545166553
                            ],
                            [
                                4.17146666475714,
                                50.19800553575574
                            ],
                            [
                                4.170242214258993,
                                50.201657734753496
                            ],
                            [
                                4.16938883439401,
                                50.205085591952205
                            ],
                            [
                                4.169421036649909,
                                50.208130557185008
                            ],
                            [
                                4.170853332622189,
                                50.210634080287242
                            ],
                            [
                                4.174200233776913,
                                50.212437611086614
                            ],
                            [
                                4.179976251666556,
                                50.213382599358781
                            ],
                            [
                                4.183184347629018,
                                50.216832361286052
                            ],
                            [
                                4.186321128827657,
                                50.220424985133839
                            ],
                            [
                                4.189488452302997,
                                50.224068755549908
                            ],
                            [
                                4.192788175288994,
                                50.227671957256845
                            ],
                            [
                                4.196322154998358,
                                50.231142874878479
                            ],
                            [
                                4.200192248471409,
                                50.234389793094245
                            ],
                            [
                                4.204500312877806,
                                50.237320996650361
                            ],
                            [
                                4.209348205279523,
                                50.239844770157852
                            ],
                            [
                                4.214837782932143,
                                50.241869398308566
                            ],
                            [
                                4.221070902854616,
                                50.243303165827619
                            ],
                            [
                                4.227096793139664,
                                50.246933272851152
                            ],
                            [
                                4.230176697743522,
                                50.250954210011479
                            ],
                            [
                                4.230693283662205,
                                50.255178923491371
                            ],
                            [
                                4.22902921787,
                                50.259420359514053
                            ],
                            [
                                4.225567167276688,
                                50.263491464223243
                            ],
                            [
                                4.220689798813579,
                                50.267205183868164
                            ],
                            [
                                4.214779779498034,
                                50.270374464552717
                            ],
                            [
                                4.20821977628289,
                                50.272812252529249
                            ],
                            [
                                4.201392455991775,
                                50.274331493931825
                            ],
                            [
                                4.194680485642253,
                                50.274745135014683
                            ],
                            [
                                4.192162868352819,
                                50.278883422309789
                            ],
                            [
                                4.188756639540909,
                                50.281682548551856
                            ],
                            [
                                4.184848167181229,
                                50.283249952312723
                            ],
                            [
                                4.180823819162282,
                                50.283693072033607
                            ],
                            [
                                4.300086182308474,
                                50.458989989044355
                            ],
                            [
                                4.299984471431107,
                                50.459303111534439
                            ],
                            [
                                4.511250929322207,
                                50.413167119786991
                            ],
                            [
                                4.525337539542027,
                                50.455466708285869
                            ],
                            [
                                4.569609742992257,
                                50.445215733078669
                            ],
                            [
                                4.563572624363238,
                                50.374680147000582
                            ],
                            [
                                4.448867369871056,
                                50.373396709811963
                            ],
                            [
                                4.442830251270535,
                                50.323315574365786
                            ],
                            [
                                4.362335335875383,
                                50.323315574365786
                            ],
                            [
                                4.348248725627117,
                                50.29118449837361
                            ],
                            [
                                4.416669403735783,
                                50.287327310295645
                            ],
                            [
                                4.396545674858472,
                                50.259031710617094
                            ],
                            [
                                4.485090081815928,
                                50.260318239051571
                            ],
                            [
                                4.442830251270535,
                                50.302754186673546
                            ],
                            [
                                4.479052963158462,
                                50.29375578337374
                            ],
                            [
                                4.511250929322207,
                                50.32588512263434
                            ],
                            [
                                4.569609742992257,
                                50.329739184560935
                            ],
                            [
                                4.569609742992257,
                                50.284755677903604
                            ],
                            [
                                4.611869573623142,
                                50.31560609597777
                            ],
                            [
                                4.623943810938125,
                                50.40931982842806
                            ],
                            [
                                4.579671607487895,
                                50.446497226457439
                            ],
                            [
                                4.581683980392707,
                                50.466996400742758
                            ],
                            [
                                4.607844827841966,
                                50.459310251417868
                            ],
                            [
                                4.625956183785942,
                                50.424707119521564
                            ],
                            [
                                4.724562455210537,
                                50.418296355652039
                            ],
                            [
                                4.634005675376742,
                                50.296326929421184
                            ],
                            [
                                4.68029025173181,
                                50.29118449837361
                            ],
                            [
                                4.672240760169506,
                                50.24487760458284
                            ],
                            [
                                4.634005675376742,
                                50.246164515248488
                            ],
                            [
                                4.623943810938125,
                                50.224282308045183
                            ],
                            [
                                4.851341946989255,
                                50.159864657193921
                            ],
                            [
                                4.925799743726941,
                                50.168888360105726
                            ],
                            [
                                4.9640348285767,
                                50.224282308045183
                            ],
                            [
                                4.931836862441402,
                                50.232006586800097
                            ],
                            [
                                4.853354319894092,
                                50.184353601806208
                            ],
                            [
                                4.841280082550663,
                                50.192084345429897
                            ],
                            [
                                4.907688387754493,
                                50.292470158233812
                            ],
                            [
                                4.955985337071342,
                                50.268036680017346
                            ],
                            [
                                4.9640348285767,
                                50.29118449837361
                            ],
                            [
                                4.941898726851547,
                                50.323315574365786
                            ],
                            [
                                4.970071947234167,
                                50.320745887162339
                            ],
                            [
                                5.002269913397911,
                                50.284755677903604
                            ],
                            [
                                5.062641099972773,
                                50.2834698095701
                            ],
                            [
                                5.060628727124931,
                                50.292470158233812
                            ],
                            [
                                5.026418388056348,
                                50.309180575522682
                            ],
                            [
                                5.070690591535077,
                                50.327169844685812
                            ],
                            [
                                5.108925676356338,
                                50.313035992010114
                            ],
                            [
                                5.131061778081441,
                                50.318176061039871
                            ],
                            [
                                5.131061778081441,
                                50.369546189888688
                            ],
                            [
                                5.092826693260204,
                                50.373396709811963
                            ],
                            [
                                5.084777201726399,
                                50.354140985192089
                            ],
                            [
                                5.052579235534131,
                                50.349004805804014
                            ],
                            [
                                5.040504998219173,
                                50.374680147000582
                            ],
                            [
                                5.048554489752979,
                                50.3887956648135
                            ],
                            [
                                5.068678218687235,
                                50.383663235313342
                            ],
                            [
                                5.205519574876122,
                                50.425989168153542
                            ],
                            [
                                5.229668049477539,
                                50.423425036172347
                            ],
                            [
                                5.237717541039842,
                                50.427271182095879
                            ],
                            [
                                5.199482456190083,
                                50.474681300975256
                            ],
                            [
                                5.219606185067393,
                                50.519484992914933
                            ],
                            [
                                5.110938049232627,
                                50.495168261823203
                            ],
                            [
                                5.084777201726399,
                                50.520764473975909
                            ],
                            [
                                5.050566862657816,
                                50.524602709118675
                            ],
                            [
                                5.05660398134378,
                                50.557854338168632
                            ],
                            [
                                5.090814320383864,
                                50.557854338168632
                            ],
                            [
                                5.082764828821561,
                                50.624287277028692
                            ],
                            [
                                5.052579235534131,
                                50.640880865830745
                            ],
                            [
                                5.072702964382918,
                                50.662571336838646
                            ],
                            [
                                5.100876184765512,
                                50.631946584318165
                            ],
                            [
                                5.173321608683828,
                                50.637052095997795
                            ],
                            [
                                5.179358727341345,
                                50.660020036510538
                            ],
                            [
                                5.151185506901731,
                                50.668948981209866
                            ],
                            [
                                5.12099991367127,
                                50.656192826156847
                            ],
                            [
                                5.112950422108967,
                                50.681701671256562
                            ],
                            [
                                5.155210252711354,
                                50.680426558157052
                            ],
                            [
                                5.137098896767404,
                                50.70464778247625
                            ],
                            [
                                5.072702964382918,
                                50.708471043083449
                            ],
                            [
                                5.05017942069801,
                                50.723885181651319
                            ],
                            [
                                5.048240247591835,
                                50.724674758499887
                            ],
                            [
                                5.048389428138163,
                                50.724653993254634
                            ],
                            [
                                5.050178025607722,
                                50.723899141994664
                            ],
                            [
                                5.069852597876944,
                                50.737484604056775
                            ],
                            [
                                5.075218390311678,
                                50.73937116219394
                            ],
                            [
                                5.07581458946818,
                                50.744275857669834
                            ],
                            [
                                5.078199386120272,
                                50.744653120656707
                            ],
                            [
                                5.087142373520052,
                                50.745030380612036
                            ],
                            [
                                5.090719568485175,
                                50.74842558336465
                            ],
                            [
                                5.100854954172136,
                                50.745407637519392
                            ],
                            [
                                5.100258755041459,
                                50.752197742104762
                            ],
                            [
                                5.090123369302745,
                                50.757855410288897
                            ],
                            [
                                5.084757576868012,
                                50.760495421393159
                            ],
                            [
                                5.082968979398427,
                                50.762381052430172
                            ],
                            [
                                5.083565178554929,
                                50.766152086551898
                            ],
                            [
                                5.082968979398427,
                                50.768037489646794
                            ],
                            [
                                5.079987983589832,
                                50.769922816760406
                            ],
                            [
                                5.079987983589832,
                                50.772562147057961
                            ],
                            [
                                5.082968979398427,
                                50.774447291812251
                            ],
                            [
                                5.091315767641653,
                                50.777086366838716
                            ],
                            [
                                5.091315767641653,
                                50.781233183841366
                            ],
                            [
                                5.085949975181093,
                                50.791787058823076
                            ],
                            [
                                5.090123369302745,
                                50.797439940413248
                            ],
                            [
                                5.101451153354566,
                                50.803468927189591
                            ],
                            [
                                5.103239750824176,
                                50.810627338704705
                            ],
                            [
                                5.109797941571967,
                                50.815147875588401
                            ],
                            [
                                5.105624547476218,
                                50.823057762380223
                            ],
                            [
                                5.116356132345634,
                                50.82531748394554
                            ],
                            [
                                5.119933327310731,
                                50.832095992447009
                            ],
                            [
                                5.120529526467235,
                                50.83510834696181
                            ],
                            [
                                5.124702920588886,
                                50.840379499526634
                            ],
                            [
                                5.137819302084466,
                                50.852425612568894
                            ],
                            [
                                5.144377492858108,
                                50.858447502693849
                            ],
                            [
                                5.143781293701605,
                                50.862963410028534
                            ],
                            [
                                5.138415501266871,
                                50.863716018725938
                            ],
                            [
                                5.126491518058496,
                                50.866726332054157
                            ],
                            [
                                5.116952331502162,
                                50.869360196755196
                            ],
                            [
                                5.114567534875973,
                                50.872746375575403
                            ],
                            [
                                5.114567534875973,
                                50.879141819946213
                            ],
                            [
                                5.119933327310731,
                                50.883279580986404
                            ],
                            [
                                5.125299119745465,
                                50.892306147838006
                            ],
                            [
                                5.127683916371578,
                                50.902458944899479
                            ],
                            [
                                5.131261111336701,
                                50.90809843126403
                            ],
                            [
                                5.132453509649758,
                                50.911105877993194
                            ],
                            [
                                5.131857310493204,
                                50.915240799974328
                            ],
                            [
                                5.130664912180148,
                                50.920502896640386
                            ],
                            [
                                5.130068713023619,
                                50.926140197050593
                            ],
                            [
                                5.127087717215025,
                                50.929522249426888
                            ],
                            [
                                5.122318123936845,
                                50.933279797014741
                            ],
                            [
                                5.121721924780342,
                                50.940793981494792
                            ],
                            [
                                5.116952331502162,
                                50.94567755030819
                            ],
                            [
                                5.112741788041617,
                                50.960417678782463
                            ],
                            [
                                5.130957872233895,
                                50.96302522616223
                            ],
                            [
                                5.150829964054093,
                                50.968761315262299
                            ],
                            [
                                5.157453994669435,
                                50.970325580275762
                            ],
                            [
                                5.155797987015586,
                                50.977624787121513
                            ],
                            [
                                5.14254992581073,
                                50.984401594815331
                            ],
                            [
                                5.132613879887743,
                                50.987529018601343
                            ],
                            [
                                5.132613879887743,
                                50.98335907340563
                            ],
                            [
                                5.130957872233895,
                                50.980231368674076
                            ],
                            [
                                5.114397795695465,
                                50.973975327104277
                            ],
                            [
                                5.111085780387795,
                                50.968761315262299
                            ],
                            [
                                5.109429772733896,
                                50.966154089835833
                            ],
                            [
                                5.097009715356027,
                                50.966154089835833
                            ],
                            [
                                5.091213688567546,
                                50.969804164458111
                            ],
                            [
                                5.078793631163749,
                                50.97084699024002
                            ],
                            [
                                5.07962163499066,
                                50.98335907340563
                            ],
                            [
                                5.07962163499066,
                                50.988050235414434
                            ],
                            [
                                5.090385684740609,
                                50.989613850737619
                            ],
                            [
                                5.101977738291618,
                                50.997431137254907
                            ],
                            [
                                5.106945761279014,
                                51.001599818320962
                            ],
                            [
                                5.114397795695465,
                                51.001599818320962
                            ],
                            [
                                5.117709811003136,
                                51.004205053793427
                            ],
                            [
                                5.117709811003136,
                                51.013582690146549
                            ],
                            [
                                5.116053803349288,
                                51.020875096549105
                            ],
                            [
                                5.12019382248387,
                                51.024520869683279
                            ],
                            [
                                5.122677833964655,
                                51.024520869683279
                            ],
                            [
                                5.125161845445414,
                                51.018791668888163
                            ],
                            [
                                5.140893918131005,
                                51.021395938836157
                            ],
                            [
                                5.14668994491946,
                                51.022958430589981
                            ],
                            [
                                5.151657967880979,
                                51.027645589890973
                            ],
                            [
                                5.12019382248387,
                                51.045868926521074
                            ],
                            [
                                5.108601768906984,
                                51.037539147619256
                            ],
                            [
                                5.103633745971369,
                                51.034415094412381
                            ],
                            [
                                5.095353707702128,
                                51.030249362495731
                            ],
                            [
                                5.07962163499066,
                                51.027124817809089
                            ],
                            [
                                5.072997604375294,
                                51.025562466481865
                            ],
                            [
                                5.060577546971497,
                                51.018791668888163
                            ],
                            [
                                5.048157489593551,
                                51.018791668888163
                            ],
                            [
                                5.048157489593551,
                                51.023479249464053
                            ],
                            [
                                5.035737432189729,
                                51.025041671004054
                            ],
                            [
                                5.024145378638695,
                                51.022958430589981
                            ],
                            [
                                5.01503733654262,
                                51.029207870998363
                            ],
                            [
                                5.007585302100291,
                                51.03233227525601
                            ],
                            [
                                5.003445282965709,
                                51.03805980268622
                            ],
                            [
                                4.988980582791311,
                                51.035645891085075
                            ],
                            [
                                5.019649530897098,
                                51.07390114577386
                            ],
                            [
                                5.100487915572185,
                                51.086212761192471
                            ],
                            [
                                5.102918449709145,
                                51.0882805262221
                            ],
                            [
                                5.442611398020359,
                                51.169621724743557
                            ],
                            [
                                6.217706981983409,
                                50.586258264660984
                            ],
                            [
                                6.179864137000038,
                                50.562995384000033
                            ],
                            [
                                6.178081539000061,
                                50.543061656000077
                            ],
                            [
                                6.222646488000066,
                                50.496819229000039
                            ],
                            [
                                6.252237614000023,
                                50.504982949000066
                            ]
                        ],
                        [
                            [
                                4.952319782964093,
                                50.097786648139767
                            ],
                            [
                                4.954332155849574,
                                50.026734781331371
                            ],
                            [
                                4.996591986444685,
                                50.039661130573855
                            ],
                            [
                                5.010678596643056,
                                50.091331735945211
                            ],
                            [
                                4.982505376246315,
                                50.109403298861778
                            ],
                            [
                                4.952319782964093,
                                50.097786648139767
                            ]
                        ],
                        [
                            [
                                4.610216392432243,
                                50.153263001914326
                            ],
                            [
                                4.642414358599947,
                                50.123597601826852
                            ],
                            [
                                4.670587578996686,
                                50.12488778434308
                            ],
                            [
                                4.678637070538612,
                                50.150684132117995
                            ],
                            [
                                4.654488595912835,
                                50.160998776842177
                            ],
                            [
                                4.610216392432243,
                                50.153263001914326
                            ]
                        ],
                        [
                            [
                                4.465325544677576,
                                50.211250807808121
                            ],
                            [
                                4.529721477012984,
                                50.212538626215441
                            ],
                            [
                                4.507585375272689,
                                50.235713414474901
                            ],
                            [
                                4.459288426021132,
                                50.226702334834251
                            ],
                            [
                                4.465325544677576,
                                50.211250807808121
                            ]
                        ],
                        [
                            [
                                4.366719273288984,
                                50.25115701798498
                            ],
                            [
                                4.366719273288984,
                                50.270454486004368
                            ],
                            [
                                4.34659554443417,
                                50.258876943328268
                            ],
                            [
                                4.366719273288984,
                                50.25115701798498
                            ]
                        ],
                        [
                            [
                                5.060987918780092,
                                50.130048166652408
                            ],
                            [
                                5.056963173009129,
                                50.157131045837595
                            ],
                            [
                                5.022752833955944,
                                50.188064132797841
                            ],
                            [
                                4.978480630475353,
                                50.157131045837595
                            ],
                            [
                                4.944270291422167,
                                50.148105123240967
                            ],
                            [
                                4.944270291422167,
                                50.126177932083472
                            ],
                            [
                                5.060987918780092,
                                50.130048166652408
                            ]
                        ],
                        [
                            [
                                5.060987918780092,
                                50.262736436924314
                            ],
                            [
                                5.14148283419935,
                                50.21897719691119
                            ],
                            [
                                5.139470461313869,
                                50.247296586222078
                            ],
                            [
                                5.093185884947796,
                                50.271740705913977
                            ],
                            [
                                5.069037410322019,
                                50.270454486004368
                            ],
                            [
                                5.060987918780092,
                                50.262736436924314
                            ]
                        ],
                        [
                            [
                                5.177705546138017,
                                50.294886723489832
                            ],
                            [
                                5.205878766534759,
                                50.280743272489303
                            ],
                            [
                                5.223990122504092,
                                50.288458403217966
                            ],
                            [
                                5.223990122504092,
                                50.310311148944457
                            ],
                            [
                                5.201854020763796,
                                50.323161016016591
                            ],
                            [
                                5.177705546138017,
                                50.294886723489832
                            ]
                        ],
                        [
                            [
                                5.20990351230572,
                                50.562814114988726
                            ],
                            [
                                5.213928258076685,
                                50.576873575058485
                            ],
                            [
                                5.199841647878313,
                                50.592206383097924
                            ],
                            [
                                5.201854020763796,
                                50.610088349488507
                            ],
                            [
                                5.159594190168685,
                                50.589651261792014
                            ],
                            [
                                5.175693173252537,
                                50.565370692524986
                            ],
                            [
                                5.20990351230572,
                                50.562814114988726
                            ]
                        ],
                        [
                            [
                                5.105260122260685,
                                50.589651261792014
                            ],
                            [
                                5.129408596886463,
                                50.590928839779444
                            ],
                            [
                                5.139470461313869,
                                50.617749969459879
                            ],
                            [
                                5.117334359573573,
                                50.619026784801179
                            ],
                            [
                                5.103247749375204,
                                50.593483891747752
                            ],
                            [
                                5.105260122260685,
                                50.589651261792014
                            ]
                        ],
                        [
                            [
                                5.362843851602314,
                                50.69557228451793
                            ],
                            [
                                5.326621139663645,
                                50.715963351656221
                            ],
                            [
                                5.324608766778165,
                                50.689198257303715
                            ],
                            [
                                5.362843851602314,
                                50.69557228451793
                            ]
                        ]
                    ],
                    [
                        [
                            [
                                4.730533869698126,
                                50.340206447551836
                            ],
                            [
                                4.785269230250364,
                                50.316911654128447
                            ],
                            [
                                4.758509720647046,
                                50.304483094777765
                            ],
                            [
                                4.718370456242074,
                                50.316134964340989
                            ],
                            [
                                4.730533869698126,
                                50.340206447551836
                            ]
                        ]
                    ],
                    [
                        [
                            [
                                4.933662874414207,
                                50.357282038835699
                            ],
                            [
                                4.99447994169447,
                                50.362713893869376
                            ],
                            [
                                5.009076037841733,
                                50.351849562194992
                            ],
                            [
                                4.923932143649365,
                                50.344864035953584
                            ],
                            [
                                4.933662874414207,
                                50.357282038835699
                            ]
                        ]
                    ],
                    [
                        [
                            [
                                4.827841177346549,
                                50.434046227694608
                            ],
                            [
                                4.799865326397627,
                                50.418548329520682
                            ],
                            [
                                4.779187523522337,
                                50.423198231538159
                            ],
                            [
                                4.777971182176732,
                                50.444891738692441
                            ],
                            [
                                4.801081667743232,
                                50.458832315747664
                            ],
                            [
                                4.827841177346549,
                                50.458832315747664
                            ],
                            [
                                4.827841177346549,
                                50.434046227694608
                            ]
                        ]
                    ],
                    [
                        [
                            [
                                5.039502939524303,
                                50.56570765515059
                            ],
                            [
                                4.999385937704953,
                                50.562247004891567
                            ],
                            [
                                4.982546702373375,
                                50.588981788041757
                            ],
                            [
                                5.015729901409133,
                                50.622614591410453
                            ],
                            [
                                5.04891310044489,
                                50.626699182137166
                            ],
                            [
                                5.056342174855882,
                                50.607529951907502
                            ],
                            [
                                5.034054951622909,
                                50.588352908630398
                            ],
                            [
                                5.039502939524303,
                                50.56570765515059
                            ]
                        ]
                    ]
                ]
            }
        }
    ]
}