{
    "type": "FeatureCollection",
    "features": [
        {
            "type": "Feature",
            "properties": {
                "diocese": "Minden",
                "province": "Colonien",
                "date": 1592
            },
            "geometry": {
                "coordinates": [
                    [
                        [
                            9.323198815000069,
                            52.776081513000065
                        ],
                        [
                            9.421835902000055,
                            52.744438424000066
                        ],
                        [
                            9.491951422000056,
                            52.67459856700003
                        ],
                        [
                            9.493139820000067,
                            52.64143954900004
                        ],
                        [
                            9.322010417000058,
                            52.635670196000035
                        ],
                        [
                            9.256648491000021,
                            52.70413214600006
                        ],
                        [
                            9.193663364000031,
                            52.73292614600007
                        ],
                        [
                            9.200793756000053,
                            52.74587724500003
                        ],
                        [
                            9.175837384000033,
                            52.77104892300008
                        ],
                        [
                            9.111663858000043,
                            52.75019342300004
                        ],
                        [
                            9.034417946000076,
                            52.75091274500005
                        ],
                        [
                            8.812187401000074,
                            52.77823815900007
                        ],
                        [
                            8.479435782000053,
                            52.87661117300007
                        ],
                        [
                            8.473876394000058,
                            52.811467124000046
                        ],
                        [
                            8.452960578000045,
                            52.78904990900003
                        ],
                        [
                            8.582099897000035,
                            52.77055180000008
                        ],
                        [
                            8.620128653000052,
                            52.69427201000008
                        ],
                        [
                            8.62428804800004,
                            52.64670960600006
                        ],
                        [
                            8.48583960700006,
                            52.575991103000035
                        ],
                        [
                            8.373520090000056,
                            52.56663039000006
                        ],
                        [
                            8.31704738700006,
                            52.53448829800004
                        ],
                        [
                            8.31761781800003,
                            52.49734529800003
                        ],
                        [
                            8.28244121900002,
                            52.44313661600006
                        ],
                        [
                            8.30884990800007,
                            52.405367031000026
                        ],
                        [
                            8.29469408400007,
                            52.39121632800004
                        ],
                        [
                            8.303761375000022,
                            52.35384619100006
                        ],
                        [
                            8.377699577000044,
                            52.353180820000034
                        ],
                        [
                            8.434742712000059,
                            52.27442701700005
                        ],
                        [
                            8.597315646000027,
                            52.27500873900004
                        ],
                        [
                            8.625837213000068,
                            52.218837362000045
                        ],
                        [
                            8.65103126400004,
                            52.219128589000036
                        ],
                        [
                            8.650080545000037,
                            52.17658927400004
                        ],
                        [
                            8.719007666000039,
                            52.166093870000054
                        ],
                        [
                            8.773198644000047,
                            52.18183604700005
                        ],
                        [
                            9.10975313800003,
                            52.01802050200007
                        ],
                        [
                            9.244755224000073,
                            52.01860558300007
                        ],
                        [
                            9.222413329000062,
                            51.97441040500007
                        ],
                        [
                            9.23049444000003,
                            51.94365293800007
                        ],
                        [
                            9.287062215000049,
                            51.93691277000005
                        ],
                        [
                            9.285160777000044,
                            51.87239042200008
                        ],
                        [
                            9.370250120000037,
                            51.89381038500005
                        ],
                        [
                            9.536150570000075,
                            51.89234359000005
                        ],
                        [
                            9.546608478000053,
                            51.95830198300007
                        ],
                        [
                            9.582260437000059,
                            51.98465820500007
                        ],
                        [
                            9.541854883000042,
                            52.05895773100008
                        ],
                        [
                            9.492892859000051,
                            52.10423737000008
                        ],
                        [
                            9.531396975000064,
                            52.16813483700008
                        ],
                        [
                            9.499547892000066,
                            52.18445920200003
                        ],
                        [
                            9.523791224000036,
                            52.22000225700003
                        ],
                        [
                            9.687790236000069,
                            52.205147553000074
                        ],
                        [
                            9.742931933000023,
                            52.169301062000045
                        ],
                        [
                            9.768268592000027,
                            52.169301062000045
                        ],
                        [
                            9.835436883000057,
                            52.244458002000044
                        ],
                        [
                            9.80791357000004,
                            52.25947413700004
                        ],
                        [
                            9.797788414000024,
                            52.302835224000034
                        ],
                        [
                            9.71789237400003,
                            52.37132915700005
                        ],
                        [
                            9.749684414000058,
                            52.47455222100007
                        ],
                        [
                            9.725916441000038,
                            52.50754831100005
                        ],
                        [
                            9.677429777000043,
                            52.52316939800005
                        ],
                        [
                            9.696444155000052,
                            52.58964147300003
                        ],
                        [
                            9.747782976000053,
                            52.61447038600005
                        ],
                        [
                            9.757290165000029,
                            52.59310681800008
                        ],
                        [
                            9.788663889000077,
                            52.58559822500007
                        ],
                        [
                            9.818136175000063,
                            52.608120143000065
                        ],
                        [
                            9.92937028800003,
                            52.620819708000056
                        ],
                        [
                            10.17560648600005,
                            52.620819708000056
                        ],
                        [
                            10.13662701000004,
                            52.677345753000054
                        ],
                        [
                            10.148986356000023,
                            52.70615742700005
                        ],
                        [
                            10.14042988600005,
                            52.756244425000034
                        ],
                        [
                            10.22219171200004,
                            52.798227060000045
                        ],
                        [
                            10.236452496000027,
                            52.87403808500005
                        ],
                        [
                            10.162296421000065,
                            52.90788053500006
                        ],
                        [
                            10.112859038000067,
                            52.90099946500004
                        ],
                        [
                            10.11000688100006,
                            52.95200806500003
                        ],
                        [
                            10.029195774000073,
                            52.99322948000008
                        ],
                        [
                            10.013033552000024,
                            53.05670215400005
                        ],
                        [
                            9.976906234000069,
                            53.098394547000055
                        ],
                        [
                            9.916060223000045,
                            53.069842470000026
                        ],
                        [
                            9.898947283000041,
                            53.002384455000026
                        ],
                        [
                            9.840002710000022,
                            52.96460766800004
                        ],
                        [
                            9.762994479000042,
                            52.97720360100004
                        ],
                        [
                            9.722113566000075,
                            53.00924941300008
                        ],
                        [
                            9.64890820900007,
                            52.98178303000003
                        ],
                        [
                            9.475877368000056,
                            52.95143526800007
                        ],
                        [
                            9.336121688000048,
                            52.826384475000054
                        ],
                        [
                            9.323198815000069,
                            52.776081513000065
                        ]
                    ]
                ],
                "type": "Polygon"
            }
        }
    ]
}