{
    "type": "FeatureCollection",
    "features": [
        {
            "type": "Feature",
            "properties": {
                "diocese": "Monasterien",
                "province": "Colonien",
                "date": 1592
            },
            "geometry": {
                "coordinates": [
          [
            [
              [
                7.5587005060000365,
                52.37282474300008
              ],
              [
                7.453170707000027,
                52.36789078000004
              ],
              [
                7.297846213000071,
                52.47069380100004
              ],
              [
                7.292498419000026,
                52.50018420100008
              ],
              [
                7.236509988000023,
                52.54884229900006
              ],
              [
                7.125394715000027,
                52.540892460000066
              ],
              [
                7.121354160000067,
                52.59730514800003
              ],
              [
                7.0650240650000455,
                52.61917171400006
              ],
              [
                7.081067446000077,
                52.53120616400008
              ],
              [
                7.005485293000049,
                52.50083228500006
              ],
              [
                6.999117457000068,
                52.45557607900008
              ],
              [
                7.071015574000057,
                52.37910857900005
              ],
              [
                7.071609774000024,
                52.349355564000064
              ],
              [
                7.030015821000063,
                52.28470078000004
              ],
              [
                7.062696784000025,
                52.24033225900007
              ],
              [
                6.986639271000058,
                52.223955612000054
              ],
              [
                6.954552508000063,
                52.183898370000065
              ],
              [
                6.885031188000028,
                52.158753123000054
              ],
              [
                6.873147201000052,
                52.131040459000076
              ],
              [
                6.844625634000067,
                52.11936681000003
              ],
              [
                6.701423598000076,
                52.12301515400003
              ],
              [
                6.680626622000034,
                52.12775755500007
              ],
              [
                6.661958860000027,
                52.17146418200008
              ],
              [
                6.482807765000075,
                52.187313747000076
              ],
              [
                6.456068796000068,
                52.15560896800008
              ],
              [
                6.488452659000075,
                52.13500698000007
              ],
              [
                6.492314954000051,
                52.100162477000026
              ],
              [
                6.515785827000059,
                52.08263872300006
              ],
              [
                6.509546735000072,
                52.02801542200007
              ],
              [
                6.442699311000069,
                52.01814322300004
              ],
              [
                6.406156053000075,
                52.06857823800004
              ],
              [
                6.365156300000024,
                52.09304428200005
              ],
              [
                6.314055159000077,
                52.06967401900005
              ],
              [
                6.305884918000061,
                52.02737562300007
              ],
              [
                6.356391860000031,
                51.984579745000076
              ],
              [
                6.417594390000033,
                51.97762612400004
              ],
              [
                6.381942431000027,
                51.922324753000055
              ],
              [
                6.398580012000025,
                51.90216492400003
              ],
              [
                6.4520579500000395,
                51.904731223000056
              ],
              [
                6.457405744000027,
                51.875760195000055
              ],
              [
                6.393770959000051,
                51.876171054000054
              ],
              [
                6.3918695210000465,
                51.86114291000007
              ],
              [
                6.519246531000022,
                51.81594541700008
              ],
              [
                6.59447216500007,
                51.76125387400003
              ],
              [
                6.632976281000026,
                51.69655298500004
              ],
              [
                6.667915201000028,
                51.68483951800005
              ],
              [
                6.734584365000046,
                51.73035032700005
              ],
              [
                6.805888283000058,
                51.73631194200004
              ],
              [
                6.8575836240000285,
                51.72747963900008
              ],
              [
                6.870418329000074,
                51.67400739100003
              ],
              [
                7.00304361700006,
                51.66538404900007
              ],
              [
                7.1895033630000285,
                51.73410402800005
              ],
              [
                7.29360708400003,
                51.71842473700008
              ],
              [
                7.339954631000069,
                51.69854176300004
              ],
              [
                7.338885072000039,
                51.68594469200008
              ],
              [
                7.447742387000062,
                51.65768061700004
              ],
              [
                7.463191570000049,
                51.62744397500006
              ],
              [
                7.537466484000049,
                51.61102662400003
              ],
              [
                7.647393358000045,
                51.65712768900005
              ],
              [
                7.891312179000067,
                51.70373427100003
              ],
              [
                7.933797430000027,
                51.70336602800006
              ],
              [
                8.046398201000045,
                51.65565318000006
              ],
              [
                8.22049860200002,
                51.65786492500007
              ],
              [
                8.254665063000061,
                51.661919510000075
              ],
              [
                8.288831523000056,
                51.69692128300005
              ],
              [
                8.352113751000047,
                51.716804970000055
              ],
              [
                8.332090533000041,
                51.73730464600004
              ],
              [
                8.353957068000057,
                51.74907810700006
              ],
              [
                8.344449879000024,
                51.77438065900003
              ],
              [
                8.309273279000024,
                51.76261379400006
              ],
              [
                8.246525831000042,
                51.77849833700003
              ],
              [
                8.231314329000043,
                51.81260178900004
              ],
              [
                8.197088448000045,
                51.82846873700004
              ],
              [
                8.200891323000064,
                51.85548844600004
              ],
              [
                8.138143875000026,
                51.85783721900003
              ],
              [
                8.11722805900007,
                51.88894689500006
              ],
              [
                8.16001041000004,
                51.90420037800004
              ],
              [
                8.164764005000052,
                51.92824342600005
              ],
              [
                8.20726906300007,
                51.95000300700008
              ],
              [
                8.313927841000066,
                51.92729074600004
              ],
              [
                8.322543731000053,
                51.94341030900006
              ],
              [
                8.28956566900007,
                51.99027066300005
              ],
              [
                8.156227341000033,
                52.00475816200003
              ],
              [
                8.080169829000056,
                52.06967475000005
              ],
              [
                7.946118462000072,
                52.05915413900004
              ],
              [
                7.794954155000028,
                52.099761698000066
              ],
              [
                7.738386380000065,
                52.09421320400003
              ],
              [
                7.69893154500005,
                52.125159146000044
              ],
              [
                7.7141430480000395,
                52.14820866400004
              ],
              [
                7.697030108000035,
                52.15725015400005
              ],
              [
                7.704160499000068,
                52.18319777500005
              ],
              [
                7.6466420050000465,
                52.20476068200003
              ],
              [
                7.672786775000077,
                52.25105641500005
              ],
              [
                7.5981553410000515,
                52.33595181900006
              ],
              [
                7.668508540000062,
                52.36556872500006
              ],
              [
                7.672786775000077,
                52.392845168000065
              ],
              [
                7.605761092000023,
                52.418655209000065
              ],
              [
                7.5587005060000365,
                52.37282474300008
              ]
            ]
          ],
          [
            [
              [
                6.496404970000071,
                53.50687891000007
              ],
              [
                6.478578990000074,
                53.535705395000036
              ],
              [
                6.430805365000026,
                53.53061979300003
              ],
              [
                6.430805365000026,
                53.51366337700006
              ],
              [
                6.496404970000071,
                53.50687891000007
              ]
            ]
          ],
          [
            [
              [
                7.130473121000023,
                53.540423228000066
              ],
              [
                7.128693027000054,
                53.54063218300007
              ],
              [
                7.129477835000046,
                53.540153202000056
              ],
              [
                7.130473121000023,
                53.540423228000066
              ]
            ]
          ],
          [
            [
              [
                6.592665259000057,
                53.53951919500008
              ],
              [
                6.597656534000066,
                53.55477096100003
              ],
              [
                6.563430653000069,
                53.56281828900006
              ],
              [
                6.5206483020000405,
                53.55307659200008
              ],
              [
                6.515657028000021,
                53.53782421500006
              ],
              [
                6.592665259000057,
                53.53951919500008
              ]
            ]
          ],
          [
            [
              [
                7.130473121000023,
                53.540423228000066
              ],
              [
                7.142079815000045,
                53.54068323900003
              ],
              [
                7.097371246000023,
                53.51930268000007
              ],
              [
                7.034079160000033,
                53.53306123900006
              ],
              [
                7.049401112000055,
                53.50792374300005
              ],
              [
                7.025515034000023,
                53.48347641400005
              ],
              [
                6.999031405000039,
                53.35895201000005
              ],
              [
                7.025203228000066,
                53.336616753000044
              ],
              [
                7.068978877000063,
                53.33464515400004
              ],
              [
                7.182348664000074,
                53.363728594000065
              ],
              [
                7.2313297640000656,
                53.33116549600004
              ],
              [
                7.3204680970000595,
                53.32226633300007
              ],
              [
                7.246032681000031,
                53.319503757000064
              ],
              [
                7.2294532770000615,
                53.29373175100005
              ],
              [
                7.250087386000075,
                53.226072274000046
              ],
              [
                7.234400524000023,
                53.16840638600007
              ],
              [
                7.127444647000061,
                53.16071173900008
              ],
              [
                7.118888176000041,
                53.175244914000075
              ],
              [
                7.15667925300005,
                53.188918700000045
              ],
              [
                7.141705430000059,
                53.21070228800005
              ],
              [
                7.039027788000055,
                53.20984823800006
              ],
              [
                7.019062691000045,
                53.24357026300004
              ],
              [
                7.078006368000047,
                53.27000090700005
              ],
              [
                7.099789761000068,
                53.30728696500006
              ],
              [
                7.05134319900003,
                53.29915065200004
              ],
              [
                6.944093897000073,
                53.32353109300004
              ],
              [
                6.898099377000051,
                53.35040079300006
              ],
              [
                6.879275802000052,
                53.40452140100007
              ],
              [
                6.788751035000075,
                53.39520351700003
              ],
              [
                6.706038489000036,
                53.43217807000008
              ],
              [
                6.510665753000069,
                53.41008220200007
              ],
              [
                6.413601233000065,
                53.42231467200003
              ],
              [
                6.376614387000075,
                53.39988023600006
              ],
              [
                6.310590660000059,
                53.396493046000046
              ],
              [
                6.274649784000076,
                53.381170276000034
              ],
              [
                6.275362823000023,
                53.35479228300005
              ],
              [
                6.3259886050000205,
                53.327120394000076
              ],
              [
                6.3965794840000285,
                53.32243568300004
              ],
              [
                6.390162131000068,
                53.30710030300003
              ],
              [
                6.324562527000069,
                53.29943054700004
              ],
              [
                6.355223212000055,
                53.26959062100008
              ],
              [
                6.3202842920000535,
                53.271722735000026
              ],
              [
                6.262528118000034,
                53.31434269700003
              ],
              [
                6.208312462000038,
                53.312661364000064
              ],
              [
                6.214492135000057,
                53.283114881000074
              ],
              [
                6.088997239000037,
                53.22965204800005
              ],
              [
                6.1412867790000405,
                53.21086733100003
              ],
              [
                6.208787821000044,
                53.21200603400007
              ],
              [
                6.176938738000047,
                53.16586438400003
              ],
              [
                6.175512659000049,
                53.13450532600007
              ],
              [
                6.202132789000075,
                53.11596420800004
              ],
              [
                6.281042459000048,
                53.11739073100006
              ],
              [
                6.353772455000069,
                53.09370430600006
              ],
              [
                6.405705476000037,
                53.17797425100008
              ],
              [
                6.442545833000054,
                53.18723243100004
              ],
              [
                6.459658774000047,
                53.220260719000066
              ],
              [
                6.4418327940000495,
                53.24714857400005
              ],
              [
                6.450389264000023,
                53.25568086900006
              ],
              [
                6.485328184000025,
                53.24074823500007
              ],
              [
                6.53096269200006,
                53.26421146300004
              ],
              [
                6.55877122000004,
                53.249281807000045
              ],
              [
                6.612962198000048,
                53.25568086900006
              ],
              [
                6.72063111500006,
                53.17968360400005
              ],
              [
                6.785517680000055,
                53.189511061000076
              ],
              [
                6.77339601400007,
                53.15702914900004
              ],
              [
                6.781952484000044,
                53.12751769000005
              ],
              [
                6.878212774000076,
                53.05515032500006
              ],
              [
                6.940247183000054,
                53.028141996000045
              ],
              [
                7.028640274000054,
                53.01200037500007
              ],
              [
                7.03814746300003,
                53.089151023000056
              ],
              [
                7.192163926000035,
                53.107132972000045
              ],
              [
                7.35711365700007,
                53.09999817700003
              ],
              [
                7.417008949000035,
                53.04687814300007
              ],
              [
                7.457889862000059,
                53.03315910800006
              ],
              [
                7.582671719000075,
                53.07344635100003
              ],
              [
                7.600735378000024,
                53.153907881000066
              ],
              [
                7.590277470000046,
                53.19180381100006
              ],
              [
                7.666775052000048,
                53.176922008000076
              ],
              [
                7.758077809000042,
                53.184640340000044
              ],
              [
                7.7949181670000485,
                53.30482217200006
              ],
              [
                7.901874044000067,
                53.353084168000066
              ],
              [
                7.755701012000031,
                53.45793633900007
              ],
              [
                7.617846770000028,
                53.45652114000006
              ],
              [
                7.523963277000064,
                53.43741133600008
              ],
              [
                7.507325696000066,
                53.49259398400005
              ],
              [
                7.370659853000063,
                53.55123522800005
              ],
              [
                7.35877586600003,
                53.57241088900008
              ],
              [
                7.130473121000023,
                53.540423228000066
              ]
            ]
          ],
          [
            [
              [
                7.0005236720000426,
                53.58017835900006
              ],
              [
                7.0212018080000576,
                53.594992293000075
              ],
              [
                6.980558575000032,
                53.60176264800003
              ],
              [
                6.95417612500006,
                53.58568128400003
              ],
              [
                7.0005236720000426,
                53.58017835900006
              ]
            ]
          ],
          [
            [
              [
                6.72315143000003,
                53.56705310900003
              ],
              [
                6.780194564000055,
                53.61572307800003
              ],
              [
                6.699621137000065,
                53.628410373000065
              ],
              [
                6.630609712000023,
                53.597975559000076
              ],
              [
                6.6432910410000545,
                53.57848500800003
              ],
              [
                6.72315143000003,
                53.56705310900003
              ]
            ]
          ],
          [
            [
              [
                7.077531904000068,
                53.648279469000045
              ],
              [
                7.108192589000055,
                53.655463859000065
              ],
              [
                7.111757785000066,
                53.66222451900006
              ],
              [
                7.056853767000064,
                53.66222451900006
              ],
              [
                7.056853767000064,
                53.64870211400006
              ],
              [
                7.077531904000068,
                53.648279469000045
              ]
            ]
          ]
        ],
        "type": "MultiPolygon"
      }
    }
  ]
}