{"type": "FeatureCollection", "features": [{"type": "Feature", "properties": {"diocese": "Paris", "province": "XII_Paris", "source": "80_Paris.txt"}, "geometry": {"type": "Polygon", "coordinates": [[[2.847202676254495, 48.69154852491117], [2.8529011191794305, 48.69570322681231], [2.8585995621043705, 48.69985792871346], [2.864298005029306, 48.704012630614606], [2.8699964479542444, 48.70816733251576], [2.875694890879179, 48.7123220344169], [2.881393333804118, 48.71647673631804], [2.8870917767290547, 48.720631438219186], [2.8927902196539894, 48.72478614012033], [2.8984886625789286, 48.72894084202147], [2.904187105503865, 48.733095543922616], [2.904187105503865, 48.733095543922616], [2.8980391340687786, 48.736994113649956], [2.8918911626336894, 48.74089268337728], [2.885743191198603, 48.744791253104616], [2.8795952197635146, 48.748689822831956], [2.873447248328429, 48.75258839255928], [2.8672992768933407, 48.75648696228661], [2.861151305458254, 48.76038553201395], [2.8550033340231655, 48.764284101741275], [2.8488553625880786, 48.768182671468615], [2.842707391152992, 48.77208124119595], [2.842707391152992, 48.77208124119595], [2.840667826419381, 48.778464479764], [2.8386282616857694, 48.78484771833206], [2.8365886969521568, 48.7912309569001], [2.834549132218545, 48.797614195468164], [2.8325095674849328, 48.80399743403622], [2.8304700027513223, 48.810380672604275], [2.82843043801771, 48.81676391117233], [2.826390873284098, 48.823147149740386], [2.824351308550486, 48.82953038830844], [2.822311743816875, 48.8359136268765], [2.822311743816875, 48.8359136268765], [2.817571335954326, 48.83821768297942], [2.812830928091778, 48.840521739082334], [2.808090520229227, 48.84282579518526], [2.803350112366679, 48.845129851288185], [2.798609704504129, 48.84743390739111], [2.7938692966415783, 48.849737963494036], [2.78912888877903, 48.85204201959696], [2.7843884809164785, 48.85434607569988], [2.779648073053931, 48.8566501318028], [2.7749076651913813, 48.85895418790573], [2.7749076651913813, 48.85895418790573], [2.7678565099878267, 48.86001638976334], [2.760805354784268, 48.86107859162096], [2.7537541995807135, 48.862140793478574], [2.7467030443771567, 48.86320299533619], [2.7396518891736017, 48.8642651971938], [2.732600733970045, 48.865327399051424], [2.7255495787664885, 48.86638960090903], [2.7184984235629335, 48.86745180276665], [2.711447268359373, 48.86851400462426], [2.7043961131558185, 48.86957620648189], [2.7043961131558185, 48.86957620648189], [2.700171546271794, 48.873387664748456], [2.695946979387768, 48.87719912301503], [2.6917224125037413, 48.88101058128161], [2.6874978456197147, 48.884822039548176], [2.6832732787356908, 48.88863349781476], [2.6790487118516646, 48.89244495608133], [2.67482414496764, 48.89625641434791], [2.6705995780836136, 48.90006787261448], [2.666375011199588, 48.903879330881054], [2.662150444315563, 48.90769078914763], [2.662150444315563, 48.90769078914763], [2.6608728270166453, 48.91017303636879], [2.6595952097177267, 48.912655283589956], [2.658317592418807, 48.915137530811116], [2.6570399751198885, 48.91761977803228], [2.655762357820971, 48.92010202525344], [2.6544847405220504, 48.92258427247461], [2.6532071232231322, 48.92506651969576], [2.6519295059242123, 48.92754876691692], [2.6506518886252945, 48.93003101413809], [2.6493742713263777, 48.93251326135925], [2.6493742713263777, 48.93251326135925], [2.646166498600429, 48.93162583163726], [2.642958725874482, 48.93073840191527], [2.639750953148533, 48.92985097219328], [2.6365431804225854, 48.928963542471294], [2.6333354076966384, 48.9280761127493], [2.6301276349706915, 48.92718868302731], [2.6269198622447445, 48.92630125330532], [2.6237120895187958, 48.925413823583334], [2.620504316792849, 48.92452639386134], [2.6172965440669, 48.92363896413936], [2.6172965440669, 48.92363896413936], [2.613837175989795, 48.925234037697045], [2.610377807912691, 48.926829111254726], [2.606918439835586, 48.92842418481242], [2.6034590717584805, 48.93001925837011], [2.599999703681377, 48.93161433192779], [2.59654033560427, 48.93320940548548], [2.5930809675271647, 48.93480447904317], [2.5896215994500595, 48.93639955260086], [2.5861622313729558, 48.93799462615855], [2.5827028632958524, 48.93958969971623], [2.5827028632958524, 48.93958969971623], [2.58424481823967, 48.941186021425914], [2.585786773183489, 48.94278234313561], [2.5873287281273063, 48.944378664845296], [2.5888706830711254, 48.94597498655499], [2.5904126380149464, 48.94757130826468], [2.5919545929587637, 48.94916762997436], [2.593496547902584, 48.95076395168405], [2.5950385028464016, 48.95236027339374], [2.5965804577902207, 48.953956595103435], [2.59812241273404, 48.95555291681312], [2.59812241273404, 48.95555291681312], [2.5985110474844917, 48.95759226254862], [2.598899682234943, 48.959631608284134], [2.599288316985395, 48.96167095401965], [2.5996769517358485, 48.963710299755164], [2.6000655864863, 48.96574964549068], [2.6004542212367516, 48.967788991226186], [2.6008428559872034, 48.96982833696169], [2.6012314907376566, 48.9718676826972], [2.6016201254881084, 48.97390702843272], [2.60200876023856, 48.97594637416823], [2.60200876023856, 48.97594637416823], [2.598033985450175, 48.97630003606432], [2.5940592106617877, 48.9766536979604], [2.5900844358733996, 48.97700735985648], [2.5861096610850125, 48.977361021752564], [2.582134886296626, 48.97771468364865], [2.578160111508239, 48.978068345544735], [2.5741853367198524, 48.97842200744081], [2.5702105619314657, 48.978775669336905], [2.5662357871430785, 48.97912933123298], [2.5622610123546923, 48.97948299312907], [2.5622610123546923, 48.97948299312907], [2.560854990964279, 48.981876544840595], [2.5594489695738667, 48.984270096552116], [2.5580429481834535, 48.98666364826363], [2.556636926793041, 48.98905719997515], [2.555230905402628, 48.99145075168667], [2.5538248840122155, 48.99384430339819], [2.5524188626218027, 48.99623785510971], [2.55101284123139, 48.99863140682123], [2.5496068198409767, 49.00102495853275], [2.5482007984505644, 49.003418510244266], [2.5482007984505644, 49.003418510244266], [2.5505108613132648, 49.004305721399206], [2.5528209241759696, 49.005192932554145], [2.555130987038672, 49.00608014370909], [2.557441049901375, 49.00696735486402], [2.559751112764077, 49.007854566018956], [2.5620611756267815, 49.0087417771739], [2.564371238489484, 49.00962898832883], [2.5666813013521868, 49.010516199483774], [2.5689913642148894, 49.011403410638714], [2.571301427077592, 49.012290621793646], [2.571301427077592, 49.012290621793646], [2.5736135434174305, 49.01424178409706], [2.5759256597572713, 49.01619294640047], [2.578237776097114, 49.01814410870389], [2.580549892436952, 49.02009527100731], [2.5828620087767926, 49.02204643331073], [2.5851741251166316, 49.02399759561414], [2.58748624145647, 49.025948757917554], [2.5897983577963126, 49.02789992022096], [2.592110474136153, 49.029851082524374], [2.594422590475992, 49.0318022448278], [2.594422590475992, 49.0318022448278], [2.5989104682557933, 49.0315373744485], [2.603398346035593, 49.03127250406919], [2.607886223815395, 49.03100763368988], [2.6123741015951962, 49.03074276331058], [2.6168619793749976, 49.03047789293127], [2.6213498571547995, 49.03021302255197], [2.6258377349345974, 49.02994815217266], [2.6303256127144006, 49.02968328179335], [2.6348134904942024, 49.02941841141405], [2.639301368274004, 49.029153541034745], [2.639301368274004, 49.029153541034745], [2.6417523916534265, 49.03106094500208], [2.644203415032853, 49.03296834896941], [2.6466544384122788, 49.03487575293675], [2.6491054617917054, 49.03678315690409], [2.6515564851711297, 49.03869056087142], [2.654007508550554, 49.04059796483876], [2.656458531929979, 49.042505368806104], [2.6589095553094064, 49.044412772773434], [2.6613605786888312, 49.04632017674077], [2.663811602068257, 49.0482275807081], [2.663811602068257, 49.0482275807081], [2.665264970387797, 49.04954400326277], [2.6667183387073368, 49.050860425817426], [2.668171707026874, 49.052176848372085], [2.6696250753464157, 49.05349327092675], [2.6710784436659556, 49.05480969348141], [2.6725318119854964, 49.05612611603607], [2.6739851803050345, 49.057442538590735], [2.675438548624576, 49.058758961145394], [2.676891916944116, 49.06007538370005], [2.678345285263654, 49.06139180625472], [2.678345285263654, 49.06139180625472], [2.678620039578416, 49.06283398653951], [2.6788947938931753, 49.064276166824314], [2.6791695482079354, 49.06571834710911], [2.6794443025226964, 49.06716052739391], [2.6797190568374556, 49.0686027076787], [2.679993811152216, 49.0700448879635], [2.680268565466979, 49.071487068248295], [2.6805433197817377, 49.072929248533086], [2.680818074096497, 49.07437142881789], [2.681092828411258, 49.07581360910268], [2.681092828411258, 49.07581360910268], [2.668758996690294, 49.07443144797166], [2.6564251649693262, 49.07304928684064], [2.644091333248362, 49.071667125709624], [2.6317575015273964, 49.070284964578605], [2.6194236698064306, 49.0689028034476], [2.6070898380854635, 49.06752064231657], [2.5947560063644994, 49.066138481185554], [2.5824221746435336, 49.064756320054535], [2.570088342922568, 49.063374158923516], [2.557754511201602, 49.0619919977925], [2.557754511201602, 49.0619919977925], [2.5559411844240736, 49.06230453367977], [2.5541278576465447, 49.06261706956703], [2.5523145308690167, 49.0629296054543], [2.550501204091488, 49.063242141341576], [2.548687877313957, 49.06355467722884], [2.5468745505364283, 49.06386721311611], [2.5450612237588994, 49.06417974900337], [2.543247896981369, 49.06449228489064], [2.541434570203841, 49.064804820777915], [2.539621243426312, 49.065117356665176], [2.539621243426312, 49.065117356665176], [2.5370892231620017, 49.06850195064271], [2.534557202897688, 49.07188654462025], [2.532025182633376, 49.07527113859778], [2.5294931623690635, 49.07865573257532], [2.5269611421047533, 49.08204032655285], [2.5244291218404378, 49.085424920530386], [2.521897101576127, 49.08880951450792], [2.519365081311815, 49.09219410848546], [2.5168330610475014, 49.09557870246298], [2.5143010407831894, 49.09896329644052], [2.5143010407831894, 49.09896329644052], [2.5135786670416356, 49.10090729137732], [2.512856293300079, 49.10285128631411], [2.512133919558524, 49.1047952812509], [2.511411545816969, 49.10673927618769], [2.510689172075413, 49.10868327112449], [2.5099667983338585, 49.110627266061286], [2.5092444245923047, 49.112571260998074], [2.508522050850748, 49.114515255934876], [2.507799677109193, 49.11645925087167], [2.5070773033676397, 49.11840324580846], [2.5070773033676397, 49.11840324580846], [2.506626386500836, 49.11934317602262], [2.5061754696340355, 49.12028310623678], [2.505724552767236, 49.12122303645094], [2.5052736359004357, 49.12216296666511], [2.504822719033633, 49.12310289687927], [2.504371802166833, 49.12404282709343], [2.5039208853000328, 49.1249827573076], [2.503469968433231, 49.12592268752176], [2.503019051566431, 49.126862617735924], [2.5025681346996307, 49.12780254795008], [2.5025681346996307, 49.12780254795008], [2.4988497454387484, 49.128114613870984], [2.4951313561778674, 49.128426679791886], [2.491412966916985, 49.12873874571278], [2.487694577656104, 49.12905081163368], [2.4839761883952236, 49.129362877554584], [2.480257799134341, 49.129674943475486], [2.4765394098734603, 49.12998700939638], [2.4728210206125794, 49.13029907531729], [2.4691026313516966, 49.130611141238184], [2.465384242090816, 49.13092320715909], [2.465384242090816, 49.13092320715909], [2.4640211154940483, 49.12910473815658], [2.462657988897281, 49.12728626915407], [2.4612948623005164, 49.12546780015156], [2.4599317357037465, 49.123649331149046], [2.4585686091069783, 49.12183086214653], [2.4572054825102114, 49.12001239314403], [2.4558423559134472, 49.118193924141515], [2.454479229316678, 49.116375455139], [2.45311610271991, 49.1145569861365], [2.4517529761231454, 49.112738517133984], [2.4517529761231454, 49.112738517133984], [2.4464886870224283, 49.11023006901254], [2.441224397921711, 49.107721620891105], [2.435960108820994, 49.10521317276966], [2.430695819720279, 49.10270472464822], [2.4254315306195644, 49.10019627652678], [2.4201672415188473, 49.097687828405334], [2.4149029524181285, 49.0951793802839], [2.4096386633174136, 49.09267093216246], [2.4043743742166983, 49.09016248404102], [2.3991100851159812, 49.08765403591958], [2.3991100851159812, 49.08765403591958], [2.3953015422745767, 49.087653085443], [2.3914929994331704, 49.087652134966426], [2.387684456591764, 49.08765118448986], [2.3838759137503596, 49.08765023401328], [2.3800673709089533, 49.087649283536706], [2.37625882806755, 49.08764833306014], [2.3724502852261438, 49.08764738258356], [2.3686417423847375, 49.087646432106986], [2.3648331995433325, 49.087645481630425], [2.3610246567019266, 49.08764453115385], [2.3610246567019266, 49.08764453115385], [2.358571304859147, 49.084571686903445], [2.3561179530163674, 49.08149884265304], [2.353664601173589, 49.07842599840264], [2.351211249330809, 49.07535315415224], [2.3487578974880297, 49.072280309901835], [2.3463045456452485, 49.06920746565143], [2.3438511938024713, 49.06613462140103], [2.3413978419596915, 49.06306177715062], [2.3389444901169103, 49.05998893290022], [2.3364911382741327, 49.05691608864982], [2.3364911382741327, 49.05691608864982], [2.333045335168371, 49.056727220150776], [2.3295995320626086, 49.056538351651724], [2.326153728956846, 49.05634948315267], [2.3227079258510845, 49.05616061465362], [2.3192621227453203, 49.05597174615457], [2.31581631963956, 49.055782877655524], [2.3123705165337998, 49.05559400915647], [2.308924713428038, 49.05540514065743], [2.305478910322274, 49.05521627215837], [2.3020331072165114, 49.055027403659324], [2.3020331072165114, 49.055027403659324], [2.298499361220427, 49.05653165667858], [2.2949656152243443, 49.05803590969785], [2.2914318692282607, 49.05954016271711], [2.2878981232321762, 49.061044415736376], [2.2843643772360918, 49.062548668755625], [2.2808306312400073, 49.06405292177489], [2.277296885243923, 49.06555717479416], [2.2737631392478383, 49.06706142781342], [2.270229393251752, 49.06856568083268], [2.2666956472556694, 49.07006993385194], [2.2666956472556694, 49.07006993385194], [2.2624360568640993, 49.07176094775447], [2.2581764664725257, 49.07345196165701], [2.253916876080954, 49.07514297555953], [2.249657285689382, 49.07683398946206], [2.2453976952978105, 49.07852500336459], [2.2411381049062387, 49.08021601726713], [2.236878514514667, 49.08190703116965], [2.232618924123095, 49.08359804507218], [2.2283593337315213, 49.08528905897471], [2.2240997433399516, 49.086980072877246], [2.2240997433399516, 49.086980072877246], [2.2231895211632735, 49.08447271137574], [2.222279298986598, 49.081965349874245], [2.2213690768099204, 49.07945798837275], [2.220458854633243, 49.07695062687125], [2.219548632456567, 49.07444326536975], [2.2186384102798917, 49.071935903868265], [2.2177281881032136, 49.069428542366765], [2.216817965926538, 49.066921180865265], [2.2159077437498627, 49.06441381936377], [2.214997521573185, 49.06190645786228], [2.214997521573185, 49.06190645786228], [2.2129967702426483, 49.05958576076239], [2.210996018912111, 49.0572650636625], [2.2089952675815745, 49.05494436656261], [2.206994516251038, 49.05262366946272], [2.2049937649205007, 49.05030297236283], [2.202993013589966, 49.047982275262946], [2.200992262259429, 49.045661578163056], [2.1989915109288907, 49.043340881063166], [2.1969907595983535, 49.041020183963276], [2.1949900082678186, 49.038699486863386], [2.1949900082678186, 49.038699486863386], [2.189096904516218, 49.038573030805736], [2.1832038007646184, 49.03844657474808], [2.177310697013018, 49.03832011869043], [2.1714175932614173, 49.038193662632764], [2.1655244895098167, 49.03806720657511], [2.159631385758216, 49.03794075051746], [2.1537382820066164, 49.03781429445981], [2.147845178255016, 49.03768783840215], [2.1419520745034153, 49.03756138234449], [2.1360589707518156, 49.037434926286835], [2.1360589707518156, 49.037434926286835], [2.132515179976975, 49.03373476105315], [2.1289713892021354, 49.03003459581946], [2.125427598427294, 49.026334430585756], [2.121883807652454, 49.02263426535207], [2.1183400168776148, 49.01893410011838], [2.1147962261027735, 49.01523393488469], [2.1112524353279336, 49.01153376965099], [2.107708644553093, 49.0078336044173], [2.1041648537782534, 49.00413343918361], [2.100621063003413, 49.00043327394991], [2.100621063003413, 49.00043327394991], [2.096906660548365, 49.0019994440323], [2.093192258093319, 49.0035656141147], [2.0894778556382727, 49.005131784197076], [2.085763453183226, 49.00669795427947], [2.0820490507281795, 49.008264124361844], [2.078334648273133, 49.00983029444424], [2.074620245818086, 49.01139646452662], [2.07090584336304, 49.01296263460901], [2.0671914409079934, 49.014528804691395], [2.063477038452947, 49.016094974773786], [2.063477038452947, 49.016094974773786], [2.0620248961900374, 49.01540560137369], [2.0605727539271266, 49.01471622797361], [2.0591206116642167, 49.01402685457351], [2.057668469401307, 49.013337481173416], [2.0562163271383964, 49.01264810777333], [2.054764184875488, 49.01195873437324], [2.053312042612578, 49.011269360973145], [2.0518599003496676, 49.01057998757306], [2.050407758086758, 49.00989061417297], [2.0489556158238478, 49.00920124077287], [2.0489556158238478, 49.00920124077287], [2.050674246514785, 49.00707055243816], [2.0523928772057247, 49.004939864103434], [2.0541115078966636, 49.002809175768704], [2.0558301385876026, 49.00067848743398], [2.0575487692785406, 48.998547799099256], [2.0592673999694795, 48.996417110764526], [2.0609860306604184, 48.9942864224298], [2.0627046613513564, 48.99215573409508], [2.0644232920422962, 48.990025045760355], [2.066141922733235, 48.98789435742563], [2.066141922733235, 48.98789435742563], [2.067769033123927, 48.98557456571075], [2.06939614351462, 48.98325477399586], [2.0710232539053117, 48.98093498228098], [2.072650364296005, 48.978615190566096], [2.074277474686697, 48.97629539885121], [2.075904585077389, 48.973975607136325], [2.077531695468083, 48.97165581542144], [2.079158805858776, 48.96933602370655], [2.0807859162494693, 48.96701623199167], [2.0824130266401615, 48.96469644027679], [2.0824130266401615, 48.96469644027679], [2.0917953046581608, 48.96421487099761], [2.101177582676161, 48.96373330171842], [2.1105598606941602, 48.96325173243924], [2.1199421387121617, 48.96277016316006], [2.129324416730162, 48.96228859388087], [2.1387066947481617, 48.96180702460169], [2.148088972766162, 48.9613254553225], [2.1574712507841616, 48.96084388604332], [2.166853528802162, 48.96036231676414], [2.1762358068201624, 48.95988074748495], [2.1762358068201624, 48.95988074748495], [2.176232555458491, 48.95819614631629], [2.1762293040968195, 48.95651154514762], [2.176226052735147, 48.95482694397896], [2.1762228013734757, 48.953142342810295], [2.1762195500118033, 48.951457741641626], [2.1762162986501323, 48.94977314047297], [2.176213047288461, 48.9480885393043], [2.1762097959267885, 48.946403938135646], [2.176206544565117, 48.944719336966976], [2.176203293203446, 48.943034735798314], [2.176203293203446, 48.943034735798314], [2.172608425840177, 48.94090592643684], [2.1690135584769066, 48.93877711707537], [2.1654186911136386, 48.936648307713895], [2.161823823750369, 48.93451949835242], [2.1582289563871, 48.93239068899095], [2.154634089023832, 48.930261879629484], [2.1510392216605614, 48.928133070268004], [2.1474443542972925, 48.92600426090654], [2.1438494869340237, 48.923875451545065], [2.140254619570755, 48.92174664218359], [2.140254619570755, 48.92174664218359], [2.1338295939982146, 48.91500664276655], [2.1274045684256753, 48.908266643349506], [2.1209795428531355, 48.90152664393246], [2.1145545172805966, 48.89478664451543], [2.1081294917080564, 48.888046645098385], [2.101704466135516, 48.88130664568135], [2.0952794405629778, 48.874566646264306], [2.0888544149904376, 48.86782664684726], [2.082429389417899, 48.86108664743022], [2.0760043638453585, 48.854346648013184], [2.0760043638453585, 48.854346648013184], [2.068693638728952, 48.853812842729376], [2.0613829136125466, 48.85327903744556], [2.0540721884961393, 48.85274523216175], [2.046761463379733, 48.85221142687794], [2.039450738263328, 48.85167762159414], [2.0321400131469214, 48.85114381631034], [2.024829288030515, 48.85061001102653], [2.0175185629141077, 48.85007620574272], [2.010207837797702, 48.84954240045891], [2.0028971126812958, 48.84900859517511], [2.0028971126812958, 48.84900859517511], [2.003016112848215, 48.84422081419526], [2.003135113015135, 48.839433033215414], [2.003254113182054, 48.83464525223557], [2.003373113348973, 48.829857471255714], [2.0034921135158927, 48.825069690275875], [2.0036111136828123, 48.82028190929602], [2.00373011384973, 48.815494128316175], [2.0038491140166506, 48.81070634733633], [2.0039681141835692, 48.80591856635649], [2.004087114350489, 48.801130785376635], [2.004087114350489, 48.801130785376635], [2.006650375963336, 48.80033345936372], [2.0092136375761833, 48.799536133350806], [2.0117768991890306, 48.798738807337884], [2.014340160801878, 48.79794148132496], [2.016903422414725, 48.79714415531205], [2.019466684027572, 48.79634682929913], [2.0220299456404187, 48.79554950328622], [2.024593207253267, 48.7947521772733], [2.027156468866114, 48.79395485126039], [2.0297197304789614, 48.79315752524747], [2.0297197304789614, 48.79315752524747], [2.031905464582628, 48.796083954120505], [2.0340911986862946, 48.79901038299354], [2.036276932789962, 48.80193681186658], [2.038462666893628, 48.80486324073962], [2.0406484009972945, 48.80778966961265], [2.042834135100961, 48.81071609848569], [2.045019869204627, 48.81364252735873], [2.0472056033082944, 48.81656895623177], [2.049391337411961, 48.8194953851048], [2.0515770715156276, 48.82242181397784], [2.0515770715156276, 48.82242181397784], [2.0558084912728796, 48.82215687959575], [2.060039911030134, 48.821891945213665], [2.064271330787386, 48.82162701083158], [2.06850275054464, 48.82136207644948], [2.0727341703018918, 48.821097142067394], [2.0769655900591455, 48.82083220768531], [2.0811970098163983, 48.820567273303226], [2.0854284295736516, 48.820302338921124], [2.089659849330905, 48.82003740453904], [2.0938912690881577, 48.819772470156956], [2.0938912690881577, 48.819772470156956], [2.0926030500012422, 48.81675760180712], [2.0913148309143264, 48.813742733457296], [2.0900266118274105, 48.81072786510747], [2.088738392740495, 48.80771299675763], [2.087450173653578, 48.80469812840781], [2.0861619545666614, 48.80168326005798], [2.084873735479746, 48.79866839170815], [2.08358551639283, 48.79565352335832], [2.082297297305914, 48.79263865500849], [2.0810090782189987, 48.78962378665866], [2.0810090782189987, 48.78962378665866], [2.0780538988510995, 48.786697165759506], [2.0750987194832002, 48.783770544860346], [2.0721435401153006, 48.7808439239612], [2.0691883607474018, 48.77791730306204], [2.0662331813795016, 48.77499068216288], [2.0632780020116033, 48.77206406126373], [2.0603228226437036, 48.76913744036457], [2.0573676432758052, 48.766210819465414], [2.0544124639079047, 48.76328419856626], [2.0514572845400063, 48.7603575776671], [2.0514572845400063, 48.7603575776671], [2.040296782072202, 48.75849287058639], [2.029136279604397, 48.75662816350567], [2.0179757771365927, 48.75476345642495], [2.006815274668788, 48.75289874934424], [1.995654772200984, 48.75103404226351], [1.98449426973318, 48.7491693351828], [1.9733337672653746, 48.74730462810208], [1.96217326479757, 48.745439921021365], [1.951012762329766, 48.74357521394065], [1.9398522598619619, 48.74171050685993], [1.9398522598619619, 48.74171050685993], [1.9376670436603591, 48.73825316385003], [1.9354818274587573, 48.73479582084013], [1.933296611257156, 48.73133847783023], [1.931111395055555, 48.727881134820315], [1.9289261788539531, 48.724423791810416], [1.9267409626523526, 48.72096644880052], [1.9245557464507503, 48.71750910579061], [1.922370530249148, 48.714051762780706], [1.9201853140475467, 48.71059441977081], [1.9180000978459453, 48.70713707676091], [1.9180000978459453, 48.70713707676091], [1.9176109259887353, 48.704831740497674], [1.9172217541315244, 48.702526404234455], [1.916832582274314, 48.70022106797123], [1.9164434104171035, 48.697915731708], [1.9160542385598918, 48.69561039544478], [1.9156650667026809, 48.693305059181554], [1.9152758948454705, 48.69099972291833], [1.91488672298826, 48.68869438665511], [1.9144975511310496, 48.68638905039188], [1.9141083792738396, 48.68408371412866], [1.9141083792738396, 48.68408371412866], [1.909738108940485, 48.678851500933426], [1.90536783860713, 48.6736192877382], [1.9009975682737754, 48.66838707454297], [1.8966272979404208, 48.66315486134774], [1.8922570276070672, 48.657922648152514], [1.887886757273713, 48.65269043495727], [1.8835164869403576, 48.647458221762044], [1.8791462166070034, 48.642226008566816], [1.874775946273648, 48.63699379537158], [1.8704056759402943, 48.63176158217635], [1.8704056759402943, 48.63176158217635], [1.8709117944767315, 48.62821518084191], [1.8714179130131687, 48.62466877950747], [1.8719240315496046, 48.62112237817303], [1.8724301500860414, 48.61757597683859], [1.8729362686224795, 48.61402957550414], [1.8734423871589168, 48.6104831741697], [1.8739485056953535, 48.60693677283526], [1.8744546242317903, 48.60339037150082], [1.8749607427682276, 48.599843970166376], [1.8754668613046626, 48.596297568831936], [1.8754668613046626, 48.596297568831936], [1.8799537360780927, 48.59550072288431], [1.8844406108515215, 48.59470387693669], [1.8889274856249498, 48.59390703098907], [1.893414360398379, 48.59311018504145], [1.8979012351718079, 48.59231333909383], [1.9023881099452358, 48.59151649314621], [1.9068749847186641, 48.59071964719858], [1.9113618594920934, 48.58992280125097], [1.915848734265523, 48.589125955303345], [1.9203356090389518, 48.58832910935572], [1.9203356090389518, 48.58832910935572], [1.9236684845612655, 48.58841860458724], [1.9270013600835783, 48.58850809981876], [1.930334235605892, 48.588597595050274], [1.9336671111282056, 48.5886870902818], [1.9369999866505192, 48.588776585513315], [1.9403328621728333, 48.58886608074483], [1.9436657376951474, 48.58895557597635], [1.9469986132174606, 48.58904507120786], [1.9503314887397738, 48.58913456643938], [1.953664364262088, 48.5892240616709], [1.953664364262088, 48.5892240616709], [1.9555925898618844, 48.591618445491655], [1.9575208154616823, 48.594012829312405], [1.959449041061481, 48.596407213133155], [1.9613772666612799, 48.5988015969539], [1.9633054922610778, 48.601195980774655], [1.9652337178608743, 48.603590364595405], [1.9671619434606722, 48.605984748416155], [1.9690901690604705, 48.6083791322369], [1.9710183946602684, 48.61077351605765], [1.9729466202600663, 48.61316789987841], [1.9729466202600663, 48.61316789987841], [1.9762806961254218, 48.613080068480365], [1.979614771990779, 48.61299223708234], [1.982948847856136, 48.612904405684304], [1.9862829237214927, 48.61281657428628], [1.9896169995868482, 48.61272874288824], [1.9929510754522046, 48.6126409114902], [1.996285151317561, 48.61255308009217], [1.9996192271829183, 48.61246524869414], [2.0029533030482756, 48.612377417296116], [2.006287378913631, 48.612289585898075], [2.006287378913631, 48.612289585898075], [2.0084650701808235, 48.61104884633776], [2.010642761448015, 48.609808106777436], [2.0128204527152094, 48.60856736721712], [2.014998143982401, 48.6073266276568], [2.017175835249594, 48.60608588809648], [2.019353526516786, 48.604845148536164], [2.0215312177839775, 48.60360440897584], [2.0237089090511713, 48.602363669415524], [2.0258866003183638, 48.60112292985521], [2.028064291585556, 48.599882190294885], [2.028064291585556, 48.599882190294885], [2.042931645506755, 48.595452743836795], [2.057798999427955, 48.591023297378705], [2.0726663533491547, 48.58659385092061], [2.087533707270354, 48.582164404462524], [2.102401061191553, 48.577734958004434], [2.117268415112753, 48.57330551154634], [2.1321357690339533, 48.56887606508825], [2.147003122955152, 48.56444661863016], [2.1618704768763513, 48.56001717217207], [2.1767378307975513, 48.55558772571398], [2.1767378307975513, 48.55558772571398], [2.174039988808668, 48.55310448635984], [2.171342146819782, 48.55062124700571], [2.1686443048308974, 48.54813800765158], [2.1659464628420135, 48.545654768297446], [2.163248620853129, 48.54317152894332], [2.1605507788642444, 48.54068828958918], [2.15785293687536, 48.53820505023505], [2.155155094886475, 48.535721810880915], [2.1524572528975914, 48.53323857152679], [2.1497594109087057, 48.53075533217265], [2.1497594109087057, 48.53075533217265], [2.1501910435436264, 48.528636070790576], [2.1506226761785467, 48.5265168094085], [2.151054308813468, 48.52439754802643], [2.151485941448388, 48.52227828664435], [2.151917574083308, 48.520159025262274], [2.152349206718229, 48.518039763880196], [2.1527808393531487, 48.515920502498126], [2.1532124719880703, 48.51380124111605], [2.1536441046229897, 48.51168197973397], [2.15407573725791, 48.509562718351894], [2.15407573725791, 48.509562718351894], [2.1558886220518008, 48.509062168335596], [2.1577015068456924, 48.5085616183193], [2.1595143916395827, 48.508061068303], [2.161327276433474, 48.507560518286695], [2.1631401612273637, 48.5070599682704], [2.1649530460212554, 48.5065594182541], [2.1667659308151466, 48.5060588682378], [2.168578815609037, 48.505558318221496], [2.1703917004029276, 48.5050577682052], [2.1722045851968175, 48.50455721818889], [2.1722045851968175, 48.50455721818889], [2.1751023697713037, 48.50255180400858], [2.1780001543457894, 48.50054638982827], [2.180897938920275, 48.49854097564796], [2.1837957234947605, 48.49653556146765], [2.186693508069245, 48.49453014728734], [2.18959129264373, 48.492524733107025], [2.1924890772182164, 48.490519318926715], [2.1953868617927004, 48.488513904746405], [2.198284646367186, 48.486508490566095], [2.2011824309416714, 48.48450307638579], [2.2011824309416714, 48.48450307638579], [2.2059001164079537, 48.48563230504829], [2.210617801874236, 48.4867615337108], [2.2153354873405164, 48.487890762373304], [2.2200531728067987, 48.48901999103581], [2.224770858273081, 48.49014921969832], [2.229488543739363, 48.491278448360816], [2.2342062292056455, 48.49240767702332], [2.2389239146719255, 48.493536905685836], [2.243641600138208, 48.49466613434835], [2.24835928560449, 48.495795363010856], [2.24835928560449, 48.495795363010856], [2.261964154385566, 48.49767991578573], [2.275569023166642, 48.499564468560614], [2.2891738919477183, 48.50144902133549], [2.302778760728794, 48.50333357411037], [2.3163836295098683, 48.505218126885254], [2.3299884982909442, 48.507102679660136], [2.3435933670720206, 48.50898723243501], [2.3571982358530965, 48.5108717852099], [2.3708031046341707, 48.51275633798478], [2.3844079734152483, 48.51464089075966], [2.3844079734152483, 48.51464089075966], [2.3952880739509124, 48.514518620696066], [2.406168174486577, 48.51439635063248], [2.4170482750222413, 48.51427408056889], [2.427928375557905, 48.5141518105053], [2.4388084760935698, 48.514029540441705], [2.449688576629234, 48.51390727037812], [2.4605686771648982, 48.51378500031453], [2.4714487777005605, 48.513662730250935], [2.482328878236228, 48.51354046018735], [2.4932089787718907, 48.51341819012376], [2.4932089787718907, 48.51341819012376], [2.49448340119274, 48.51567461076684], [2.4957578236135936, 48.51793103140993], [2.497032246034441, 48.520187452053015], [2.498306668455291, 48.5224438726961], [2.4995810908761418, 48.52470029333919], [2.5008555132969934, 48.52695671398227], [2.502129935717845, 48.52921313462536], [2.503404358138693, 48.531469555268444], [2.504678780559542, 48.53372597591152], [2.5059532029803955, 48.53598239655461], [2.5059532029803955, 48.53598239655461], [2.5084990183400704, 48.53974534139897], [2.511044833699749, 48.54350828624333], [2.5135906490594238, 48.54727123108769], [2.5161364644191004, 48.55103417593204], [2.518682279778777, 48.5547971207764], [2.521228095138454, 48.55856006562075], [2.5237739104981283, 48.56232301046511], [2.5263197258578067, 48.56608595530946], [2.5288655412174834, 48.56984890015382], [2.5314113565771605, 48.573611844998176], [2.5314113565771605, 48.573611844998176], [2.5453809415326885, 48.576373502870396], [2.5593505264882204, 48.579135160742624], [2.5733201114437523, 48.58189681861484], [2.58728969639928, 48.58465847648706], [2.6012592813548117, 48.58742013435928], [2.6152288663103436, 48.5901817922315], [2.6291984512658737, 48.59294345010371], [2.6431680362214034, 48.59570510797593], [2.657137621176933, 48.598466765848165], [2.671107206132465, 48.60122842372038], [2.671107206132465, 48.60122842372038], [2.6752771568259104, 48.60035137832373], [2.679447107519356, 48.59947433292707], [2.6836170582128043, 48.598597287530424], [2.687787008906248, 48.597720242133775], [2.6919569595996955, 48.596843196737126], [2.6961269102931413, 48.59596615134048], [2.700296860986589, 48.59508910594382], [2.7044668116800348, 48.59421206054718], [2.708636762373479, 48.59333501515052], [2.7128067130669264, 48.59245796975388], [2.7128067130669264, 48.59245796975388], [2.7146208872138597, 48.59258447437728], [2.716435061360792, 48.592710979000685], [2.718249235507726, 48.592837483624095], [2.7200634096546596, 48.592963988247504], [2.7218775838015934, 48.59309049287091], [2.723691757948527, 48.593216997494316], [2.725505932095459, 48.59334350211772], [2.727320106242391, 48.593470006741136], [2.729134280389325, 48.593596511364545], [2.7309484545362586, 48.59372301598794], [2.7309484545362586, 48.59372301598794], [2.735672189130486, 48.59798642935117], [2.7403959237247153, 48.602249842714386], [2.7451196583189437, 48.60651325607761], [2.749843392913171, 48.61077666944083], [2.7545671275074004, 48.61504008280406], [2.7592908621016283, 48.61930349616728], [2.764014596695856, 48.6235669095305], [2.7687383312900837, 48.62783032289372], [2.773462065884311, 48.63209373625695], [2.7781858004785405, 48.63635714962017], [2.7781858004785405, 48.63635714962017], [2.7752931772010307, 48.640995756770565], [2.772400553923522, 48.645634363920955], [2.769507930646012, 48.650272971071345], [2.7666153073685034, 48.654911578221736], [2.7637226840909936, 48.65955018537213], [2.760830060813484, 48.66418879252252], [2.7579374375359746, 48.66882739967292], [2.755044814258465, 48.67346600682331], [2.7521521909809556, 48.67810461397371], [2.7492595677034464, 48.682743221124106], [2.7492595677034464, 48.682743221124106], [2.7517964289295325, 48.681866834687746], [2.7543332901556217, 48.680990448251386], [2.7568701513817078, 48.680114061815026], [2.7594070126077956, 48.679237675378666], [2.7619438738338835, 48.67836128894231], [2.7644807350599714, 48.67748490250595], [2.7670175962860575, 48.67660851606959], [2.7695544575121454, 48.675732129633225], [2.7720913187382332, 48.67485574319687], [2.774628179964323, 48.67397935676051], [2.774628179964323, 48.67397935676051], [2.778611916339925, 48.67109612752733], [2.78259565271553, 48.66821289829414], [2.7865793890911363, 48.66532966906096], [2.7905631254667393, 48.662446439827775], [2.7945468618423455, 48.65956321059459], [2.798530598217948, 48.65667998136141], [2.802514334593553, 48.653796752128216], [2.8064980709691576, 48.65091352289503], [2.810481807344762, 48.648030293661854], [2.814465543720367, 48.64514706442867], [2.814465543720367, 48.64514706442867], [2.81773925697378, 48.649787210476916], [2.8210129702271916, 48.65442735652517], [2.824286683480605, 48.659067502573414], [2.8275603967340186, 48.66370764862167], [2.8308341099874323, 48.66834779466991], [2.834107823240845, 48.67298794071817], [2.837381536494257, 48.67762808676642], [2.8406552497476705, 48.68226823281467], [2.843928963001082, 48.68690837886292], [2.847202676254495, 48.69154852491117]]]}}, {"type": "Feature", "properties": {"diocese": "Paris", "province": "XII_Paris", "source": "80_Paris.txt"}, "geometry": {"type": "Polygon", "coordinates": [[[2.841556022912703, 48.58622409736611], [2.837927621267791, 48.58553357375254], [2.8342992196228773, 48.584843050138964], [2.83067081797796, 48.584152526525386], [2.8270424163330463, 48.58346200291181], [2.82341401468813, 48.58277147929823], [2.819785613043216, 48.58208095568465], [2.8161572113983024, 48.581390432071075], [2.812528809753385, 48.5806999084575], [2.8089004081084714, 48.58000938484392], [2.8052720064635555, 48.57931886123035], [2.8052720064635555, 48.57931886123035], [2.804182554272258, 48.578628971248065], [2.8030931020809584, 48.577939081265804], [2.802003649889663, 48.57724919128353], [2.8009141976983636, 48.57655930130126], [2.7998247455070664, 48.57586941131898], [2.7987352933157683, 48.57517952133672], [2.7976458411244693, 48.574489631354446], [2.7965563889331713, 48.57379974137218], [2.7954669367418705, 48.5731098513899], [2.794377484550573, 48.57241996140764], [2.794377484550573, 48.57241996140764], [2.7951899256818673, 48.57053938953331], [2.7960023668131577, 48.56865881765899], [2.79681480794445, 48.56677824578466], [2.797627249075744, 48.56489767391034], [2.798439690207038, 48.563017102036014], [2.7992521313383283, 48.56113653016169], [2.8000645724696205, 48.559255958287366], [2.8008770136009127, 48.55737538641304], [2.801689454732207, 48.55549481453871], [2.802501895863497, 48.553614242664395], [2.802501895863497, 48.553614242664395], [2.8065793055794774, 48.55204794987144], [2.8106567152954574, 48.55048165707848], [2.814734125011436, 48.54891536428553], [2.818811534727414, 48.54734907149257], [2.8228889444433958, 48.54578277869961], [2.826966354159374, 48.54421648590666], [2.8310437638753543, 48.5426501931137], [2.835121173591334, 48.54108390032074], [2.839198583307311, 48.53951760752779], [2.8432759930232927, 48.53795131473483], [2.8432759930232927, 48.53795131473483], [2.8460829995616668, 48.53588316098216], [2.8488900061000395, 48.53381500722948], [2.8516970126384176, 48.53174685347679], [2.8545040191767916, 48.52967869972411], [2.8573110257151666, 48.52761054597143], [2.8601180322535424, 48.52554239221875], [2.8629250387919165, 48.523474238466065], [2.865732045330291, 48.52140608471339], [2.8685390518686655, 48.51933793096071], [2.8713460584070414, 48.517269777208035], [2.8713460584070414, 48.517269777208035], [2.871160267440677, 48.51495010733824], [2.8709744764743106, 48.51263043746843], [2.870788685507946, 48.51031076759864], [2.870602894541581, 48.50799109772884], [2.870417103575218, 48.505671427859035], [2.870231312608852, 48.503351757989236], [2.870045521642489, 48.50103208811944], [2.8698597306761244, 48.49871241824964], [2.86967393970976, 48.49639274837984], [2.8694881487433954, 48.49407307851004], [2.8694881487433954, 48.49407307851004], [2.872026735204576, 48.4938856378693], [2.874565321665759, 48.49369819722855], [2.8771039081269394, 48.493510756587796], [2.8796424945881225, 48.49332331594705], [2.882181081049303, 48.4931358753063], [2.8847196675104856, 48.49294843466556], [2.8872582539716682, 48.492760994024806], [2.889796840432849, 48.49257355338406], [2.8923354268940296, 48.49238611274331], [2.894874013355212, 48.49219867210256], [2.894874013355212, 48.49219867210256], [2.8969622607378827, 48.49357842397301], [2.899050508120553, 48.49495817584346], [2.901138755503223, 48.4963379277139], [2.9032270028858913, 48.49771767958435], [2.9053152502685617, 48.49909743145479], [2.907403497651232, 48.500477183325245], [2.909491745033901, 48.50185693519568], [2.911579992416575, 48.503236687066135], [2.913668239799243, 48.50461643893658], [2.9157564871819135, 48.505996190807025], [2.9157564871819135, 48.505996190807025], [2.9168502953563187, 48.50894301033934], [2.917944103530726, 48.511889829871656], [2.919037911705131, 48.51483664940397], [2.92013171987954, 48.517783468936294], [2.9212255280539448, 48.5207302884686], [2.922319336228352, 48.523677108000925], [2.9234131444027596, 48.52662392753324], [2.9245069525771643, 48.52957074706555], [2.9256007607515717, 48.53251756659787], [2.9266945689259765, 48.53546438613019], [2.9266945689259765, 48.53546438613019], [2.9237916233078636, 48.53483673860463], [2.9208886776897476, 48.53420909107908], [2.9179857320716343, 48.53358144355351], [2.915082786453518, 48.532953796027954], [2.9121798408354027, 48.5323261485024], [2.9092768952172867, 48.53169850097684], [2.9063739495991716, 48.53107085345128], [2.9034710039810583, 48.53044320592573], [2.900568058362942, 48.52981555840017], [2.897665112744827, 48.52918791087461], [2.897665112744827, 48.52918791087461], [2.894767691215556, 48.53138142667368], [2.891870269686287, 48.53357494247277], [2.888972848157016, 48.53576845827183], [2.886075426627745, 48.53796197407091], [2.883178005098476, 48.54015548986999], [2.880280583569207, 48.54234900566907], [2.877383162039936, 48.54454252146814], [2.874485740510667, 48.54673603726722], [2.8715883189813964, 48.548929553066294], [2.8686908974521255, 48.55112306886537], [2.8686908974521255, 48.55112306886537], [2.8674266652620255, 48.553818530693334], [2.8661624330719278, 48.55651399252129], [2.8648982008818282, 48.55920945434925], [2.863633968691729, 48.56190491617721], [2.8623697365016327, 48.56460037800517], [2.8611055043115328, 48.56729583983313], [2.8598412721214332, 48.56999130166109], [2.858577039931334, 48.57268676348905], [2.8573128077412364, 48.57538222531701], [2.8560485755511364, 48.57807768714497], [2.8560485755511364, 48.57807768714497], [2.854599320287293, 48.578892328167086], [2.8531500650234514, 48.579706969189196], [2.851700809759608, 48.58052161021131], [2.8502515544957627, 48.58133625123343], [2.848802299231919, 48.58215089225554], [2.847353043968077, 48.58296553327766], [2.8459037887042355, 48.583780174299775], [2.844454533440392, 48.584594815321886], [2.843005278176547, 48.585409456344], [2.841556022912703, 48.58622409736611]]]}}, {"type": "Feature", "properties": {"diocese": "Paris", "province": "XII_Paris", "source": "80_Paris.txt"}, "geometry": {"type": "Polygon", "coordinates": [[[3.0020811122249147, 48.60005646589114], [3.0005385798751134, 48.599554542487006], [2.998996047525312, 48.59905261908288], [2.9974535151755126, 48.598550695678746], [2.995910982825713, 48.59804877227462], [2.99436845047591, 48.5975468488705], [2.9928259181261088, 48.59704492546636], [2.9912833857763093, 48.59654300206224], [2.989740853426508, 48.596041078658104], [2.9881983210767067, 48.595539155253974], [2.986655788726907, 48.59503723184985], [2.986655788726907, 48.59503723184985], [2.9842094322504615, 48.59603969821249], [2.981763075774015, 48.59704216457515], [2.9793167192975716, 48.5980446309378], [2.9768703628211273, 48.59904709730044], [2.974424006344679, 48.60004956366309], [2.971977649868235, 48.601052030025734], [2.969531293391791, 48.60205449638839], [2.9670849369153434, 48.60305696275103], [2.964638580438901, 48.60405942911369], [2.962192223962455, 48.60506189547634], [2.962192223962455, 48.60506189547634], [2.9623704710683403, 48.60343194002063], [2.9625487181742236, 48.60180198456493], [2.962726965280109, 48.60017202910923], [2.9629052123859925, 48.59854207365353], [2.963083459491878, 48.59691211819783], [2.963261706597763, 48.595282162742116], [2.9634399537036504, 48.593652207286425], [2.963618200809536, 48.59202225183072], [2.9637964479154197, 48.59039229637502], [2.9639746950213053, 48.58876234091932], [2.9639746950213053, 48.58876234091932], [2.9668717535475837, 48.58638074537884], [2.9697688120738626, 48.58399914983837], [2.972665870600143, 48.5816175542979], [2.9755629291264225, 48.57923595875742], [2.9784599876526996, 48.57685436321696], [2.98135704617898, 48.57447276767649], [2.9842541047052604, 48.57209117213601], [2.987151163231539, 48.56970957659554], [2.9900482217578195, 48.567327981055065], [2.992945280284099, 48.56494638551459], [2.992945280284099, 48.56494638551459], [2.9941259944662337, 48.56594976253416], [2.995306708648367, 48.56695313955373], [2.996487422830502, 48.567956516573304], [2.997668137012635, 48.568959893592876], [2.99884885119477, 48.56996327061245], [3.0000295653769045, 48.57096664763202], [3.001210279559038, 48.57197002465159], [3.0023909937411744, 48.572973401671156], [3.003571707923308, 48.57397677869073], [3.0047524221054442, 48.57498015571031], [3.0047524221054442, 48.57498015571031], [3.004485291117391, 48.57748778672839], [3.004218160129339, 48.57999541774647], [3.003951029141285, 48.58250304876455], [3.0036838981532314, 48.58501067978264], [3.0034167671651777, 48.587518310800725], [3.003149636177126, 48.5900259418188], [3.0028825051890724, 48.59253357283689], [3.0026153742010186, 48.595041203854976], [3.002348243212968, 48.59754883487305], [3.0020811122249147, 48.60005646589114]]]}}]}