{"type": "FeatureCollection", "features": [{"type": "Feature", "properties": {"diocese": "Orl\u00e9ans", "province": "XII_Paris", "source": "84_Orl\u00e9ans.txt"}, "geometry": {"type": "Polygon", "coordinates": [[[1.975792411459063, 48.22238856042383], [1.9703046421122887, 48.22254315456073], [1.964816872765514, 48.22269774869763], [1.9593291034187401, 48.222852342834514], [1.9538413340719658, 48.22300693697141], [1.948353564725192, 48.2231615311083], [1.9428657953784163, 48.223316125245205], [1.937378026031642, 48.22347071938211], [1.931890256684869, 48.223625313518994], [1.9264024873380952, 48.22377990765589], [1.920914717991319, 48.22393450179278], [1.920914717991319, 48.22393450179278], [1.919627012278966, 48.22118562396475], [1.9183393065666121, 48.21843674613671], [1.9170516008542582, 48.21568786830866], [1.9157638951419056, 48.21293899048062], [1.9144761894295508, 48.21019011265259], [1.9131884837171969, 48.20744123482455], [1.9119007780048438, 48.20469235699651], [1.9106130722924903, 48.20194347916847], [1.9093253665801364, 48.19919460134044], [1.9080376608677825, 48.1964457235124], [1.9080376608677825, 48.1964457235124], [1.903036282471735, 48.196444475346574], [1.8980349040756868, 48.19644322718075], [1.893033525679638, 48.196441979014935], [1.888032147283591, 48.19644073084911], [1.8830307688875432, 48.19643948268329], [1.8780293904914953, 48.19643823451747], [1.8730280120954461, 48.19643698635166], [1.8680266336993987, 48.19643573818583], [1.8630252553033517, 48.19643449002002], [1.8580238769073034, 48.196433241854194], [1.8580238769073034, 48.196433241854194], [1.8530278033606193, 48.19918055147485], [1.848031729813937, 48.20192786109552], [1.8430356562672547, 48.20467517071618], [1.8380395827205698, 48.207422480336845], [1.8330435091738866, 48.21016978995751], [1.8280474356272043, 48.21291709957817], [1.823051362080521, 48.21566440919883], [1.818055288533837, 48.218411718819496], [1.8130592149871538, 48.221159028440155], [1.8080631414404706, 48.22390633806082], [1.8080631414404706, 48.22390633806082], [1.8042130218288084, 48.22239810378004], [1.8003629022171448, 48.22088986949927], [1.796512782605483, 48.21938163521849], [1.7926626629938198, 48.217873400937705], [1.7888125433821584, 48.21636516665693], [1.7849624237704957, 48.21485693237615], [1.7811123041588326, 48.213348698095366], [1.7772621845471712, 48.21184046381458], [1.7734120649355076, 48.210332229533805], [1.769561945323845, 48.20882399525303], [1.769561945323845, 48.20882399525303], [1.7642866384120035, 48.19977903815566], [1.759011331500163, 48.19073408105828], [1.7537360245883225, 48.181689123960915], [1.748460717676481, 48.172644166863535], [1.7431854107646405, 48.16359920976617], [1.737910103852799, 48.154554252668795], [1.7326347969409586, 48.14550929557143], [1.7273594900291172, 48.136464338474056], [1.7220841831172753, 48.127419381376676], [1.7168088762054352, 48.11837442427931], [1.7168088762054352, 48.11837442427931], [1.716799977744691, 48.11376393830963], [1.7167910792839467, 48.10915345233996], [1.7167821808232016, 48.10454296637028], [1.7167732823624573, 48.09993248040061], [1.716764383901713, 48.09532199443093], [1.716755485440968, 48.09071150846127], [1.7167465869802236, 48.0861010224916], [1.7167376885194794, 48.08149053652192], [1.7167287900587342, 48.07688005055225], [1.71671989159799, 48.07226956458257], [1.71671989159799, 48.07226956458257], [1.7146649652445065, 48.07067312032284], [1.712610038891023, 48.069076676063105], [1.71055511253754, 48.06748023180337], [1.7085001861840574, 48.06588378754364], [1.7064452598305744, 48.064287343283915], [1.704390333477091, 48.062690899024176], [1.7023354071236083, 48.061094454764444], [1.700280480770124, 48.05949801050471], [1.6982255544166418, 48.05790156624498], [1.6961706280631583, 48.05630512198525], [1.6961706280631583, 48.05630512198525], [1.6987296194759414, 48.05329121376206], [1.7012886108887249, 48.05027730553888], [1.7038476023015083, 48.04726339731569], [1.7064065937142905, 48.0442494890925], [1.708965585127074, 48.04123558086931], [1.711524576539857, 48.03822167264613], [1.7140835679526396, 48.03520776442294], [1.716642559365423, 48.032193856199754], [1.719201550778207, 48.02917994797657], [1.7217605421909896, 48.026166039753384], [1.7217605421909896, 48.026166039753384], [1.7207305081860702, 48.02403786501358], [1.7197004741811521, 48.021909690273766], [1.7186704401762332, 48.019781515533964], [1.7176404061713133, 48.01765334079416], [1.7166103721663943, 48.01552516605435], [1.7155803381614754, 48.01339699131455], [1.7145503041565564, 48.01126881657475], [1.7135202701516383, 48.00914064183494], [1.712490236146719, 48.00701246709513], [1.7114602021418, 48.00488429235533], [1.7114602021418, 48.00488429235533], [1.7076123071426852, 48.004528678199634], [1.703764412143569, 48.00417306404394], [1.699916517144454, 48.00381744988824], [1.6960686221453378, 48.003461835732544], [1.6922207271462226, 48.00310622157685], [1.6883728321471074, 48.002750607421156], [1.6845249371479922, 48.002394993265455], [1.680677042148877, 48.00203937910976], [1.676829147149761, 48.001683764954066], [1.6729812521506457, 48.001328150798365], [1.6729812521506457, 48.001328150798365], [1.6704109686087114, 47.99849136141061], [1.6678406850667766, 47.995654572022865], [1.6652704015248427, 47.99281778263511], [1.6627001179829084, 47.98998099324736], [1.6601298344409745, 47.9871442038596], [1.6575595508990402, 47.98430741447186], [1.6549892673571063, 47.98147062508411], [1.652418983815172, 47.97863383569635], [1.6498487002732372, 47.97579704630861], [1.6472784167313033, 47.97296025692084], [1.6472784167313033, 47.97296025692084], [1.6431743822271523, 47.97278190577098], [1.6390703477230004, 47.9726035546211], [1.634966313218849, 47.972425203471225], [1.6308622787146976, 47.97224685232135], [1.6267582442105457, 47.97206850117147], [1.6226542097063947, 47.9718901500216], [1.6185501752022433, 47.971711798871716], [1.614446140698091, 47.971533447721846], [1.61034210619394, 47.97135509657197], [1.606238071689789, 47.97117674542209], [1.606238071689789, 47.97117674542209], [1.6021285612114196, 47.96816117297847], [1.5980190507330483, 47.96514560053485], [1.5939095402546783, 47.962130028091224], [1.5898000297763075, 47.9591144556476], [1.585690519297938, 47.956098883203985], [1.5815810088195676, 47.953083310760356], [1.5774714983411973, 47.95006773831674], [1.5733619878628278, 47.94705216587312], [1.5692524773844565, 47.94403659342949], [1.5651429669060866, 47.94102102098587], [1.5651429669060866, 47.94102102098587], [1.5597356543911967, 47.93002544566304], [1.5543283418763054, 47.9190298703402], [1.5489210293614133, 47.90803429501736], [1.543513716846523, 47.89703871969453], [1.5381064043316326, 47.88604314437169], [1.5326990918167414, 47.875047569048846], [1.5272917793018492, 47.864051993726015], [1.5218844667869584, 47.853056418403185], [1.516477154272068, 47.84206084308034], [1.5110698417571773, 47.8310652677575], [1.5110698417571773, 47.8310652677575], [1.5043879921801842, 47.82414787731723], [1.4977061426031928, 47.81723048687696], [1.4910242930262014, 47.81031309643667], [1.4843424434492092, 47.80339570599641], [1.4776605938722174, 47.79647831555613], [1.4709787442952247, 47.789560925115865], [1.4642968947182324, 47.782643534675586], [1.4576150451412406, 47.775726144235314], [1.4509331955642497, 47.768808753795035], [1.4442513459872575, 47.76189136335476], [1.4442513459872575, 47.76189136335476], [1.456019343441333, 47.74629065714952], [1.4677873408954096, 47.730689950944296], [1.4795553383494862, 47.715089244739055], [1.4913233358035627, 47.69948853853383], [1.5030913332576397, 47.6838878323286], [1.5148593307117157, 47.66828712612337], [1.5266273281657923, 47.65268641991814], [1.5383953256198688, 47.63708571371291], [1.5501633230739458, 47.62148500750767], [1.5619313205280219, 47.60588430130244], [1.5619313205280219, 47.60588430130244], [1.5624254603774523, 47.59613148180627], [1.5629196002268828, 47.586378662310096], [1.5634137400763142, 47.57662584281392], [1.5639078799257442, 47.56687302331775], [1.5644020197751765, 47.557120203821576], [1.5648961596246074, 47.547367384325405], [1.5653902994740374, 47.53761456482922], [1.5658844393234683, 47.52786174533305], [1.5663785791728997, 47.51810892583688], [1.566872719022331, 47.508356106340706], [1.566872719022331, 47.508356106340706], [1.5591687150627718, 47.50338904608869], [1.5514647111032125, 47.49842198583668], [1.543760707143654, 47.493454925584665], [1.5360567031840948, 47.48848786533266], [1.5283526992245355, 47.483520805080644], [1.5206486952649767, 47.47855374482863], [1.5129446913054165, 47.47358668457661], [1.5052406873458586, 47.4686196243246], [1.4975366833862993, 47.463652564072596], [1.4898326794267405, 47.458685503820575], [1.4898326794267405, 47.458685503820575], [1.4859745169786036, 47.45301010110644], [1.4821163545304668, 47.44733469839231], [1.4782581920823308, 47.44165929567817], [1.4744000296341935, 47.43598389296403], [1.470541867186058, 47.4303084902499], [1.466683704737921, 47.42463308753576], [1.4628255422897842, 47.418957684821635], [1.4589673798416491, 47.413282282107495], [1.4551092173935114, 47.40760687939336], [1.4512510549453745, 47.40193147667922], [1.4512510549453745, 47.40193147667922], [1.4415011966869957, 47.39926915046402], [1.4317513384286165, 47.39660682424881], [1.4220014801702376, 47.39394449803362], [1.412251621911858, 47.39128217181841], [1.4025017636534787, 47.3886198456032], [1.3927519053950999, 47.38595751938801], [1.3830020471367201, 47.3832951931728], [1.37325218887834, 47.3806328669576], [1.3635023306199612, 47.377970540742396], [1.3537524723615824, 47.375308214527195], [1.3537524723615824, 47.375308214527195], [1.3457935267709655, 47.37113906183184], [1.3378345811803496, 47.3669699091365], [1.3298756355897337, 47.362800756441146], [1.321916689999116, 47.3586316037458], [1.3139577444085004, 47.35446245105046], [1.3059987988178845, 47.350293298355105], [1.2980398532272677, 47.346124145659765], [1.2900809076366522, 47.34195499296442], [1.2821219620460362, 47.33778584026907], [1.2741630164554203, 47.333616687573716], [1.2741630164554203, 47.333616687573716], [1.2749249243470082, 47.32971570168629], [1.275686832238597, 47.32581471579888], [1.2764487401301854, 47.32191372991145], [1.2772106480217746, 47.31801274402403], [1.277972555913363, 47.31411175813661], [1.2787344638049518, 47.310210772249185], [1.2794963716965406, 47.30630978636177], [1.280258279588129, 47.302408800474346], [1.2810201874797182, 47.29850781458691], [1.2817820953713066, 47.2946068286995], [1.2817820953713066, 47.2946068286995], [1.284346733883163, 47.29451880527733], [1.2869113723950192, 47.29443078185515], [1.2894760109068746, 47.29434275843297], [1.2920406494187295, 47.294254735010796], [1.2946052879305867, 47.294166711588616], [1.297169926442443, 47.294078688166444], [1.299734564954298, 47.293990664744264], [1.3022992034661542, 47.293902641322084], [1.3048638419780105, 47.293814617899905], [1.307428480489866, 47.293726594477725], [1.307428480489866, 47.293726594477725], [1.3107567381312957, 47.29062421477143], [1.3140849957727263, 47.28752183506512], [1.3174132534141552, 47.28441945535881], [1.3207415110555836, 47.2813170756525], [1.3240697686970146, 47.2782146959462], [1.327398026338444, 47.27511231623989], [1.3307262839798732, 47.272009936533586], [1.3340545416213017, 47.26890755682728], [1.3373827992627327, 47.265805177120974], [1.3407110569041611, 47.26270279741467], [1.3407110569041611, 47.26270279741467], [1.3449397407432993, 47.26102032437678], [1.3491684245824387, 47.259337851338906], [1.353397108421576, 47.25765537830102], [1.3576257922607158, 47.25597290526314], [1.361854476099852, 47.25429043222526], [1.3660831599389907, 47.25260795918738], [1.3703118437781296, 47.250925486149505], [1.3745405276172677, 47.24924301311162], [1.3787692114564059, 47.24756054007375], [1.382997895295544, 47.24587806703586], [1.382997895295544, 47.24587806703586], [1.3916715483682833, 47.24490172852744], [1.4003452014410214, 47.24392539001901], [1.4090188545137607, 47.24294905151058], [1.4176925075864992, 47.24197271300216], [1.4263661606592377, 47.24099637449373], [1.4350398137319766, 47.2400200359853], [1.443713466804716, 47.23904369747687], [1.4523871198774545, 47.23806735896846], [1.4610607729501939, 47.23709102046003], [1.4697344260229328, 47.236114681951605], [1.4697344260229328, 47.236114681951605], [1.4755390214205426, 47.2368051415689], [1.4813436168181524, 47.23749560118618], [1.4871482122157627, 47.23818606080347], [1.4929528076133716, 47.23887652042077], [1.4987574030109818, 47.239566980038056], [1.5045619984085925, 47.240257439655345], [1.5103665938062019, 47.24094789927264], [1.5161711892038112, 47.24163835888993], [1.521975784601422, 47.242328818507204], [1.5277803799990317, 47.2430192781245], [1.5277803799990317, 47.2430192781245], [1.5323202565625427, 47.2464686601959], [1.5368601331260563, 47.24991804226729], [1.5414000096895677, 47.25336742433869], [1.5459398862530782, 47.256816806410086], [1.55047976281659, 47.260266188481474], [1.5550196393801028, 47.263715570552876], [1.5595595159436138, 47.26716495262428], [1.5640993925071252, 47.270614334695665], [1.5686392690706383, 47.27406371676706], [1.5731791456341488, 47.27751309883846], [1.5731791456341488, 47.27751309883846], [1.5806126619574044, 47.2768259429821], [1.5880461782806585, 47.27613878712575], [1.5954796946039136, 47.27545163126939], [1.6029132109271695, 47.274764475413036], [1.6103467272504237, 47.27407731955669], [1.6177802435736792, 47.273390163700334], [1.6252137598969347, 47.27270300784398], [1.632647276220189, 47.272015851987625], [1.6400807925434444, 47.27132869613127], [1.647514308866699, 47.270641540274916], [1.647514308866699, 47.270641540274916], [1.6519622717560263, 47.27289875292061], [1.6564102346453544, 47.275155965566306], [1.6608581975346826, 47.277413178212], [1.6653061604240111, 47.279670390857696], [1.6697541233133397, 47.28192760350339], [1.674202086202667, 47.284184816149086], [1.6786500490919942, 47.28644202879478], [1.6830980119813224, 47.288699241440476], [1.68754597487065, 47.29095645408617], [1.6919939377599786, 47.293213666731866], [1.6919939377599786, 47.293213666731866], [1.6969809266438651, 47.29296494607799], [1.7019679155277543, 47.292716225424115], [1.7069549044116412, 47.29246750477024], [1.7119418932955308, 47.29221878411636], [1.7169288821794177, 47.29197006346248], [1.7219158710633047, 47.29172134280859], [1.7269028599471934, 47.29147262215472], [1.7318898488310803, 47.29122390150084], [1.73687683771497, 47.29097518084697], [1.7418638265988569, 47.29072646019309], [1.7418638265988569, 47.29072646019309], [1.7456730130875648, 47.29104040472864], [1.749482199576272, 47.29135434926421], [1.753291386064979, 47.29166829379976], [1.757100572553687, 47.29198223833532], [1.7609097590423937, 47.29229618287088], [1.764718945531102, 47.292610127406434], [1.7685281320198087, 47.29292407194199], [1.7723373185085163, 47.293238016477545], [1.7761465049972247, 47.29355196101311], [1.7799556914859322, 47.29386590554866], [1.7799556914859322, 47.29386590554866], [1.7831371212123543, 47.297941997448724], [1.786318550938777, 47.30201808934879], [1.7894999806651994, 47.30609418124885], [1.7926814103916202, 47.31017027314892], [1.7958628401180428, 47.31424636504898], [1.7990442698444653, 47.31832245694905], [1.802225699570887, 47.32239854884912], [1.8054071292973095, 47.32647464074918], [1.808588559023732, 47.33055073264925], [1.8117699887501533, 47.33462682454931], [1.8117699887501533, 47.33462682454931], [1.8083303010456508, 47.33763516943728], [1.8048906133411493, 47.340643514325244], [1.801450925636646, 47.343651859213224], [1.7980112379321436, 47.346660204101184], [1.7945715502276416, 47.34966854898916], [1.7911318625231387, 47.352676893877124], [1.7876921748186363, 47.35568523876509], [1.784252487114133, 47.358693583653064], [1.7808127994096314, 47.36170192854103], [1.7773731117051277, 47.364710273429004], [1.7773731117051277, 47.364710273429004], [1.778557808549778, 47.367719772398566], [1.7797425053944242, 47.37072927136813], [1.7809272022390736, 47.37373877033768], [1.7821118990837221, 47.37674826930724], [1.783296595928371, 47.3797577682768], [1.78448129277302, 47.38276726724636], [1.7856659896176676, 47.38577676621591], [1.786850686462317, 47.38878626518547], [1.788035383306965, 47.39179576415504], [1.789220080151614, 47.394805263124596], [1.789220080151614, 47.394805263124596], [1.7916707286735285, 47.39649795166364], [1.7941213771954403, 47.39819064020267], [1.7965720257173534, 47.399883328741716], [1.7990226742392657, 47.40157601728075], [1.8014733227611788, 47.4032687058198], [1.803923971283092, 47.40496139435883], [1.8063746198050041, 47.406654082897866], [1.808825268326919, 47.40834677143691], [1.8112759168488308, 47.41003945997594], [1.813726565370744, 47.41173214851498], [1.813726565370744, 47.41173214851498], [1.8141005422509626, 47.41737463683974], [1.8144745191311813, 47.42301712516449], [1.8148484960114, 47.42865961348925], [1.8152224728916182, 47.434302101814005], [1.8155964497718373, 47.43994459013875], [1.8159704266520564, 47.44558707846351], [1.8163444035322747, 47.451229566788264], [1.816718380412493, 47.45687205511302], [1.817092357292713, 47.46251454343777], [1.8174663341729311, 47.46815703176252], [1.8174663341729311, 47.46815703176252], [1.8213688631908687, 47.46960011741061], [1.8252713922088053, 47.47104320305869], [1.8291739212267415, 47.472486288706776], [1.8330764502446795, 47.47392937435486], [1.8369789792626157, 47.475372460002944], [1.8408815082805527, 47.47681554565102], [1.8447840372984907, 47.478258631299106], [1.848686566316427, 47.47970171694719], [1.8525890953343631, 47.481144802595274], [1.8564916243523015, 47.482587888243366], [1.8564916243523015, 47.482587888243366], [1.859663374224167, 47.48164863705216], [1.8628351240960344, 47.480709385860955], [1.8660068739678999, 47.47977013466975], [1.8691786238397667, 47.47883088347855], [1.8723503737116318, 47.477891632287346], [1.8755221235834987, 47.47695238109614], [1.8786938734553664, 47.47601312990494], [1.8818656233272315, 47.47507387871374], [1.8850373731990988, 47.47413462752254], [1.8882091230709643, 47.47319537633133], [1.8882091230709643, 47.47319537633133], [1.8909211778418071, 47.46943481565456], [1.89363323261265, 47.465674254977785], [1.8963452873834914, 47.461913694301], [1.8990573421543337, 47.458153133624236], [1.9017693969251765, 47.45439257294746], [1.9044814516960193, 47.45063201227069], [1.9071935064668617, 47.44687145159391], [1.909905561237704, 47.44311089091713], [1.912617616008546, 47.439350330240366], [1.9153296707793883, 47.435589769563585], [1.9153296707793883, 47.435589769563585], [1.9201323724671489, 47.43352180211294], [1.924935074154909, 47.43145383466229], [1.9297377758426686, 47.42938586721165], [1.9345404775304296, 47.42731789976099], [1.93934317921819, 47.42524993231035], [1.9441458809059484, 47.42318196485971], [1.9489485825937094, 47.42111399740906], [1.9537512842814686, 47.41904602995841], [1.95855398596923, 47.41697806250776], [1.9633566876569906, 47.41491009505712], [1.9633566876569906, 47.41491009505712], [1.969071330013544, 47.416227581073926], [1.9747859723700967, 47.41754506709073], [1.9805006147266506, 47.41886255310754], [1.9862152570832055, 47.42018003912435], [1.9919298994397585, 47.42149752514115], [1.997644541796312, 47.42281501115795], [2.0033591841528655, 47.42413249717477], [2.0090738265094186, 47.42544998319158], [2.0147884688659725, 47.426767469208386], [2.0205031112225265, 47.428084955225195], [2.0205031112225265, 47.428084955225195], [2.0251285864379565, 47.428651207217705], [2.0297540616533865, 47.42921745921022], [2.034379536868818, 47.42978371120273], [2.0390050120842473, 47.43034996319523], [2.043630487299678, 47.43091621518776], [2.0482559625151073, 47.43148246718027], [2.052881437730537, 47.43204871917278], [2.0575069129459678, 47.43261497116529], [2.0621323881613987, 47.4331812231578], [2.0667578633768287, 47.43374747515032], [2.0667578633768287, 47.43374747515032], [2.0740167881905323, 47.436256421061756], [2.0812757130042354, 47.43876536697319], [2.0885346378179386, 47.44127431288463], [2.0957935626316413, 47.44378325879606], [2.103052487445346, 47.4462922047075], [2.110311412259049, 47.448801150618934], [2.117570337072752, 47.451310096530364], [2.1248292618864553, 47.4538190424418], [2.1320881867001584, 47.45632798835324], [2.1393471115138616, 47.45883693426467], [2.1393471115138616, 47.45883693426467], [2.141800877798448, 47.46134575297033], [2.1442546440830337, 47.463854571676], [2.1467084103676193, 47.46636339038166], [2.1491621766522058, 47.46887220908733], [2.151615942936791, 47.471381027792994], [2.154069709221376, 47.47388984649866], [2.156523475505962, 47.47639866520432], [2.1589772417905473, 47.47890748390999], [2.1614310080751333, 47.481416302615656], [2.16388477435972, 47.48392512132133], [2.16388477435972, 47.48392512132133], [2.1675138867882366, 47.48461503254625], [2.171142999216755, 47.485304943771176], [2.174772111645271, 47.4859948549961], [2.1784012240737898, 47.486684766221025], [2.182030336502306, 47.48737467744596], [2.185659448930823, 47.48806458867089], [2.189288561359341, 47.48875449989581], [2.192917673787858, 47.48944441112074], [2.196546786216376, 47.49013432234566], [2.2001758986448925, 47.490824233570585], [2.2001758986448925, 47.490824233570585], [2.2046181336651607, 47.490888370863914], [2.20906036868543, 47.490952508157235], [2.2135026037056984, 47.49101664545056], [2.2179448387259684, 47.49108078274388], [2.222387073746236, 47.49114492003721], [2.2268293087665043, 47.49120905733053], [2.2312715437867743, 47.49127319462385], [2.235713778807042, 47.49133733191717], [2.240156013827312, 47.4914014692105], [2.2445982488475784, 47.49146560650383], [2.2445982488475784, 47.49146560650383], [2.2460508123282756, 47.492406011758845], [2.2475033758089715, 47.493346417013875], [2.2489559392896674, 47.4942868222689], [2.2504085027703646, 47.495227227523934], [2.251861066251061, 47.49616763277895], [2.253313629731758, 47.49710803803397], [2.254766193212454, 47.498048443289], [2.25621875669315, 47.49898884854402], [2.257671320173847, 47.499929253799046], [2.2591238836545413, 47.500869659054075], [2.2591238836545413, 47.500869659054075], [2.260308913719196, 47.50562571514324], [2.2614939437838486, 47.51038177123239], [2.262678973848502, 47.51513782732155], [2.2638640039131546, 47.5198938834107], [2.265049033977807, 47.52464993949987], [2.2662340640424623, 47.52940599558903], [2.2674190941071153, 47.53416205167818], [2.2686041241717683, 47.538918107767344], [2.269789154236421, 47.5436741638565], [2.2709741843010742, 47.548430219945665], [2.2709741843010742, 47.548430219945665], [2.272262582423578, 47.551533751804726], [2.2735509805460796, 47.554637283663794], [2.2748393786685814, 47.55774081552286], [2.2761277767910837, 47.56084434738193], [2.277416174913584, 47.563947879241], [2.2787045730360878, 47.56705141110006], [2.27999297115859, 47.57015494295913], [2.2812813692810923, 47.573258474818196], [2.2825697674035945, 47.576362006677265], [2.2838581655260963, 47.579465538536326], [2.2838581655260963, 47.579465538536326], [2.288214730102439, 47.57760469849324], [2.2925712946787837, 47.57574385845017], [2.296927859255126, 47.573883018407074], [2.3012844238314685, 47.572022178363994], [2.3056409884078133, 47.57016133832091], [2.309997552984156, 47.56830049827782], [2.3143541175605002, 47.56643965823474], [2.318710682136843, 47.564578818191656], [2.3230672467131854, 47.56271797814858], [2.32742381128953, 47.56085713810549], [2.32742381128953, 47.56085713810549], [2.3304993360909845, 47.55970528607698], [2.3335748608924396, 47.55855343404848], [2.3366503856938965, 47.55740158201997], [2.339725910495353, 47.55624972999146], [2.342801435296806, 47.55509787796296], [2.3458769600982605, 47.55394602593445], [2.348952484899717, 47.55279417390594], [2.3520280097011743, 47.55164232187744], [2.355103534502627, 47.550490469848924], [2.358179059304082, 47.549338617820425], [2.358179059304082, 47.549338617820425], [2.3640798034367925, 47.550226719612105], [2.3699805475695004, 47.55111482140379], [2.375881291702211, 47.552002923195474], [2.381782035834919, 47.55289102498716], [2.3876827799676295, 47.55377912677885], [2.393583524100338, 47.554667228570544], [2.399484268233046, 47.555555330362225], [2.4053850123657563, 47.55644343215391], [2.4112857564984664, 47.5573315339456], [2.4171865006311752, 47.55821963573729], [2.4171865006311752, 47.55821963573729], [2.418728021307752, 47.55954996694493], [2.420269541984329, 47.56088029815256], [2.421811062660906, 47.5622106293602], [2.423352583337484, 47.56354096056785], [2.4248941040140597, 47.564871291775496], [2.4264356246906384, 47.56620162298313], [2.427977145367214, 47.56753195419077], [2.429518666043791, 47.56886228539841], [2.4310601867203703, 47.57019261660605], [2.4326017073969455, 47.57152294781368], [2.4326017073969455, 47.57152294781368], [2.4389007042664246, 47.58021244000814], [2.445199701135905, 47.588901932202596], [2.4514986980053837, 47.597591424397045], [2.4577976948748628, 47.6062809165915], [2.464096691744345, 47.61497040878595], [2.470395688613826, 47.6236599009804], [2.4766946854833063, 47.632349393174856], [2.482993682352785, 47.64103888536931], [2.4892926792222636, 47.64972837756376], [2.495591676091745, 47.65841786975821], [2.495591676091745, 47.65841786975821], [2.4964911892210626, 47.65939338688542], [2.4973907023503825, 47.66036890401263], [2.498290215479702, 47.66134442113984], [2.49918972860902, 47.66231993826704], [2.50008924173834, 47.663295455394255], [2.5009887548676595, 47.664270972521464], [2.5018882679969776, 47.665246489648666], [2.502787781126299, 47.666222006775875], [2.5036872942556188, 47.66719752390308], [2.504586807384937, 47.668173041030286], [2.504586807384937, 47.668173041030286], [2.5038206609467673, 47.66985745018468], [2.503054514508599, 47.67154185933907], [2.5022883680704306, 47.67322626849346], [2.5015222216322606, 47.67491067764785], [2.500756075194093, 47.676595086802244], [2.4999899287559244, 47.67827949595663], [2.4992237823177548, 47.67996390511103], [2.498457635879587, 47.681648314265416], [2.4976914894414186, 47.68333272341981], [2.4969253430032508, 47.6850171325742], [2.4969253430032508, 47.6850171325742], [2.499234984508925, 47.68572701669486], [2.5015446260145997, 47.68643690081553], [2.503854267520272, 47.6871467849362], [2.5061639090259473, 47.68785666905687], [2.5084735505316216, 47.68856655317754], [2.510783192037294, 47.68927643729821], [2.5130928335429688, 47.68998632141888], [2.5154024750486434, 47.690696205539545], [2.517712116554318, 47.69140608966021], [2.520021758059991, 47.69211597378088], [2.520021758059991, 47.69211597378088], [2.529515611721258, 47.692623611641075], [2.539009465382525, 47.69313124950128], [2.5485033190437925, 47.69363888736147], [2.5579971727050594, 47.694146525221676], [2.567491026366325, 47.69465416308187], [2.576984880027592, 47.69516180094207], [2.586478733688861, 47.69566943880226], [2.5959725873501265, 47.69617707666246], [2.6054664410113917, 47.69668471452266], [2.614960294672659, 47.69719235238286], [2.614960294672659, 47.69719235238286], [2.616958373201062, 47.698947956646315], [2.6189564517294652, 47.70070356090978], [2.6209545302578667, 47.70245916517324], [2.62295260878627, 47.704214769436696], [2.6249506873146697, 47.705970373700154], [2.6269487658430735, 47.70772597796362], [2.6289468443714745, 47.709481582227085], [2.6309449228998782, 47.71123718649054], [2.632943001428281, 47.712992790753994], [2.6349410799566844, 47.71474839501746], [2.6349410799566844, 47.71474839501746], [2.6333157838948, 47.71800822993208], [2.631690487832914, 47.7212680648467], [2.630065191771027, 47.72452789976131], [2.628439895709143, 47.727787734675935], [2.6268145996472563, 47.73104756959056], [2.6251893035853717, 47.734307404505174], [2.6235640075234876, 47.737567239419796], [2.6219387114616013, 47.74082707433442], [2.6203134153997145, 47.74408690924904], [2.6186881193378304, 47.74734674416365], [2.6186881193378304, 47.74734674416365], [2.608899808103622, 47.750353504661426], [2.5991114968694133, 47.7533602651592], [2.589323185635204, 47.75636702565698], [2.579534874400997, 47.759373786154754], [2.569746563166787, 47.76238054665252], [2.559958251932579, 47.7653873071503], [2.5501699406983707, 47.768394067648074], [2.5403816294641604, 47.77140082814584], [2.530593318229954, 47.77440758864362], [2.520805006995744, 47.777414349141395], [2.520805006995744, 47.777414349141395], [2.514282878813131, 47.78042192476207], [2.5077607506305166, 47.78342950038274], [2.5012386224479015, 47.7864370760034], [2.494716494265287, 47.78944465162407], [2.488194366082672, 47.792452227244745], [2.481672237900059, 47.79545980286542], [2.4751501097174446, 47.798467378486095], [2.4686279815348295, 47.801474954106766], [2.4621058533522144, 47.80448252972744], [2.4555837251695993, 47.8074901053481], [2.4555837251695993, 47.8074901053481], [2.4461574684221907, 47.80999489270215], [2.436731211674782, 47.81249968005619], [2.4273049549273717, 47.81500446741024], [2.4178786981799636, 47.81750925476428], [2.4084524414325528, 47.82001404211833], [2.3990261846851406, 47.82251882947238], [2.389599927937732, 47.82502361682642], [2.3801736711903216, 47.82752840418047], [2.370747414442913, 47.830033191534504], [2.3613211576955044, 47.83253797888855], [2.3613211576955044, 47.83253797888855], [2.3587875238370297, 47.83504554744753], [2.3562538899785563, 47.83755311600651], [2.353720256120081, 47.84006068456549], [2.3511866222616065, 47.84256825312447], [2.3486529884031335, 47.84507582168345], [2.3461193545446584, 47.84758339024243], [2.343585720686186, 47.85009095880142], [2.341052086827711, 47.85259852736039], [2.338518452969236, 47.855106095919375], [2.335984819110763, 47.85761366447836], [2.335984819110763, 47.85761366447836], [2.335090436471661, 47.864132855812294], [2.3341960538325566, 47.87065204714622], [2.3333016711934538, 47.87717123848016], [2.33240728855435, 47.883690429814095], [2.3315129059152455, 47.890209621148024], [2.3306185232761405, 47.89672881248197], [2.3297241406370377, 47.903248003815904], [2.328829757997934, 47.90976719514983], [2.327935375358831, 47.916286386483776], [2.3270409927197266, 47.922805577817705], [2.3270409927197266, 47.922805577817705], [2.3248720771047036, 47.92619132346511], [2.322703161489678, 47.92957706911251], [2.320534245874652, 47.93296281475991], [2.318365330259628, 47.93634856040731], [2.316196414644605, 47.93973430605471], [2.3140274990295793, 47.94312005170211], [2.3118585834145553, 47.946505797349516], [2.309689667799528, 47.949891542996916], [2.3075207521845065, 47.95327728864432], [2.3053518365694803, 47.956663034291715], [2.3053518365694803, 47.956663034291715], [2.301911156125497, 47.959169315432305], [2.2984704756815115, 47.961675596572896], [2.2950297952375283, 47.964181877713486], [2.291589114793543, 47.966688158854076], [2.28814843434956, 47.969194439994666], [2.284707753905574, 47.97170072113525], [2.2812670734615907, 47.97420700227584], [2.2778263930176075, 47.97671328341643], [2.274385712573624, 47.97921956455702], [2.2709450321296383, 47.98172584569762], [2.2709450321296383, 47.98172584569762], [2.2704063640827887, 47.98523698354567], [2.2698676960359405, 47.98874812139374], [2.26932902798909, 47.992259259241806], [2.26879035994224, 47.99577039708986], [2.2682516918953923, 47.99928153493793], [2.26771302384854, 48.00279267278599], [2.267174355801692, 48.00630381063406], [2.2666356877548433, 48.009814948482116], [2.2660970197079915, 48.01332608633018], [2.2655583516611437, 48.016837224178246], [2.2655583516611437, 48.016837224178246], [2.2699246294545845, 48.0239847717648], [2.274290907248027, 48.03113231935137], [2.2786571850414683, 48.03827986693793], [2.2830234628349095, 48.0454274145245], [2.2873897406283508, 48.05257496211106], [2.2917560184217938, 48.059722509697615], [2.2961222962152346, 48.066870057284184], [2.300488574008677, 48.07401760487074], [2.304854851802119, 48.08116515245732], [2.3092211295955614, 48.08831270004387], [2.3092211295955614, 48.08831270004387], [2.3132115303072314, 48.08806266415588], [2.3172019310189027, 48.08781262826788], [2.321192331730575, 48.08756259237989], [2.3251827324422463, 48.08731255649189], [2.3291731331539145, 48.087062520603894], [2.3331635338655863, 48.08681248471589], [2.33715393457726, 48.0865624488279], [2.3411443352889294, 48.0863124129399], [2.3451347360006016, 48.08606237705191], [2.349125136712271, 48.08581234116391], [2.349125136712271, 48.08581234116391], [2.351124184247961, 48.08807000916882], [2.353123231783649, 48.09032767717375], [2.355122279319335, 48.09258534517866], [2.357121326855023, 48.09484301318358], [2.3591203743907108, 48.0971006811885], [2.361119421926399, 48.09935834919341], [2.363118469462087, 48.10161601719833], [2.3651175169977727, 48.10387368520325], [2.367116564533463, 48.10613135320816], [2.369115612069151, 48.108389021213085], [2.369115612069151, 48.108389021213085], [2.367307247901834, 48.11127279334165], [2.3654988837345168, 48.11415656547021], [2.363690519567202, 48.11704033759879], [2.361882155399885, 48.11992410972735], [2.360073791232567, 48.12280788185592], [2.3582654270652514, 48.125691653984475], [2.3564570628979347, 48.128575426113045], [2.354648698730618, 48.131459198241615], [2.352840334563301, 48.134342970370184], [2.3510319703959865, 48.137226742498754], [2.3510319703959865, 48.137226742498754], [2.346681983148128, 48.13847869354224], [2.342331995900268, 48.13973064458574], [2.3379820086524092, 48.140982595629225], [2.333632021404553, 48.142234546672725], [2.3292820341566904, 48.14348649771622], [2.324932046908834, 48.14473844875971], [2.320582059660975, 48.1459903998032], [2.316232072413119, 48.147242350846696], [2.311882085165257, 48.148494301890196], [2.3075320979174, 48.14974625293369], [2.3075320979174, 48.14974625293369], [2.3026442219886976, 48.1541343914422], [2.297756346059997, 48.158522529950694], [2.292868470131292, 48.162910668459205], [2.2879805942025935, 48.167298806967715], [2.2830927182738905, 48.17168694547622], [2.278204842345188, 48.17607508398473], [2.273316966416487, 48.18046322249323], [2.2684290904877846, 48.18485136100175], [2.263541214559084, 48.18923949951024], [2.2586533386303813, 48.193627638018754], [2.2586533386303813, 48.193627638018754], [2.2535773894554767, 48.195005454288875], [2.248501440280569, 48.19638327055899], [2.2434254911056626, 48.197761086829104], [2.238349541930756, 48.199138903099225], [2.233273592755848, 48.20051671936933], [2.2281976435809416, 48.20189453563945], [2.223121694406036, 48.20327235190957], [2.2180457452311297, 48.20465016817969], [2.2129697960562233, 48.206027984449804], [2.207893846881317, 48.20740580071992], [2.207893846881317, 48.20740580071992], [2.200273182058497, 48.20477071266088], [2.1926525172356772, 48.20213562460184], [2.1850318524128576, 48.1995005365428], [2.177411187590038, 48.196865448483756], [2.169790522767219, 48.19423036042473], [2.1621698579444, 48.19159527236569], [2.1545491931215794, 48.188960184306644], [2.1469285282987607, 48.18632509624761], [2.1393078634759406, 48.18369000818857], [2.1316871986531205, 48.18105492012953], [2.1316871986531205, 48.18105492012953], [2.128420744783932, 48.1801760188713], [2.1251542909147423, 48.17929711761307], [2.121887837045554, 48.17841821635484], [2.1186213831763663, 48.17753931509662], [2.1153549293071774, 48.17666041383839], [2.112088475437988, 48.175781512580166], [2.108822021568799, 48.17490261132193], [2.1055555676996107, 48.1740237100637], [2.102289113830422, 48.17314480880548], [2.0990226599612334, 48.172265907547256], [2.0990226599612334, 48.172265907547256], [2.0905021683675797, 48.1741449331513], [2.081981676773927, 48.176023958755344], [2.0734611851802716, 48.17790298435938], [2.064940693586619, 48.17978200996343], [2.056420201992965, 48.18166103556747], [2.047899710399311, 48.18354006117152], [2.0393792188056583, 48.18541908677556], [2.0308587272120042, 48.18729811237961], [2.0223382356183497, 48.189177137983656], [2.0138177440246965, 48.191056163587696], [2.0138177440246965, 48.191056163587696], [2.0100152107681333, 48.19418940327131], [2.0062126775115696, 48.19732264295492], [2.002410144255006, 48.200455882638536], [1.9986076109984432, 48.20358912232215], [1.994805077741879, 48.20672236200576], [1.9910025444853168, 48.20985560168938], [1.9872000112287531, 48.21298884137299], [1.9833974779721895, 48.21612208105661], [1.9795949447156262, 48.21925532074022], [1.975792411459063, 48.22238856042383]]]}}]}