{
  "type": "FeatureCollection",
  "features": [
    {
      "type": "Feature",
      "geometry": {
        "coordinates": [
          [
            [
              7.915230873000041,
              44.837740558000064
            ],
            [
              7.875776038000026,
              44.827627257000074
            ],
            [
              7.8130285900000445,
              44.85257018900006
            ],
            [
              7.8163561060000575,
              44.84111126400006
            ],
            [
              7.779753428000049,
              44.84043713800003
            ],
            [
              7.769295520000071,
              44.81953533800004
            ],
            [
              7.831567609000047,
              44.79120467900003
            ],
            [
              7.834419766000053,
              44.769272596000064
            ],
            [
              7.898593292000044,
              44.70984544500004
            ],
            [
              7.878628195000033,
              44.68179894700006
            ],
            [
              7.7711969580000755,
              44.67943295800006
            ],
            [
              7.778802709000047,
              44.64900449900006
            ],
            [
              7.809701074000031,
              44.65001903900003
            ],
            [
              7.822060420000071,
              44.597239466000076
            ],
            [
              7.9084841910000705,
              44.554214638000076
            ],
            [
              7.896888463000039,
              44.51095214600008
            ],
            [
              7.921134077000033,
              44.50203801400005
            ],
            [
              7.897641432000057,
              44.50289726700004
            ],
            [
              7.915863291000051,
              44.48699903900007
            ],
            [
              7.893876585000044,
              44.47969299500005
            ],
            [
              7.939205342000037,
              44.37849630200003
            ],
            [
              7.925802487000055,
              44.288983511000026
            ],
            [
              7.9730889640000555,
              44.23279329600007
            ],
            [
              8.076245768000035,
              44.224268402000064
            ],
            [
              8.138290445000052,
              44.17611735700007
            ],
            [
              8.32450306800007,
              44.331682218000026
            ],
            [
              8.364813550000065,
              44.344601847000035
            ],
            [
              8.367855850000069,
              44.39543671900003
            ],
            [
              8.401131012000064,
              44.43224404500006
            ],
            [
              8.37432073900004,
              44.439847099000076
            ],
            [
              8.309481709000067,
              44.42138082400004
            ],
            [
              8.16592315400004,
              44.459800408000035
            ],
            [
              8.240839804000075,
              44.59549168600006
            ],
            [
              8.198247597000034,
              44.629195966000054
            ],
            [
              8.225057870000057,
              44.67991851200003
            ],
            [
              8.271643096000048,
              44.70816862400005
            ],
            [
              8.25472030000003,
              44.72992127500004
            ],
            [
              8.213078812000049,
              44.72708443600004
            ],
            [
              8.126753535000034,
              44.80781236000007
            ],
            [
              8.095189667000056,
              44.81792913700008
            ],
            [
              8.041378976000033,
              44.79634453400007
            ],
            [
              8.026737905000061,
              44.81482684800005
            ],
            [
              7.982244260000073,
              44.82143587200005
            ],
            [
              7.966842614000029,
              44.84961688000004
            ],
            [
              7.915230873000041,
              44.837740558000064
            ]
          ]
        ],
        "type": "Polygon"
      },
      "properties": {
                "diocese": "Alben",
                "province": "Mediolanen",
                "date": 1592
            }
    }
  ]
}