{
  "type": "FeatureCollection",
  "features": [
    {
      "type": "Feature",
      "properties": {
                "diocese": "Brixien",
                "province": "Mediolanen",
                "date": 1592
            },
      "geometry": {
        "type": "Polygon",
        "coordinates": [
          [
            [
              10.550195350000024,
              45.407693194000046
            ],
            [
              10.46391760900002,
              45.45081128100003
            ],
            [
              10.469027723000067,
              45.54935022500007
            ],
            [
              10.485665304000065,
              45.58146509300008
            ],
            [
              10.645029561000058,
              45.63234533700006
            ],
            [
              10.730367537000063,
              45.70006049300008
            ],
            [
              10.666038889000049,
              45.724828401000025
            ],
            [
              10.662426157000027,
              45.75176819100005
            ],
            [
              10.624967832000038,
              45.73279225300007
            ],
            [
              10.561840096000026,
              45.72934139000006
            ],
            [
              10.567164122000065,
              45.75110480600006
            ],
            [
              10.531417091000037,
              45.79699247700006
            ],
            [
              10.447563683000055,
              45.821114769000076
            ],
            [
              10.507078687000046,
              45.91789631600005
            ],
            [
              10.482169851000037,
              45.94950242900006
            ],
            [
              10.489395315000024,
              45.972765707000065
            ],
            [
              10.443760807000046,
              45.99033886500007
            ],
            [
              10.457070872000031,
              46.016754164000076
            ],
            [
              10.486733302000061,
              46.028108866000025
            ],
            [
              10.479127551000033,
              46.05938824100008
            ],
            [
              10.544917300000066,
              46.109372042000075
            ],
            [
              10.563551390000043,
              46.16787066000006
            ],
            [
              10.543586293000033,
              46.19222674300005
            ],
            [
              10.578953037000076,
              46.25103177600005
            ],
            [
              10.56050909000004,
              46.284550059000026
            ],
            [
              10.576481167000054,
              46.30228673500005
            ],
            [
              10.560889377000024,
              46.32815883600006
            ],
            [
              10.463496151000072,
              46.35256787900005
            ],
            [
              10.324096991000033,
              46.28633320400007
            ],
            [
              10.288445032000027,
              46.21582475100007
            ],
            [
              10.23389753400005,
              46.20743659900006
            ],
            [
              10.226767142000028,
              46.18794153400006
            ],
            [
              10.142985038000063,
              46.160044165000045
            ],
            [
              10.179706556000042,
              46.08714805200003
            ],
            [
              10.166258682467507,
              46.05457219156584
            ],
            [
              10.210951047109898,
              46.05195860299026
            ],
            [
              10.256656662523852,
              46.024782322964995
            ],
            [
              10.122614821834953,
              45.957955789545785
            ],
            [
              10.092891446000067,
              45.92466510600008
            ],
            [
              10.113807262000023,
              45.88404498300008
            ],
            [
              10.141758398000036,
              45.87597034500004
            ],
            [
              10.143089404000023,
              45.85359349500004
            ],
            [
              10.060947291000048,
              45.77752439900007
            ],
            [
              10.058285278000028,
              45.68116273600003
            ],
            [
              9.940204237000046,
              45.66394769100003
            ],
            [
              9.892965391000075,
              45.60515680000003
            ],
            [
              9.854639535000047,
              45.602454677000026
            ],
            [
              9.859541680000063,
              45.58488770300005
            ],
            [
              9.841864250000071,
              45.577609831000075
            ],
            [
              9.855679384000041,
              45.56128317300005
            ],
            [
              9.83636790600002,
              45.54734456500006
            ],
            [
              9.853896786000064,
              45.539853735000065
            ],
            [
              9.862958326000069,
              45.49697034800005
            ],
            [
              9.894599439000046,
              45.45957686700007
            ],
            [
              9.883140507733804,
              45.42654513910265
            ],
            [
              9.89656492000006,
              45.339185445000055
            ],
            [
              10.029724988000055,
              45.276124311000046
            ],
            [
              10.082905827000047,
              45.271901014000036
            ],
            [
              10.100731806000056,
              45.246972983000035
            ],
            [
              10.242650372000071,
              45.22272039500007
            ],
            [
              10.277945811000052,
              45.188005632000056
            ],
            [
              10.337963183000056,
              45.204327971000055
            ],
            [
              10.358745137000028,
              45.22119624700008
            ],
            [
              10.359799295000073,
              45.24823869800008
            ],
            [
              10.39759835700005,
              45.24452775100008
            ],
            [
              10.394586480000044,
              45.281308427000056
            ],
            [
              10.425307630000077,
              45.29539960300008
            ],
            [
              10.43057841600006,
              45.31700633300005
            ],
            [
              10.48373805400007,
              45.32473615200007
            ],
            [
              10.492623093000077,
              45.362946194000074
            ],
            [
              10.459944222000047,
              45.39256503300004
            ],
            [
              10.460245409000038,
              45.411703240000065
            ],
            [
              10.550195350000024,
              45.407693194000046
            ]
          ],
          [
            [
              10.016997369000023,
              45.53852192800008
            ],
            [
              9.986574364000035,
              45.53352736900007
            ],
            [
              9.970174462000045,
              45.548842611000055
            ],
            [
              10.00606410100005,
              45.55649866700003
            ],
            [
              10.016997369000023,
              45.53852192800008
            ]
          ],
          [
            [
              9.924055126000042,
              45.456315009000036
            ],
            [
              9.968781507000074,
              45.46402580100005
            ],
            [
              9.987455148000038,
              45.445327950000035
            ],
            [
              9.930078881000043,
              45.432013838000046
            ],
            [
              9.915923057000043,
              45.44078459800005
            ],
            [
              9.924055126000042,
              45.456315009000036
            ]
          ]
        ]
      }
    }
  ]
}