{
  "type": "FeatureCollection",
  "features": [
    {
      "type": "Feature",
      "properties": {
                "diocese": "Casalen",
                "province": "Mediolanen",
                "date": 1592
            },
      "geometry": {
        "type": "Polygon",
        "coordinates": [
          [
            [
              8.04046403600006,
              45.19544930100005
            ],
            [
              7.994710689000044,
              45.195658664000064
            ],
            [
              8.002435280000043,
              45.15900842100007
            ],
            [
              7.986986097000056,
              45.13952183600003
            ],
            [
              8.003920778000065,
              45.11038430600007
            ],
            [
              7.947471843000073,
              45.08983235300008
            ],
            [
              7.953259629000058,
              45.063141864000045
            ],
            [
              7.992445195952955,
              44.994197560019565
            ],
            [
              8.096558972000025,
              44.97311566900004
            ],
            [
              8.143769364027255,
              44.99798744646314
            ],
            [
              8.297492930646376,
              44.99243555430493
            ],
            [
              8.346423747000074,
              44.95356281900007
            ],
            [
              8.352365740000039,
              44.981477410000025
            ],
            [
              8.383026425000025,
              44.98954656700005
            ],
            [
              8.392058254000062,
              44.93438469000006
            ],
            [
              8.412037216000044,
              44.92270083600005
            ],
            [
              8.433510486000046,
              44.94660806700006
            ],
            [
              8.416397546000042,
              44.97788873600007
            ],
            [
              8.464171171000032,
              45.00041370200006
            ],
            [
              8.48817682300006,
              44.990497084000026
            ],
            [
              8.492453484742894,
              44.954223585346035
            ],
            [
              8.59319161600007,
              44.967104547000076
            ],
            [
              8.555679128000065,
              44.98052427700003
            ],
            [
              8.546171939000033,
              45.013802783000074
            ],
            [
              8.626270007000073,
              45.02841904400003
            ],
            [
              8.648136542000032,
              45.064523687000076
            ],
            [
              8.612959942000032,
              45.12878387400008
            ],
            [
              8.589905009000063,
              45.137838241000054
            ],
            [
              8.587052852000056,
              45.150411365000025
            ],
            [
              8.618901936000043,
              45.17018746700006
            ],
            [
              8.608209760000022,
              45.17633738600006
            ],
            [
              8.516648684000074,
              45.16911820300004
            ],
            [
              8.458820636000041,
              45.20329506200005
            ],
            [
              8.376445786000033,
              45.201278985000044
            ],
            [
              8.346176417000038,
              45.169967566000025
            ],
            [
              8.26937354100005,
              45.181326580000075
            ],
            [
              8.151458536000064,
              45.16561444700005
            ],
            [
              8.12781529800003,
              45.18260034700006
            ],
            [
              8.04046403600006,
              45.19544930100005
            ]
          ]
        ]
      }
    }
  ]
}