{
  "type": "FeatureCollection",
  "features": [
    {
      "type": "Feature",
      "properties": {
                "diocese": "Lauden",
                "province": "Mediolanen",
                "date": 1592
            },
      "geometry": {
        "type": "Polygon",
        "coordinates": [
          [
            [
              9.476332025000033,
              45.41670489300003
            ],
            [
              9.426716382000052,
              45.399601388000065
            ],
            [
              9.375318141000037,
              45.40836236700005
            ],
            [
              9.356897962000062,
              45.36746617600005
            ],
            [
              9.370564547000072,
              45.34032483000004
            ],
            [
              9.310550415000023,
              45.33113558000008
            ],
            [
              9.339198273000022,
              45.27235500200004
            ],
            [
              9.308537588000036,
              45.249970646000065
            ],
            [
              9.400091819000068,
              45.218637810000075
            ],
            [
              9.358592939000062,
              45.16718238900006
            ],
            [
              9.373804441000061,
              45.134999125000036
            ],
            [
              9.479540229000065,
              45.13230518800003
            ],
            [
              9.499980686000072,
              45.119392643000026
            ],
            [
              9.495362772000021,
              45.10118050900007
            ],
            [
              9.537411708000036,
              45.079527521000045
            ],
            [
              9.553828722000048,
              45.09254842000007
            ],
            [
              9.533692495000025,
              45.11565894100005
            ],
            [
              9.537799601000074,
              45.136265310000056
            ],
            [
              9.58908137900005,
              45.09975636300004
            ],
            [
              9.627870711000071,
              45.13179854500004
            ],
            [
              9.642816012000026,
              45.11437079600006
            ],
            [
              9.632999088000076,
              45.085128808000036
            ],
            [
              9.713429908000023,
              45.05743261300006
            ],
            [
              9.756354867000027,
              45.08976031600008
            ],
            [
              9.759777455000062,
              45.111402601000066
            ],
            [
              9.831680326000026,
              45.06099862200006
            ],
            [
              9.843944600000043,
              45.098106150000035
            ],
            [
              9.898206882000068,
              45.081141383000045
            ],
            [
              9.870485822787252,
              45.15747845378865
            ],
            [
              9.832652022000048,
              45.14834762700008
            ],
            [
              9.826092061000054,
              45.163499296000055
            ],
            [
              9.78521114800003,
              45.16483995700003
            ],
            [
              9.765531267000028,
              45.196001446000025
            ],
            [
              9.778936403000046,
              45.21107346200006
            ],
            [
              9.715998811000077,
              45.23076154700004
            ],
            [
              9.728263085000037,
              45.24040220300003
            ],
            [
              9.70725219700006,
              45.25619863000003
            ],
            [
              9.694987923000042,
              45.255127824000056
            ],
            [
              9.720708039000044,
              45.302135
            ],
            [
              9.708701099170288,
              45.32925410193134
            ],
            [
              9.476332025000033,
              45.41670489300003
            ]
          ],
          [
            [
              9.564907903000062,
              45.35281112000007
            ],
            [
              9.517847317000076,
              45.348384734000035
            ],
            [
              9.497466280000026,
              45.372224663000054
            ],
            [
              9.54399208700005,
              45.375146554000025
            ],
            [
              9.564907903000062,
              45.35281112000007
            ]
          ]
        ]
      }
    }
  ]
}