{
  "type": "FeatureCollection",
  "features": [
    {
      "type": "Feature",
      "properties": {
                "diocese": "Novarien",
                "province": "Mediolanen",
                "date": 1592
            },
      "geometry": {
        "type": "Polygon",
        "coordinates": [
          [
            [
              8.466392240000062,
              46.44411357600006
            ],
            [
              8.44546811300006,
              46.46452569600007
            ],
            [
              8.30464287500007,
              46.42423699700004
            ],
            [
              8.294660326000042,
              46.40948978400007
            ],
            [
              8.317477580000059,
              46.38293475100005
            ],
            [
              8.265069200000028,
              46.36497819600004
            ],
            [
              8.209808663000047,
              46.30934923500007
            ],
            [
              8.136722147000057,
              46.30220690800007
            ],
            [
              8.083957248000047,
              46.26648129700004
            ],
            [
              8.138148226000055,
              46.22481308000005
            ],
            [
              8.165600234000067,
              46.18015107000008
            ],
            [
              8.149913372000071,
              46.14212276200004
            ],
            [
              8.100654248000069,
              46.11065959000007
            ],
            [
              8.032915526000068,
              46.09994812900004
            ],
            [
              8.021863419000056,
              46.06891434800008
            ],
            [
              8.033509725000044,
              46.04516357600005
            ],
            [
              7.98977665600006,
              45.99796160900007
            ],
            [
              7.908965548000026,
              45.996970926000074
            ],
            [
              7.882107739000048,
              45.97434551300006
            ],
            [
              7.860799059234596,
              45.91174371613186
            ],
            [
              7.867133916000057,
              45.78737442100004
            ],
            [
              7.899398885186765,
              45.7504790969117
            ],
            [
              7.961381851000056,
              45.72147060800006
            ],
            [
              8.149624195000058,
              45.69757080100004
            ],
            [
              8.188219428000025,
              45.70843490200008
            ],
            [
              8.155841745000032,
              45.73019903100004
            ],
            [
              8.186562895000066,
              45.74396808500006
            ],
            [
              8.317127785000025,
              45.692658497000025
            ],
            [
              8.395888382000066,
              45.61307765600003
            ],
            [
              8.403392064000059,
              45.49705673900007
            ],
            [
              8.501078432000043,
              45.49325811600005
            ],
            [
              8.480400296000028,
              45.43544747800007
            ],
            [
              8.410379848000048,
              45.42814191800005
            ],
            [
              8.40396249500003,
              45.39550554700003
            ],
            [
              8.490382844000067,
              45.38308676200006
            ],
            [
              8.527389578000054,
              45.34525442200004
            ],
            [
              8.622223789000032,
              45.356821395000054
            ],
            [
              8.663936582000076,
              45.32303252200006
            ],
            [
              8.661684287000071,
              45.30307868300008
            ],
            [
              8.76364889000007,
              45.302242808000074
            ],
            [
              8.796686372000067,
              45.31862369400005
            ],
            [
              8.797399411000072,
              45.35137126200004
            ],
            [
              8.862149210522333,
              45.34711980889843
            ],
            [
              8.847144326925903,
              45.40129328474007
            ],
            [
              8.81231428600006,
              45.426714297000046
            ],
            [
              8.782010121000042,
              45.489857708000045
            ],
            [
              8.71872789400004,
              45.50922417700008
            ],
            [
              8.692880223000031,
              45.57643447100003
            ],
            [
              8.701199014000053,
              45.60512520800006
            ],
            [
              8.66257605800007,
              45.62320530800008
            ],
            [
              8.663467357000059,
              45.64356441800004
            ],
            [
              8.68931502700002,
              45.63837147000004
            ],
            [
              8.670003549000057,
              45.66287795800008
            ],
            [
              8.681590436000022,
              45.677203055000064
            ],
            [
              8.641184882000061,
              45.677203055000064
            ],
            [
              8.65128627100006,
              45.71683746300005
            ],
            [
              8.593351837000057,
              45.729254611000044
            ],
            [
              8.556564877984542,
              45.7780840016946
            ],
            [
              8.56091659485474,
              45.80637016135089
            ],
            [
              8.603334386000029,
              45.830369415000064
            ],
            [
              8.579566413000066,
              45.90451399400007
            ],
            [
              8.733179673891197,
              46.01969062961647
            ],
            [
              8.72247408366086,
              46.03048358016611
            ],
            [
              8.586427314000048,
              46.02869345800008
            ],
            [
              8.553301090331894,
              46.046258553820586
            ],
            [
              8.548765193346568,
              46.0775506084934
            ],
            [
              8.628161176517981,
              46.122489417168914
            ],
            [
              8.613898754346431,
              46.12344024531369
            ],
            [
              8.598051618600264,
              46.15798700124033
            ],
            [
              8.530862866000064,
              46.21825049700004
            ],
            [
              8.447186886296755,
              46.248315674993485
            ],
            [
              8.45153725700004,
              46.267769841000074
            ],
            [
              8.429848982000067,
              46.299389501000064
            ],
            [
              8.464015442000061,
              46.33181148500006
            ],
            [
              8.466392240000062,
              46.44411357600006
            ]
          ]
        ]
      }
    }
  ]
}