{
  "type": "FeatureCollection",
  "features": [
    {
      "type": "Feature",
      "geometry": {
        "type": "Polygon",
        "coordinates": [
          [
            [
              8.293664401442465,
              44.30594122997634
            ],
            [
              8.333556639858475,
              44.28193383501912
            ],
            [
              8.374838081788939,
              44.29756249432056
            ],
            [
              8.445475215758426,
              44.2803576049383
            ],
            [
              8.503819653686877,
              44.313186994943194
            ],
            [
              8.489875699968124,
              44.31187417174972
            ],
            [
              8.502351869084851,
              44.3257886033756
            ],
            [
              8.664763640541398,
              44.3902569191596
            ],
            [
              8.649135490644692,
              44.4124239789445
            ],
            [
              8.671053732619638,
              44.4347144123069
            ],
            [
              8.670227904127096,
              44.43850510033637
            ],
            [
              8.661615692706611,
              44.44692797110084
            ],
            [
              8.47975753285335,
              44.429354485128606
            ],
            [
              8.419944307621893,
              44.457070594761895
            ],
            [
              8.367607735544558,
              44.39505043726185
            ],
            [
              8.364919020824312,
              44.34465704395873
            ],
            [
              8.324101042392595,
              44.33151966619366
            ],
            [
              8.293664401442465,
              44.30594122997634
            ]
          ]
        ]
      },
      "properties": {
                "diocese": "Saonen",
                "province": "Mediolanen",
                "date": 1592
            }
    }
  ]
}