{
  "type": "FeatureCollection",
  "features": [
    {
      "type": "Feature",
      "properties": {
                "diocese": "Viglevanen",
                "province": "Mediolanen",
                "date": 1592
            },
      "geometry": {
        "type": "MultiPolygon",
        "coordinates": [
          [
            [
              [
                8.898720269443112,
                45.00470198760772
              ],
              [
                8.809758757000054,
                45.04101627500006
              ],
              [
                8.80048924700003,
                45.02321137900003
              ],
              [
                8.833764409000025,
                44.99397246500007
              ],
              [
                8.82708563395568,
                44.96832641642485
              ],
              [
                8.656693012000062,
                44.937805370000035
              ],
              [
                8.592918174772704,
                44.96721380899594
              ],
              [
                8.555679128000065,
                44.98052427700003
              ],
              [
                8.546171939000033,
                45.013802783000074
              ],
              [
                8.626270007000073,
                45.02841904400003
              ],
              [
                8.647857161130265,
                45.065344501475316
              ],
              [
                8.613219511851433,
                45.12889571623083
              ],
              [
                8.589732323091749,
                45.1380169545841
              ],
              [
                8.587052852000056,
                45.150411365000025
              ],
              [
                8.619349617444161,
                45.170510986166065
              ],
              [
                8.610583145000021,
                45.242864249000036
              ],
              [
                8.66147964300789,
                45.30285636603082
              ],
              [
                8.76364889000007,
                45.302242808000074
              ],
              [
                8.796686372000067,
                45.31862369400005
              ],
              [
                8.797426313001068,
                45.35154551544487
              ],
              [
                8.861717575813637,
                45.34715719175974
              ],
              [
                8.94818155735634,
                45.2941310587961
              ],
              [
                9.03819065812232,
                45.305011279767804
              ],
              [
                8.898720269443112,
                45.00470198760772
              ]
            ]
          ],
          [
            [
              [
                8.528736906000063,
                45.25249953900004
              ],
              [
                8.541333932000043,
                45.284616404000076
              ],
              [
                8.590058276000036,
                45.26596741600008
              ],
              [
                8.589345237000032,
                45.229236926000056
              ],
              [
                8.550246922000042,
                45.201610670000036
              ],
              [
                8.522438394000062,
                45.22178753000003
              ],
              [
                8.547038245000067,
                45.23124558500007
              ],
              [
                8.528736906000063,
                45.25249953900004
              ]
            ]
          ]
        ]
      }
    }
  ]
}