{
  "type": "FeatureCollection",
  "features": [
    {
      "type": "Feature",
      "properties": {
        "diocese": "Cathanien",
        "province": "Montis Regalis",
        "start": 1592,
        "end": 1775
      },
      "geometry": {
        "type": "MultiPolygon",
        "coordinates": [
          [
            [
              [
                14.030245677303771,
                37.10192265534293
              ],
              [
                14.032335088578389,
                37.101858562119595
              ],
              [
                14.024965556113369,
                37.12536561929003
              ],
              [
                13.977063595090732,
                37.16942167861598
              ],
              [
                14.013911257415836,
                37.28531313882338
              ],
              [
                14.017596023648345,
                37.311693867592886
              ],
              [
                14.04338938727592,
                37.320485387560645
              ],
              [
                14.03786223792715,
                37.3571056513875
              ],
              [
                14.063655601554725,
                37.37174875688994
              ],
              [
                14.054443685973448,
                37.39956278389326
              ],
              [
                14.150247608018715,
                37.47855682604014
              ],
              [
                14.118927095042379,
                37.53263421826567
              ],
              [
                14.140668494898978,
                37.60686269900583
              ],
              [
                14.13560864985709,
                37.60533567531139
              ],
              [
                14.152591900883337,
                37.610461094471674
              ],
              [
                14.142887186011194,
                37.678339547744535
              ],
              [
                14.243169239689982,
                37.69369964094181
              ],
              [
                14.273900836785094,
                37.71481457467148
              ],
              [
                14.287649182853958,
                37.7435979712752
              ],
              [
                14.284414277896579,
                37.825409556412566
              ],
              [
                14.296779566443478,
                37.83538242802908
              ],
              [
                14.298490468995508,
                37.83246967245352
              ],
              [
                14.374402893519383,
                37.83944099491632
              ],
              [
                14.40088397184166,
                37.85686641865032
              ],
              [
                14.452963425875476,
                37.84850272917731
              ],
              [
                14.478561801587018,
                37.80876224866467
              ],
              [
                14.497098556412615,
                37.804577795230756
              ],
              [
                14.504160177298555,
                37.84850272917731
              ],
              [
                14.57389368354723,
                37.87498449067663
              ],
              [
                14.569480170493515,
                37.82828656275968
              ],
              [
                14.63038665063476,
                37.791325461857625
              ],
              [
                14.68952772555452,
                37.79272055627392
              ],
              [
                14.753965016138734,
                37.81294646498867
              ],
              [
                14.799865551897357,
                37.802485479600364
              ],
              [
                14.793686633622155,
                37.84292640909314
              ],
              [
                14.762792042246163,
                37.84919973953902
              ],
              [
                14.757495826581707,
                37.826892140161014
              ],
              [
                14.731014748259426,
                37.836652544987196
              ],
              [
                14.73278015348091,
                37.857563349944165
              ],
              [
                14.770736365742842,
                37.89170491070752
              ],
              [
                14.764557447467643,
                37.90842153417939
              ],
              [
                14.798100146675868,
                37.95715666219055
              ],
              [
                14.820167711944435,
                37.92791946238663
              ],
              [
                14.82123146004896,
                37.9291038946205
              ],
              [
                14.821322478502486,
                37.92479691284831
              ],
              [
                14.847335779407377,
                37.86989799952567
              ],
              [
                14.932086254988787,
                37.808848774727636
              ],
              [
                14.998636024984952,
                37.753785319414824
              ],
              [
                15.013193787171613,
                37.72993916558947
              ],
              [
                15.078703717011587,
                37.70114909525438
              ],
              [
                15.104699720916338,
                37.673170887382774
              ],
              [
                15.075527853465514,
                37.62456914242782
              ],
              [
                15.086726207771505,
                37.57703926557338
              ],
              [
                15.117279229569466,
                37.52677682041599
              ],
              [
                15.103495672986748,
                37.51001563231037
              ],
              [
                15.086295271973874,
                37.4812057266804
              ],
              [
                15.09393989464626,
                37.41748124379322
              ],
              [
                15.09393989464626,
                37.36129804587852
              ],
              [
                15.093217060062443,
                37.35540670317345
              ],
              [
                15.092183990967644,
                37.359348923805975
              ],
              [
                15.012738977593562,
                37.37450255344619
              ],
              [
                14.966660869836591,
                37.3947026316709
              ],
              [
                14.918993861812142,
                37.413635262186965
              ],
              [
                14.896749258067402,
                37.38334075727763
              ],
              [
                14.804593042553464,
                37.36061184317016
              ],
              [
                14.791881840413616,
                37.34040258320165
              ],
              [
                14.907871559939771,
                37.31639702193833
              ],
              [
                14.866560152985251,
                37.27342056242115
              ],
              [
                14.81253754389087,
                37.26330488646578
              ],
              [
                14.796648541216054,
                37.23421474906773
              ],
              [
                14.810948643623393,
                37.20384785121656
              ],
              [
                14.890393656997475,
                37.18739401110925
              ],
              [
                14.882449155660066,
                37.17600079050352
              ],
              [
                14.85702675138036,
                37.17220266842615
              ],
              [
                14.860204551915322,
                37.145610468356686
              ],
              [
                14.80935974335591,
                37.14054422689331
              ],
              [
                14.780759538541243,
                37.122809709749035
              ],
              [
                14.783937339076203,
                37.10380382959295
              ],
              [
                14.709259026504563,
                37.108872530732356
              ],
              [
                14.68383662222486,
                37.08225806580314
              ],
              [
                14.634580713932928,
                37.113940892659016
              ],
              [
                14.602802708583294,
                37.10507103667808
              ],
              [
                14.601213808315814,
                37.07845523629938
              ],
              [
                14.556724600826328,
                37.060706176595154
              ],
              [
                14.54878009948892,
                37.08225806580314
              ],
              [
                14.491579689859577,
                37.064509896203106
              ],
              [
                14.45662388397498,
                37.06704560331806
              ],
              [
                14.448679382637573,
                37.05056199193645
              ],
              [
                14.41054577621801,
                37.042952963515624
              ],
              [
                14.374001070065933,
                37.04041645121022
              ],
              [
                14.331715365519843,
                37.01165845301723
              ],
              [
                14.281698735705028,
                37.047725343129486
              ],
              [
                14.184229796632081,
                37.09042335487147
              ],
              [
                14.094405480231522,
                37.102618371188555
              ],
              [
                14.031337343184319,
                37.10109410149163
              ],
              [
                14.030245677303771,
                37.10192265534293
              ]
            ]
          ],
          [
            [
              [
                14.044673598849668,
                37.631169984103266
              ],
              [
                14.070101824470145,
                37.6296782705084
              ],
              [
                14.044673598849666,
                37.631169984103266
              ],
              [
                14.044673598849668,
                37.631169984103266
              ]
            ]
          ]
        ]
      }
    },
    {
      "type": "Feature",
      "properties": {
        "diocese": "Montis Regalis",
        "province": "Montis Regalis",
        "start": 1592,
        "end": 1775
      },
      "geometry": {
        "type": "MultiPolygon",
        "coordinates": [
          [
            [
              [
                13.034600886955904,
                38.06060915103487
              ],
              [
                13.07751293008881,
                38.09438853547285
              ],
              [
                13.052755982127518,
                38.13074888221087
              ],
              [
                13.069260614101712,
                38.147624318218504
              ],
              [
                13.07421200369397,
                38.17747129723041
              ],
              [
                13.10887173083978,
                38.195633040702035
              ],
              [
                13.151783773972683,
                38.18395815398646
              ],
              [
                13.155084700367523,
                38.169686306802845
              ],
              [
                13.197996743500429,
                38.167091125197544
              ],
              [
                13.237607860238493,
                38.19174161972598
              ],
              [
                13.222753691461717,
                38.10737645147694
              ],
              [
                13.287121756161078,
                38.106077763763395
              ],
              [
                13.288772219358496,
                38.05541093788825
              ],
              [
                13.30197592493785,
                38.04241378969619
              ],
              [
                13.34653843126818,
                38.03851419528368
              ],
              [
                13.371295379229466,
                38.00080741103068
              ],
              [
                13.371295379229466,
                37.95657475420803
              ],
              [
                13.396052327190759,
                37.90319992508683
              ],
              [
                13.349839357663013,
                37.83935968041384
              ],
              [
                13.363043063242372,
                37.81459041884576
              ],
              [
                13.399353253585598,
                37.832842259762145
              ],
              [
                13.430712054336567,
                37.832842259762145
              ],
              [
                13.467022244679793,
                37.76241743442235
              ],
              [
                13.50828382461528,
                37.74806340669664
              ],
              [
                13.498381045430762,
                37.725874432087664
              ],
              [
                13.467022244679793,
                37.73109596558448
              ],
              [
                13.44721668631076,
                37.69714941762494
              ],
              [
                13.407605569572697,
                37.699761242688425
              ],
              [
                13.379557256578842,
                37.664240643930846
              ],
              [
                13.376446699191558,
                37.66692704473868
              ],
              [
                13.288012309611307,
                37.67421862144452
              ],
              [
                13.249322264169951,
                37.6348355969338
              ],
              [
                13.223528900542378,
                37.639212520010304
              ],
              [
                13.160887874589704,
                37.72086774463153
              ],
              [
                13.006473592737242,
                37.75139658933189
              ],
              [
                13.065574595075564,
                37.79588850032308
              ],
              [
                13.071562675406694,
                37.82033195926383
              ],
              [
                12.976751403497117,
                37.815601598690684
              ],
              [
                12.93583285456772,
                37.84476732613883
              ],
              [
                12.941282269712481,
                37.869171666453425
              ],
              [
                12.9152985885977,
                37.883272221997984
              ],
              [
                12.933162369364114,
                37.91402774915049
              ],
              [
                13.02897719347487,
                37.91018401108952
              ],
              [
                13.041969034032258,
                37.93068162662635
              ],
              [
                13.006241472499434,
                37.9690992557343
              ],
              [
                13.006241472499434,
                38.010055913333034
              ],
              [
                12.963526842582272,
                38.03649402800932
              ],
              [
                13.01644579178429,
                38.06320811914343
              ],
              [
                13.034600886955904,
                38.06060915103487
              ]
            ]
          ],
          [
            [
              [
                12.944249815233796,
                37.736304131785374
              ],
              [
                12.969765309777461,
                37.7485555985299
              ],
              [
                12.944249815233798,
                37.736304131785374
              ],
              [
                12.944249815233796,
                37.736304131785374
              ]
            ]
          ]
        ]
      }
    },
    {
      "type": "Feature",
      "properties": {
        "diocese": "Syracusen",
        "province": "Montis Regalis",
        "start": 1592,
        "end": 1775
      },
      "geometry": {
        "type": "Polygon",
        "coordinates": [
          [
            [
              14.331100762843933,
              37.01124046914224
            ],
            [
              14.448679382637573,
              36.87154828731909
            ],
            [
              14.466157285579872,
              36.81432770298866
            ],
            [
              14.494757490394543,
              36.778702179153655
            ],
            [
              14.591680406710921,
              36.76979320949232
            ],
            [
              14.660003118212636,
              36.7570643140867
            ],
            [
              14.69337002382975,
              36.71122280061572
            ],
            [
              14.756926034529014,
              36.707401439052035
            ],
            [
              14.803004142285983,
              36.695936214195065
            ],
            [
              14.879271355125102,
              36.720138571872596
            ],
            [
              14.933293964219482,
              36.712496545572826
            ],
            [
              14.965071969569113,
              36.688291780894396
            ],
            [
              15.001616675721193,
              36.68574346757349
            ],
            [
              15.030216880535862,
              36.694662194757214
            ],
            [
              15.077883888560311,
              36.644958972135996
            ],
            [
              15.106484093374982,
              36.642409223641906
            ],
            [
              15.141439899259579,
              36.66662842629899
            ],
            [
              15.131906497654684,
              36.73287359293949
            ],
            [
              15.092183990967644,
              36.78251999205912
            ],
            [
              15.11283969444491,
              36.841035970661295
            ],
            [
              15.155740001666913,
              36.8753614703866
            ],
            [
              15.174806804876695,
              36.9249155247072
            ],
            [
              15.219296012366181,
              36.95412462320342
            ],
            [
              15.265374120123147,
              36.97443739181485
            ],
            [
              15.289207624135376,
              37.00489638161456
            ],
            [
              15.305096626810187,
              37.00743408016423
            ],
            [
              15.328930130822416,
              36.989668411363546
            ],
            [
              15.349585834299672,
              37.00489638161456
            ],
            [
              15.317807828950043,
              37.04168471795626
            ],
            [
              15.292385424670336,
              37.03280640582858
            ],
            [
              15.276496421995521,
              37.051830089181536
            ],
            [
              15.290796524402854,
              37.061974104322175
            ],
            [
              15.306685527077672,
              37.061974104322175
            ],
            [
              15.301918826275223,
              37.110139653015864
            ],
            [
              15.241540616110926,
              37.113940892659016
            ],
            [
              15.19069580755151,
              37.20384785121656
            ],
            [
              15.20976261076129,
              37.23674477204132
            ],
            [
              15.246307316913365,
              37.2240938081218
            ],
            [
              15.265374120123147,
              37.22915444840091
            ],
            [
              15.259018519053221,
              37.25951115763435
            ],
            [
              15.212940411296254,
              37.29238379171935
            ],
            [
              15.163684503004323,
              37.29491186125282
            ],
            [
              15.111250794177426,
              37.317660663739396
            ],
            [
              15.100128492305053,
              37.329032483942385
            ],
            [
              15.092183990967644,
              37.359348923805975
            ],
            [
              15.012738977593562,
              37.37450255344619
            ],
            [
              14.966660869836591,
              37.3947026316709
            ],
            [
              14.918993861812142,
              37.413635262186965
            ],
            [
              14.896749258067402,
              37.38334075727763
            ],
            [
              14.804593042553464,
              37.36061184317016
            ],
            [
              14.791881840413616,
              37.34040258320165
            ],
            [
              14.907871559939771,
              37.31639702193833
            ],
            [
              14.866560152985251,
              37.27342056242115
            ],
            [
              14.81253754389087,
              37.26330488646578
            ],
            [
              14.796648541216054,
              37.23421474906773
            ],
            [
              14.810948643623393,
              37.20384785121656
            ],
            [
              14.890393656997475,
              37.18739401110925
            ],
            [
              14.882449155660066,
              37.17600079050352
            ],
            [
              14.85702675138036,
              37.17220266842615
            ],
            [
              14.860204551915322,
              37.145610468356686
            ],
            [
              14.80935974335591,
              37.14054422689331
            ],
            [
              14.780759538541243,
              37.122809709749035
            ],
            [
              14.783937339076203,
              37.10380382959295
            ],
            [
              14.709259026504563,
              37.108872530732356
            ],
            [
              14.68383662222486,
              37.08225806580314
            ],
            [
              14.634580713932928,
              37.113940892659016
            ],
            [
              14.602802708583294,
              37.10507103667808
            ],
            [
              14.601213808315814,
              37.07845523629938
            ],
            [
              14.556724600826328,
              37.060706176595154
            ],
            [
              14.54878009948892,
              37.08225806580314
            ],
            [
              14.491579689859577,
              37.064509896203106
            ],
            [
              14.45662388397498,
              37.06704560331806
            ],
            [
              14.448679382637573,
              37.05056199193645
            ],
            [
              14.41054577621801,
              37.042952963515624
            ],
            [
              14.374001070065933,
              37.04041645121022
            ],
            [
              14.331100762843933,
              37.01124046914224
            ]
          ]
        ]
      }
    }
  ]
}