{
    "type": "FeatureCollection",
    "name": "Cathanien",
    "features": [
        {
            "type": "Feature",
            "properties": {
                "diocese": "Cathanien",
                "province": "Montis Regalis",
                "date": 1592
            },
            "geometry": {
                "type": "MultiPolygon",
                "coordinates": [
                    [
                        [
                            [
                                14.030245677303771,
                                37.101922655342932
                            ],
                            [
                                14.032335088578389,
                                37.101858562119595
                            ],
                            [
                                14.024965556113369,
                                37.125365619290029
                            ],
                            [
                                13.977063595090732,
                                37.169421678615983
                            ],
                            [
                                14.013911257415836,
                                37.285313138823383
                            ],
                            [
                                14.017596023648345,
                                37.311693867592886
                            ],
                            [
                                14.043389387275919,
                                37.320485387560645
                            ],
                            [
                                14.03786223792715,
                                37.357105651387499
                            ],
                            [
                                14.063655601554725,
                                37.371748756889943
                            ],
                            [
                                14.054443685973448,
                                37.399562783893259
                            ],
                            [
                                14.150247608018715,
                                37.47855682604014
                            ],
                            [
                                14.118927095042379,
                                37.53263421826567
                            ],
                            [
                                14.140668494898978,
                                37.606862699005831
                            ],
                            [
                                14.13560864985709,
                                37.605335675311387
                            ],
                            [
                                14.152591900883337,
                                37.610461094471674
                            ],
                            [
                                14.142887186011194,
                                37.678339547744535
                            ],
                            [
                                14.243169239689982,
                                37.693699640941809
                            ],
                            [
                                14.273900836785094,
                                37.714814574671479
                            ],
                            [
                                14.287649182853958,
                                37.7435979712752
                            ],
                            [
                                14.284414277896579,
                                37.825409556412566
                            ],
                            [
                                14.296779566443478,
                                37.835382428029078
                            ],
                            [
                                14.298490468995508,
                                37.83246967245352
                            ],
                            [
                                14.374402893519383,
                                37.839440994916323
                            ],
                            [
                                14.40088397184166,
                                37.85686641865032
                            ],
                            [
                                14.452963425875476,
                                37.848502729177312
                            ],
                            [
                                14.478561801587018,
                                37.808762248664671
                            ],
                            [
                                14.497098556412615,
                                37.804577795230756
                            ],
                            [
                                14.504160177298555,
                                37.848502729177312
                            ],
                            [
                                14.573893683547229,
                                37.874984490676631
                            ],
                            [
                                14.569480170493515,
                                37.828286562759679
                            ],
                            [
                                14.63038665063476,
                                37.791325461857625
                            ],
                            [
                                14.68952772555452,
                                37.79272055627392
                            ],
                            [
                                14.753965016138734,
                                37.81294646498867
                            ],
                            [
                                14.799865551897357,
                                37.802485479600364
                            ],
                            [
                                14.793686633622155,
                                37.842926409093138
                            ],
                            [
                                14.762792042246163,
                                37.849199739539017
                            ],
                            [
                                14.757495826581707,
                                37.826892140161014
                            ],
                            [
                                14.731014748259426,
                                37.836652544987196
                            ],
                            [
                                14.73278015348091,
                                37.857563349944165
                            ],
                            [
                                14.770736365742842,
                                37.891704910707517
                            ],
                            [
                                14.764557447467643,
                                37.908421534179389
                            ],
                            [
                                14.798100146675868,
                                37.957156662190549
                            ],
                            [
                                14.820167711944435,
                                37.927919462386633
                            ],
                            [
                                14.82123146004896,
                                37.929103894620503
                            ],
                            [
                                14.821322478502486,
                                37.924796912848308
                            ],
                            [
                                14.847335779407377,
                                37.869897999525669
                            ],
                            [
                                14.932086254988787,
                                37.808848774727636
                            ],
                            [
                                14.998636024984952,
                                37.753785319414824
                            ],
                            [
                                15.013193787171613,
                                37.729939165589471
                            ],
                            [
                                15.078703717011587,
                                37.70114909525438
                            ],
                            [
                                15.104699720916338,
                                37.673170887382774
                            ],
                            [
                                15.075527853465514,
                                37.624569142427823
                            ],
                            [
                                15.086726207771505,
                                37.577039265573383
                            ],
                            [
                                15.117279229569466,
                                37.526776820415989
                            ],
                            [
                                15.103495672986748,
                                37.51001563231037
                            ],
                            [
                                15.086295271973874,
                                37.4812057266804
                            ],
                            [
                                15.09393989464626,
                                37.417481243793219
                            ],
                            [
                                15.09393989464626,
                                37.36129804587852
                            ],
                            [
                                15.093217060062443,
                                37.35540670317345
                            ],
                            [
                                15.092183990967644,
                                37.359348923805975
                            ],
                            [
                                15.012738977593562,
                                37.374502553446192
                            ],
                            [
                                14.966660869836591,
                                37.394702631670903
                            ],
                            [
                                14.918993861812142,
                                37.413635262186965
                            ],
                            [
                                14.896749258067402,
                                37.38334075727763
                            ],
                            [
                                14.804593042553464,
                                37.360611843170162
                            ],
                            [
                                14.791881840413616,
                                37.340402583201652
                            ],
                            [
                                14.907871559939771,
                                37.316397021938329
                            ],
                            [
                                14.866560152985251,
                                37.273420562421151
                            ],
                            [
                                14.812537543890871,
                                37.263304886465782
                            ],
                            [
                                14.796648541216054,
                                37.234214749067732
                            ],
                            [
                                14.810948643623393,
                                37.203847851216558
                            ],
                            [
                                14.890393656997475,
                                37.187394011109248
                            ],
                            [
                                14.882449155660066,
                                37.176000790503522
                            ],
                            [
                                14.85702675138036,
                                37.172202668426152
                            ],
                            [
                                14.860204551915322,
                                37.145610468356686
                            ],
                            [
                                14.809359743355911,
                                37.140544226893311
                            ],
                            [
                                14.780759538541243,
                                37.122809709749035
                            ],
                            [
                                14.783937339076203,
                                37.103803829592948
                            ],
                            [
                                14.709259026504563,
                                37.108872530732356
                            ],
                            [
                                14.68383662222486,
                                37.082258065803138
                            ],
                            [
                                14.634580713932928,
                                37.113940892659016
                            ],
                            [
                                14.602802708583294,
                                37.105071036678083
                            ],
                            [
                                14.601213808315814,
                                37.078455236299376
                            ],
                            [
                                14.556724600826328,
                                37.060706176595154
                            ],
                            [
                                14.548780099488919,
                                37.082258065803138
                            ],
                            [
                                14.491579689859577,
                                37.064509896203106
                            ],
                            [
                                14.456623883974981,
                                37.067045603318057
                            ],
                            [
                                14.448679382637573,
                                37.050561991936448
                            ],
                            [
                                14.41054577621801,
                                37.042952963515624
                            ],
                            [
                                14.374001070065933,
                                37.04041645121022
                            ],
                            [
                                14.331715365519843,
                                37.011658453017233
                            ],
                            [
                                14.281698735705028,
                                37.047725343129486
                            ],
                            [
                                14.184229796632081,
                                37.090423354871469
                            ],
                            [
                                14.094405480231522,
                                37.102618371188555
                            ],
                            [
                                14.031337343184319,
                                37.101094101491633
                            ],
                            [
                                14.030245677303771,
                                37.101922655342932
                            ]
                        ]
                    ],
                    [
                        [
                            [
                                14.044673598849668,
                                37.631169984103266
                            ],
                            [
                                14.070101824470145,
                                37.6296782705084
                            ],
                            [
                                14.044673598849666,
                                37.631169984103266
                            ],
                            [
                                14.044673598849668,
                                37.631169984103266
                            ]
                        ]
                    ]
                ]
            }
        }
    ]
}