{
    "type": "FeatureCollection",
    "name": "Syracusen",
    "features": [
        {
            "type": "Feature",
            "properties": {
                "diocese": "Syracusen",
                "province": "Montis Regalis",
                "date": 1592
            },
            "geometry": {
                "type": "Polygon",
                "coordinates": [
                    [
                        [
                            14.331100762843933,
                            37.011240469142237
                        ],
                        [
                            14.448679382637573,
                            36.871548287319087
                        ],
                        [
                            14.466157285579872,
                            36.814327702988663
                        ],
                        [
                            14.494757490394543,
                            36.778702179153655
                        ],
                        [
                            14.591680406710921,
                            36.76979320949232
                        ],
                        [
                            14.660003118212636,
                            36.757064314086698
                        ],
                        [
                            14.69337002382975,
                            36.711222800615722
                        ],
                        [
                            14.756926034529014,
                            36.707401439052035
                        ],
                        [
                            14.803004142285983,
                            36.695936214195065
                        ],
                        [
                            14.879271355125102,
                            36.720138571872596
                        ],
                        [
                            14.933293964219482,
                            36.712496545572826
                        ],
                        [
                            14.965071969569113,
                            36.688291780894396
                        ],
                        [
                            15.001616675721193,
                            36.685743467573488
                        ],
                        [
                            15.030216880535862,
                            36.694662194757214
                        ],
                        [
                            15.077883888560311,
                            36.644958972135996
                        ],
                        [
                            15.106484093374982,
                            36.642409223641906
                        ],
                        [
                            15.141439899259579,
                            36.666628426298992
                        ],
                        [
                            15.131906497654684,
                            36.732873592939491
                        ],
                        [
                            15.092183990967644,
                            36.782519992059122
                        ],
                        [
                            15.11283969444491,
                            36.841035970661295
                        ],
                        [
                            15.155740001666913,
                            36.875361470386601
                        ],
                        [
                            15.174806804876695,
                            36.924915524707203
                        ],
                        [
                            15.219296012366181,
                            36.95412462320342
                        ],
                        [
                            15.265374120123147,
                            36.974437391814853
                        ],
                        [
                            15.289207624135376,
                            37.004896381614557
                        ],
                        [
                            15.305096626810187,
                            37.007434080164231
                        ],
                        [
                            15.328930130822416,
                            36.989668411363546
                        ],
                        [
                            15.349585834299672,
                            37.004896381614557
                        ],
                        [
                            15.317807828950043,
                            37.041684717956258
                        ],
                        [
                            15.292385424670336,
                            37.03280640582858
                        ],
                        [
                            15.276496421995521,
                            37.051830089181536
                        ],
                        [
                            15.290796524402854,
                            37.061974104322175
                        ],
                        [
                            15.306685527077672,
                            37.061974104322175
                        ],
                        [
                            15.301918826275223,
                            37.110139653015864
                        ],
                        [
                            15.241540616110926,
                            37.113940892659016
                        ],
                        [
                            15.19069580755151,
                            37.203847851216558
                        ],
                        [
                            15.20976261076129,
                            37.23674477204132
                        ],
                        [
                            15.246307316913365,
                            37.2240938081218
                        ],
                        [
                            15.265374120123147,
                            37.229154448400912
                        ],
                        [
                            15.259018519053221,
                            37.25951115763435
                        ],
                        [
                            15.212940411296254,
                            37.292383791719352
                        ],
                        [
                            15.163684503004323,
                            37.294911861252821
                        ],
                        [
                            15.111250794177426,
                            37.317660663739396
                        ],
                        [
                            15.100128492305053,
                            37.329032483942385
                        ],
                        [
                            15.092183990967644,
                            37.359348923805975
                        ],
                        [
                            15.012738977593562,
                            37.374502553446192
                        ],
                        [
                            14.966660869836591,
                            37.394702631670903
                        ],
                        [
                            14.918993861812142,
                            37.413635262186965
                        ],
                        [
                            14.896749258067402,
                            37.38334075727763
                        ],
                        [
                            14.804593042553464,
                            37.360611843170162
                        ],
                        [
                            14.791881840413616,
                            37.340402583201652
                        ],
                        [
                            14.907871559939771,
                            37.316397021938329
                        ],
                        [
                            14.866560152985251,
                            37.273420562421151
                        ],
                        [
                            14.812537543890871,
                            37.263304886465782
                        ],
                        [
                            14.796648541216054,
                            37.234214749067732
                        ],
                        [
                            14.810948643623393,
                            37.203847851216558
                        ],
                        [
                            14.890393656997475,
                            37.187394011109248
                        ],
                        [
                            14.882449155660066,
                            37.176000790503522
                        ],
                        [
                            14.85702675138036,
                            37.172202668426152
                        ],
                        [
                            14.860204551915322,
                            37.145610468356686
                        ],
                        [
                            14.809359743355911,
                            37.140544226893311
                        ],
                        [
                            14.780759538541243,
                            37.122809709749035
                        ],
                        [
                            14.783937339076203,
                            37.103803829592948
                        ],
                        [
                            14.709259026504563,
                            37.108872530732356
                        ],
                        [
                            14.68383662222486,
                            37.082258065803138
                        ],
                        [
                            14.634580713932928,
                            37.113940892659016
                        ],
                        [
                            14.602802708583294,
                            37.105071036678083
                        ],
                        [
                            14.601213808315814,
                            37.078455236299376
                        ],
                        [
                            14.556724600826328,
                            37.060706176595154
                        ],
                        [
                            14.548780099488919,
                            37.082258065803138
                        ],
                        [
                            14.491579689859577,
                            37.064509896203106
                        ],
                        [
                            14.456623883974981,
                            37.067045603318057
                        ],
                        [
                            14.448679382637573,
                            37.050561991936448
                        ],
                        [
                            14.41054577621801,
                            37.042952963515624
                        ],
                        [
                            14.374001070065933,
                            37.04041645121022
                        ],
                        [
                            14.331100762843933,
                            37.011240469142237
                        ]
                    ]
                ]
            }
        }
    ]
}