{"type": "FeatureCollection", "features": [{"type": "Feature", "properties": {"diocese": "AVIGNON", "province": "XX_Avignon"}, "geometry": {"type": "Polygon", "coordinates": [[[5.139058458227783, 43.75255904675198], [5.129699469254103, 43.75708598060679], [5.120340480280422, 43.76161291446159], [5.110981491306742, 43.766139848316406], [5.101622502333065, 43.77066678217121], [5.0922635133593825, 43.77519371602601], [5.082904524385702, 43.779720649880815], [5.073545535412023, 43.78424758373563], [5.064186546438343, 43.788774517590426], [5.054827557464662, 43.79330145144523], [5.045468568490982, 43.79782838530003], [5.045468568490982, 43.79782838530003], [5.043143243497633, 43.80342004066159], [5.040817918504283, 43.809011696023155], [5.038492593510933, 43.814603351384704], [5.036167268517584, 43.82019500674625], [5.033841943524235, 43.82578666210782], [5.031516618530883, 43.83137831746937], [5.029191293537535, 43.83696997283092], [5.026865968544184, 43.842561628192485], [5.024540643550836, 43.84815328355403], [5.022215318557485, 43.8537449389156], [5.022215318557485, 43.8537449389156], [5.01318274317293, 43.8584855866371], [5.004150167788374, 43.8632262343586], [4.995117592403821, 43.86796688208012], [4.986085017019267, 43.872707529801616], [4.97705244163471, 43.877448177523135], [4.968019866250154, 43.88218882524463], [4.958987290865599, 43.88692947296613], [4.949954715481045, 43.89167012068765], [4.940922140096491, 43.89641076840915], [4.931889564711936, 43.901151416130666], [4.931889564711936, 43.901151416130666], [4.929068710125346, 43.90137293141458], [4.92624785553876, 43.901594446698496], [4.923427000952174, 43.90181596198242], [4.9206061463655875, 43.90203747726634], [4.917785291778998, 43.90225899255027], [4.91496443719241, 43.902480507834184], [4.9121435826058235, 43.9027020231181], [4.909322728019237, 43.902923538402035], [4.906501873432649, 43.90314505368595], [4.903681018846063, 43.90336656896987], [4.903681018846063, 43.90336656896987], [4.902467156240906, 43.905272002729724], [4.901253293635751, 43.90717743648957], [4.900039431030596, 43.90908287024942], [4.8988255684254405, 43.91098830400926], [4.8976117058202835, 43.91289373776912], [4.8963978432151265, 43.91479917152896], [4.895183980609973, 43.91670460528881], [4.893970118004816, 43.91861003904866], [4.892756255399663, 43.9205154728085], [4.891542392794506, 43.92242090656836], [4.891542392794506, 43.92242090656836], [4.895395521872802, 43.92548021349999], [4.899248650951099, 43.92853952043161], [4.903101780029401, 43.93159882736323], [4.906954909107698, 43.934658134294864], [4.910808038185994, 43.93771744122649], [4.91466116726429, 43.94077674815812], [4.91851429634259, 43.94383605508974], [4.922367425420889, 43.94689536202137], [4.926220554499187, 43.949954668953], [4.930073683577483, 43.95301397588462], [4.930073683577483, 43.95301397588462], [4.933154684268709, 43.954699301395124], [4.936235684959936, 43.95638462690563], [4.939316685651159, 43.958069952416125], [4.9423976863423835, 43.959755277926625], [4.94547868703361, 43.96144060343713], [4.948559687724835, 43.96312592894763], [4.9516406884160595, 43.964811254458134], [4.954721689107284, 43.966496579968634], [4.957802689798513, 43.968181905479135], [4.960883690489737, 43.96986723098964], [4.960883690489737, 43.96986723098964], [4.966653805960629, 43.96951403902396], [4.9724239214315205, 43.969160847058305], [4.978194036902412, 43.96880765509263], [4.983964152373304, 43.96845446312695], [4.9897342678442005, 43.968101271161295], [4.995504383315092, 43.96774807919562], [5.001274498785984, 43.96739488722996], [5.007044614256875, 43.967041695264285], [5.012814729727767, 43.96668850329861], [5.018584845198662, 43.96633531133295], [5.018584845198662, 43.96633531133295], [5.008651200561337, 43.979704930069495], [4.998717555924012, 43.99307454880604], [4.9887839112866885, 44.0064441675426], [4.978850266649362, 44.019813786279144], [4.968916622012042, 44.03318340501569], [4.958982977374715, 44.046553023752246], [4.949049332737392, 44.05992264248879], [4.939115688100067, 44.07329226122535], [4.929182043462744, 44.086661879961895], [4.9192483988254185, 44.10003149869845], [4.9192483988254185, 44.10003149869845], [4.915595491101351, 44.10303872385307], [4.911942583377286, 44.106045949007694], [4.908289675653217, 44.10905317416231], [4.904636767929151, 44.112060399316945], [4.900983860205082, 44.11506762447157], [4.897330952481017, 44.11807484962619], [4.8936780447569515, 44.121082074780816], [4.890025137032882, 44.12408929993544], [4.886372229308815, 44.127096525090074], [4.8827193215847515, 44.13010375024469], [4.8827193215847515, 44.13010375024469], [4.877485401823062, 44.129681578361186], [4.872251482061374, 44.12925940647768], [4.867017562299688, 44.12883723459417], [4.8617836425380005, 44.12841506271066], [4.856549722776311, 44.12799289082716], [4.851315803014623, 44.12757071894365], [4.846081883252937, 44.12714854706014], [4.840847963491248, 44.12672637517664], [4.835614043729562, 44.126304203293124], [4.830380123967874, 44.12588203140962], [4.830380123967874, 44.12588203140962], [4.821655963759429, 44.123929268888546], [4.812931803550983, 44.12197650636748], [4.80420764334254, 44.12002374384642], [4.795483483134092, 44.11807098132535], [4.786759322925649, 44.11611821880428], [4.778035162717204, 44.11416545628322], [4.769311002508758, 44.11221269376215], [4.760586842300313, 44.11025993124108], [4.751862682091868, 44.10830716872002], [4.743138521883424, 44.106354406198946], [4.743138521883424, 44.106354406198946], [4.739316468474664, 44.10656708475612], [4.735494415065904, 44.10677976331329], [4.731672361657145, 44.10699244187046], [4.727850308248385, 44.107205120427636], [4.7240282548396255, 44.10741779898481], [4.720206201430866, 44.107630477541974], [4.716384148022106, 44.10784315609916], [4.712562094613347, 44.10805583465633], [4.708740041204589, 44.1082685132135], [4.704917987795827, 44.10848119177067], [4.704917987795827, 44.10848119177067], [4.698887955076435, 44.107046118281964], [4.692857922357042, 44.10561104479326], [4.686827889637648, 44.10417597130455], [4.680797856918256, 44.10274089781584], [4.674767824198861, 44.10130582432713], [4.668737791479469, 44.09987075083843], [4.6627077587600745, 44.09843567734971], [4.65667772604068, 44.097000603861005], [4.650647693321288, 44.0955655303723], [4.644617660601895, 44.0941304568836], [4.644617660601895, 44.0941304568836], [4.643885888748011, 44.091246072704955], [4.6431541168941255, 44.08836168852631], [4.6424223450402415, 44.08547730434767], [4.641690573186358, 44.08259292016903], [4.640958801332474, 44.07970853599039], [4.6402270294785914, 44.07682415181175], [4.639495257624706, 44.07393976763311], [4.63876348577082, 44.07105538345447], [4.638031713916936, 44.06817099927583], [4.637299942063052, 44.06528661509719], [4.637299942063052, 44.06528661509719], [4.635665935175009, 44.06403318160069], [4.6340319282869675, 44.062779748104184], [4.632397921398921, 44.061526314607676], [4.630763914510878, 44.06027288111117], [4.6291299076228345, 44.059019447614666], [4.627495900734793, 44.05776601411815], [4.62586189384675, 44.05651258062164], [4.624227886958705, 44.055259147125135], [4.622593880070662, 44.05400571362863], [4.6209598731826205, 44.05275228013212], [4.6209598731826205, 44.05275228013212], [4.6209468037871115, 44.0459807421821], [4.620933734391601, 44.03920920423207], [4.620920664996092, 44.03243766628205], [4.620907595600581, 44.025666128332034], [4.620894526205072, 44.01889459038201], [4.620881456809563, 44.01212305243198], [4.620868387414053, 44.005351514481966], [4.620855318018544, 43.99857997653194], [4.620842248623033, 43.99180843858192], [4.620829179227524, 43.98503690063189], [4.620829179227524, 43.98503690063189], [4.622823144584114, 43.98466138115581], [4.624817109940704, 43.98428586167973], [4.62681107529729, 43.98391034220365], [4.62880504065388, 43.98353482272756], [4.6307990060104665, 43.98315930325148], [4.632792971367056, 43.98278378377541], [4.634786936723646, 43.98240826429933], [4.636780902080234, 43.98203274482325], [4.638774867436821, 43.98165722534716], [4.640768832793411, 43.98128170587108], [4.640768832793411, 43.98128170587108], [4.644208223863242, 43.97814835915211], [4.647647614933071, 43.97501501243312], [4.6510870060029, 43.97188166571414], [4.654526397072731, 43.968748318995154], [4.657965788142558, 43.96561497227618], [4.661405179212387, 43.962481625557196], [4.664844570282218, 43.95934827883822], [4.6682839613520475, 43.95621493211924], [4.671723352421878, 43.95308158540025], [4.675162743491708, 43.94994823868127], [4.675162743491708, 43.94994823868127], [4.674611136817163, 43.94593584816911], [4.674059530142616, 43.94192345765694], [4.6735079234680725, 43.937911067144775], [4.6729563167935275, 43.933898676632616], [4.6724047101189825, 43.92988628612046], [4.671853103444439, 43.92587389560829], [4.671301496769894, 43.92186150509613], [4.670749890095349, 43.917849114583966], [4.6701982834208025, 43.91383672407181], [4.669646676746259, 43.909824333559634], [4.669646676746259, 43.909824333559634], [4.666923923574858, 43.90882057717143], [4.664201170403455, 43.90781682078322], [4.661478417232054, 43.906813064395], [4.658755664060651, 43.90580930800679], [4.656032910889248, 43.90480555161857], [4.6533101577178435, 43.90380179523037], [4.650587404546442, 43.90279803884216], [4.647864651375041, 43.90179428245394], [4.6451418982036365, 43.900790526065734], [4.642419145032235, 43.89978676967751], [4.642419145032235, 43.89978676967751], [4.642959377197865, 43.8979057798318], [4.643499609363493, 43.896024789986086], [4.644039841529123, 43.89414380014037], [4.644580073694755, 43.89226281029465], [4.645120305860381, 43.89038182044893], [4.645660538026011, 43.88850083060321], [4.646200770191641, 43.88661984075749], [4.64674100235727, 43.88473885091178], [4.6472812345229, 43.882857861066064], [4.64782146668853, 43.88097687122035], [4.64782146668853, 43.88097687122035], [4.649099072862414, 43.879308603934476], [4.650376679036295, 43.87764033664862], [4.65165428521018, 43.87597206936275], [4.652931891384064, 43.87430380207689], [4.654209497557948, 43.87263553479103], [4.655487103731833, 43.87096726750516], [4.6567647099057154, 43.8692990002193], [4.658042316079598, 43.867630732933435], [4.6593199222534825, 43.86596246564758], [4.660597528427367, 43.864294198361705], [4.660597528427367, 43.864294198361705], [4.657259548354407, 43.862342780039256], [4.653921568281449, 43.860391361716815], [4.650583588208486, 43.85843994339437], [4.647245608135526, 43.856488525071924], [4.643907628062566, 43.854537106749476], [4.640569647989604, 43.852585688427034], [4.6372316679166445, 43.850634270104585], [4.633893687843685, 43.84868285178215], [4.630555707770723, 43.846731433459695], [4.627217727697765, 43.84478001513725], [4.627217727697765, 43.84478001513725], [4.629010159183856, 43.84327316715879], [4.630802590669951, 43.84176631918034], [4.632595022156043, 43.84025947120187], [4.634387453642136, 43.838752623223414], [4.636179885128229, 43.83724577524495], [4.637972316614325, 43.8357389272665], [4.6397647481004185, 43.834232079288036], [4.641557179586512, 43.832725231309574], [4.6433496110726065, 43.83121838333112], [4.645142042558698, 43.82971153535265], [4.645142042558698, 43.82971153535265], [4.646033249666932, 43.82634253517435], [4.6469244567751655, 43.822973534996045], [4.647815663883398, 43.81960453481775], [4.6487068709916315, 43.816235534639446], [4.649598078099864, 43.81286653446114], [4.650489285208099, 43.80949753428285], [4.651380492316331, 43.80612853410454], [4.652271699424565, 43.802759533926235], [4.653162906532799, 43.799390533747925], [4.654054113641031, 43.79602153356963], [4.654054113641031, 43.79602153356963], [4.6591883691386435, 43.79841674484789], [4.664322624636258, 43.800811956126154], [4.669456880133868, 43.803207167404416], [4.674591135631482, 43.80560237868268], [4.679725391129095, 43.80799758996094], [4.684859646626709, 43.810392801239196], [4.689993902124321, 43.812788012517466], [4.6951281576219355, 43.81518322379572], [4.700262413119548, 43.81757843507399], [4.70539666861716, 43.819973646352246], [4.70539666861716, 43.819973646352246], [4.709507376980065, 43.82360986881605], [4.71361808534297, 43.82724609127987], [4.717728793705875, 43.83088231374367], [4.7218395020687804, 43.83451853620748], [4.7259502104316855, 43.838154758671294], [4.730060918794591, 43.8417909811351], [4.734171627157496, 43.84542720359891], [4.738282335520401, 43.84906342606272], [4.742393043883306, 43.85269964852653], [4.746503752246209, 43.856335870990335], [4.746503752246209, 43.856335870990335], [4.75227660565143, 43.85740126232483], [4.758049459056652, 43.85846665365933], [4.763822312461876, 43.85953204499381], [4.769595165867095, 43.860597436328305], [4.775368019272317, 43.86166282766279], [4.781140872677536, 43.86272821899729], [4.786913726082759, 43.86379361033178], [4.792686579487981, 43.86485900166627], [4.7984594328932015, 43.86592439300076], [4.804232286298424, 43.86698978433527], [4.804232286298424, 43.86698978433527], [4.804999459506828, 43.86583736716314], [4.805766632715233, 43.864684949991], [4.806533805923641, 43.86353253281888], [4.8073009791320445, 43.86238011564676], [4.80806815234045, 43.86122769847463], [4.808835325548856, 43.86007528130251], [4.809602498757259, 43.858922864130385], [4.810369671965667, 43.857770446958256], [4.811136845174072, 43.85661802978613], [4.811904018382476, 43.855465612614005], [4.811904018382476, 43.855465612614005], [4.810873705360924, 43.853160083528756], [4.809843392339374, 43.850854554443515], [4.808813079317822, 43.84854902535826], [4.807782766296272, 43.846243496273004], [4.80675245327472, 43.84393796718776], [4.80572214025317, 43.84163243810251], [4.804691827231617, 43.83932690901726], [4.8036615142100665, 43.83702137993201], [4.802631201188515, 43.83471585084676], [4.8016008881669645, 43.83241032176151], [4.8016008881669645, 43.83241032176151], [4.79902905451106, 43.82877448334599], [4.796457220855157, 43.82513864493047], [4.7938853871992535, 43.82150280651495], [4.79131355354335, 43.81786696809942], [4.788741719887446, 43.814231129683904], [4.7861698862315425, 43.810595291268385], [4.783598052575638, 43.806959452852865], [4.781026218919733, 43.80332361443734], [4.7784543852638315, 43.79968777602182], [4.775882551607925, 43.7960519376063], [4.775882551607925, 43.7960519376063], [4.77857286418768, 43.79463402639558], [4.781263176767434, 43.79321611518486], [4.783953489347185, 43.79179820397414], [4.786643801926939, 43.79038029276341], [4.789334114506692, 43.78896238155269], [4.792024427086448, 43.78754447034197], [4.794714739666201, 43.78612655913125], [4.797405052245953, 43.78470864792052], [4.800095364825706, 43.783290736709795], [4.802785677405458, 43.78187282549908], [4.802785677405458, 43.78187282549908], [4.805736049424311, 43.78231685178288], [4.808686421443163, 43.78276087806669], [4.811636793462014, 43.78320490435049], [4.814587165480866, 43.78364893063429], [4.817537537499721, 43.7840929569181], [4.820487909518574, 43.784536983201896], [4.823438281537422, 43.784981009485705], [4.826388653556277, 43.78542503576951], [4.829339025575129, 43.785869062053315], [4.83228939759398, 43.78631308833712], [4.83228939759398, 43.78631308833712], [4.841260190585595, 43.783212133214576], [4.850230983577209, 43.78011117809203], [4.859201776568822, 43.777010222969494], [4.868172569560437, 43.77390926784695], [4.877143362552051, 43.77080831272441], [4.8861141555436625, 43.76770735760188], [4.895084948535279, 43.76460640247933], [4.904055741526893, 43.76150544735679], [4.913026534518508, 43.758404492234256], [4.921997327510121, 43.755303537111715], [4.921997327510121, 43.755303537111715], [4.929938492042936, 43.75025173974903], [4.937879656575753, 43.74519994238635], [4.945820821108567, 43.74014814502367], [4.9537619856413855, 43.735096347660985], [4.961703150174198, 43.73004455029831], [4.969644314707015, 43.72499275293562], [4.977585479239831, 43.71994095557294], [4.985526643772646, 43.714889158210255], [4.993467808305464, 43.70983736084757], [5.001408972838277, 43.7047855634849], [5.001408972838277, 43.7047855634849], [5.008077482640161, 43.70478722770731], [5.01474599244205, 43.70478889192971], [5.021414502243934, 43.704790556152126], [5.028083012045821, 43.70479222037453], [5.034751521847705, 43.704793884596945], [5.041420031649588, 43.70479554881935], [5.048088541451476, 43.70479721304176], [5.054757051253359, 43.70479887726417], [5.061425561055248, 43.70480054148658], [5.068094070857132, 43.70480220570899], [5.068094070857132, 43.70480220570899], [5.073993654189902, 43.70586762867075], [5.079893237522672, 43.706933051632525], [5.085792820855444, 43.70799847459429], [5.091692404188214, 43.70906389755605], [5.097591987520985, 43.71012932051782], [5.103491570853755, 43.71119474347959], [5.109391154186527, 43.712260166441354], [5.115290737519297, 43.71332558940313], [5.121190320852065, 43.71439101236489], [5.127089904184839, 43.71545643532665], [5.127089904184839, 43.71545643532665], [5.128286759589134, 43.71916669646918], [5.129483614993427, 43.72287695761172], [5.130680470397721, 43.72658721875425], [5.131877325802016, 43.730297479896784], [5.133074181206309, 43.73400774103931], [5.134271036610604, 43.73771800218185], [5.135467892014898, 43.74142826332438], [5.136664747419193, 43.74513852446692], [5.137861602823488, 43.748848785609454], [5.139058458227783, 43.75255904675198]]]}}, {"type": "Feature", "properties": {"diocese": "AVIGNON", "province": "XX_Avignon"}, "geometry": {"type": "Polygon", "coordinates": [[[4.768354099766855, 44.07445257177382], [4.7684436396898615, 44.07440665166699], [4.7685331796128665, 44.07436073156017], [4.768622719535873, 44.07431481145335], [4.768712259458878, 44.074268891346534], [4.768801799381885, 44.074222971239706], [4.768891339304892, 44.07417705113288], [4.7689808792278985, 44.074131131026064], [4.7690704191509035, 44.074085210919236], [4.769159959073908, 44.074039290812415], [4.769249498996915, 44.073993370705594], [4.769249498996915, 44.073993370705594], [4.769359002674484, 44.0739229830209], [4.769460235244042, 44.07385605536399], [4.769553604614339, 44.07379244016453], [4.769639518694138, 44.07373198985213], [4.7697183853922045, 44.073674556856425], [4.769790612617287, 44.07361999360704], [4.769856608278156, 44.07356815253362], [4.769916780283564, 44.07351888606577], [4.7699715365422755, 44.07347204663313], [4.770021284963045, 44.073427486665345], [4.77002128496304, 44.073427486665345], [4.769945943360026, 44.073491106363896], [4.769838471200895, 44.073568484371634], [4.769703302701135, 44.073657702056956], [4.769544872076244, 44.07375684078829], [4.76936761354172, 44.07386398193405], [4.769175961313049, 44.07397720686265], [4.768974349605733, 44.07409459694252], [4.768767212635268, 44.07421423354206], [4.76855898461714, 44.07433419802968], [4.768354099766851, 44.07445257177382], [4.768354099766855, 44.07445257177382]]]}}, {"type": "Feature", "properties": {"diocese": "AVIGNON", "province": "XX_Avignon"}, "geometry": {"type": "Polygon", "coordinates": [[[4.770036274185177, 44.07340615998161], [4.770037854220371, 44.07340506650801], [4.770039434255562, 44.07340397303441], [4.770041014290756, 44.0734028795608], [4.770042594325947, 44.073401786087196], [4.770044174361139, 44.073400692613596], [4.770045754396332, 44.07339959914], [4.770047334431524, 44.07339850566639], [4.770048914466717, 44.07339741219278], [4.770050494501909, 44.07339631871918], [4.770052074537102, 44.073395225245584], [4.770052074537102, 44.073395225245584], [4.7700560807004955, 44.07339039517769], [4.7700576016741625, 44.07338657194194], [4.770057235047091, 44.0733835161304], [4.7700555784082646, 44.073380988335124], [4.770053229346676, 44.073378749148176], [4.7700507854513035, 44.073376559161616], [4.770048844311139, 44.073374178967505], [4.770048003515168, 44.07337136915791], [4.770048860652379, 44.07336789032489], [4.770052013311751, 44.07336350306051], [4.77005201331175, 44.07336350306051], [4.770048290972209, 44.07336865424947], [4.770046285450263, 44.073373083914056], [4.7700455319748905, 44.0733769888345], [4.7700455657750656, 44.07338056579104], [4.770045922079763, 44.073384011563924], [4.770046136117955, 44.07338752293337], [4.770045743118619, 44.073391296679624], [4.770044278310726, 44.07339552958293], [4.770041276923253, 44.07340041842351], [4.770036274185175, 44.07340615998161], [4.770036274185177, 44.07340615998161]]]}}, {"type": "Feature", "properties": {"diocese": "AVIGNON", "province": "XX_Avignon"}, "geometry": {"type": "Polygon", "coordinates": [[[4.768074309185371, 44.073352070816796], [4.768244385643408, 44.07330849801303], [4.768409631908524, 44.073268254831646], [4.768569910302318, 44.073231324830275], [4.768725083146384, 44.07319769156653], [4.768875012762312, 44.073167338598026], [4.769019561471696, 44.0731402494824], [4.769158591596135, 44.073116407777256], [4.769291965457217, 44.07309579704022], [4.769419545376541, 44.07307840082893], [4.7695411936757, 44.07306420270099], [4.7695411936757015, 44.073064202701], [4.76950989255254, 44.073067095827085], [4.769480986126407, 44.073068821299856], [4.769453739421266, 44.07306975303874], [4.769427417461062, 44.07307026496311], [4.76940128526976, 44.073070730992384], [4.76937460787131, 44.073071525045975], [4.76934665028967, 44.073073021043285], [4.769316677548794, 44.07307559290372], [4.769283954672639, 44.07307961454669], [4.76924774668516, 44.073085459891594], [4.769247746685165, 44.0730854598916], [4.769127674357756, 44.073111214580514], [4.769009181226544, 44.07313626083713], [4.7688919024744045, 44.0731609398572], [4.768775473284219, 44.07318559283645], [4.768659528838866, 44.073210560970644], [4.768543704321223, 44.07323618545552], [4.768427634914174, 44.07326280748683], [4.768310955800596, 44.073290768260314], [4.768193302163368, 44.07332040897172], [4.768074309185371, 44.073352070816796]]]}}, {"type": "Feature", "properties": {"diocese": "AVIGNON", "province": "XX_Avignon"}, "geometry": {"type": "Polygon", "coordinates": [[[4.926132547216557, 43.84029318438227], [4.927854178686491, 43.83972956104526], [4.929575810156425, 43.83916593770826], [4.931297441626363, 43.838602314371265], [4.933019073096297, 43.83803869103427], [4.934740704566233, 43.83747506769726], [4.936462336036168, 43.83691144436027], [4.938183967506102, 43.83634782102326], [4.93990559897604, 43.83578419768626], [4.941627230445976, 43.835220574349265], [4.943348861915911, 43.83465695101226], [4.943348861915911, 43.83465695101226], [4.944886535443786, 43.833215233983545], [4.94642420897166, 43.83177351695483], [4.947961882499536, 43.83033179992612], [4.94949955602741, 43.8288900828974], [4.951037229555288, 43.82744836586868], [4.952574903083162, 43.82600664883998], [4.9541125766110365, 43.82456493181126], [4.955650250138914, 43.82312321478255], [4.957187923666789, 43.82168149775383], [4.958725597194663, 43.82023978072512], [4.958725597194663, 43.82023978072512], [4.957362876036443, 43.81867236545096], [4.9560001548782235, 43.817104950176805], [4.954637433720006, 43.815537534902646], [4.953274712561782, 43.81397011962849], [4.951911991403563, 43.81240270435434], [4.950549270245343, 43.81083528908019], [4.949186549087125, 43.80926787380603], [4.947823827928902, 43.807700458531876], [4.9464611067706805, 43.80613304325772], [4.945098385612463, 43.80456562798357], [4.945098385612463, 43.80456562798357], [4.941744198611968, 43.80462779769042], [4.938390011611473, 43.80468996739728], [4.935035824610981, 43.80475213710414], [4.931681637610488, 43.804814306811004], [4.928327450609993, 43.80487647651786], [4.924973263609498, 43.80493864622471], [4.921619076609007, 43.805000815931585], [4.918264889608514, 43.80506298563844], [4.914910702608019, 43.805125155345294], [4.911556515607526, 43.80518732505216], [4.911556515607526, 43.80518732505216], [4.910560232925512, 43.80612714650915], [4.9095639502435, 43.807066967966136], [4.908567667561487, 43.80800678942312], [4.907571384879473, 43.808946610880106], [4.906575102197458, 43.809886432337095], [4.905578819515446, 43.81082625379408], [4.904582536833434, 43.81176607525107], [4.903586254151419, 43.81270589670806], [4.902589971469407, 43.81364571816505], [4.901593688787393, 43.81458553962204], [4.901593688787393, 43.81458553962204], [4.901777473547195, 43.81615266067568], [4.901961258306995, 43.817719781729316], [4.902145043066797, 43.819286902782956], [4.902328827826601, 43.820854023836596], [4.902512612586401, 43.82242114489024], [4.902696397346203, 43.82398826594389], [4.902880182106008, 43.825555386997536], [4.90306396686581, 43.827122508051175], [4.90324775162561, 43.828689629104815], [4.90343153638541, 43.830256750158455], [4.90343153638541, 43.830256750158455], [4.905701637468525, 43.831260393580834], [4.907971738551639, 43.83226403700322], [4.910241839634754, 43.8332676804256], [4.91251194071787, 43.834271323847986], [4.914782041800983, 43.83527496727036], [4.917052142884097, 43.836278610692744], [4.919322243967214, 43.837282254115124], [4.9215923450503265, 43.83828589753751], [4.923862446133441, 43.83928954095989], [4.926132547216557, 43.84029318438227]]]}}, {"type": "Feature", "properties": {"diocese": "CARPENTRAS", "province": "XX_Avignon"}, "geometry": {"type": "Polygon", "coordinates": [[[5.28590057750619, 44.2005581262342], [5.273018656318081, 44.19776467306592], [5.26013673512997, 44.194971219897624], [5.2472548139418596, 44.19217776672935], [5.2343728927537505, 44.18938431356106], [5.221490971565638, 44.18659086039277], [5.208609050377529, 44.18379740722449], [5.195727129189416, 44.181003954056195], [5.182845208001307, 44.17821050088791], [5.169963286813195, 44.17541704771962], [5.157081365625084, 44.17262359455133], [5.157081365625084, 44.17262359455133], [5.149911779768516, 44.16917355072887], [5.142742193911941, 44.16572350690641], [5.135572608055371, 44.16227346308395], [5.128403022198798, 44.15882341926149], [5.121233436342228, 44.15537337543902], [5.114063850485657, 44.15192333161656], [5.106894264629085, 44.14847328779409], [5.099724678772514, 44.145023243971636], [5.092555092915942, 44.14157320014917], [5.085385507059371, 44.13812315632671], [5.085385507059371, 44.13812315632671], [5.080051110655591, 44.13769559941498], [5.074716714251808, 44.13726804250326], [5.069382317848028, 44.136840485591534], [5.064047921444246, 44.13641292867981], [5.058713525040465, 44.13598537176809], [5.053379128636683, 44.13555781485636], [5.048044732232901, 44.135130257944645], [5.0427103358291205, 44.134702701032914], [5.03737593942534, 44.1342751441212], [5.032041543021558, 44.13384758720947], [5.032041543021558, 44.13384758720947], [5.028027543663711, 44.12986315602727], [5.024013544305864, 44.12587872484507], [5.019999544948016, 44.12189429366287], [5.015985545590169, 44.11790986248067], [5.011971546232322, 44.11392543129846], [5.007957546874474, 44.10994100011626], [5.003943547516629, 44.105956568934054], [4.99992954815878, 44.10197213775186], [4.995915548800932, 44.097987706569654], [4.991901549443085, 44.09400327538745], [4.991901549443085, 44.09400327538745], [4.984636234381318, 44.09460609771855], [4.977370919319554, 44.09520892004965], [4.970105604257787, 44.09581174238075], [4.962840289196018, 44.09641456471184], [4.955574974134253, 44.097017387042946], [4.9483096590724855, 44.09762020937404], [4.941044344010717, 44.09822303170514], [4.933779028948951, 44.09882585403624], [4.926513713887186, 44.099428676367346], [4.9192483988254185, 44.10003149869845], [4.9192483988254185, 44.10003149869845], [4.929182043462744, 44.086661879961895], [4.939115688100067, 44.07329226122535], [4.949049332737392, 44.05992264248879], [4.958982977374715, 44.046553023752246], [4.968916622012042, 44.03318340501569], [4.978850266649362, 44.019813786279144], [4.9887839112866885, 44.0064441675426], [4.998717555924012, 43.99307454880604], [5.008651200561337, 43.979704930069495], [5.018584845198662, 43.96633531133295], [5.018584845198662, 43.96633531133295], [5.025252157094899, 43.965716314596484], [5.031919468991138, 43.96509731786002], [5.0385867808873765, 43.96447832112356], [5.045254092783615, 43.9638593243871], [5.051921404679851, 43.96324032765064], [5.058588716576089, 43.962621330914175], [5.06525602847233, 43.96200233417771], [5.071923340368567, 43.961383337441255], [5.078590652264806, 43.96076434070479], [5.085257964161045, 43.96014534396833], [5.085257964161045, 43.96014534396833], [5.0937232207183065, 43.96165475190019], [5.102188477275574, 43.96316415983205], [5.1106537338328355, 43.964673567763896], [5.119118990390097, 43.96618297569575], [5.127584246947363, 43.96769238362761], [5.136049503504626, 43.96920179155946], [5.14451476006189, 43.97071119949132], [5.152980016619152, 43.972220607423175], [5.161445273176419, 43.97373001535503], [5.169910529733681, 43.97523942328689], [5.169910529733681, 43.97523942328689], [5.177288269256394, 43.97128239241165], [5.184666008779104, 43.9673253615364], [5.192043748301817, 43.963368330661154], [5.199421487824528, 43.95941129978591], [5.20679922734724, 43.95545426891067], [5.214176966869955, 43.95149723803543], [5.221554706392665, 43.94754020716019], [5.228932445915378, 43.943583176284946], [5.236310185438089, 43.9396261454097], [5.243687924960803, 43.935669114534456], [5.243687924960803, 43.935669114534456], [5.246637986991496, 43.93755103012663], [5.24958804902219, 43.939432945718785], [5.252538111052882, 43.94131486131096], [5.255488173083577, 43.94319677690312], [5.258438235114269, 43.94507869249529], [5.261388297144965, 43.94696060808745], [5.26433835917566, 43.94884252367962], [5.267288421206352, 43.95072443927178], [5.270238483237046, 43.95260635486395], [5.273188545267741, 43.95448827045612], [5.273188545267741, 43.95448827045612], [5.274690276442321, 43.95762279560974], [5.276192007616904, 43.96075732076335], [5.277693738791482, 43.96389184591697], [5.279195469966066, 43.96702637107059], [5.2806972011406454, 43.9701608962242], [5.282198932315225, 43.97329542137782], [5.2837006634898085, 43.97642994653144], [5.285202394664388, 43.97956447168505], [5.2867041258389715, 43.98269899683867], [5.288205857013551, 43.98583352199229], [5.288205857013551, 43.98583352199229], [5.289839734123927, 43.9862409580042], [5.2914736112343075, 43.98664839401613], [5.293107488344685, 43.98705583002804], [5.294741365455062, 43.98746326603996], [5.296375242565443, 43.98787070205187], [5.29800911967582, 43.98827813806379], [5.299642996786197, 43.98868557407571], [5.301276873896574, 43.98909301008762], [5.302910751006955, 43.98950044609955], [5.304544628117332, 43.98990788211146], [5.304544628117332, 43.98990788211146], [5.308806083508054, 43.99000290887351], [5.31306753889878, 43.99009793563556], [5.317328994289502, 43.99019296239762], [5.321590449680228, 43.990287989159675], [5.325851905070952, 43.99038301592172], [5.330113360461672, 43.990478042683776], [5.334374815852399, 43.99057306944583], [5.3386362712431215, 43.990668096207884], [5.342897726633847, 43.99076312296994], [5.347159182024571, 43.99085814973199], [5.347159182024571, 43.99085814973199], [5.350743833100024, 43.99248918100647], [5.354328484175481, 43.994120212280954], [5.3579131352509375, 43.99575124355544], [5.361497786326392, 43.997382274829924], [5.365082437401847, 43.999013306104416], [5.368667088477304, 44.000644337378894], [5.372251739552757, 44.00227536865338], [5.375836390628216, 44.003906399927864], [5.379421041703669, 44.005537431202356], [5.383005692779124, 44.00716846247684], [5.383005692779124, 44.00716846247684], [5.386050576959443, 44.010962537557276], [5.389095461139764, 44.014756612637726], [5.39214034532008, 44.018550687718175], [5.395185229500401, 44.022344762798625], [5.39823011368072, 44.026138837879074], [5.401274997861037, 44.02993291295952], [5.404319882041358, 44.033726988039966], [5.407364766221674, 44.037521063120415], [5.410409650401995, 44.04131513820086], [5.413454534582312, 44.04510921328131], [5.413454534582312, 44.04510921328131], [5.419036468329475, 44.04730474130783], [5.424618402076636, 44.04950026933437], [5.430200335823798, 44.0516957973609], [5.435782269570961, 44.05389132538744], [5.44136420331812, 44.056086853413966], [5.446946137065284, 44.0582823814405], [5.452528070812445, 44.06047790946703], [5.458110004559607, 44.06267343749357], [5.46369193830677, 44.0648689655201], [5.469273872053931, 44.06706449354663], [5.469273872053931, 44.06706449354663], [5.465479969566074, 44.074649028534175], [5.461686067078217, 44.08223356352171], [5.45789216459036, 44.08981809850926], [5.454098262102507, 44.097402633496806], [5.450304359614652, 44.10498716848435], [5.446510457126795, 44.112571703471886], [5.442716554638938, 44.12015623845943], [5.438922652151081, 44.12774077344697], [5.435128749663225, 44.13532530843452], [5.4313348471753695, 44.14290984342206], [5.4313348471753695, 44.14290984342206], [5.42503918046153, 44.14635652679733], [5.418743513747691, 44.14980321017259], [5.412447847033851, 44.15324989354785], [5.40615218032001, 44.15669657692311], [5.3998565136061725, 44.16014326029838], [5.393560846892335, 44.16358994367365], [5.387265180178494, 44.167036627048915], [5.380969513464654, 44.170483310424174], [5.374673846750813, 44.17392999379943], [5.368378180036977, 44.177376677174706], [5.368378180036977, 44.177376677174706], [5.360130419783898, 44.179694822080656], [5.351882659530817, 44.18201296698661], [5.34363489927774, 44.18433111189256], [5.335387139024661, 44.18664925679851], [5.327139378771582, 44.18896740170445], [5.318891618518505, 44.19128554661041], [5.310643858265427, 44.19360369151636], [5.30239609801235, 44.19592183642231], [5.294148337759269, 44.19823998132825], [5.28590057750619, 44.2005581262342]]]}}, {"type": "Feature", "properties": {"diocese": "CAVAILLON", "province": "XX_Avignon"}, "geometry": {"type": "Polygon", "coordinates": [[[5.243687924960803, 43.935669114534456], [5.236310185438089, 43.9396261454097], [5.228932445915378, 43.943583176284946], [5.221554706392665, 43.94754020716019], [5.214176966869955, 43.95149723803543], [5.20679922734724, 43.95545426891067], [5.199421487824528, 43.95941129978591], [5.192043748301817, 43.963368330661154], [5.184666008779104, 43.9673253615364], [5.177288269256394, 43.97128239241165], [5.169910529733681, 43.97523942328689], [5.169910529733681, 43.97523942328689], [5.161445273176419, 43.97373001535503], [5.152980016619152, 43.972220607423175], [5.14451476006189, 43.97071119949132], [5.136049503504626, 43.96920179155946], [5.127584246947363, 43.96769238362761], [5.119118990390097, 43.96618297569575], [5.1106537338328355, 43.964673567763896], [5.102188477275574, 43.96316415983205], [5.0937232207183065, 43.96165475190019], [5.085257964161045, 43.96014534396833], [5.085257964161045, 43.96014534396833], [5.078590652264806, 43.96076434070479], [5.071923340368567, 43.961383337441255], [5.06525602847233, 43.96200233417771], [5.058588716576089, 43.962621330914175], [5.051921404679851, 43.96324032765064], [5.045254092783615, 43.9638593243871], [5.0385867808873765, 43.96447832112356], [5.031919468991138, 43.96509731786002], [5.025252157094899, 43.965716314596484], [5.018584845198662, 43.96633531133295], [5.018584845198662, 43.96633531133295], [5.012814729727767, 43.96668850329861], [5.007044614256875, 43.967041695264285], [5.001274498785984, 43.96739488722996], [4.995504383315092, 43.96774807919562], [4.9897342678442005, 43.968101271161295], [4.983964152373304, 43.96845446312695], [4.978194036902412, 43.96880765509263], [4.9724239214315205, 43.969160847058305], [4.966653805960629, 43.96951403902396], [4.960883690489737, 43.96986723098964], [4.960883690489737, 43.96986723098964], [4.957802689798513, 43.968181905479135], [4.954721689107284, 43.966496579968634], [4.9516406884160595, 43.964811254458134], [4.948559687724835, 43.96312592894763], [4.94547868703361, 43.96144060343713], [4.9423976863423835, 43.959755277926625], [4.939316685651159, 43.958069952416125], [4.936235684959936, 43.95638462690563], [4.933154684268709, 43.954699301395124], [4.930073683577483, 43.95301397588462], [4.930073683577483, 43.95301397588462], [4.926220554499187, 43.949954668953], [4.922367425420889, 43.94689536202137], [4.91851429634259, 43.94383605508974], [4.91466116726429, 43.94077674815812], [4.910808038185994, 43.93771744122649], [4.906954909107698, 43.934658134294864], [4.903101780029401, 43.93159882736323], [4.899248650951099, 43.92853952043161], [4.895395521872802, 43.92548021349999], [4.891542392794506, 43.92242090656836], [4.891542392794506, 43.92242090656836], [4.892756255399663, 43.9205154728085], [4.893970118004816, 43.91861003904866], [4.895183980609973, 43.91670460528881], [4.8963978432151265, 43.91479917152896], [4.8976117058202835, 43.91289373776912], [4.8988255684254405, 43.91098830400926], [4.900039431030596, 43.90908287024942], [4.901253293635751, 43.90717743648957], [4.902467156240906, 43.905272002729724], [4.903681018846063, 43.90336656896987], [4.903681018846063, 43.90336656896987], [4.906501873432649, 43.90314505368595], [4.909322728019237, 43.902923538402035], [4.9121435826058235, 43.9027020231181], [4.91496443719241, 43.902480507834184], [4.917785291778998, 43.90225899255027], [4.9206061463655875, 43.90203747726634], [4.923427000952174, 43.90181596198242], [4.92624785553876, 43.901594446698496], [4.929068710125346, 43.90137293141458], [4.931889564711936, 43.901151416130666], [4.931889564711936, 43.901151416130666], [4.940922140096491, 43.89641076840915], [4.949954715481045, 43.89167012068765], [4.958987290865599, 43.88692947296613], [4.968019866250154, 43.88218882524463], [4.97705244163471, 43.877448177523135], [4.986085017019267, 43.872707529801616], [4.995117592403821, 43.86796688208012], [5.004150167788374, 43.8632262343586], [5.01318274317293, 43.8584855866371], [5.022215318557485, 43.8537449389156], [5.022215318557485, 43.8537449389156], [5.024540643550836, 43.84815328355403], [5.026865968544184, 43.842561628192485], [5.029191293537535, 43.83696997283092], [5.031516618530883, 43.83137831746937], [5.033841943524235, 43.82578666210782], [5.036167268517584, 43.82019500674625], [5.038492593510933, 43.814603351384704], [5.040817918504283, 43.809011696023155], [5.043143243497633, 43.80342004066159], [5.045468568490982, 43.79782838530003], [5.045468568490982, 43.79782838530003], [5.054827557464662, 43.79330145144523], [5.064186546438343, 43.788774517590426], [5.073545535412023, 43.78424758373563], [5.082904524385702, 43.779720649880815], [5.0922635133593825, 43.77519371602601], [5.101622502333065, 43.77066678217121], [5.110981491306742, 43.766139848316406], [5.120340480280422, 43.76161291446159], [5.129699469254103, 43.75708598060679], [5.139058458227783, 43.75255904675198], [5.139058458227783, 43.75255904675198], [5.143999766153902, 43.75265643091685], [5.148941074080021, 43.75275381508172], [5.1538823820061435, 43.752851199246585], [5.158823689932262, 43.75294858341145], [5.163764997858381, 43.75304596757632], [5.1687063057845, 43.75314335174119], [5.173647613710623, 43.75324073590605], [5.17858892163674, 43.753338120070914], [5.183530229562859, 43.75343550423579], [5.188471537488979, 43.75353288840065], [5.188471537488979, 43.75353288840065], [5.191333482136013, 43.75619777266164], [5.194195426783045, 43.758862656922645], [5.197057371430082, 43.76152754118365], [5.199919316077114, 43.764192425444655], [5.202781260724148, 43.766857309705664], [5.205643205371183, 43.769522193966665], [5.208505150018217, 43.77218707822767], [5.211367094665249, 43.774851962488675], [5.2142290393122845, 43.77751684674968], [5.217090983959318, 43.78018173101068], [5.217090983959318, 43.78018173101068], [5.217461356164282, 43.7847271181324], [5.217831728369246, 43.789272505254125], [5.218202100574212, 43.79381789237585], [5.218572472779174, 43.79836327949758], [5.218942844984138, 43.802908666619295], [5.219313217189102, 43.807454053741026], [5.219683589394066, 43.81199944086275], [5.220053961599032, 43.81654482798448], [5.220424333803994, 43.821090215106196], [5.2207947060089595, 43.825635602227926], [5.2207947060089595, 43.825635602227926], [5.224791702253162, 43.82880285513434], [5.228788698497361, 43.831970108040764], [5.23278569474156, 43.83513736094718], [5.236782690985761, 43.8383046138536], [5.240779687229962, 43.84147186676002], [5.2447766834741625, 43.84463911966644], [5.248773679718363, 43.84780637257286], [5.252770675962562, 43.85097362547928], [5.256767672206763, 43.85414087838569], [5.260764668450962, 43.857308131292115], [5.260764668450962, 43.857308131292115], [5.2620850778771935, 43.86019266237371], [5.2634054873034195, 43.86307719345532], [5.264725896729647, 43.86596172453692], [5.266046306155873, 43.868846255618514], [5.267366715582103, 43.87173078670012], [5.268687125008331, 43.87461531778172], [5.270007534434557, 43.877499848863316], [5.2713279438607845, 43.88038437994493], [5.272648353287012, 43.883268911026526], [5.273968762713238, 43.88615344210813], [5.273968762713238, 43.88615344210813], [5.270940678937997, 43.89110500935076], [5.26791259516275, 43.896056576593395], [5.264884511387509, 43.90100814383602], [5.2618564276122655, 43.90595971107866], [5.2588283438370205, 43.910911278321294], [5.255800260061777, 43.91586284556392], [5.252772176286534, 43.92081441280656], [5.249744092511289, 43.92576598004919], [5.246716008736048, 43.93071754729183], [5.243687924960803, 43.935669114534456]]]}}, {"type": "Feature", "properties": {"diocese": "VAISON", "province": "XX_Avignon"}, "geometry": {"type": "Polygon", "coordinates": [[[4.954051048496094, 44.44811223912979], [4.951809766418508, 44.446834096744155], [4.949568484340922, 44.44555595435851], [4.9473272022633346, 44.44427781197287], [4.945085920185752, 44.44299966958723], [4.942844638108163, 44.44172152720159], [4.940603356030577, 44.44044338481594], [4.938362073952991, 44.439165242430306], [4.936120791875403, 44.43788710004466], [4.933879509797821, 44.43660895765902], [4.931638227720233, 44.43533081527338], [4.931638227720233, 44.43533081527338], [4.932597811993952, 44.43378000472899], [4.93355739626767, 44.43222919418459], [4.934516980541392, 44.4306783836402], [4.9354765648151115, 44.429127573095805], [4.936436149088831, 44.4275767625514], [4.93739573336255, 44.426025952007016], [4.938355317636269, 44.424475141462615], [4.939314901909992, 44.422924330918235], [4.940274486183709, 44.421373520373834], [4.941234070457428, 44.41982270982945], [4.941234070457428, 44.41982270982945], [4.940714470158001, 44.41640850897901], [4.9401948698585745, 44.41299430812859], [4.9396752695591495, 44.40958010727816], [4.939155669259723, 44.406165906427724], [4.938636068960298, 44.4027517055773], [4.938116468660869, 44.39933750472687], [4.937596868361442, 44.395923303876444], [4.937077268062016, 44.39250910302602], [4.936557667762591, 44.389094902175586], [4.936038067463164, 44.38568070132516], [4.936038067463164, 44.38568070132516], [4.938919293410578, 44.38390815108535], [4.941800519357994, 44.38213560084553], [4.944681745305406, 44.380363050605716], [4.9475629712528235, 44.37859050036591], [4.950444197200236, 44.37681795012609], [4.953325423147655, 44.375045399886275], [4.956206649095069, 44.37327284964646], [4.959087875042485, 44.37150029940665], [4.961969100989899, 44.369727749166834], [4.964850326937313, 44.367955198927014], [4.964850326937313, 44.367955198927014], [4.964458954157527, 44.36449722066726], [4.964067581377741, 44.36103924240751], [4.963676208597954, 44.35758126414775], [4.963284835818168, 44.354123285888], [4.962893463038384, 44.35066530762825], [4.962502090258598, 44.34720732936849], [4.9621107174788115, 44.34374935110874], [4.961719344699025, 44.34029137284898], [4.961327971919239, 44.33683339458923], [4.960936599139455, 44.33337541632948], [4.960936599139455, 44.33337541632948], [4.957666567337846, 44.333019968265205], [4.9543965355362385, 44.33266452020093], [4.9511265037346295, 44.332309072136646], [4.947856471933019, 44.33195362407237], [4.9445864401314115, 44.33159817600809], [4.941316408329799, 44.33124272794382], [4.93804637652819, 44.33088727987954], [4.934776344726583, 44.330531831815264], [4.931506312924974, 44.33017638375099], [4.928236281123365, 44.32982093568671], [4.928236281123365, 44.32982093568671], [4.923013816297416, 44.32734131048423], [4.917791351471466, 44.324861685281746], [4.912568886645516, 44.32238206007927], [4.907346421819568, 44.31990243487679], [4.902123956993622, 44.317422809674305], [4.896901492167672, 44.31494318447182], [4.891679027341723, 44.31246355926934], [4.886456562515775, 44.30998393406686], [4.881234097689825, 44.30750430886438], [4.876011632863875, 44.305024683661905], [4.876011632863875, 44.305024683661905], [4.878638515304404, 44.3019744869055], [4.881265397744926, 44.29892429014911], [4.883892280185451, 44.29587409339272], [4.8865191626259765, 44.29282389663632], [4.889146045066502, 44.28977369987993], [4.891772927507029, 44.28672350312353], [4.894399809947551, 44.283673306367135], [4.897026692388078, 44.28062310961075], [4.899653574828601, 44.27757291285435], [4.902280457269127, 44.27452271609796], [4.902280457269127, 44.27452271609796], [4.900819591685888, 44.27092029913857], [4.899358726102649, 44.26731788217918], [4.897897860519413, 44.26371546521978], [4.896436994936174, 44.26011304826039], [4.894976129352935, 44.25651063130101], [4.893515263769698, 44.252908214341616], [4.89205439818646, 44.24930579738223], [4.890593532603221, 44.245703380422825], [4.889132667019982, 44.242100963463436], [4.887671801436744, 44.23849854650405], [4.887671801436744, 44.23849854650405], [4.889335999956199, 44.23699166652321], [4.89100019847565, 44.23548478654237], [4.892664396995103, 44.23397790656153], [4.894328595514557, 44.23247102658069], [4.89599279403401, 44.23096414659985], [4.897656992553463, 44.22945726661901], [4.899321191072916, 44.22795038663818], [4.900985389592368, 44.22644350665733], [4.902649588111823, 44.224936626676495], [4.904313786631278, 44.223429746695665], [4.904313786631278, 44.223429746695665], [4.909906274032618, 44.221461359717594], [4.915498761433961, 44.21949297273952], [4.9210912488353, 44.21752458576145], [4.92668373623664, 44.21555619878339], [4.932276223637983, 44.21358781180532], [4.937868711039325, 44.21161942482725], [4.943461198440666, 44.20965103784918], [4.9490536858420064, 44.207682650871114], [4.954646173243349, 44.20571426389304], [4.960238660644691, 44.20374587691497], [4.960238660644691, 44.20374587691497], [4.9601555842079605, 44.19914816521849], [4.96007250777123, 44.194550453522], [4.959989431334497, 44.18995274182552], [4.959906354897768, 44.18535503012903], [4.959823278461036, 44.18075731843255], [4.959740202024305, 44.176159606736064], [4.959657125587574, 44.171561895039574], [4.9595740491508415, 44.1669641833431], [4.9594909727141125, 44.162366471646614], [4.95940789627738, 44.15776875995012], [4.95940789627738, 44.15776875995012], [4.964209826289281, 44.15848567612321], [4.96901175630118, 44.15920259229632], [4.973813686313077, 44.159919508469414], [4.978615616324976, 44.16063642464251], [4.9834175463368755, 44.161353340815616], [4.988219476348776, 44.16207025698871], [4.993021406360674, 44.16278717316181], [4.997823336372573, 44.163504089334914], [5.002625266384474, 44.164221005508004], [5.007427196396369, 44.1649379216811], [5.007427196396369, 44.1649379216811], [5.010074415308747, 44.16201374358479], [5.012721634221119, 44.15908956548846], [5.015368853133497, 44.15616538739214], [5.018016072045871, 44.153241209295814], [5.020663290958247, 44.15031703119949], [5.023310509870621, 44.14739285310316], [5.025957728782997, 44.14446867500684], [5.0286049476953725, 44.14154449691052], [5.0312521666077465, 44.1386203188142], [5.033899385520121, 44.13569614071787], [5.033899385520121, 44.13569614071787], [5.033713601270264, 44.13551128536704], [5.03352781702041, 44.13532643001619], [5.033342032770552, 44.135141574665354], [5.0331562485206955, 44.13495671931451], [5.0329704642708375, 44.13477186396367], [5.032784680020983, 44.13458700861283], [5.0325988957711285, 44.134402153261995], [5.032413111521272, 44.13421729791116], [5.032227327271412, 44.13403244256031], [5.032041543021558, 44.13384758720947], [5.032041543021558, 44.13384758720947], [5.03737593942534, 44.1342751441212], [5.0427103358291205, 44.134702701032914], [5.048044732232901, 44.135130257944645], [5.053379128636683, 44.13555781485636], [5.058713525040465, 44.13598537176809], [5.064047921444246, 44.13641292867981], [5.069382317848028, 44.136840485591534], [5.074716714251808, 44.13726804250326], [5.080051110655591, 44.13769559941498], [5.085385507059371, 44.13812315632671], [5.085385507059371, 44.13812315632671], [5.092555092915942, 44.14157320014917], [5.099724678772514, 44.145023243971636], [5.106894264629085, 44.14847328779409], [5.114063850485657, 44.15192333161656], [5.121233436342228, 44.15537337543902], [5.128403022198798, 44.15882341926149], [5.135572608055371, 44.16227346308395], [5.142742193911941, 44.16572350690641], [5.149911779768516, 44.16917355072887], [5.157081365625084, 44.17262359455133], [5.157081365625084, 44.17262359455133], [5.169963286813195, 44.17541704771962], [5.182845208001307, 44.17821050088791], [5.195727129189416, 44.181003954056195], [5.208609050377529, 44.18379740722449], [5.221490971565638, 44.18659086039277], [5.2343728927537505, 44.18938431356106], [5.2472548139418596, 44.19217776672935], [5.26013673512997, 44.194971219897624], [5.273018656318081, 44.19776467306592], [5.28590057750619, 44.2005581262342], [5.28590057750619, 44.2005581262342], [5.287130156358952, 44.203598620213654], [5.28835973521171, 44.206639114193095], [5.289589314064472, 44.20967960817255], [5.29081889291723, 44.212720102152], [5.292048471769988, 44.215760596131446], [5.2932780506227495, 44.218801090110894], [5.294507629475509, 44.22184158409034], [5.295737208328269, 44.22488207806979], [5.296966787181027, 44.227922572049245], [5.298196366033787, 44.230963066028686], [5.298196366033787, 44.230963066028686], [5.295660292376827, 44.23224750915186], [5.293124218719868, 44.23353195227503], [5.2905881450629035, 44.23481639539821], [5.288052071405943, 44.236100838521374], [5.285515997748984, 44.23738528164454], [5.282979924092022, 44.238669724767725], [5.280443850435063, 44.23995416789089], [5.2779077767781, 44.24123861101406], [5.275371703121142, 44.24252305413723], [5.272835629464179, 44.24380749726041], [5.272835629464179, 44.24380749726041], [5.270524192664517, 44.24380692040815], [5.268212755864852, 44.243806343555896], [5.265901319065188, 44.24380576670364], [5.263589882265524, 44.243805189851386], [5.261278445465859, 44.24380461299913], [5.258967008666195, 44.24380403614688], [5.2566555718665295, 44.24380345929462], [5.254344135066868, 44.24380288244236], [5.252032698267204, 44.24380230559011], [5.24972126146754, 44.24380172873785], [5.24972126146754, 44.24380172873785], [5.249678110569263, 44.24546281110449], [5.249634959670987, 44.24712389347111], [5.249591808772708, 44.24878497583775], [5.249548657874433, 44.25044605820438], [5.2495055069761545, 44.25210714057101], [5.249462356077878, 44.253768222937644], [5.249419205179601, 44.25542930530428], [5.249376054281324, 44.25709038767091], [5.249332903383049, 44.258751470037545], [5.249289752484772, 44.260412552404176], [5.249289752484772, 44.260412552404176], [5.255184318761117, 44.260477030270266], [5.2610788850374615, 44.26054150813636], [5.266973451313804, 44.26060598600245], [5.272868017590149, 44.26067046386854], [5.278762583866495, 44.26073494173463], [5.28465715014284, 44.26079941960072], [5.290551716419184, 44.26086389746681], [5.296446282695527, 44.26092837533291], [5.3023408489718715, 44.26099285319899], [5.308235415248218, 44.26105733106509], [5.308235415248218, 44.26105733106509], [5.308827752414041, 44.26215457372543], [5.30942008957987, 44.26325181638577], [5.310012426745697, 44.26434905904611], [5.310604763911524, 44.26544630170645], [5.311197101077351, 44.26654354436679], [5.311789438243176, 44.267640787027126], [5.312381775409005, 44.26873802968747], [5.31297411257483, 44.2698352723478], [5.313566449740655, 44.27093251500815], [5.314158786906482, 44.272029757668484], [5.314158786906482, 44.272029757668484], [5.309676506781008, 44.27519489444968], [5.30519422665553, 44.27836003123089], [5.300711946530052, 44.28152516801209], [5.296229666404576, 44.284690304793294], [5.2917473862791, 44.28785544157449], [5.287265106153624, 44.29102057835569], [5.282782826028146, 44.29418571513689], [5.278300545902669, 44.2973508519181], [5.273818265777191, 44.3005159886993], [5.269335985651718, 44.30368112548051], [5.269335985651718, 44.30368112548051], [5.263810210234066, 44.30656394799834], [5.258284434816412, 44.30944677051617], [5.252758659398761, 44.312329593034], [5.247232883981107, 44.315212415551834], [5.241707108563453, 44.31809523806967], [5.236181333145801, 44.3209780605875], [5.230655557728149, 44.32386088310533], [5.225129782310498, 44.326743705623166], [5.219604006892844, 44.329626528141], [5.214078231475192, 44.33250935065883], [5.214078231475192, 44.33250935065883], [5.211272252721146, 44.33564285545495], [5.208466273967101, 44.338776360251074], [5.2056602952130575, 44.34190986504721], [5.20285431645901, 44.345043369843324], [5.200048337704965, 44.34817687463945], [5.197242358950923, 44.351310379435574], [5.194436380196878, 44.35444388423169], [5.191630401442831, 44.357577389027824], [5.188824422688786, 44.36071089382394], [5.18601844393474, 44.36384439862007], [5.18601844393474, 44.36384439862007], [5.185921171216263, 44.36627779292736], [5.185823898497786, 44.36871118723465], [5.185726625779308, 44.37114458154195], [5.185629353060831, 44.37357797584924], [5.185532080342352, 44.37601137015654], [5.185434807623874, 44.378444764463836], [5.185337534905397, 44.380878158771125], [5.185240262186918, 44.383311553078414], [5.185142989468442, 44.38574494738572], [5.185045716749963, 44.388178341693006], [5.185045716749963, 44.388178341693006], [5.182065592990128, 44.388345287913026], [5.179085469230293, 44.38851223413303], [5.176105345470459, 44.38867918035305], [5.173125221710622, 44.388846126573064], [5.170145097950789, 44.389013072793084], [5.1671649741909516, 44.38918001901309], [5.164184850431118, 44.38934696523311], [5.161204726671283, 44.38951391145312], [5.158224602911446, 44.38968085767314], [5.155244479151614, 44.38984780389315], [5.155244479151614, 44.38984780389315], [5.151530638859278, 44.39169704525713], [5.147816798566941, 44.39354628662112], [5.144102958274603, 44.395395527985094], [5.140389117982268, 44.397244769349086], [5.136675277689934, 44.39909401071306], [5.132961437397597, 44.400943252077035], [5.129247597105261, 44.40279249344103], [5.125533756812926, 44.404641734805004], [5.121819916520591, 44.40649097616899], [5.118106076228253, 44.40834021753296], [5.118106076228253, 44.40834021753296], [5.116205308375987, 44.41056488929947], [5.114304540523717, 44.41278956106598], [5.112403772671453, 44.415014232832476], [5.110503004819185, 44.417238904598975], [5.108602236966915, 44.41946357636548], [5.106701469114645, 44.421688248131986], [5.104800701262379, 44.42391291989848], [5.102899933410111, 44.42613759166498], [5.100999165557845, 44.42836226343149], [5.099098397705577, 44.430586935197994], [5.099098397705577, 44.430586935197994], [5.095971872200247, 44.430931215565174], [5.092845346694915, 44.43127549593236], [5.089718821189583, 44.43161977629955], [5.086592295684252, 44.431964056666736], [5.083465770178922, 44.43230833703392], [5.08033924467359, 44.43265261740111], [5.077212719168257, 44.43299689776829], [5.074086193662929, 44.43334117813548], [5.070959668157597, 44.433685458502666], [5.067833142652265, 44.434029738869846], [5.067833142652265, 44.434029738869846], [5.065968257194674, 44.43164710259003], [5.064103371737083, 44.4292644663102], [5.0622384862794885, 44.426881830030375], [5.060373600821896, 44.42449919375054], [5.058508715364306, 44.42211655747072], [5.056643829906715, 44.4197339211909], [5.054778944449124, 44.41735128491107], [5.052914058991528, 44.41496864863124], [5.051049173533938, 44.41258601235141], [5.049184288076347, 44.410203376071586], [5.049184288076347, 44.410203376071586], [5.048422479975677, 44.40934006946622], [5.047660671875013, 44.408476762860865], [5.046898863774345, 44.4076134562555], [5.046137055673677, 44.406750149650144], [5.045375247573013, 44.40588684304477], [5.0446134394723465, 44.405023536439415], [5.043851631371679, 44.40416022983405], [5.043089823271011, 44.40329692322869], [5.0423280151703445, 44.402433616623334], [5.0415662070696765, 44.40157031001796], [5.0415662070696765, 44.40157031001796], [5.038109217075991, 44.40124150567292], [5.034652227082303, 44.40091270132788], [5.031195237088612, 44.40058389698284], [5.027738247094929, 44.4002550926378], [5.024281257101238, 44.39992628829277], [5.020824267107551, 44.39959748394772], [5.017367277113864, 44.39926867960268], [5.013910287120174, 44.398939875257646], [5.010453297126489, 44.3986110709126], [5.0069963071328, 44.39828226656756], [5.0069963071328, 44.39828226656756], [5.00736515784455, 44.401260578122056], [5.007734008556298, 44.404238889676556], [5.00810285926805, 44.407217201231056], [5.0084717099797995, 44.410195512785556], [5.008840560691551, 44.413173824340056], [5.009209411403299, 44.41615213589455], [5.009578262115049, 44.41913044744905], [5.009947112826801, 44.42210875900356], [5.010315963538549, 44.42508707055806], [5.010684814250299, 44.42806538211255], [5.010684814250299, 44.42806538211255], [5.0089657227879165, 44.429945038582474], [5.007246631325531, 44.43182469505239], [5.005527539863147, 44.43370435152231], [5.0038084484007594, 44.435584007992226], [5.002089356938372, 44.43746366446214], [5.000370265475988, 44.43934332093206], [4.998651174013602, 44.44122297740198], [4.996932082551217, 44.4431026338719], [4.995212991088833, 44.44498229034182], [4.993493899626445, 44.44686194681174], [4.993493899626445, 44.44686194681174], [4.989549614513411, 44.44698697604355], [4.985605329400377, 44.44711200527535], [4.981661044287341, 44.447237034507154], [4.977716759174307, 44.447362063738964], [4.9737724740612705, 44.44748709297076], [4.969828188948236, 44.44761212220257], [4.9658839038351985, 44.447737151434374], [4.961939618722166, 44.44786218066618], [4.95799533360913, 44.44798720989799], [4.954051048496094, 44.44811223912979]]]}}]}