{
    "type": "FeatureCollection",
    "features": [
        {
            "type": "Feature",
            "properties": {
                "diocese": "Barchinonen",
                "province": "Tarraconen",
                "date": 1592
            },
            "geometry": {
                "coordinates": [
                    [
                        [
                            1.455278723000049,
                            41.161582011000064
                        ],
                        [
                            2.1198210000000586,
                            41.292095000000074
                        ],
                        [
                            2.2676920000000678,
                            41.45942800000006
                        ],
                        [
                            2.399859000000049,
                            41.50398300000006
                        ],
                        [
                            2.5075250000000437,
                            41.55996200000004
                        ],
                        [
                            2.4793395290000717,
                            41.60786500100005
                        ],
                        [
                            2.5755998180000574,
                            41.65050245000003
                        ],
                        [
                            2.5880780040000673,
                            41.70029922500004
                        ],
                        [
                            2.5377610500000287,
                            41.72202459700003
                        ],
                        [
                            2.5163380000000757,
                            41.76191700000004
                        ],
                        [
                            2.469513000000063,
                            41.77780100000007
                        ],
                        [
                            2.472541000000035,
                            41.789612000000034
                        ],
                        [
                            2.3879380000000197,
                            41.805191000000036
                        ],
                        [
                            2.335123392000071,
                            41.778505523000035
                        ],
                        [
                            2.305175747000021,
                            41.72779371900003
                        ],
                        [
                            2.1720750990000397,
                            41.70260024800007
                        ],
                        [
                            2.0461048440000695,
                            41.709343130000036
                        ],
                        [
                            2.0133050410000237,
                            41.69727642000004
                        ],
                        [
                            2.008551447000059,
                            41.67278113500004
                        ],
                        [
                            1.9767023630000722,
                            41.63442196900007
                        ],
                        [
                            1.9443779200000222,
                            41.62198585700003
                        ],
                        [
                            1.9172824310000465,
                            41.569727991000036
                        ],
                        [
                            1.832193089000043,
                            41.57328428900007
                        ],
                        [
                            1.7233357740000201,
                            41.629803121000066
                        ],
                        [
                            1.692912768000042,
                            41.62305190300003
                        ],
                        [
                            1.6815041420000512,
                            41.604215821000025
                        ],
                        [
                            1.702419958000064,
                            41.581463032000045
                        ],
                        [
                            1.689585252000029,
                            41.564393177000056
                        ],
                        [
                            1.6254117260000385,
                            41.55941362000004
                        ],
                        [
                            1.4552330410000422,
                            41.50710510300007
                        ],
                        [
                            1.4281375520000665,
                            41.45154776600003
                        ],
                        [
                            1.445607012000039,
                            41.42375123900007
                        ],
                        [
                            1.447389610000073,
                            41.367587351000054
                        ],
                        [
                            1.4024681410000426,
                            41.364911670000026
                        ],
                        [
                            1.3664596630000574,
                            41.32422776800007
                        ],
                        [
                            1.2801819210000644,
                            41.28807272800003
                        ],
                        [
                            1.3186860370000204,
                            41.26235028200006
                        ],
                        [
                            1.316190400000039,
                            41.21248419900007
                        ],
                        [
                            1.4391896590000215,
                            41.18243896100006
                        ],
                        [
                            1.455278723000049,
                            41.161582011000064
                        ]
                    ]
                ],
                "type": "Polygon"
            }
        }
    ]
}