{
    "type": "FeatureCollection",
    "name": "Celsonen",
    "features": [
        {
            "type": "Feature",
            "properties": {
                "diocese": "Celsonen",
                "province": "Tarraconen",
                "date": 1592
            },
            "geometry": {
                "type": "MultiPolygon",
                "coordinates": [
                    [
                        [
                            [
                                0.938414333000051,
                                42.420482029000055
                            ],
                            [
                                0.923440510000025,
                                42.448373733000061
                            ],
                            [
                                0.819336789000061,
                                42.503594225
                            ],
                            [
                                0.798658653000058,
                                42.546159595000098
                            ],
                            [
                                0.796112892782029,
                                42.60557857322442
                            ],
                            [
                                0.814765101499648,
                                42.610326408170721
                            ],
                            [
                                0.928374009143328,
                                42.61100467030591
                            ],
                            [
                                0.957878412023926,
                                42.700874403218073
                            ],
                            [
                                1.002448996525819,
                                42.724090209751438
                            ],
                            [
                                1.019495213683388,
                                42.786735446575015
                            ],
                            [
                                1.022901879373565,
                                42.787400161831634
                            ],
                            [
                                1.029364433654486,
                                42.787873754692455
                            ],
                            [
                                1.035784145643328,
                                42.787623636043534
                            ],
                            [
                                1.041703620334339,
                                42.786956652979761
                            ],
                            [
                                1.04819015619024,
                                42.78562349574802
                            ],
                            [
                                1.071720977148434,
                                42.77986702881833
                            ],
                            [
                                1.079038210142737,
                                42.778728706686685
                            ],
                            [
                                1.086683449605954,
                                42.781696528108661
                            ],
                            [
                                1.093419618256419,
                                42.783080974931615
                            ],
                            [
                                1.100358016907756,
                                42.783017898580241
                            ],
                            [
                                1.106753871241599,
                                42.7815719059275
                            ],
                            [
                                1.116961933882348,
                                42.777631951925805
                            ],
                            [
                                1.127520199438967,
                                42.771204068267821
                            ],
                            [
                                1.135374575832529,
                                42.767082464813775
                            ],
                            [
                                1.146806192959793,
                                42.761483305404504
                            ],
                            [
                                1.151161094722561,
                                42.757750532464989
                            ],
                            [
                                1.153568193283358,
                                42.753384942869872
                            ],
                            [
                                1.154747285949067,
                                42.748799582503224
                            ],
                            [
                                1.156504394646693,
                                42.734805788303227
                            ],
                            [
                                1.15835006909429,
                                42.730196120444255
                            ],
                            [
                                1.161765577933983,
                                42.726087729565613
                            ],
                            [
                                1.167391293144448,
                                42.722210547461103
                            ],
                            [
                                1.172484846105274,
                                42.717497110392877
                            ],
                            [
                                1.177274306352021,
                                42.714684252787642
                            ],
                            [
                                1.182823998383967,
                                42.712327534253525
                            ],
                            [
                                1.188525736772951,
                                42.711035140218691
                            ],
                            [
                                1.194227475161936,
                                42.710807070683131
                            ],
                            [
                                1.199473074479802,
                                42.711187186575728
                            ],
                            [
                                1.205402882404346,
                                42.712327534253525
                            ],
                            [
                                1.222503968147233,
                                42.717707395733065
                            ],
                            [
                                1.231227420048896,
                                42.719522709974406
                            ],
                            [
                                1.242471753672455,
                                42.721129043349208
                            ],
                            [
                                1.251244805180947,
                                42.721376171560706
                            ],
                            [
                                1.259894292583685,
                                42.72075835103194
                            ],
                            [
                                1.270150113361217,
                                42.718781325339883
                            ],
                            [
                                1.282382959830804,
                                42.715074402167282
                            ],
                            [
                                1.295426282792563,
                                42.716067815469266
                            ],
                            [
                                1.317143175597062,
                                42.714819718181651
                            ],
                            [
                                1.329124909558166,
                                42.714819718181651
                            ],
                            [
                                1.335592410127332,
                                42.715190487377214
                            ],
                            [
                                1.34070125505476,
                                42.716333255321508
                            ],
                            [
                                1.34587070202503,
                                42.718208326533606
                            ],
                            [
                                1.34994283823947,
                                42.718575761762395
                            ],
                            [
                                1.354048943703296,
                                42.718452453150867
                            ],
                            [
                                1.360640362369361,
                                42.718086263224976
                            ],
                            [
                                1.365522894714595,
                                42.716499440212779
                            ],
                            [
                                1.36805673277582,
                                42.7146546655812
                            ],
                            [
                                1.369901834694339,
                                42.712754674925996
                            ],
                            [
                                1.371164063425805,
                                42.710587954442474
                            ],
                            [
                                1.372021544471041,
                                42.708213663394716
                            ],
                            [
                                1.372652403330864,
                                42.705690961046855
                            ],
                            [
                                1.37323476550609,
                                42.703079006663003
                            ],
                            [
                                1.373946756497539,
                                42.700436959507265
                            ],
                            [
                                1.374966501806026,
                                42.697823978843743
                            ],
                            [
                                1.376472126932371,
                                42.695299223936566
                            ],
                            [
                                1.378641757377389,
                                42.692921854049828
                            ],
                            [
                                1.3816535186419,
                                42.69075102844765
                            ],
                            [
                                1.381653518641897,
                                42.690751028447643
                            ],
                            [
                                1.389824783756478,
                                42.691365242136797
                            ],
                            [
                                1.396306249876763,
                                42.690558244069983
                            ],
                            [
                                1.401377722794273,
                                42.688561207740761
                            ],
                            [
                                1.405319008300532,
                                42.685605306642657
                            ],
                            [
                                1.408409912187063,
                                42.681921714269194
                            ],
                            [
                                1.410930240245388,
                                42.677741604113919
                            ],
                            [
                                1.413159798267029,
                                42.67329614967035
                            ],
                            [
                                1.415378392043507,
                                42.668816524432039
                            ],
                            [
                                1.417865827366348,
                                42.664533901892511
                            ],
                            [
                                1.420901910027071,
                                42.660679455545299
                            ],
                            [
                                1.420901910027076,
                                42.660679455545299
                            ],
                            [
                                1.42731561998849,
                                42.656532502462255
                            ],
                            [
                                1.431840753852573,
                                42.651738441316418
                            ],
                            [
                                1.434913909948003,
                                42.646454015296776
                            ],
                            [
                                1.43697168660346,
                                42.640835967592295
                            ],
                            [
                                1.438450682147628,
                                42.635041041391979
                            ],
                            [
                                1.439787494909184,
                                42.629225979884815
                            ],
                            [
                                1.441418723216811,
                                42.623547526259777
                            ],
                            [
                                1.443780965399189,
                                42.618162423705861
                            ],
                            [
                                1.447310819784998,
                                42.613227415412048
                            ],
                            [
                                1.452444884702919,
                                42.608899244567311
                            ],
                            [
                                1.452444884702913,
                                42.608899244567311
                            ],
                            [
                                1.454900909809606,
                                42.604634678323812
                            ],
                            [
                                1.459422011257526,
                                42.601649586577118
                            ],
                            [
                                1.465373277562851,
                                42.599885155490156
                            ],
                            [
                                1.472119797241754,
                                42.599282571225842
                            ],
                            [
                                1.47902665881041,
                                42.599783019947076
                            ],
                            [
                                1.485458950784993,
                                42.601327687816791
                            ],
                            [
                                1.490781761681681,
                                42.603857760997897
                            ],
                            [
                                1.494360180016647,
                                42.607314425653286
                            ],
                            [
                                1.495559294306068,
                                42.611638867945892
                            ],
                            [
                                1.493744193066117,
                                42.616772274038631
                            ],
                            [
                                1.493744193066118,
                                42.616772274038624
                            ],
                            [
                                1.490293629535939,
                                42.620085441652002
                            ],
                            [
                                1.488963627416766,
                                42.624591361540034
                            ],
                            [
                                1.489448856941141,
                                42.629797438001262
                            ],
                            [
                                1.491443988341605,
                                42.63521107533429
                            ],
                            [
                                1.494643691850702,
                                42.640339677837694
                            ],
                            [
                                1.498742637700973,
                                42.644690649810038
                            ],
                            [
                                1.503435496124961,
                                42.647771395549917
                            ],
                            [
                                1.50841693735521,
                                42.649089319355888
                            ],
                            [
                                1.51338163162426,
                                42.648151825526561
                            ],
                            [
                                1.518024249164654,
                                42.644466318360472
                            ],
                            [
                                1.518024249164657,
                                42.644466318360486
                            ],
                            [
                                1.525385924070321,
                                42.642986725867644
                            ],
                            [
                                1.533090378408061,
                                42.643346794109533
                            ],
                            [
                                1.541048669139268,
                                42.644992933712196
                            ],
                            [
                                1.549171853225328,
                                42.647371555301667
                            ],
                            [
                                1.557370987627632,
                                42.649929069503983
                            ],
                            [
                                1.565557129307569,
                                42.652111886945193
                            ],
                            [
                                1.573641335226525,
                                42.653366418251331
                            ],
                            [
                                1.581534662345891,
                                42.653139074048447
                            ],
                            [
                                1.589148167627055,
                                42.650876264962555
                            ],
                            [
                                1.596392908031406,
                                42.646024401619719
                            ],
                            [
                                1.596392908031406,
                                42.646024401619727
                            ],
                            [
                                1.598240387631112,
                                42.640913039576802
                            ],
                            [
                                1.601452757063404,
                                42.636810041518544
                            ],
                            [
                                1.605804705153341,
                                42.633566773322954
                            ],
                            [
                                1.61107092072598,
                                42.63103460086807
                            ],
                            [
                                1.617026092606382,
                                42.629064890031898
                            ],
                            [
                                1.623444909619599,
                                42.627509006692449
                            ],
                            [
                                1.630102060590695,
                                42.626218316727766
                            ],
                            [
                                1.636772234344722,
                                42.625044186015835
                            ],
                            [
                                1.643230119706741,
                                42.623837980434701
                            ],
                            [
                                1.649250405501809,
                                42.622451065862357
                            ],
                            [
                                1.649250405501807,
                                42.62245106586235
                            ],
                            [
                                1.655655222944061,
                                42.623597246104943
                            ],
                            [
                                1.661786959808516,
                                42.62379341266309
                            ],
                            [
                                1.667727259052727,
                                42.62330613089668
                            ],
                            [
                                1.673557763634253,
                                42.622401966165604
                            ],
                            [
                                1.679360116510654,
                                42.621347483829723
                            ],
                            [
                                1.685215960639487,
                                42.620409249248929
                            ],
                            [
                                1.691206938978312,
                                42.619853827783103
                            ],
                            [
                                1.697414694484685,
                                42.619947784792117
                            ],
                            [
                                1.703920870116166,
                                42.620957685635851
                            ],
                            [
                                1.710807108830313,
                                42.623150095674205
                            ],
                            [
                                1.710807108830315,
                                42.623150095674212
                            ],
                            [
                                1.716194517530429,
                                42.621425647490859
                            ],
                            [
                                1.722718207521498,
                                42.619969475054802
                            ],
                            [
                                1.729857105597949,
                                42.618642455996998
                            ],
                            [
                                1.737090138554216,
                                42.617305467948427
                            ],
                            [
                                1.743896233184722,
                                42.615819388540046
                            ],
                            [
                                1.7497543162839,
                                42.614045095402844
                            ],
                            [
                                1.754143314646174,
                                42.61184346616777
                            ],
                            [
                                1.756542155065974,
                                42.609075378465803
                            ],
                            [
                                1.756429764337731,
                                42.605601709927917
                            ],
                            [
                                1.753285069255871,
                                42.601283338185084
                            ],
                            [
                                1.753285069255873,
                                42.601283338185084
                            ],
                            [
                                1.749103996617918,
                                42.596699077288207
                            ],
                            [
                                1.748257333757014,
                                42.592830129159061
                            ],
                            [
                                1.750186787795745,
                                42.589610896317204
                            ],
                            [
                                1.754334065856692,
                                42.586975781282206
                            ],
                            [
                                1.760140875062435,
                                42.584859186573652
                            ],
                            [
                                1.767048922535559,
                                42.583195514711086
                            ],
                            [
                                1.774499915398644,
                                42.5819191682141
                            ],
                            [
                                1.781935560774273,
                                42.580964549602257
                            ],
                            [
                                1.788797565785029,
                                42.580266061395115
                            ],
                            [
                                1.794527637553491,
                                42.579758106112259
                            ],
                            [
                                1.79452763755349,
                                42.579758106112259
                            ],
                            [
                                1.795094209188649,
                                42.579377651478445
                            ],
                            [
                                1.795633322644098,
                                42.579007257952412
                            ],
                            [
                                1.796145731419662,
                                42.578646558182591
                            ],
                            [
                                1.796632189015164,
                                42.578295184817414
                            ],
                            [
                                1.797093448930429,
                                42.577952770505284
                            ],
                            [
                                1.797530264665283,
                                42.577618947894649
                            ],
                            [
                                1.797943389719551,
                                42.577293349633919
                            ],
                            [
                                1.798333577593056,
                                42.576975608371519
                            ],
                            [
                                1.798701581785624,
                                42.576665356755875
                            ],
                            [
                                1.799048155797079,
                                42.576362227435418
                            ],
                            [
                                1.799048155797081,
                                42.576362227435418
                            ],
                            [
                                1.807115512995622,
                                42.579864836889762
                            ],
                            [
                                1.815182870194161,
                                42.58336744634412
                            ],
                            [
                                1.8232502273927,
                                42.586870055798464
                            ],
                            [
                                1.831317584591241,
                                42.590372665252801
                            ],
                            [
                                1.839384941789782,
                                42.593875274707159
                            ],
                            [
                                1.847452298988321,
                                42.597377884161503
                            ],
                            [
                                1.855519656186861,
                                42.600880493615847
                            ],
                            [
                                1.863587013385402,
                                42.604383103070198
                            ],
                            [
                                1.871654370583941,
                                42.607885712524542
                            ],
                            [
                                1.879721727782481,
                                42.611388321978886
                            ],
                            [
                                1.884799144220786,
                                42.610762529333819
                            ],
                            [
                                1.88987656065909,
                                42.610136736688759
                            ],
                            [
                                1.894953977097395,
                                42.609510944043691
                            ],
                            [
                                1.900031393535699,
                                42.608885151398631
                            ],
                            [
                                1.905108809974003,
                                42.608259358753564
                            ],
                            [
                                1.910186226412307,
                                42.607633566108504
                            ],
                            [
                                1.915263642850612,
                                42.607007773463437
                            ],
                            [
                                1.920341059288915,
                                42.606381980818377
                            ],
                            [
                                1.92541847572722,
                                42.605756188173309
                            ],
                            [
                                1.930495892165524,
                                42.605130395528249
                            ],
                            [
                                2.017859930291222,
                                42.575602480235652
                            ],
                            [
                                2.095525341411379,
                                42.544968287788507
                            ],
                            [
                                2.184055231986387,
                                42.469746968258178
                            ],
                            [
                                2.206220600328246,
                                42.417996015829452
                            ],
                            [
                                2.209169637302267,
                                42.418258048922361
                            ],
                            [
                                2.215730629752725,
                                42.41606892912354
                            ],
                            [
                                2.215158511000018,
                                42.326490799000055
                            ],
                            [
                                2.260793019000086,
                                42.289314758000032
                            ],
                            [
                                2.15448999900003,
                                42.250450624000038
                            ],
                            [
                                2.04486022400009,
                                42.273537680000103
                            ],
                            [
                                2.033570437000048,
                                42.241873278000057
                            ],
                            [
                                2.066120676000065,
                                42.191229997000072
                            ],
                            [
                                2.054712049000082,
                                42.138202073000109
                            ],
                            [
                                2.00619369400007,
                                42.105494061000059
                            ],
                            [
                                2.007904988000049,
                                42.051158900000075
                            ],
                            [
                                1.981162057000088,
                                41.999033748000116
                            ],
                            [
                                1.926971079000091,
                                41.989141523000072
                            ],
                            [
                                1.847833237000049,
                                41.88067153500004
                            ],
                            [
                                1.729468733000045,
                                41.847217097000105
                            ],
                            [
                                1.717347067000072,
                                41.816933713000019
                            ],
                            [
                                1.685260304000086,
                                41.797268410000093
                            ],
                            [
                                1.478478941000034,
                                41.768025047000052
                            ],
                            [
                                1.40360982600007,
                                41.727061935000052
                            ],
                            [
                                1.39411631989165,
                                41.708313992842257
                            ],
                            [
                                0.89290239906416,
                                42.360082277367766
                            ],
                            [
                                0.938414333000051,
                                42.420482029000055
                            ]
                        ]
                    ]
                ]
            }
        }
    ]
}