{
    "type": "FeatureCollection",
    "name": "Gerunden",
    "crs": {
        "type": "name"
    },
    "features": [
        {
            "type": "Feature",
            "properties": {
                "diocese": "Gerunden",
                "province": "Tarraconen",
                "date": 1592
            },
            "geometry": {
                "type": "MultiPolygon",
                "coordinates": [
                    [
                        [
                            [
                                2.215741864344314,
                                42.415833928665236
                            ],
                            [
                                2.215158511000027,
                                42.326490799000055
                            ],
                            [
                                2.260793019000062,
                                42.289314758000046
                            ],
                            [
                                2.354914191000034,
                                42.272960897000075
                            ],
                            [
                                2.333879535000051,
                                42.214896818000057
                            ],
                            [
                                2.347357,
                                42.121361
                            ],
                            [
                                2.399902,
                                42.102941
                            ],
                            [
                                2.395361537000042,
                                42.08678771700005
                            ],
                            [
                                2.417566,
                                42.064881
                            ],
                            [
                                2.454968,
                                42.077939
                            ],
                            [
                                2.490713,
                                42.067335
                            ],
                            [
                                2.492671,
                                42.037858
                            ],
                            [
                                2.53745222200007,
                                42.024760237000066
                            ],
                            [
                                2.558486878000053,
                                42.000919938000038
                            ],
                            [
                                2.547078251000073,
                                41.960901141000079
                            ],
                            [
                                2.602338788000054,
                                41.933058677000076
                            ],
                            [
                                2.559199917000058,
                                41.85848713200005
                            ],
                            [
                                2.525330556000029,
                                41.835381494000046
                            ],
                            [
                                2.419800757000075,
                                41.824224061000052
                            ],
                            [
                                2.387938,
                                41.805191
                            ],
                            [
                                2.472541,
                                41.789612
                            ],
                            [
                                2.469513,
                                41.777801
                            ],
                            [
                                2.516338,
                                41.761917
                            ],
                            [
                                2.537761050000029,
                                41.722024597000029
                            ],
                            [
                                2.588078004000067,
                                41.700299225000037
                            ],
                            [
                                2.575599818000057,
                                41.650502450000033
                            ],
                            [
                                2.479339529000072,
                                41.60786500100005
                            ],
                            [
                                2.509499970000036,
                                41.560577432000059
                            ],
                            [
                                2.77873610000006,
                                41.648840999000072
                            ],
                            [
                                2.834636,
                                41.694508
                            ],
                            [
                                2.935405,
                                41.715245
                            ],
                            [
                                2.977059,
                                41.757374
                            ],
                            [
                                3.05628925000002,
                                41.787594750000039
                            ],
                            [
                                3.055297,
                                41.805077
                            ],
                            [
                                3.066448,
                                41.800826
                            ],
                            [
                                3.097247,
                                41.842406
                            ],
                            [
                                3.132407525000076,
                                41.841896013000053
                            ],
                            [
                                3.177013,
                                41.866409
                            ],
                            [
                                3.220609,
                                41.92222
                            ],
                            [
                                3.214773,
                                41.936291
                            ],
                            [
                                3.233906,
                                41.950362
                            ],
                            [
                                3.234687,
                                41.962165001000074
                            ],
                            [
                                3.210784,
                                41.972926
                            ],
                            [
                                3.195826,
                                42.013063
                            ],
                            [
                                3.212384,
                                42.068728
                            ],
                            [
                                3.177158,
                                42.111655
                            ],
                            [
                                3.123934,
                                42.128831
                            ],
                            [
                                3.111067,
                                42.202952
                            ],
                            [
                                3.126898,
                                42.237975
                            ],
                            [
                                3.165567,
                                42.264653
                            ],
                            [
                                3.219324,
                                42.232351
                            ],
                            [
                                3.229832,
                                42.251554
                            ],
                            [
                                3.264937,
                                42.237707
                            ],
                            [
                                3.254184,
                                42.25277
                            ],
                            [
                                3.287979,
                                42.265191
                            ],
                            [
                                3.276497,
                                42.287272
                            ],
                            [
                                3.299296,
                                42.28445
                            ],
                            [
                                3.286895,
                                42.303514
                            ],
                            [
                                3.322531,
                                42.319422
                            ],
                            [
                                3.265838,
                                42.340819
                            ],
                            [
                                3.250259,
                                42.329954
                            ],
                            [
                                3.229733,
                                42.35149
                            ],
                            [
                                3.197026,
                                42.334979
                            ],
                            [
                                3.163271,
                                42.360551
                            ],
                            [
                                3.15541,
                                42.378788
                            ],
                            [
                                3.167278001000057,
                                42.389858
                            ],
                            [
                                3.153215,
                                42.394047
                            ],
                            [
                                3.171127309318765,
                                42.427751946783893
                            ],
                            [
                                3.168781782167658,
                                42.428953309657771
                            ],
                            [
                                3.162053902430026,
                                42.430057886928125
                            ],
                            [
                                3.155727687154342,
                                42.429656222466178
                            ],
                            [
                                3.148598142954762,
                                42.42814998073387
                            ],
                            [
                                3.137451954135699,
                                42.425037081153775
                            ],
                            [
                                3.130121577705145,
                                42.423330007190494
                            ],
                            [
                                3.124096610775922,
                                42.422727510497573
                            ],
                            [
                                3.118172059962186,
                                42.423530839421467
                            ],
                            [
                                3.11295042195686,
                                42.426543322886083
                            ],
                            [
                                3.10853211287543,
                                42.43166454477592
                            ],
                            [
                                3.102895652087037,
                                42.433729258706443
                            ],
                            [
                                3.096764182045065,
                                42.437067970856234
                            ],
                            [
                                3.090531651828909,
                                42.441163633569708
                            ],
                            [
                                3.083408760153302,
                                42.447396163785868
                            ],
                            [
                                3.076642013061476,
                                42.454875200045251
                            ],
                            [
                                3.072279241910167,
                                42.461909055574914
                            ],
                            [
                                3.069162976802089,
                                42.467874477353234
                            ],
                            [
                                3.062606394040982,
                                42.465213537811429
                            ],
                            [
                                3.056870776178544,
                                42.464239540203209
                            ],
                            [
                                3.050006167426962,
                                42.464566426334237
                            ],
                            [
                                3.044673305549047,
                                42.465213920334101
                            ],
                            [
                                3.033443936788225,
                                42.467508401513491
                            ],
                            [
                                3.028114689717019,
                                42.468005260394222
                            ],
                            [
                                3.022916985556779,
                                42.467564776990812
                            ],
                            [
                                3.01780737807722,
                                42.465802843377169
                            ],
                            [
                                3.013138254001072,
                                42.462190879469205
                            ],
                            [
                                3.007764356479467,
                                42.460252752494199
                            ],
                            [
                                3.002478555638545,
                                42.460781332578293
                            ],
                            [
                                2.997457044839668,
                                42.462631362872614
                            ],
                            [
                                2.992171243998746,
                                42.465538553335122
                            ],
                            [
                                2.986621153115777,
                                42.468533840478315
                            ],
                            [
                                2.980982965552126,
                                42.471264837579454
                            ],
                            [
                                2.975785261391886,
                                42.472586287789689
                            ],
                            [
                                2.970090271802426,
                                42.472087962688491
                            ],
                            [
                                2.964719835898029,
                                42.468880619023359
                            ],
                            [
                                2.959498578768753,
                                42.462689699855794
                            ],
                            [
                                2.958006791017532,
                                42.456573370075787
                            ],
                            [
                                2.955321573065333,
                                42.452769311310171
                            ],
                            [
                                2.951442924912158,
                                42.450084093357972
                            ],
                            [
                                2.946520025333127,
                                42.448517716219186
                            ],
                            [
                                2.940254516777996,
                                42.447771822343583
                            ],
                            [
                                2.933243114347255,
                                42.44799559050626
                            ],
                            [
                                2.927648910280175,
                                42.448666894994311
                            ],
                            [
                                2.921389927628223,
                                42.449705059305053
                            ],
                            [
                                2.906928225728252,
                                42.45268602089574
                            ],
                            [
                                2.908137880442295,
                                42.453377252160905
                            ],
                            [
                                2.90639212539758,
                                42.453450370703784
                            ],
                            [
                                2.902508705481925,
                                42.452988058809062
                            ],
                            [
                                2.896683575608444,
                                42.451832279072256
                            ],
                            [
                                2.890251835026708,
                                42.450242648372772
                            ],
                            [
                                2.882988744955886,
                                42.447778385670169
                            ],
                            [
                                2.876763239180895,
                                42.445184424930595
                            ],
                            [
                                2.869889243221011,
                                42.441423181858198
                            ],
                            [
                                2.865743292461809,
                                42.437229847096525
                            ],
                            [
                                2.863323751020813,
                                42.432621196732725
                            ],
                            [
                                2.857217289288777,
                                42.430662520328113
                            ],
                            [
                                2.849163010360149,
                                42.427401983279708
                            ],
                            [
                                2.841241188587488,
                                42.422905814165503
                            ],
                            [
                                2.824112925295249,
                                42.412628856190153
                            ],
                            [
                                2.817047516687201,
                                42.408346790367098
                            ],
                            [
                                2.808002451442212,
                                42.405117542551409
                            ],
                            [
                                2.786463046389381,
                                42.411409953016275
                            ],
                            [
                                2.770490004440091,
                                42.41407212667449
                            ],
                            [
                                2.757905183510347,
                                42.414314142461606
                            ],
                            [
                                2.745155433884128,
                                42.411412675241763
                            ],
                            [
                                2.741565692129875,
                                42.406978288368869
                            ],
                            [
                                2.736286660138326,
                                42.404127611093429
                            ],
                            [
                                2.730374144307792,
                                42.401910417656978
                            ],
                            [
                                2.724461628477257,
                                42.400326708059517
                            ],
                            [
                                2.711158467858554,
                                42.397476030784077
                            ],
                            [
                                2.706090597146667,
                                42.395469998627291
                            ],
                            [
                                2.701867371553428,
                                42.392619321351852
                            ],
                            [
                                2.699460377310568,
                                42.389066047359528
                            ],
                            [
                                2.699338605052576,
                                42.383647181878885
                            ],
                            [
                                2.691971383444054,
                                42.382916548330932
                            ],
                            [
                                2.686735176350394,
                                42.381333508977036
                            ],
                            [
                                2.68387352828758,
                                42.378958949946188
                            ],
                            [
                                2.682960236352639,
                                42.375731985109397
                            ],
                            [
                                2.683688069867068,
                                42.37223924788708
                            ],
                            [
                                2.685278286901483,
                                42.368620133257032
                            ],
                            [
                                2.687965205338944,
                                42.364397832855303
                            ],
                            [
                                2.69056646144216,
                                42.360572941940831
                            ],
                            [
                                2.697405494012366,
                                42.351146167317054
                            ],
                            [
                                2.704257908728782,
                                42.345746590052748
                            ],
                            [
                                2.707395269855152,
                                42.341643887041343
                            ],
                            [
                                2.707337967155536,
                                42.338628283943315
                            ],
                            [
                                2.703827322602405,
                                42.335897782624215
                            ],
                            [
                                2.694855675411072,
                                42.335117639390184
                            ],
                            [
                                2.687834386304812,
                                42.335312675198693
                            ],
                            [
                                2.675352094560349,
                                42.337067997475259
                            ],
                            [
                                2.666185411560509,
                                42.339603462985849
                            ],
                            [
                                2.650972618496945,
                                42.339993534602868
                            ],
                            [
                                2.633809467348308,
                                42.342138928496446
                            ],
                            [
                                2.6174264594337,
                                42.346234680475099
                            ],
                            [
                                2.605919346731773,
                                42.350915539879267
                            ],
                            [
                                2.602018630561628,
                                42.353646041198374
                            ],
                            [
                                2.592656911753281,
                                42.354231148623896
                            ],
                            [
                                2.585941263584524,
                                42.35235009866895
                            ],
                            [
                                2.581323804562585,
                                42.349354990114172
                            ],
                            [
                                2.578453492197596,
                                42.345361512041144
                            ],
                            [
                                2.572588071277835,
                                42.334753835909666
                            ],
                            [
                                2.570092147482192,
                                42.331509134975327
                            ],
                            [
                                2.566098669409163,
                                42.328514026420557
                            ],
                            [
                                2.560358044679185,
                                42.327141268332952
                            ],
                            [
                                2.552620680912692,
                                42.32764045309208
                            ],
                            [
                                2.547129648562278,
                                42.33038596926729
                            ],
                            [
                                2.537174027743324,
                                42.333547223470568
                            ],
                            [
                                2.524566664140092,
                                42.335948626061658
                            ],
                            [
                                2.512159417419451,
                                42.338750262417932
                            ],
                            [
                                2.505355443411359,
                                42.34055131436125
                            ],
                            [
                                2.499351936933629,
                                42.343953301365296
                            ],
                            [
                                2.492748079808127,
                                42.350156924725617
                            ],
                            [
                                2.479540365557122,
                                42.359362301324801
                            ],
                            [
                                2.469534521427573,
                                42.367366976628446
                            ],
                            [
                                2.463931248715026,
                                42.37257001557581
                            ],
                            [
                                2.460929495476161,
                                42.37657235322763
                            ],
                            [
                                2.459128443532842,
                                42.381175041527221
                            ],
                            [
                                2.45874927392378,
                                42.385344876418912
                            ],
                            [
                                2.452748835003538,
                                42.384856163847012
                            ],
                            [
                                2.445528486706565,
                                42.384939156356168
                            ],
                            [
                                2.438557115937074,
                                42.385686088938613
                            ],
                            [
                                2.431419760149263,
                                42.387013969085181
                            ],
                            [
                                2.418861913585694,
                                42.390240346677423
                            ],
                            [
                                2.407846178283415,
                                42.393287252186568
                            ],
                            [
                                2.401205486789133,
                                42.394849767832277
                            ],
                            [
                                2.395189801553137,
                                42.395865403001991
                            ],
                            [
                                2.384653307222222,
                                42.40076765658543
                            ],
                            [
                                2.376636009725609,
                                42.405315931126779
                            ],
                            [
                                2.367924907637943,
                                42.409941295067128
                            ],
                            [
                                2.361095529330275,
                                42.41307911753281
                            ],
                            [
                                2.356665662319896,
                                42.414832606557752
                            ],
                            [
                                2.350731250786114,
                                42.416503005522095
                            ],
                            [
                                2.344122964328724,
                                42.418033738543301
                            ],
                            [
                                2.33875283490111,
                                42.418597235152106
                            ],
                            [
                                2.328681103346049,
                                42.420410146832019
                            ],
                            [
                                2.310287602372275,
                                42.425196246890508
                            ],
                            [
                                2.292952357569329,
                                42.429868156837401
                            ],
                            [
                                2.283528819438614,
                                42.431882782281598
                            ],
                            [
                                2.276184701042491,
                                42.429672272821506
                            ],
                            [
                                2.268725319133797,
                                42.426950606449417
                            ],
                            [
                                2.246548778324163,
                                42.418584002416686
                            ],
                            [
                                2.238686186582565,
                                42.416366348335728
                            ],
                            [
                                2.231428409590321,
                                42.415156718837018
                            ],
                            [
                                2.223767422765175,
                                42.41495511392057
                            ],
                            [
                                2.215741864344314,
                                42.415833928665236
                            ]
                        ]
                    ]
                ]
            }
        }
    ]
}