{
    "type": "FeatureCollection",
    "features": [
        {
            "type": "Feature",
            "properties": {
                "diocese": "Ibiza",
                "province": "Tarraconen",
                "date": 1782
            },
            "geometry": {
                "coordinates": [
                    [
                        [
                            [
                                1.439975,
                                38.743885
                            ],
                            [
                                1.43324,
                                38.771769
                            ],
                            [
                                1.419311,
                                38.722661
                            ],
                            [
                                1.39652,
                                38.735543
                            ],
                            [
                                1.380335,
                                38.719357
                            ],
                            [
                                1.385483,
                                38.641465
                            ],
                            [
                                1.456758,
                                38.68564
                            ],
                            [
                                1.524518,
                                38.653394
                            ],
                            [
                                1.584715,
                                38.66301
                            ],
                            [
                                1.569305,
                                38.691676
                            ],
                            [
                                1.53035,
                                38.672459
                            ],
                            [
                                1.506019,
                                38.682684
                            ],
                            [
                                1.477761,
                                38.702432
                            ],
                            [
                                1.472702,
                                38.728228
                            ],
                            [
                                1.456118,
                                38.725
                            ],
                            [
                                1.439975,
                                38.743885
                            ]
                        ]
                    ],
                    [
                        [
                            [
                                1.430905,
                                38.785376
                            ],
                            [
                                1.425793,
                                38.79562
                            ],
                            [
                                1.419254,
                                38.795013
                            ],
                            [
                                1.419482,
                                38.779338
                            ],
                            [
                                1.430905,
                                38.785376
                            ]
                        ]
                    ],
                    [
                        [
                            [
                                1.477536,
                                38.800707
                            ],
                            [
                                1.477713,
                                38.805224
                            ],
                            [
                                1.474113,
                                38.797495
                            ],
                            [
                                1.480222,
                                38.7881
                            ],
                            [
                                1.477536,
                                38.800707
                            ]
                        ]
                    ],
                    [
                        [
                            [
                                1.215325,
                                38.869195
                            ],
                            [
                                1.211579640000025,
                                38.870008299000062
                            ],
                            [
                                1.206827,
                                38.86833
                            ],
                            [
                                1.212999,
                                38.865788
                            ],
                            [
                                1.215325,
                                38.869195
                            ]
                        ]
                    ],
                    [
                        [
                            [
                                1.203408,
                                38.868803
                            ],
                            [
                                1.195555,
                                38.869974
                            ],
                            [
                                1.188484,
                                38.862652
                            ],
                            [
                                1.202998,
                                38.864713
                            ],
                            [
                                1.203408,
                                38.868803
                            ]
                        ]
                    ],
                    [
                        [
                            [
                                1.224955,
                                38.870985
                            ],
                            [
                                1.224889,
                                38.871103
                            ],
                            [
                                1.224854,
                                38.871026
                            ],
                            [
                                1.224955,
                                38.870985
                            ]
                        ]
                    ],
                    [
                        [
                            [
                                1.235501,
                                38.940239
                            ],
                            [
                                1.23519,
                                38.940252
                            ],
                            [
                                1.235329,
                                38.940179
                            ],
                            [
                                1.235501,
                                38.940239
                            ]
                        ]
                    ],
                    [
                        [
                            [
                                1.528845,
                                38.945524
                            ],
                            [
                                1.528296781000051,
                                38.94538625000007
                            ],
                            [
                                1.528838496000049,
                                38.945039463000057
                            ],
                            [
                                1.528845,
                                38.945524
                            ]
                        ]
                    ],
                    [
                        [
                            [
                                1.199932,
                                38.957575
                            ],
                            [
                                1.198683,
                                38.959746
                            ],
                            [
                                1.189753,
                                38.957986
                            ],
                            [
                                1.198707,
                                38.956531
                            ],
                            [
                                1.199932,
                                38.957575
                            ]
                        ]
                    ],
                    [
                        [
                            [
                                1.219559,
                                38.967517
                            ],
                            [
                                1.219083,
                                38.969803
                            ],
                            [
                                1.215435,
                                38.971664
                            ],
                            [
                                1.214724,
                                38.968046
                            ],
                            [
                                1.219559,
                                38.967517
                            ]
                        ]
                    ],
                    [
                        [
                            [
                                1.215345,
                                38.988239
                            ],
                            [
                                1.206385,
                                38.989047
                            ],
                            [
                                1.214105,
                                38.976031
                            ],
                            [
                                1.218953,
                                38.978465
                            ],
                            [
                                1.215345,
                                38.988239
                            ]
                        ]
                    ],
                    [
                        [
                            [
                                1.639357,
                                39.040928
                            ],
                            [
                                1.639878,
                                39.034795
                            ],
                            [
                                1.650459,
                                39.032267
                            ],
                            [
                                1.64626,
                                39.040691
                            ],
                            [
                                1.639357,
                                39.040928
                            ]
                        ]
                    ],
                    [
                        [
                            [
                                1.590906,
                                39.058764
                            ],
                            [
                                1.605042977000039,
                                39.090590567000049
                            ],
                            [
                                1.559051950000025,
                                39.093357640000079
                            ],
                            [
                                1.532312980000029,
                                39.118809611000074
                            ],
                            [
                                1.497730580000052,
                                39.09972149400005
                            ],
                            [
                                1.462435140000025,
                                39.103871525000045
                            ],
                            [
                                1.440687445000037,
                                39.081181709000077
                            ],
                            [
                                1.42642666200004,
                                39.093080937000025
                            ],
                            [
                                1.37758347800002,
                                39.063467512000045
                            ],
                            [
                                1.358687939000049,
                                39.073985853000067
                            ],
                            [
                                1.290949217000048,
                                39.026917941000079
                            ],
                            [
                                1.298436128000048,
                                39.009190130000036
                            ],
                            [
                                1.285244903000034,
                                38.992843367000035
                            ],
                            [
                                1.30841867700002,
                                38.97455268300007
                            ],
                            [
                                1.231976,
                                38.973586
                            ],
                            [
                                1.215010544000052,
                                38.958197919000042
                            ],
                            [
                                1.235501,
                                38.940239
                            ],
                            [
                                1.215010544000052,
                                38.905504382000061
                            ],
                            [
                                1.224955,
                                38.870985
                            ],
                            [
                                1.248523386000045,
                                38.856103347000044
                            ],
                            [
                                1.270984120000037,
                                38.878865394000059
                            ],
                            [
                                1.297723089000044,
                                38.875812372000041
                            ],
                            [
                                1.298792648000074,
                                38.860545294000076
                            ],
                            [
                                1.321609902000034,
                                38.855825716000027
                            ],
                            [
                                1.345140195000056,
                                38.871371378000049
                            ],
                            [
                                1.370453086000055,
                                38.828890367000042
                            ],
                            [
                                1.384357350000073,
                                38.842220474000044
                            ],
                            [
                                1.405392006000056,
                                38.830556766000029
                            ],
                            [
                                1.404678967000052,
                                38.881640754000045
                            ],
                            [
                                1.422148427000025,
                                38.903839738000045
                            ],
                            [
                                1.457800386000031,
                                38.903839738000045
                            ],
                            [
                                1.45423519000002,
                                38.916046221000045
                            ],
                            [
                                1.476339404000043,
                                38.913272204000066
                            ],
                            [
                                1.510565285000041,
                                38.946275967000076
                            ],
                            [
                                1.528845,
                                38.945524
                            ],
                            [
                                1.53195646100005,
                                38.982312944000057
                            ],
                            [
                                1.582225723000022,
                                38.989241030000073
                            ],
                            [
                                1.58365180100003,
                                39.015284566000048
                            ],
                            [
                                1.621442878000039,
                                39.027471863000073
                            ],
                            [
                                1.590906,
                                39.058764
                            ]
                        ]
                    ]
                ],
                "type": "MultiPolygon"
            }
        }
    ]
}