{
    "type": "FeatureCollection",
    "name": "Illerden",
    "crs": {
        "type": "name"
    },
    "features": [
        {
            "type": "Feature",
            "properties": {
                "diocese": "Illerden",
                "province": "Tarraconen",
                "date": 1592
            },
            "geometry": {
                "type": "MultiPolygon",
                "coordinates": [
                    [
                        [
                            [
                                0.07517374300005,
                                42.144727449000072
                            ],
                            [
                                0.107854706000069,
                                42.162347813000054
                            ],
                            [
                                0.08527513100006,
                                42.19361187800007
                            ],
                            [
                                0.057957948000023,
                                42.177676190000057
                            ],
                            [
                                0.057749905000037,
                                42.153738478000037
                            ],
                            [
                                0.030387099000052,
                                42.141875140000025
                            ],
                            [
                                -0.024374309999928,
                                42.177394371000048
                            ],
                            [
                                -0.039997738999944,
                                42.17283360700003
                            ],
                            [
                                -0.015144552999971,
                                42.12445796600008
                            ],
                            [
                                -0.061000597999964,
                                42.100622927000074
                            ],
                            [
                                -0.06499361799996,
                                42.083690982000064
                            ],
                            [
                                -0.034950899999956,
                                42.07409420700003
                            ],
                            [
                                0.018130608000035,
                                42.090073148000045
                            ],
                            [
                                0.07517374300005,
                                42.144727449000072
                            ]
                        ]
                    ],
                    [
                        [
                            [
                                0.79723257400002,
                                42.606017276000046
                            ],
                            [
                                0.708761977953671,
                                42.620670265484044
                            ],
                            [
                                0.696052,
                                42.658514
                            ],
                            [
                                0.660104069000056,
                                42.690925330000027
                            ],
                            [
                                0.654035977389258,
                                42.692378223021642
                            ],
                            [
                                0.652195775912001,
                                42.691754928972891
                            ],
                            [
                                0.644864650671963,
                                42.693090559077348
                            ],
                            [
                                0.638334903494601,
                                42.694841718547643
                            ],
                            [
                                0.633300056402679,
                                42.696642859514533
                            ],
                            [
                                0.630418361966841,
                                42.6976773139274
                            ],
                            [
                                0.628497232342949,
                                42.698453154737045
                            ],
                            [
                                0.622918567473571,
                                42.70037428436094
                            ],
                            [
                                0.618504582910975,
                                42.701372791909165
                            ],
                            [
                                0.614313627632525,
                                42.701476469505607
                            ],
                            [
                                0.610117428846553,
                                42.700454922984676
                            ],
                            [
                                0.605640052878903,
                                42.697903362502622
                            ],
                            [
                                0.601272642221448,
                                42.693813247759927
                            ],
                            [
                                0.594409568331161,
                                42.694021219695991
                            ],
                            [
                                0.588309058206461,
                                42.694714459482888
                            ],
                            [
                                0.566350485105618,
                                42.698354887516068
                            ],
                            [
                                0.555483722691472,
                                42.699772291309216
                            ],
                            [
                                0.549184150277474,
                                42.700244759240263
                            ],
                            [
                                0.542884577863477,
                                42.700087269929917
                            ],
                            [
                                0.537057473380529,
                                42.699063589412638
                            ],
                            [
                                0.532224998672025,
                                42.694377460618803
                            ],
                            [
                                0.526514708793418,
                                42.692146878634972
                            ],
                            [
                                0.520774677821693,
                                42.69193869098315
                            ],
                            [
                                0.514412345015382,
                                42.693169261192836
                            ],
                            [
                                0.509795311366214,
                                42.694574445346923
                            ],
                            [
                                0.502669020299021,
                                42.696782591874786
                            ],
                            [
                                0.496646802495758,
                                42.698288146325602
                            ],
                            [
                                0.490824571721817,
                                42.698625601520526
                            ],
                            [
                                0.485816980195728,
                                42.69716505399208
                            ],
                            [
                                0.481435337610399,
                                42.693305035524055
                            ],
                            [
                                0.474810132451845,
                                42.691205976004547
                            ],
                            [
                                0.468104707568394,
                                42.690020260628813
                            ],
                            [
                                0.461440169422036,
                                42.689570506520781
                            ],
                            [
                                0.453333249436846,
                                42.689611536732556
                            ],
                            [
                                0.443635409676517,
                                42.690326951141103
                            ],
                            [
                                0.427816802198604,
                                42.692075741917556
                            ],
                            [
                                0.422570429869246,
                                42.69239370387691
                            ],
                            [
                                0.417170414321392,
                                42.692444846158402
                            ],
                            [
                                0.41054981955021,
                                42.702108806807047
                            ],
                            [
                                0.388475027383239,
                                42.72044431752407
                            ],
                            [
                                0.365974745772477,
                                42.715614926413622
                            ],
                            [
                                0.351435213554243,
                                42.711364909303676
                            ],
                            [
                                0.346402298555623,
                                42.709239900748706
                            ],
                            [
                                0.341145698445954,
                                42.70633199430506
                            ],
                            [
                                0.338273429085024,
                                42.703335823664681
                            ],
                            [
                                0.337016847417243,
                                42.699566078661334
                            ],
                            [
                                0.33921586533586,
                                42.695272757963082
                            ],
                            [
                                0.336702702000298,
                                42.690351146430942
                            ],
                            [
                                0.332723526718991,
                                42.685953110593708
                            ],
                            [
                                0.328373717039227,
                                42.682630330297926
                            ],
                            [
                                0.323102067320717,
                                42.679827985058935
                            ],
                            [
                                0.317050470875636,
                                42.677699492516183
                            ],
                            [
                                0.310718353937565,
                                42.676643067897686
                            ],
                            [
                                0.304471207102202,
                                42.677002099325001
                            ],
                            [
                                0.298870316836015,
                                42.678653643890677
                            ],
                            [
                                0.293238921016013,
                                42.682100061196998
                            ],
                            [
                                0.285297669652125,
                                42.690986699628013
                            ],
                            [
                                0.282650585864163,
                                42.695713634963653
                            ],
                            [
                                0.279775609971911,
                                42.704761289511822
                            ],
                            [
                                0.278185471568669,
                                42.70934997461832
                            ],
                            [
                                0.275868412752517,
                                42.71357519951836
                            ],
                            [
                                0.272324675739578,
                                42.71671004379904
                            ],
                            [
                                0.267026940443539,
                                42.718662218172796
                            ],
                            [
                                0.260046884725939,
                                42.719113625247786
                            ],
                            [
                                0.24992051998819,
                                42.71783845339192
                            ],
                            [
                                0.243694680927204,
                                42.719188635356957
                            ],
                            [
                                0.23731882164788,
                                42.721213908304506
                            ],
                            [
                                0.229417013679975,
                                42.724297273093732
                            ],
                            [
                                0.218324433253198,
                                42.729078557760452
                            ],
                            [
                                0.207805606986426,
                                42.732903585493823
                            ],
                            [
                                0.200920557066358,
                                42.734720473667174
                            ],
                            [
                                0.193939881452955,
                                42.735867981987184
                            ],
                            [
                                0.186944815001399,
                                42.736032450861941
                            ],
                            [
                                0.180451994023613,
                                42.731403432865605
                            ],
                            [
                                0.167893044641393,
                                42.725638669214753
                            ],
                            [
                                0.128775005582021,
                                42.713285604248632
                            ],
                            [
                                0.114034328695107,
                                42.715033370039983
                            ],
                            [
                                0.108158288962359,
                                42.715161110034174
                            ],
                            [
                                0.102282249229611,
                                42.714777890051607
                            ],
                            [
                                0.096406209496863,
                                42.713883710092276
                            ],
                            [
                                0.085292830002318,
                                42.710562470243332
                            ],
                            [
                                0.073923970519393,
                                42.704558690516393
                            ],
                            [
                                0.068686630757596,
                                42.700854230684875
                            ],
                            [
                                0.061916411065517,
                                42.700215530713926
                            ],
                            [
                                0.053996531425726,
                                42.700598750696493
                            ],
                            [
                                0.046332131774316,
                                42.701492930655824
                            ],
                            [
                                0.050526355000045,
                                42.653602903000035
                            ],
                            [
                                0.204162531000065,
                                42.577761371000065
                            ],
                            [
                                0.202641381000035,
                                42.54709071700006
                            ],
                            [
                                0.163015417000054,
                                42.549061187000063
                            ],
                            [
                                0.140768594000065,
                                42.520338458000026
                            ],
                            [
                                0.15293779600006,
                                42.480945840000061
                            ],
                            [
                                0.13734600600003,
                                42.430021131000046
                            ],
                            [
                                0.221579702000042,
                                42.30625481800007
                            ],
                            [
                                0.223528675000068,
                                42.19397345200008
                            ],
                            [
                                0.241354655000066,
                                42.12772854800005
                            ],
                            [
                                0.295545633000074,
                                42.106924627000069
                            ],
                            [
                                0.302378925000028,
                                42.088980169000081
                            ],
                            [
                                0.299705028000062,
                                42.064943397000036
                            ],
                            [
                                0.201067941000019,
                                42.029643574000033
                            ],
                            [
                                0.182350663000022,
                                41.958322295000073
                            ],
                            [
                                0.103916353000045,
                                41.948821484000064
                            ],
                            [
                                0.034833586000047,
                                41.973291849000077
                            ],
                            [
                                -0.013357472999928,
                                41.886137724000037
                            ],
                            [
                                -0.051550953999936,
                                41.898457886000074
                            ],
                            [
                                -0.040380006999953,
                                41.950448843000061
                            ],
                            [
                                -0.008862677999957,
                                41.997923202000038
                            ],
                            [
                                -0.122569656999929,
                                42.021737445000042
                            ],
                            [
                                -0.126068493999981,
                                41.921592714000042
                            ],
                            [
                                -0.108391063999932,
                                41.894175397000026
                            ],
                            [
                                -0.153995861999931,
                                41.823366633000035
                            ],
                            [
                                -0.138249579999979,
                                41.754252611000027
                            ],
                            [
                                -0.152791122999929,
                                41.711646169000062
                            ],
                            [
                                -0.108978825999941,
                                41.680588662000048
                            ],
                            [
                                -0.111949822999975,
                                41.652624084000081
                            ],
                            [
                                -0.167314,
                                41.581129
                            ],
                            [
                                -0.156623,
                                41.535313
                            ],
                            [
                                -0.104932,
                                41.485498
                            ],
                            [
                                -0.069962,
                                41.372983
                            ],
                            [
                                0.006414681000024,
                                41.331898959000057
                            ],
                            [
                                0.082472194000047,
                                41.341892674000064
                            ],
                            [
                                0.126205264000021,
                                41.275834369000052
                            ],
                            [
                                0.199410620000037,
                                41.284765078000078
                            ],
                            [
                                0.324172671000042,
                                41.222015884000029
                            ],
                            [
                                0.364569,
                                41.227694
                            ],
                            [
                                0.516930930000058,
                                41.39115472800006
                            ],
                            [
                                0.592988443000024,
                                41.311222569000051
                            ],
                            [
                                0.697567523000032,
                                41.31764931500004
                            ],
                            [
                                0.75375501000002,
                                41.303771511000036
                            ],
                            [
                                0.823632850000024,
                                41.348482928000067
                            ],
                            [
                                0.836467556000059,
                                41.430329611000047
                            ],
                            [
                                0.885310740000023,
                                41.482433052000033
                            ],
                            [
                                0.883884661000025,
                                41.55077196600007
                            ],
                            [
                                0.762372105000054,
                                41.654980042000034
                            ],
                            [
                                0.749062040000069,
                                41.707168853000042
                            ],
                            [
                                0.687994195000044,
                                41.705772969000066
                            ],
                            [
                                0.617878676000032,
                                41.765189504000034
                            ],
                            [
                                0.577776674000063,
                                41.82749556300007
                            ],
                            [
                                0.577925224000069,
                                41.877730371000041
                            ],
                            [
                                0.528487840000025,
                                41.900090971000054
                            ],
                            [
                                0.577687544000071,
                                41.948368458000061
                            ],
                            [
                                0.634968358000037,
                                41.945893578000039
                            ],
                            [
                                0.639959633000046,
                                41.975762494000037
                            ],
                            [
                                0.559683305000021,
                                42.013299690000053
                            ],
                            [
                                0.482140293000043,
                                41.93157274400005
                            ],
                            [
                                0.420046465000041,
                                41.902832979000038
                            ],
                            [
                                0.35795263600005,
                                41.945495821000065
                            ],
                            [
                                0.386771303000046,
                                41.987246810000045
                            ],
                            [
                                0.376522743000066,
                                42.027344954000057
                            ],
                            [
                                0.406285075000028,
                                42.047680557000035
                            ],
                            [
                                0.449958724000055,
                                42.047680557000035
                            ],
                            [
                                0.487096182000073,
                                42.071944403000032
                            ],
                            [
                                0.559885598000051,
                                42.034221156000058
                            ],
                            [
                                0.646341599000039,
                                42.050769198000069
                            ],
                            [
                                0.713902062000045,
                                42.273240212000076
                            ],
                            [
                                0.76476552400004,
                                42.257761751000032
                            ],
                            [
                                0.770469837000064,
                                42.233481058000052
                            ],
                            [
                                0.736719316000062,
                                42.188061653000034
                            ],
                            [
                                0.733867159000056,
                                42.12251572100007
                            ],
                            [
                                0.69821520000005,
                                42.061842947000059
                            ],
                            [
                                0.738145394000071,
                                42.049136649000047
                            ],
                            [
                                0.789959575000069,
                                42.071018136000077
                            ],
                            [
                                0.800797770000031,
                                42.187392441000043
                            ],
                            [
                                0.853562670000031,
                                42.275561653000068
                            ],
                            [
                                0.903475413000024,
                                42.318282001000057
                            ],
                            [
                                0.892779825000048,
                                42.359919607000052
                            ],
                            [
                                0.938414333000026,
                                42.420482029000027
                            ],
                            [
                                0.923440510000034,
                                42.448373733000039
                            ],
                            [
                                0.819336789000033,
                                42.503594225000029
                            ],
                            [
                                0.798658653000075,
                                42.546159595000063
                            ],
                            [
                                0.79723257400002,
                                42.606017276000046
                            ]
                        ],
                        [
                            [
                                0.698238968000055,
                                42.549428163000073
                            ],
                            [
                                0.709647595000035,
                                42.58023767800006
                            ],
                            [
                                0.747307,
                                42.549789
                            ],
                            [
                                0.752429946000063,
                                42.436914493000074
                            ],
                            [
                                0.687305700000024,
                                42.478648778000036
                            ],
                            [
                                0.698238968000055,
                                42.549428163000073
                            ]
                        ]
                    ],
                    [
                        [
                            [
                                0.7637087858652,
                                42.014172337639913
                            ],
                            [
                                0.783812821932922,
                                42.009043665246686
                            ],
                            [
                                0.79180479114912,
                                41.985908927282921
                            ],
                            [
                                0.754090351168165,
                                41.978984642545491
                            ],
                            [
                                0.73698777097564,
                                41.991627475696539
                            ],
                            [
                                0.7637087858652,
                                42.014172337639913
                            ]
                        ]
                    ]
                ]
            }
        }
    ]
}