{
    "type": "FeatureCollection",
    "features": [
        {
            "type": "Feature",
            "properties": {
                "diocese": "Tarraconen",
                "province": "Tarraconen",
                "date": 1782
            },
            "geometry": {
                "coordinates": [
                    [
                        [
                            [
                                1.1613420580000593,
                                41.54055896300008
                            ],
                            [
                                1.1470812740000724,
                                41.566171498000074
                            ],
                            [
                                0.8685779050000519,
                                41.563192712000046
                            ],
                            [
                                0.8927976510000235,
                                41.51260717100007
                            ],
                            [
                                0.8853107400000226,
                                41.48243305200003
                            ],
                            [
                                0.8364675560000592,
                                41.43032961100005
                            ],
                            [
                                0.8236328500000241,
                                41.34848292800007
                            ],
                            [
                                0.7487637360000576,
                                41.30671751800003
                            ],
                            [
                                0.7769287840000629,
                                41.285556875000054
                            ],
                            [
                                0.7941486800000348,
                                41.235520835000045
                            ],
                            [
                                0.9146523020000359,
                                41.12120833600005
                            ],
                            [
                                0.8825655390000406,
                                41.06962199800006
                            ],
                            [
                                0.8862960000000726,
                                40.96186600000004
                            ],
                            [
                                0.9671160000000327,
                                41.02862900000008
                            ],
                            [
                                1.0497810000000527,
                                41.06439400000005
                            ],
                            [
                                1.1241830000000732,
                                41.074786000000074
                            ],
                            [
                                1.1704860000000394,
                                41.054670000000044
                            ],
                            [
                                1.2179680000000417,
                                41.10560600000008
                            ],
                            [
                                1.2490940000000705,
                                41.108712000000025
                            ],
                            [
                                1.233156000000065,
                                41.099616000000026
                            ],
                            [
                                1.22532300000006,
                                41.087094000000036
                            ],
                            [
                                1.2956320000000687,
                                41.12722000000008
                            ],
                            [
                                1.3949500000000512,
                                41.131605000000036
                            ],
                            [
                                1.455278723000049,
                                41.161582011000064
                            ],
                            [
                                1.4391896590000215,
                                41.18243896100006
                            ],
                            [
                                1.316190400000039,
                                41.21248419900007
                            ],
                            [
                                1.3186860370000204,
                                41.26235028200006
                            ],
                            [
                                1.2801819210000644,
                                41.28807272800003
                            ],
                            [
                                1.3664596630000574,
                                41.32422776800007
                            ],
                            [
                                1.4024681410000426,
                                41.364911670000026
                            ],
                            [
                                1.447389610000073,
                                41.367587351000054
                            ],
                            [
                                1.440259218000051,
                                41.43978915000008
                            ],
                            [
                                1.3357989780000707,
                                41.50425716800004
                            ],
                            [
                                1.1613420580000593,
                                41.54055896300008
                            ]
                        ]
                    ]
                ],
                "type": "MultiPolygon"
            }
        }
    ]
}