{
    "type": "FeatureCollection",
    "features": [
        {
            "type": "Feature",
            "properties": {
                "diocese": "Urgellen",
                "province": "Tarraconen",
                "date": 1592
            },
            "geometry": {
                "coordinates": [
          [
            [
              [
                0.7473252058451061,
                42.54938786834931
              ],
              [
                0.7524299460001107,
                42.43691449300005
              ],
              [
                0.6835028250001043,
                42.48881510300008
              ],
              [
                0.7044186410001247,
                42.57638732100006
              ],
              [
                0.7186794240000648,
                42.578137513000065
              ],
              [
                0.7460898969014876,
                42.55099423871849
              ],
              [
                0.7473252058451061,
                42.54938786834931
              ]
            ]
          ],
          [
            [
              [
                1.3941163198916502,
                41.70831399284226
              ],
              [
                1.3815056120000888,
                41.68341014600003
              ],
              [
                1.30521041900008,
                41.65198381900008
              ],
              [
                1.1618895430000447,
                41.66337097600011
              ],
              [
                0.9178964480000712,
                41.654270291000046
              ],
              [
                0.8935342760000502,
                41.66647823300006
              ],
              [
                0.7844987010000868,
                41.63406661400007
              ],
              [
                0.7623721050000569,
                41.654980042000034
              ],
              [
                0.74906204000006,
                41.70716885300005
              ],
              [
                0.6879941950000569,
                41.70577296900006
              ],
              [
                0.6178786760000564,
                41.76518950399999
              ],
              [
                0.5777766740000976,
                41.82749556300013
              ],
              [
                0.5779252240001169,
                41.87773037100002
              ],
              [
                0.5284878400000558,
                41.90009097100012
              ],
              [
                0.5776875440000658,
                41.94836845800009
              ],
              [
                0.6349683580000711,
                41.945893578000046
              ],
              [
                0.6399596330000552,
                41.97576249400011
              ],
              [
                0.5596833050000198,
                42.0132996900001
              ],
              [
                0.4473796330000222,
                41.911014076000065
              ],
              [
                0.40430018300003295,
                41.9063708790001
              ],
              [
                0.364488828000051,
                41.93267786100008
              ],
              [
                0.358843935000062,
                41.95698559400002
              ],
              [
                0.3867713030000922,
                41.98724681000002
              ],
              [
                0.3765227430001084,
                42.02734495400006
              ],
              [
                0.4062850750000378,
                42.04768055700005
              ],
              [
                0.4499587240000743,
                42.04768055700005
              ],
              [
                0.487096182000066,
                42.07194440300004
              ],
              [
                0.5598855980000902,
                42.034221156000086
              ],
              [
                0.6463415990000707,
                42.05076919800009
              ],
              [
                0.7139020620000864,
                42.273240212000125
              ],
              [
                0.7647655240000589,
                42.25776175100001
              ],
              [
                0.770469837000069,
                42.23348105800009
              ],
              [
                0.7367193160000869,
                42.188061653
              ],
              [
                0.7338671590000667,
                42.12251572100009
              ],
              [
                0.6982152000000711,
                42.06184294700007
              ],
              [
                0.7381453940000986,
                42.0491366490001
              ],
              [
                0.7899595750000779,
                42.071018136000106
              ],
              [
                0.8007977700000593,
                42.187392441
              ],
              [
                0.8535626700000452,
                42.275561653000096
              ],
              [
                0.9034754130000445,
                42.318282001000064
              ],
              [
                0.8927798250000836,
                42.359919607000094
              ],
              [
                0.8929023990641602,
                42.360082277367766
              ],
              [
                1.3941163198916502,
                41.70831399284226
              ]
            ],
            [
              [
                0.7916008800598593,
                41.98594925607272
              ],
              [
                0.7838762889123139,
                42.008912142533504
              ],
              [
                0.7636735120649157,
                42.0142100934884
              ],
              [
                0.7369345427081074,
                41.99169075446582
              ],
              [
                0.7541663229603345,
                41.97888208564103
              ],
              [
                0.7916008800598593,
                41.98594925607272
              ]
            ]
          ]
        ],
        "type": "MultiPolygon"
      }
    }
  ]
}