{
  "type": "FeatureCollection",
  "features": [
    {
      "type": "Feature",
      "properties": {
                "diocese": "Corduben",
                "province": "Toletan",
                "date": 1592
            },
      "geometry": {
        "coordinates": [
          [
            [
              -4.268777178999926,
              38.34734257500003
            ],
            [
              -4.452871999999957,
              38.40089700000004
            ],
            [
              -4.512575999999967,
              38.46387900000008
            ],
            [
              -4.566182999999967,
              38.490965000000074
            ],
            [
              -4.593576999999925,
              38.486406000000045
            ],
            [
              -4.622665999999981,
              38.523817000000065
            ],
            [
              -4.7038369999999645,
              38.55319300000008
            ],
            [
              -4.707253999999978,
              38.57196800000003
            ],
            [
              -4.860056999999927,
              38.613999000000035
            ],
            [
              -4.867382999999961,
              38.63165100000003
            ],
            [
              -4.833859964999931,
              38.76952251000006
            ],
            [
              -4.801476101999981,
              38.77832428800008
            ],
            [
              -4.810686191999935,
              38.81166853800005
            ],
            [
              -4.7625560469999755,
              38.84222039600007
            ],
            [
              -4.759882149999953,
              38.882010716000025
            ],
            [
              -4.9148303019999275,
              38.88745877700006
            ],
            [
              -4.943372999999951,
              38.85439700000006
            ],
            [
              -4.972578999999939,
              38.76111800000007
            ],
            [
              -5.0010726049999334,
              38.74328831400004
            ],
            [
              -5.069524366999929,
              38.741805258000056
            ],
            [
              -5.1612687419999475,
              38.76590111200005
            ],
            [
              -5.2477841619999595,
              38.73587272300006
            ],
            [
              -5.233998737999968,
              38.69767023500003
            ],
            [
              -5.41368461199994,
              38.58405506500003
            ],
            [
              -5.4997246739999355,
              38.49705139300005
            ],
            [
              -5.5805357809999805,
              38.45723260600005
            ],
            [
              -5.60097623799993,
              38.424095554000075
            ],
            [
              -5.582437218999928,
              38.34080112000004
            ],
            [
              -5.535851991999948,
              38.240188586000045
            ],
            [
              -5.581486499999926,
              38.16099356800004
            ],
            [
              -5.581560586999956,
              38.11549073700007
            ],
            [
              -5.538657999999941,
              38.09382900000003
            ],
            [
              -5.495001999999943,
              38.041863000000035
            ],
            [
              -5.4941239999999425,
              37.99884700000007
            ],
            [
              -5.474256069999967,
              37.97567190800004
            ],
            [
              -5.415486999999928,
              37.94369300000005
            ],
            [
              -5.414582999999936,
              37.86948000000007
            ],
            [
              -5.344385999999929,
              37.83989200000008
            ],
            [
              -5.34970868299996,
              37.79463330600004
            ],
            [
              -5.309909999999945,
              37.77425100000005
            ],
            [
              -5.3073450489999345,
              37.699896995000074
            ],
            [
              -5.326972999999953,
              37.69164200000006
            ],
            [
              -5.344709999999964,
              37.705366000000026
            ],
            [
              -5.376215999999943,
              37.677584000000024
            ],
            [
              -5.385774999999967,
              37.69673800000004
            ],
            [
              -5.403562999999963,
              37.69304200000005
            ],
            [
              -5.412769999999966,
              37.66501800000003
            ],
            [
              -5.393528999999944,
              37.65537200000006
            ],
            [
              -5.411188999999979,
              37.641054000000054
            ],
            [
              -5.3517309999999725,
              37.58431100000007
            ],
            [
              -5.323175999999933,
              37.61427200000003
            ],
            [
              -5.274392999999975,
              37.62530700000008
            ],
            [
              -5.176641999999958,
              37.68060000000003
            ],
            [
              -5.149927999999932,
              37.66094000000004
            ],
            [
              -5.107794999999953,
              37.66260200000005
            ],
            [
              -5.129584999999963,
              37.69877100000008
            ],
            [
              -5.108486999999968,
              37.70069100000006
            ],
            [
              -5.097752999999955,
              37.67031500000007
            ],
            [
              -5.069751999999937,
              37.65937400000007
            ],
            [
              -5.091379999999958,
              37.67997200000008
            ],
            [
              -5.072456999999929,
              37.707719000000054
            ],
            [
              -5.047102999999936,
              37.718319000000065
            ],
            [
              -4.999695999999972,
              37.706615000000056
            ],
            [
              -4.953640999999948,
              37.65246900000005
            ],
            [
              -4.974154999999939,
              37.600182000000075
            ],
            [
              -4.93157999999994,
              37.61735200000004
            ],
            [
              -4.931896999999935,
              37.54593500000004
            ],
            [
              -4.948805999999934,
              37.52197300000006
            ],
            [
              -4.90589099999994,
              37.49986400000006
            ],
            [
              -4.915071999999952,
              37.48418700000008
            ],
            [
              -4.904338999999936,
              37.48951600000004
            ],
            [
              -4.903958999999929,
              37.46743300000003
            ],
            [
              -4.875211999999976,
              37.450481000000025
            ],
            [
              -4.884609999999952,
              37.438011000000074
            ],
            [
              -4.8405049999999505,
              37.43604800000003
            ],
            [
              -4.849679999999978,
              37.41068800000005
            ],
            [
              -4.814555999999925,
              37.37756100000007
            ],
            [
              -4.812949983999943,
              37.352640923000024
            ],
            [
              -4.836171940999975,
              37.34111861000008
            ],
            [
              -4.919062745999952,
              37.36756898100003
            ],
            [
              -4.988191894999943,
              37.33857227100003
            ],
            [
              -5.005209762999925,
              37.28117879300004
            ],
            [
              -5.00024837899997,
              37.238178144000074
            ],
            [
              -4.882359233999978,
              37.26088151000005
            ],
            [
              -4.839101523999943,
              37.19123618100008
            ],
            [
              -4.791090218999955,
              37.221903191000024
            ],
            [
              -4.781107669999926,
              37.26050317700003
            ],
            [
              -4.744029632999968,
              37.248395505000076
            ],
            [
              -4.616947999999979,
              37.25623200000007
            ],
            [
              -4.596140999999932,
              37.22508600000003
            ],
            [
              -4.602163999999959,
              37.209268000000066
            ],
            [
              -4.534469999999942,
              37.21192200000007
            ],
            [
              -4.499213999999938,
              37.23038200000008
            ],
            [
              -4.45715342799997,
              37.206224355000074
            ],
            [
              -4.403378388999954,
              37.22976529300007
            ],
            [
              -4.370087255999977,
              37.21496904000003
            ],
            [
              -4.3449983059999795,
              37.18078242400003
            ],
            [
              -4.295437999999933,
              37.199419000000034
            ],
            [
              -4.255182999999931,
              37.22959700000007
            ],
            [
              -4.263125999999943,
              37.260410000000036
            ],
            [
              -4.236381999999935,
              37.297250000000076
            ],
            [
              -4.233746862999965,
              37.342724446000034
            ],
            [
              -4.291978395999934,
              37.37436865300003
            ],
            [
              -4.346644732999948,
              37.43950422200004
            ],
            [
              -4.302079784999933,
              37.46167514500007
            ],
            [
              -4.24834832099998,
              37.520702637000056
            ],
            [
              -4.177995120999981,
              37.53713904800003
            ],
            [
              -4.188453028999959,
              37.56819246400005
            ],
            [
              -4.162634999999966,
              37.59845100000007
            ],
            [
              -4.182923999999957,
              37.615725000000054
            ],
            [
              -4.2078899999999635,
              37.61044300000003
            ],
            [
              -4.2279799999999454,
              37.639564000000064
            ],
            [
              -4.16424799999993,
              37.681534000000056
            ],
            [
              -4.1833879999999795,
              37.707066000000054
            ],
            [
              -4.238487999999961,
              37.72011800000007
            ],
            [
              -4.2064569999999435,
              37.77876200000003
            ],
            [
              -4.287517999999977,
              37.80153500000006
            ],
            [
              -4.257930999999928,
              37.93934900000005
            ],
            [
              -4.282130999999936,
              38.022838000000036
            ],
            [
              -4.259836999999948,
              38.022259000000076
            ],
            [
              -4.2688200989999245,
              38.03979041000008
            ],
            [
              -4.239964999999927,
              38.047056000000055
            ],
            [
              -4.251823999999942,
              38.06354900000008
            ],
            [
              -4.213963999999976,
              38.089504000000034
            ],
            [
              -4.217829999999935,
              38.11079600000005
            ],
            [
              -4.16122704199995,
              38.14516875700008
            ],
            [
              -4.167742999999973,
              38.18081500000005
            ],
            [
              -4.201056999999935,
              38.21411200000006
            ],
            [
              -4.195883999999978,
              38.23787500000003
            ],
            [
              -4.216567999999938,
              38.24698100000006
            ],
            [
              -4.210101999999949,
              38.301480000000026
            ],
            [
              -4.23842099999996,
              38.31513400000006
            ],
            [
              -4.237325999999939,
              38.34156900000005
            ],
            [
              -4.268777178999926,
              38.34734257500003
            ]
          ]
        ],
        "type": "Polygon"
      }
    }
  ]
}