{
    "type": "FeatureCollection",
    "features": [
        {
            "type": "Feature",
            "properties": {
                "diocese": "Oxomen",
                "province": "Toletan",
                "date": 1592
            },
            "geometry": {
                "coordinates": [
                    [
                        [
                            -3.421118501999956,
                            41.51344472200003
                        ],
                        [
                            -3.3507504889999495,
                            41.51037568600003
                        ],
                        [
                            -3.150505318999933,
                            41.444043048000026
                        ],
                        [
                            -3.0768246029999773,
                            41.46007594500003
                        ],
                        [
                            -2.9704629249999357,
                            41.45161463200003
                        ],
                        [
                            -2.919361783999932,
                            41.46630989100004
                        ],
                        [
                            -2.855188256999952,
                            41.54062573700003
                        ],
                        [
                            -2.729218001999925,
                            41.514380182000025
                        ],
                        [
                            -2.6531604889999585,
                            41.554411508000044
                        ],
                        [
                            -2.403002575999949,
                            41.560191763000034
                        ],
                        [
                            -2.3287276609999594,
                            41.57752942500008
                        ],
                        [
                            -2.246133954999948,
                            41.53395414700003
                        ],
                        [
                            -2.249104951999925,
                            41.47788562800008
                        ],
                        [
                            -2.3144668769999726,
                            41.41508472500004
                        ],
                        [
                            -2.3156552759999727,
                            41.33527120400004
                        ],
                        [
                            -2.186714022999979,
                            41.28394269800003
                        ],
                        [
                            -2.1570479999999748,
                            41.33397700000006
                        ],
                        [
                            -2.163071999999943,
                            41.35535900000008
                        ],
                        [
                            -2.1159679999999526,
                            41.382056000000034
                        ],
                        [
                            -2.1167029999999727,
                            41.42495500000007
                        ],
                        [
                            -2.101455999999928,
                            41.44579700000003
                        ],
                        [
                            -2.0355599999999754,
                            41.42689800000005
                        ],
                        [
                            -2.0435119999999642,
                            41.397159000000045
                        ],
                        [
                            -2.0292068709999285,
                            41.38416698900005
                        ],
                        [
                            -1.9372339999999326,
                            41.407864000000075
                        ],
                        [
                            -1.9536239999999339,
                            41.42427200000003
                        ],
                        [
                            -1.9532139999999458,
                            41.46245900000008
                        ],
                        [
                            -1.9810499999999251,
                            41.486443000000065
                        ],
                        [
                            -1.9672729999999774,
                            41.54607400000003
                        ],
                        [
                            -1.9936239999999543,
                            41.57709300000005
                        ],
                        [
                            -1.9931772289999685,
                            41.60051602800007
                        ],
                        [
                            -1.9230387529999575,
                            41.598341368000035
                        ],
                        [
                            -1.8589289999999323,
                            41.66153700000007
                        ],
                        [
                            -1.8061629999999695,
                            41.664270000000045
                        ],
                        [
                            -1.8002089999999384,
                            41.69708300000008
                        ],
                        [
                            -1.8365700539999352,
                            41.71166822200007
                        ],
                        [
                            -2.0005690659999686,
                            41.701553999000055
                        ],
                        [
                            -2.0205341629999793,
                            41.74200134500006
                        ],
                        [
                            -2.0925511209999286,
                            41.76168360100007
                        ],
                        [
                            -2.118220530999963,
                            41.78348661900003
                        ],
                        [
                            -2.1617159209999386,
                            41.848320053000066
                        ],
                        [
                            -2.1349950049999507,
                            41.93170233600006
                        ],
                        [
                            -2.251933430999941,
                            41.92692801900006
                        ],
                        [
                            -2.261202940999965,
                            41.95397775400005
                        ],
                        [
                            -2.291863624999962,
                            41.97306477500007
                        ],
                        [
                            -2.457288715999937,
                            42.03029152800008
                        ],
                        [
                            -2.506488418999936,
                            42.075824167000064
                        ],
                        [
                            -2.5490049999999655,
                            42.05150800000007
                        ],
                        [
                            -2.579845999999975,
                            41.996263000000056
                        ],
                        [
                            -2.7461019999999507,
                            42.00867500000004
                        ],
                        [
                            -2.75714684899998,
                            42.03286445900005
                        ],
                        [
                            -2.8076169999999365,
                            42.041011000000026
                        ],
                        [
                            -2.883756999999946,
                            42.009483000000046
                        ],
                        [
                            -2.9321019999999294,
                            42.01797000000005
                        ],
                        [
                            -2.96765830399994,
                            41.94522105600004
                        ],
                        [
                            -3.05286648699996,
                            41.97862418100004
                        ],
                        [
                            -3.1220312879999597,
                            41.96696158700007
                        ],
                        [
                            -3.1797874609999326,
                            41.98922468500007
                        ],
                        [
                            -3.242832008999926,
                            41.98913635500003
                        ],
                        [
                            -3.44069828399995,
                            41.88706950300008
                        ],
                        [
                            -3.476840814999946,
                            41.88606049200007
                        ],
                        [
                            -3.5312052039999458,
                            41.84108727200004
                        ],
                        [
                            -3.630145379999931,
                            41.87383898200005
                        ],
                        [
                            -3.729687930999944,
                            41.85847468600008
                        ],
                        [
                            -3.762366801999974,
                            41.82919380300007
                        ],
                        [
                            -3.8747098329999403,
                            41.81763482500003
                        ],
                        [
                            -3.946392517999925,
                            41.827622802000064
                        ],
                        [
                            -4.048762746999955,
                            41.80002512400006
                        ],
                        [
                            -4.057532253999966,
                            41.749116740000034
                        ],
                        [
                            -4.000489118999951,
                            41.663589125000044
                        ],
                        [
                            -4.008647999999937,
                            41.610021000000074
                        ],
                        [
                            -3.867864999999938,
                            41.532466000000056
                        ],
                        [
                            -3.7960763049999287,
                            41.44069437500008
                        ],
                        [
                            -3.723641999999927,
                            41.47919500000006
                        ],
                        [
                            -3.724772385999927,
                            41.56778626200003
                        ],
                        [
                            -3.707421765999925,
                            41.60511874900004
                        ],
                        [
                            -3.644911997999941,
                            41.62679723200006
                        ],
                        [
                            -3.5290789999999674,
                            41.61262500000004
                        ],
                        [
                            -3.55036599999994,
                            41.59658300000007
                        ],
                        [
                            -3.5360639999999535,
                            41.58646300000004
                        ],
                        [
                            -3.5348399999999742,
                            41.54865700000005
                        ],
                        [
                            -3.4796119999999746,
                            41.520906000000025
                        ],
                        [
                            -3.45799599999998,
                            41.53684700000008
                        ],
                        [
                            -3.421118501999956,
                            41.51344472200003
                        ]
                    ]
                ],
                "type": "Polygon"
            }
        }
    ]
}