{
  "type": "FeatureCollection",
  "features": [
    {
      "type": "Feature",
      "properties": {
                "diocese": "Segobien",
                "province": "Toletan",
                "date": 1592
            },
      "geometry": {
        "coordinates": [
          [
            [
              -4.758601539999972,
              41.452840528000024
            ],
            [
              -4.712419883999928,
              41.36514452400007
            ],
            [
              -4.6769814129999645,
              41.35382883900007
            ],
            [
              -4.631822264999926,
              41.37902476900007
            ],
            [
              -4.601881999999932,
              41.30264900000003
            ],
            [
              -4.576429999999959,
              41.28486000000004
            ],
            [
              -4.650765999999976,
              41.22141600000003
            ],
            [
              -4.6191697809999255,
              41.15085437000005
            ],
            [
              -4.564218226999969,
              41.10086746700006
            ],
            [
              -4.506932659999961,
              41.10178984800007
            ],
            [
              -4.503224855999974,
              41.071210044000054
            ],
            [
              -4.540374196999949,
              41.00936208000007
            ],
            [
              -4.530580803999953,
              40.96114638700004
            ],
            [
              -4.559466999999927,
              40.88585000000006
            ],
            [
              -4.531468999999959,
              40.85864300000003
            ],
            [
              -4.558820999999966,
              40.839594000000034
            ],
            [
              -4.557545568999956,
              40.799052534000054
            ],
            [
              -4.549939816999938,
              40.78379314500006
            ],
            [
              -4.472556999999938,
              40.78278000000006
            ],
            [
              -4.466970999999944,
              40.76913100000007
            ],
            [
              -4.495748839999976,
              40.74332439900007
            ],
            [
              -4.460762383999963,
              40.700812907000056
            ],
            [
              -4.46646669699993,
              40.635335403000056
            ],
            [
              -4.3142656469999565,
              40.638451187000044
            ],
            [
              -4.324675999999954,
              40.65772800000008
            ],
            [
              -4.288028999999938,
              40.68317600000006
            ],
            [
              -4.146138999999948,
              40.694439000000045
            ],
            [
              -4.070079999999962,
              40.79388200000005
            ],
            [
              -3.9794359999999642,
              40.78449800000004
            ],
            [
              -3.93773699999997,
              40.92644100000007
            ],
            [
              -3.8903849999999807,
              40.969047000000046
            ],
            [
              -3.781763999999953,
              41.000203000000056
            ],
            [
              -3.7390859999999293,
              41.05405500000006
            ],
            [
              -3.675980999999979,
              41.08669800000007
            ],
            [
              -3.613619999999969,
              41.14905300000004
            ],
            [
              -3.51614399999994,
              41.16230100000007
            ],
            [
              -3.4668389999999363,
              41.18326500000006
            ],
            [
              -3.444078999999931,
              41.21534200000008
            ],
            [
              -3.40241199999997,
              41.21362200000004
            ],
            [
              -3.3994279999999435,
              41.254545000000064
            ],
            [
              -3.4315350219999345,
              41.29421864400007
            ],
            [
              -3.4409471399999347,
              41.351944582000044
            ],
            [
              -3.4715959409999755,
              41.37409424100008
            ],
            [
              -3.478631259999929,
              41.39934472400006
            ],
            [
              -3.457145012999945,
              41.431428639000046
            ],
            [
              -3.4655113389999315,
              41.44425776700007
            ],
            [
              -3.4284333019999735,
              41.47104820900006
            ],
            [
              -3.42039699999998,
              41.51209400000005
            ],
            [
              -3.45799599999998,
              41.53684700000008
            ],
            [
              -3.4796119999999746,
              41.520906000000025
            ],
            [
              -3.5348399999999742,
              41.54865700000005
            ],
            [
              -3.5360639999999535,
              41.58646300000004
            ],
            [
              -3.55036599999994,
              41.59658300000007
            ],
            [
              -3.5290789999999674,
              41.61262500000004
            ],
            [
              -3.570280562999926,
              41.60938394400006
            ],
            [
              -3.619955625999978,
              41.62804085800008
            ],
            [
              -3.6995783349999556,
              41.612227251000036
            ],
            [
              -3.724772385999927,
              41.56778626200003
            ],
            [
              -3.723641999999927,
              41.47919500000006
            ],
            [
              -3.7960763049999287,
              41.44069437500008
            ],
            [
              -3.867864999999938,
              41.532466000000056
            ],
            [
              -3.980898389999936,
              41.58364579900007
            ],
            [
              -4.017703999999981,
              41.62035400000008
            ],
            [
              -4.046119941999962,
              41.60560077200006
            ],
            [
              -4.029705208999928,
              41.562684371000046
            ],
            [
              -3.9988334649999615,
              41.54070824900003
            ],
            [
              -4.002297123999938,
              41.519062922000046
            ],
            [
              -4.141748250999967,
              41.471676451000064
            ],
            [
              -4.182153804999928,
              41.51451505400007
            ],
            [
              -4.23607739299996,
              41.540871742000036
            ],
            [
              -4.264598960999933,
              41.53753604600007
            ],
            [
              -4.28777273399993,
              41.578108660000055
            ],
            [
              -4.290892280999969,
              41.62309777400003
            ],
            [
              -4.400670604999959,
              41.60910452200005
            ],
            [
              -4.422953078999967,
              41.585664578000035
            ],
            [
              -4.475391168999977,
              41.59966291500007
            ],
            [
              -4.511043127999926,
              41.586442343000044
            ],
            [
              -4.519510468999954,
              41.578664272000026
            ],
            [
              -4.471825972999966,
              41.55888152800003
            ],
            [
              -4.48786935499993,
              41.507395795000036
            ],
            [
              -4.477767965999931,
              41.47913351700004
            ],
            [
              -4.4920287499999745,
              41.45108159100005
            ],
            [
              -4.542832791999956,
              41.44573699100005
            ],
            [
              -4.554680484999949,
              41.426250485000025
            ],
            [
              -4.6253902039999275,
              41.427141550000044
            ],
            [
              -4.653911770999969,
              41.45865509500004
            ],
            [
              -4.71600559999996,
              41.46644760400005
            ],
            [
              -4.758601539999972,
              41.452840528000024
            ]
          ]
        ],
        "type": "Polygon"
      }
    }
  ]
}