{
  "type": "FeatureCollection",
  "features": [
    {
      "type": "Feature",
      "properties": {
                "diocese": "Vallisoletan",
                "province": "Toletan",
                "date": 1592
            },
      "geometry": {
        "coordinates": [
          [
            [
              -4.068775492061023,
              41.893922508947234
            ],
            [
              -4.087004539999953,
              41.82142463000008
            ],
            [
              -4.042320750999977,
              41.790597415000036
            ],
            [
              -4.057532253999966,
              41.749116740000034
            ],
            [
              -4.000489118999951,
              41.663589125000044
            ],
            [
              -4.005840999999975,
              41.619350000000054
            ],
            [
              -4.046119941999962,
              41.60560077200006
            ],
            [
              -4.029705208999928,
              41.562684371000046
            ],
            [
              -3.9988334649999615,
              41.54070824900003
            ],
            [
              -4.002297123999938,
              41.519062922000046
            ],
            [
              -4.141748250999967,
              41.471676451000064
            ],
            [
              -4.182153804999928,
              41.51451505400007
            ],
            [
              -4.23607739299996,
              41.540871742000036
            ],
            [
              -4.264598960999933,
              41.53753604600007
            ],
            [
              -4.28777273399993,
              41.578108660000055
            ],
            [
              -4.290892280999969,
              41.62309777400003
            ],
            [
              -4.400670604999959,
              41.60910452200005
            ],
            [
              -4.422953078999967,
              41.585664578000035
            ],
            [
              -4.475391168999977,
              41.59966291500007
            ],
            [
              -4.511043127999926,
              41.586442343000044
            ],
            [
              -4.519510468999954,
              41.578664272000026
            ],
            [
              -4.471825972999966,
              41.55888152800003
            ],
            [
              -4.48786935499993,
              41.507395795000036
            ],
            [
              -4.477767965999931,
              41.47913351700004
            ],
            [
              -4.4920287499999745,
              41.45108159100005
            ],
            [
              -4.542832791999956,
              41.44573699100005
            ],
            [
              -4.554680484999949,
              41.426250485000025
            ],
            [
              -4.6253902039999275,
              41.427141550000044
            ],
            [
              -4.649455275999969,
              41.45798712200008
            ],
            [
              -4.71600559999996,
              41.46644760400005
            ],
            [
              -4.758601539999972,
              41.452840528000024
            ],
            [
              -4.81326787699993,
              41.45907516900007
            ],
            [
              -4.864369017999934,
              41.44838684600006
            ],
            [
              -4.860951747999934,
              41.43711560500003
            ],
            [
              -4.999219333999974,
              41.476123192000045
            ],
            [
              -5.026880583999969,
              41.512488888000064
            ],
            [
              -5.073228130999951,
              41.531707578000066
            ],
            [
              -5.102462736999939,
              41.57563997800003
            ],
            [
              -5.149523322999926,
              41.58275172700007
            ],
            [
              -5.159030511999958,
              41.626116437000064
            ],
            [
              -5.215598287999967,
              41.67247019600006
            ],
            [
              -5.234505709999951,
              41.74026235600007
            ],
            [
              -5.270514188999925,
              41.78174875500008
            ],
            [
              -5.170824097999969,
              41.84090544700007
            ],
            [
              -5.08763619299998,
              41.84798791000003
            ],
            [
              -5.054361030999928,
              41.90072758400004
            ],
            [
              -4.989712144999942,
              41.930440833000034
            ],
            [
              -4.993990379999957,
              41.967209499000035
            ],
            [
              -5.02869162099995,
              41.99936468300007
            ],
            [
              -5.030593057999965,
              42.02232272900005
            ],
            [
              -5.0191844319999745,
              42.066096634000075
            ],
            [
              -4.9355211669999335,
              42.08903058400006
            ],
            [
              -4.9531272815487855,
              42.129607536671315
            ],
            [
              -4.068775492061023,
              41.893922508947234
            ]
          ],
          [
            [
              -4.889997576999974,
              42.03206856200006
            ],
            [
              -4.875499113999979,
              42.001342933000046
            ],
            [
              -4.841273232999981,
              41.98385448400006
            ],
            [
              -4.8025314369999705,
              41.99692711200004
            ],
            [
              -4.854345617999968,
              42.043366209000055
            ],
            [
              -4.889997576999974,
              42.03206856200006
            ]
          ]
        ],
        "type": "Polygon"
      }
    }
  ]
}