{"type": "FeatureCollection", "features": [{"type": "Feature", "properties": {"source": "0_Province_Arles.txt"}, "geometry": {"type": "Polygon", "coordinates": [[[4.876458370080011, 44.304501379350086], [4.869944787350564, 44.30308330421753], [4.8634312046211186, 44.30166522908498], [4.856917621891673, 44.300247153952434], [4.850404039162225, 44.29882907881988], [4.84389045643278, 44.29741100368732], [4.8373768737033345, 44.295992928554774], [4.830863290973889, 44.29457485342222], [4.824349708244442, 44.29315677828967], [4.8178361255149955, 44.29173870315711], [4.81132254278555, 44.29032062802456], [4.81132254278555, 44.29032062802456], [4.810945311135191, 44.29021371767823], [4.810568079484833, 44.2901068073319], [4.810190847834477, 44.289999896985584], [4.809813616184117, 44.289892986639245], [4.809436384533761, 44.28978607629292], [4.809059152883403, 44.28967916594659], [4.808681921233042, 44.28957225560026], [4.808304689582686, 44.289465345253944], [4.807927457932326, 44.289358434907605], [4.807550226281968, 44.28925152456128], [4.807550226281968, 44.28925152456128], [4.8075485603190735, 44.28838835296691], [4.8075468943561805, 44.28752518137254], [4.807545228393288, 44.28666200977817], [4.807543562430393, 44.2857988381838], [4.807541896467496, 44.284935666589426], [4.807540230504605, 44.284072494995065], [4.80753856454171, 44.28320932340069], [4.807536898578816, 44.28234615180633], [4.807535232615923, 44.281482980211955], [4.80753356665303, 44.280619808617594], [4.80753356665303, 44.280619808617594], [4.807482409212257, 44.27973102816249], [4.807431251771485, 44.2788422477074], [4.807380094330711, 44.27795346725231], [4.807328936889938, 44.27706468679721], [4.807277779449166, 44.27617590634212], [4.807226622008393, 44.275287125887026], [4.807175464567621, 44.27439834543194], [4.807124307126848, 44.273509564976834], [4.807073149686074, 44.27262078452174], [4.807021992245302, 44.271732004066656], [4.807021992245302, 44.271732004066656], [4.8054626470663475, 44.2707574161368], [4.803903301887395, 44.26978282820695], [4.802343956708439, 44.2688082402771], [4.800784611529485, 44.26783365234725], [4.799225266350529, 44.2668590644174], [4.797665921171577, 44.26588447648755], [4.7961065759926225, 44.2649098885577], [4.7945472308136665, 44.26393530062786], [4.792987885634712, 44.262960712698], [4.791428540455758, 44.26198612476816], [4.791428540455758, 44.26198612476816], [4.790414786497289, 44.26186620262044], [4.789401032538823, 44.261746280472714], [4.788387278580355, 44.261626358325], [4.787373524621888, 44.261506436177285], [4.7863597706634184, 44.261386514029574], [4.785346016704953, 44.261266591881856], [4.784332262746483, 44.26114666973414], [4.783318508788014, 44.26102674758642], [4.782304754829548, 44.2609068254387], [4.7812910008710805, 44.260786903290985], [4.7812910008710805, 44.260786903290985], [4.780844735721605, 44.26012024349979], [4.780398470572129, 44.2594535837086], [4.779952205422653, 44.2587869239174], [4.779505940273179, 44.258120264126205], [4.779059675123701, 44.25745360433501], [4.778613409974225, 44.25678694454382], [4.778167144824751, 44.256120284752626], [4.777720879675275, 44.25545362496143], [4.777274614525799, 44.25478696517023], [4.776828349376325, 44.25412030537904], [4.776828349376325, 44.25412030537904], [4.776407689369167, 44.25393221919461], [4.77598702936201, 44.253744133010166], [4.775566369354854, 44.25355604682573], [4.775145709347697, 44.25336796064129], [4.774725049340541, 44.253179874456855], [4.774304389333386, 44.25299178827242], [4.773883729326229, 44.25280370208798], [4.773463069319071, 44.252615615903544], [4.773042409311914, 44.25242752971911], [4.77262174930476, 44.25223944353466], [4.77262174930476, 44.25223944353466], [4.7721026140266165, 44.25222219494399], [4.771583478748477, 44.25220494635332], [4.771064343470334, 44.25218769776264], [4.770545208192193, 44.25217044917197], [4.77002607291405, 44.252153200581304], [4.76950693763591, 44.25213595199063], [4.768987802357769, 44.25211870339996], [4.768468667079626, 44.252101454809285], [4.767949531801486, 44.25208420621861], [4.767430396523343, 44.252066957627946], [4.767430396523343, 44.252066957627946], [4.7628828471757885, 44.25264694005615], [4.758335297828234, 44.25322692248437], [4.753787748480679, 44.25380690491257], [4.749240199133123, 44.25438688734079], [4.74469264978557, 44.25496686976901], [4.740145100438012, 44.25554685219721], [4.735597551090459, 44.256126834625434], [4.731050001742904, 44.25670681705363], [4.72650245239535, 44.257286799481854], [4.721954903047793, 44.25786678191007], [4.721954903047793, 44.25786678191007], [4.721363346443969, 44.25877246630625], [4.720771789840148, 44.25967815070243], [4.720180233236325, 44.26058383509861], [4.719588676632503, 44.261489519494795], [4.718997120028678, 44.262395203890975], [4.718405563424856, 44.26330088828715], [4.717814006821033, 44.264206572683335], [4.717222450217211, 44.265112257079515], [4.716630893613388, 44.266017941475695], [4.7160393370095655, 44.266923625871875], [4.7160393370095655, 44.266923625871875], [4.7150135922014655, 44.26702597469377], [4.713987847393362, 44.267128323515664], [4.712962102585264, 44.267230672337554], [4.7119363577771605, 44.26733302115945], [4.7109106129690606, 44.26743536998135], [4.709884868160959, 44.26753771880325], [4.708859123352861, 44.26764006762513], [4.707833378544759, 44.26774241644703], [4.706807633736657, 44.267844765268926], [4.705781888928556, 44.267947114090816], [4.705781888928556, 44.267947114090816], [4.703114522620856, 44.26764623635958], [4.700447156313151, 44.26734535862833], [4.69777979000545, 44.26704448089709], [4.695112423697751, 44.26674360316586], [4.692445057390048, 44.266442725434615], [4.689777691082346, 44.26614184770337], [4.687110324774645, 44.26584096997213], [4.684442958466944, 44.2655400922409], [4.6817755921592425, 44.26523921450965], [4.679108225851541, 44.26493833677841], [4.679108225851541, 44.26493833677841], [4.67844974164518, 44.264776881618864], [4.677791257438818, 44.264615426459315], [4.677132773232458, 44.26445397129978], [4.676474289026096, 44.26429251614023], [4.675815804819738, 44.26413106098068], [4.675157320613378, 44.263969605821146], [4.674498836407016, 44.263808150661596], [4.673840352200656, 44.263646695502054], [4.673181867994298, 44.263485240342504], [4.6725233837879365, 44.26332378518296], [4.6725233837879365, 44.26332378518296], [4.670030813602821, 44.26312982197075], [4.667538243417706, 44.262935858758546], [4.665045673232591, 44.262741895546334], [4.662553103047474, 44.26254793233412], [4.66006053286236, 44.26235396912191], [4.657567962677245, 44.2621600059097], [4.655075392492131, 44.261966042697495], [4.652582822307014, 44.26177207948528], [4.650090252121899, 44.26157811627307], [4.6475976819367855, 44.26138415306086], [4.6475976819367855, 44.26138415306086], [4.6472299127845655, 44.26134347877881], [4.646862143632342, 44.26130280449677], [4.64649437448012, 44.26126213021473], [4.646126605327899, 44.261221455932684], [4.645758836175673, 44.26118078165064], [4.6453910670234535, 44.26114010736859], [4.64502329787123, 44.26109943308655], [4.64465552871901, 44.26105875880451], [4.644287759566787, 44.26101808452246], [4.643919990414565, 44.26097741024042], [4.643919990414565, 44.26097741024042], [4.6460100215691345, 44.25758415191099], [4.648100052723702, 44.25419089358156], [4.650190083878272, 44.25079763525213], [4.652280115032843, 44.2474043769227], [4.654370146187411, 44.24401111859328], [4.656460177341977, 44.24061786026384], [4.658550208496546, 44.237224601934415], [4.660640239651114, 44.23383134360498], [4.662730270805685, 44.23043808527556], [4.664820301960253, 44.22704482694612], [4.664820301960253, 44.22704482694612], [4.668830070543809, 44.21518846342858], [4.6728398391273664, 44.20333209991104], [4.676849607710928, 44.19147573639349], [4.6808593762944835, 44.17961937287594], [4.684869144878039, 44.1677630093584], [4.688878913461599, 44.15590664584085], [4.6928886820451545, 44.14405028232331], [4.696898450628712, 44.13219391880576], [4.70090821921227, 44.120337555288216], [4.704917987795827, 44.10848119177067], [4.704917987795827, 44.10848119177067], [4.708740041204589, 44.1082685132135], [4.712562094613347, 44.10805583465633], [4.716384148022106, 44.10784315609916], [4.720206201430866, 44.107630477541974], [4.7240282548396255, 44.10741779898481], [4.727850308248385, 44.107205120427636], [4.731672361657145, 44.10699244187046], [4.735494415065904, 44.10677976331329], [4.739316468474664, 44.10656708475612], [4.743138521883424, 44.106354406198946], [4.743138521883424, 44.106354406198946], [4.751862682091868, 44.10830716872002], [4.760586842300313, 44.11025993124108], [4.769311002508758, 44.11221269376215], [4.778035162717204, 44.11416545628322], [4.786759322925649, 44.11611821880428], [4.795483483134092, 44.11807098132535], [4.80420764334254, 44.12002374384642], [4.812931803550983, 44.12197650636748], [4.821655963759429, 44.123929268888546], [4.830380123967874, 44.12588203140962], [4.830380123967874, 44.12588203140962], [4.835614043729562, 44.126304203293124], [4.840847963491248, 44.12672637517664], [4.846081883252937, 44.12714854706014], [4.851315803014623, 44.12757071894365], [4.856549722776311, 44.12799289082716], [4.8617836425380005, 44.12841506271066], [4.867017562299688, 44.12883723459417], [4.872251482061374, 44.12925940647768], [4.877485401823062, 44.129681578361186], [4.8827193215847515, 44.13010375024469], [4.8827193215847515, 44.13010375024469], [4.886372229308815, 44.127096525090074], [4.890025137032882, 44.12408929993544], [4.8936780447569515, 44.121082074780816], [4.897330952481017, 44.11807484962619], [4.900983860205082, 44.11506762447157], [4.904636767929151, 44.112060399316945], [4.908289675653217, 44.10905317416231], [4.911942583377286, 44.106045949007694], [4.915595491101351, 44.10303872385307], [4.9192483988254185, 44.10003149869845], [4.9192483988254185, 44.10003149869845], [4.926513713887186, 44.099428676367346], [4.933779028948951, 44.09882585403624], [4.941044344010717, 44.09822303170514], [4.9483096590724855, 44.09762020937404], [4.955574974134253, 44.097017387042946], [4.962840289196018, 44.09641456471184], [4.970105604257787, 44.09581174238075], [4.977370919319554, 44.09520892004965], [4.984636234381318, 44.09460609771855], [4.991901549443085, 44.09400327538745], [4.991901549443085, 44.09400327538745], [4.99610133305079, 44.09817256192049], [5.000301116658493, 44.102341848453534], [5.004500900266196, 44.106511134986576], [5.008700683873901, 44.11068042151962], [5.012900467481602, 44.11484970805266], [5.017100251089307, 44.1190189945857], [5.021300034697012, 44.12318828111874], [5.025499818304716, 44.127357567651785], [5.029699601912418, 44.13152685418483], [5.033899385520121, 44.13569614071787], [5.033899385520121, 44.13569614071787], [5.0312521666077465, 44.1386203188142], [5.0286049476953725, 44.14154449691052], [5.025957728782997, 44.14446867500684], [5.023310509870621, 44.14739285310316], [5.020663290958247, 44.15031703119949], [5.018016072045871, 44.153241209295814], [5.015368853133497, 44.15616538739214], [5.012721634221119, 44.15908956548846], [5.010074415308747, 44.16201374358479], [5.007427196396369, 44.1649379216811], [5.007427196396369, 44.1649379216811], [5.002625266384474, 44.164221005508004], [4.997823336372573, 44.163504089334914], [4.993021406360674, 44.16278717316181], [4.988219476348776, 44.16207025698871], [4.9834175463368755, 44.161353340815616], [4.978615616324976, 44.16063642464251], [4.973813686313077, 44.159919508469414], [4.96901175630118, 44.15920259229632], [4.964209826289281, 44.15848567612321], [4.95940789627738, 44.15776875995012], [4.95940789627738, 44.15776875995012], [4.9594909727141125, 44.162366471646614], [4.9595740491508415, 44.1669641833431], [4.959657125587574, 44.171561895039574], [4.959740202024305, 44.176159606736064], [4.959823278461036, 44.18075731843255], [4.959906354897768, 44.18535503012903], [4.959989431334497, 44.18995274182552], [4.96007250777123, 44.194550453522], [4.9601555842079605, 44.19914816521849], [4.960238660644691, 44.20374587691497], [4.960238660644691, 44.20374587691497], [4.954646173243349, 44.20571426389304], [4.9490536858420064, 44.207682650871114], [4.943461198440666, 44.20965103784918], [4.937868711039325, 44.21161942482725], [4.932276223637983, 44.21358781180532], [4.92668373623664, 44.21555619878339], [4.9210912488353, 44.21752458576145], [4.915498761433961, 44.21949297273952], [4.909906274032618, 44.221461359717594], [4.904313786631278, 44.223429746695665], [4.904313786631278, 44.223429746695665], [4.902649588111823, 44.224936626676495], [4.900985389592368, 44.22644350665733], [4.899321191072916, 44.22795038663818], [4.897656992553463, 44.22945726661901], [4.89599279403401, 44.23096414659985], [4.894328595514557, 44.23247102658069], [4.892664396995103, 44.23397790656153], [4.89100019847565, 44.23548478654237], [4.889335999956199, 44.23699166652321], [4.887671801436744, 44.23849854650405], [4.887671801436744, 44.23849854650405], [4.889132667019982, 44.242100963463436], [4.890593532603221, 44.245703380422825], [4.89205439818646, 44.24930579738223], [4.893515263769698, 44.252908214341616], [4.894976129352935, 44.25651063130101], [4.896436994936174, 44.26011304826039], [4.897897860519413, 44.26371546521978], [4.899358726102649, 44.26731788217918], [4.900819591685888, 44.27092029913857], [4.902280457269127, 44.27452271609796], [4.902280457269127, 44.27452271609796], [4.899698248550214, 44.27752058242317], [4.897116039831305, 44.28051844874839], [4.894533831112394, 44.2835163150736], [4.89195162239348, 44.286514181398815], [4.889369413674567, 44.289512047724024], [4.886787204955658, 44.29250991404924], [4.884204996236745, 44.29550778037445], [4.881622787517831, 44.29850564669966], [4.879040578798925, 44.301503513024876], [4.876458370080011, 44.304501379350086]]]}}, {"type": "Feature", "properties": {"source": "0_Province_Arles.txt"}, "geometry": {"type": "Polygon", "coordinates": [[[4.742115789827503, 44.56916474708006], [4.738780118900296, 44.56840974737546], [4.735444447973089, 44.567654747670865], [4.732108777045886, 44.56689974796626], [4.728773106118682, 44.566144748261664], [4.725437435191475, 44.56538974855705], [4.722101764264268, 44.564634748852455], [4.718766093337063, 44.56387974914786], [4.715430422409858, 44.56312474944326], [4.7120947514826526, 44.56236974973866], [4.708759080555447, 44.56161475003405], [4.708759080555447, 44.56161475003405], [4.706961088540817, 44.560240567287316], [4.7051630965261815, 44.55886638454059], [4.703365104511551, 44.55749220179386], [4.701567112496917, 44.556118019047126], [4.699769120482285, 44.554743836300396], [4.697971128467655, 44.55336965355366], [4.696173136453021, 44.55199547080693], [4.694375144438391, 44.55062128806019], [4.692577152423757, 44.54924710531346], [4.690779160409127, 44.547872922566725], [4.690779160409127, 44.547872922566725], [4.6877593919916585, 44.54512360700822], [4.68473962357419, 44.54237429144972], [4.681719855156718, 44.539624975891215], [4.67870008673925, 44.5368756603327], [4.675680318321781, 44.534126344774194], [4.672660549904313, 44.53137702921569], [4.669640781486844, 44.52862771365718], [4.666621013069374, 44.525878398098676], [4.6636012446519075, 44.523129082540166], [4.660581476234437, 44.52037976698166], [4.660581476234437, 44.52037976698166], [4.66057403334306, 44.516523443145914], [4.6605665904516815, 44.512667119310166], [4.6605591475603045, 44.50881079547442], [4.660551704668926, 44.50495447163866], [4.660544261777547, 44.50109814780292], [4.660536818886172, 44.497241823967165], [4.660529375994793, 44.49338550013142], [4.660521933103416, 44.48952917629566], [4.660514490212037, 44.48567285245993], [4.66050704732066, 44.48181652862417], [4.66050704732066, 44.48181652862417], [4.656709622646995, 44.47396839121114], [4.652912197973327, 44.466120253798124], [4.649114773299662, 44.45827211638508], [4.645317348625994, 44.45042397897206], [4.641519923952329, 44.44257584155903], [4.637722499278659, 44.434727704146006], [4.633925074604994, 44.42687956673297], [4.630127649931328, 44.41903142931994], [4.626330225257659, 44.411183291906916], [4.622532800583995, 44.403335154493895], [4.622532800583995, 44.403335154493895], [4.622395155697598, 44.398458602245306], [4.6222575108112025, 44.39358204999672], [4.622119865924805, 44.38870549774814], [4.621982221038412, 44.383828945499566], [4.621844576152016, 44.378952393250984], [4.621706931265619, 44.37407584100241], [4.6215692863792235, 44.36919928875382], [4.621431641492828, 44.36432273650524], [4.621293996606433, 44.35944618425666], [4.621156351720035, 44.35456963200808], [4.621156351720035, 44.35456963200808], [4.622030665094808, 44.34888261209655], [4.622904978469581, 44.34319559218503], [4.623779291844354, 44.337508572273514], [4.624653605219127, 44.33182155236199], [4.625527918593898, 44.32613453245047], [4.626402231968669, 44.32044751253895], [4.6272765453434435, 44.31476049262742], [4.628150858718216, 44.3090734727159], [4.629025172092987, 44.303386452804375], [4.62989948546776, 44.29769943289285], [4.62989948546776, 44.29769943289285], [4.631399188834468, 44.297406048934455], [4.632898892201176, 44.297112664976055], [4.634398595567884, 44.29681928101766], [4.63589829893459, 44.29652589705926], [4.6373980023013, 44.29623251310087], [4.638897705668008, 44.29593912914247], [4.640397409034717, 44.295645745184075], [4.641897112401423, 44.29535236122568], [4.643396815768133, 44.29505897726728], [4.644896519134841, 44.29476559330889], [4.644896519134841, 44.29476559330889], [4.644971368425736, 44.29514162908738], [4.645046217716629, 44.29551766486587], [4.6451210670075245, 44.29589370064436], [4.6451959162984195, 44.29626973642286], [4.645270765589313, 44.29664577220135], [4.64534561488021, 44.297021807979846], [4.6454204641711065, 44.29739784375834], [4.645495313462, 44.29777387953683], [4.645570162752895, 44.29814991531532], [4.64564501204379, 44.298525951093815], [4.64564501204379, 44.298525951093815], [4.64538638287747, 44.302200571758725], [4.645127753711151, 44.30587519242364], [4.644869124544831, 44.30954981308855], [4.64461049537851, 44.31322443375347], [4.64435186621219, 44.31689905441838], [4.6440932370458725, 44.32057367508329], [4.643834607879551, 44.3242482957482], [4.643575978713232, 44.327922916413115], [4.64331734954691, 44.33159753707802], [4.643058720380592, 44.335272157742935], [4.643058720380592, 44.335272157742935], [4.646196405295354, 44.334315806364025], [4.649334090210115, 44.33335945498511], [4.652471775124875, 44.332403103606204], [4.655609460039637, 44.33144675222729], [4.6587471449544005, 44.33049040084838], [4.661884829869161, 44.32953404946947], [4.665022514783924, 44.32857769809056], [4.668160199698683, 44.32762134671166], [4.671297884613445, 44.326664995332735], [4.674435569528207, 44.32570864395383], [4.674435569528207, 44.32570864395383], [4.677969102388303, 44.32569246145811], [4.6815026352484, 44.32567627896238], [4.685036168108496, 44.32566009646664], [4.6885697009685945, 44.325643913970914], [4.692103233828691, 44.32562773147519], [4.6956367666887875, 44.32561154897946], [4.699170299548884, 44.32559536648374], [4.702703832408982, 44.325579183988005], [4.706237365269077, 44.32556300149228], [4.709770898129175, 44.32554681899655], [4.709770898129175, 44.32554681899655], [4.70977093106419, 44.32556388334438], [4.7097709639992065, 44.3255809476922], [4.709770996934223, 44.32559801204004], [4.7097710298692395, 44.32561507638786], [4.709771062804254, 44.3256321407357], [4.709771095739271, 44.32564920508352], [4.709771128674285, 44.32566626943136], [4.709771161609304, 44.32568333377918], [4.709771194544318, 44.32570039812701], [4.709771227479335, 44.32571746247484], [4.709771227479335, 44.32571746247484], [4.709796647826602, 44.32605930254502], [4.709822068173869, 44.32640114261519], [4.709847488521138, 44.32674298268537], [4.709872908868405, 44.327084822755545], [4.709898329215671, 44.32742666282571], [4.70992374956294, 44.327768502895886], [4.709949169910207, 44.32811034296606], [4.709974590257476, 44.328452183036234], [4.710000010604741, 44.32879402310641], [4.71002543095201, 44.329135863176596], [4.71002543095201, 44.329135863176596], [4.710940597597158, 44.329409558550495], [4.711855764242303, 44.32968325392441], [4.71277093088745, 44.32995694929832], [4.713686097532598, 44.330230644672234], [4.714601264177741, 44.33050434004614], [4.715516430822888, 44.33077803542005], [4.716431597468032, 44.33105173079396], [4.7173467641131825, 44.33132542616788], [4.718261930758329, 44.331599121541785], [4.719177097403474, 44.3318728169157], [4.719177097403474, 44.3318728169157], [4.723575642233566, 44.33172011680566], [4.727974187063662, 44.331567416695634], [4.732372731893756, 44.3314147165856], [4.736771276723847, 44.33126201647558], [4.741169821553939, 44.33110931636555], [4.745568366384031, 44.33095661625551], [4.749966911214123, 44.330803916145484], [4.7543654560442175, 44.330651216035456], [4.75876400087431, 44.33049851592543], [4.763162545704404, 44.3303458158154], [4.763162545704404, 44.3303458158154], [4.764125109181519, 44.32955983846677], [4.765087672658639, 44.328773861118144], [4.766050236135758, 44.3279878837695], [4.767012799612877, 44.32720190642088], [4.7679753630899935, 44.326415929072255], [4.768937926567112, 44.32562995172362], [4.769900490044229, 44.32484397437499], [4.770863053521349, 44.324057997026365], [4.771825616998468, 44.32327201967774], [4.772788180475583, 44.32248604232911], [4.772788180475583, 44.32248604232911], [4.773750725311675, 44.322469163512984], [4.774713270147764, 44.32245228469688], [4.775675814983851, 44.32243540588076], [4.776638359819941, 44.32241852706465], [4.777600904656028, 44.32240164824853], [4.778563449492122, 44.32238476943242], [4.779525994328212, 44.32236789061629], [4.780488539164299, 44.32235101180019], [4.781451084000389, 44.32233413298407], [4.782413628836476, 44.32231725416795], [4.782413628836476, 44.32231725416795], [4.7840180618072115, 44.32103580545084], [4.785622494777941, 44.319754356733725], [4.787226927748675, 44.31847290801661], [4.788831360719406, 44.3171914592995], [4.79043579369014, 44.31591001058239], [4.7920402266608715, 44.31462856186528], [4.793644659631605, 44.31334711314816], [4.795249092602337, 44.31206566443105], [4.79685352557307, 44.31078421571394], [4.798457958543802, 44.30950276699683], [4.798457958543802, 44.30950276699683], [4.799370830442742, 44.30936626132666], [4.8002837023416784, 44.30922975565649], [4.801196574240619, 44.30909324998631], [4.802109446139561, 44.30895674431615], [4.803022318038501, 44.30882023864598], [4.803935189937437, 44.30868373297581], [4.804848061836378, 44.308547227305645], [4.8057609337353195, 44.30841072163547], [4.806673805634256, 44.308274215965305], [4.807586677533196, 44.30813771029513], [4.807586677533196, 44.30813771029513], [4.807583032408074, 44.306249091721746], [4.807579387282951, 44.30436047314836], [4.807575742157827, 44.30247185457498], [4.807572097032706, 44.300583236001586], [4.807568451907581, 44.29869461742821], [4.807564806782459, 44.296805998854815], [4.807561161657336, 44.29491738028144], [4.8075575165322135, 44.29302876170805], [4.807553871407091, 44.29114014313467], [4.807550226281968, 44.28925152456128], [4.807550226281968, 44.28925152456128], [4.807927457932326, 44.289358434907605], [4.808304689582686, 44.289465345253944], [4.808681921233042, 44.28957225560026], [4.809059152883403, 44.28967916594659], [4.809436384533761, 44.28978607629292], [4.809813616184117, 44.289892986639245], [4.810190847834477, 44.289999896985584], [4.810568079484833, 44.2901068073319], [4.810945311135191, 44.29021371767823], [4.81132254278555, 44.29032062802456], [4.81132254278555, 44.29032062802456], [4.8178361255149955, 44.29173870315711], [4.824349708244442, 44.29315677828967], [4.830863290973889, 44.29457485342222], [4.8373768737033345, 44.295992928554774], [4.84389045643278, 44.29741100368732], [4.850404039162225, 44.29882907881988], [4.856917621891673, 44.300247153952434], [4.8634312046211186, 44.30166522908498], [4.869944787350564, 44.30308330421753], [4.876458370080011, 44.304501379350086], [4.876458370080011, 44.304501379350086], [4.876413696358396, 44.30455370978127], [4.876369022636785, 44.30460604021245], [4.876324348915169, 44.30465837064363], [4.876279675193555, 44.30471070107481], [4.8762350014719456, 44.30476303150599], [4.876190327750331, 44.30481536193717], [4.8761456540287185, 44.30486769236835], [4.876100980307104, 44.304920022799536], [4.876056306585491, 44.30497235323072], [4.876011632863875, 44.305024683661905], [4.876011632863875, 44.305024683661905], [4.881234097689825, 44.30750430886438], [4.886456562515775, 44.30998393406686], [4.891679027341723, 44.31246355926934], [4.896901492167672, 44.31494318447182], [4.902123956993622, 44.317422809674305], [4.907346421819568, 44.31990243487679], [4.912568886645516, 44.32238206007927], [4.917791351471466, 44.324861685281746], [4.923013816297416, 44.32734131048423], [4.928236281123365, 44.32982093568671], [4.928236281123365, 44.32982093568671], [4.931506312924974, 44.33017638375099], [4.934776344726583, 44.330531831815264], [4.93804637652819, 44.33088727987954], [4.941316408329799, 44.33124272794382], [4.9445864401314115, 44.33159817600809], [4.947856471933019, 44.33195362407237], [4.9511265037346295, 44.332309072136646], [4.9543965355362385, 44.33266452020093], [4.957666567337846, 44.333019968265205], [4.960936599139455, 44.33337541632948], [4.960936599139455, 44.33337541632948], [4.961327971919239, 44.33683339458923], [4.961719344699025, 44.34029137284898], [4.9621107174788115, 44.34374935110874], [4.962502090258598, 44.34720732936849], [4.962893463038384, 44.35066530762825], [4.963284835818168, 44.354123285888], [4.963676208597954, 44.35758126414775], [4.964067581377741, 44.36103924240751], [4.964458954157527, 44.36449722066726], [4.964850326937313, 44.367955198927014], [4.964850326937313, 44.367955198927014], [4.961969100989899, 44.369727749166834], [4.959087875042485, 44.37150029940665], [4.956206649095069, 44.37327284964646], [4.953325423147655, 44.375045399886275], [4.950444197200236, 44.37681795012609], [4.9475629712528235, 44.37859050036591], [4.944681745305406, 44.380363050605716], [4.941800519357994, 44.38213560084553], [4.938919293410578, 44.38390815108535], [4.936038067463164, 44.38568070132516], [4.936038067463164, 44.38568070132516], [4.936557667762591, 44.389094902175586], [4.937077268062016, 44.39250910302602], [4.937596868361442, 44.395923303876444], [4.938116468660869, 44.39933750472687], [4.938636068960298, 44.4027517055773], [4.939155669259723, 44.406165906427724], [4.9396752695591495, 44.40958010727816], [4.9401948698585745, 44.41299430812859], [4.940714470158001, 44.41640850897901], [4.941234070457428, 44.41982270982945], [4.941234070457428, 44.41982270982945], [4.940274486183709, 44.421373520373834], [4.939314901909992, 44.422924330918235], [4.938355317636269, 44.424475141462615], [4.93739573336255, 44.426025952007016], [4.936436149088831, 44.4275767625514], [4.9354765648151115, 44.429127573095805], [4.934516980541392, 44.4306783836402], [4.93355739626767, 44.43222919418459], [4.932597811993952, 44.43378000472899], [4.931638227720233, 44.43533081527338], [4.931638227720233, 44.43533081527338], [4.927019941921078, 44.43368995469617], [4.922401656121918, 44.43204909411896], [4.917783370322759, 44.43040823354175], [4.9131650845236035, 44.428767372964536], [4.908546798724444, 44.42712651238733], [4.9039285129252885, 44.42548565181012], [4.899310227126131, 44.423844791232916], [4.894691941326975, 44.422203930655705], [4.890073655527816, 44.420563070078494], [4.885455369728659, 44.41892220950129], [4.885455369728659, 44.41892220950129], [4.883663707148518, 44.42082744436945], [4.881872044568373, 44.42273267923762], [4.880080381988231, 44.42463791410579], [4.87828871940809, 44.426543148973956], [4.876497056827947, 44.428448383842124], [4.874705394247805, 44.4303536187103], [4.872913731667662, 44.43225885357847], [4.871122069087519, 44.434164088446636], [4.869330406507377, 44.436069323314804], [4.867538743927234, 44.43797455818297], [4.867538743927234, 44.43797455818297], [4.868440910542123, 44.440324903872316], [4.869343077157012, 44.44267524956167], [4.870245243771903, 44.44502559525101], [4.871147410386792, 44.447375940940354], [4.872049577001681, 44.449726286629705], [4.8729517436165715, 44.45207663231904], [4.873853910231457, 44.454426978008385], [4.874756076846348, 44.456777323697736], [4.875658243461238, 44.45912766938709], [4.8765604100761255, 44.46147801507642], [4.8765604100761255, 44.46147801507642], [4.878809025321827, 44.46413738631944], [4.881057640567526, 44.466796757562456], [4.883306255813228, 44.469456128805476], [4.885554871058927, 44.47211550004849], [4.88780348630463, 44.4747748712915], [4.89005210155033, 44.477434242534514], [4.892300716796031, 44.48009361377753], [4.894549332041731, 44.48275298502054], [4.89679794728743, 44.48541235626355], [4.899046562533131, 44.48807172750657], [4.899046562533131, 44.48807172750657], [4.896746938275971, 44.49259298482537], [4.894447314018812, 44.497114242144164], [4.892147689761652, 44.50163549946295], [4.889848065504491, 44.50615675678174], [4.887548441247333, 44.51067801410053], [4.885248816990174, 44.51519927141933], [4.882949192733015, 44.51972052873811], [4.880649568475853, 44.5242417860569], [4.878349944218694, 44.52876304337569], [4.876050319961536, 44.53328430069449], [4.876050319961536, 44.53328430069449], [4.874773131493415, 44.53598873447534], [4.873495943025295, 44.53869316825618], [4.872218754557176, 44.54139760203704], [4.870941566089055, 44.54410203581788], [4.869664377620936, 44.54680646959873], [4.868387189152816, 44.54951090337958], [4.867110000684695, 44.552215337160426], [4.865832812216574, 44.55491977094128], [4.864555623748455, 44.55762420472212], [4.863278435280334, 44.56032863850297], [4.863278435280334, 44.56032863850297], [4.860070912765451, 44.559529861369306], [4.856863390250567, 44.55873108423564], [4.853655867735679, 44.557932307101964], [4.850448345220794, 44.5571335299683], [4.847240822705908, 44.55633475283463], [4.844033300191024, 44.55553597570096], [4.840825777676139, 44.55473719856729], [4.837618255161251, 44.55393842143363], [4.834410732646367, 44.553139644299954], [4.831203210131481, 44.55234086716628], [4.831203210131481, 44.55234086716628], [4.824664557984798, 44.55318102141242], [4.818125905838114, 44.55402117565855], [4.8115872536914335, 44.554861329904675], [4.805048601544751, 44.55570148415081], [4.798509949398069, 44.556541638396936], [4.791971297251385, 44.55738179264306], [4.785432645104706, 44.5582219468892], [4.778893992958023, 44.559062101135325], [4.772355340811339, 44.559902255381445], [4.765816688664659, 44.56074240962758], [4.765816688664659, 44.56074240962758], [4.763446598780941, 44.56158464337283], [4.761076508897226, 44.56242687711808], [4.758706419013512, 44.56326911086332], [4.756336329129796, 44.56411134460857], [4.753966239246081, 44.564953578353816], [4.751596149362362, 44.565795812099076], [4.749226059478646, 44.56663804584432], [4.746855969594931, 44.56748027958956], [4.744485879711217, 44.56832251333481], [4.742115789827503, 44.56916474708006]]]}}, {"type": "Feature", "properties": {"source": "0_Province_Arles.txt"}, "geometry": {"type": "Polygon", "coordinates": [[[5.991973401633489, 43.340638020978965], [5.991837981444091, 43.336914132610204], [5.991702561254691, 43.333190244241436], [5.991567141065291, 43.32946635587268], [5.991431720875891, 43.325742467503915], [5.991296300686491, 43.322018579135154], [5.991160880497091, 43.3182946907664], [5.991025460307691, 43.31457080239764], [5.990890040118293, 43.31084691402888], [5.990754619928891, 43.307123025660125], [5.990619199739491, 43.30339913729136], [5.990619199739491, 43.30339913729136], [5.991637876249854, 43.299675536944015], [5.992656552760213, 43.29595193659666], [5.993675229270574, 43.29222833624931], [5.994693905780936, 43.28850473590196], [5.995712582291295, 43.2847811355546], [5.996731258801656, 43.28105753520725], [5.997749935312017, 43.27733393485991], [5.998768611822378, 43.273610334512554], [5.9997872883327386, 43.269886734165205], [6.000805964843099, 43.26616313381785], [6.000805964843099, 43.26616313381785], [5.998236526892928, 43.26376856262665], [5.995667088942758, 43.26137399143545], [5.993097650992585, 43.258979420244245], [5.990528213042415, 43.25658484905305], [5.987958775092245, 43.254190277861845], [5.985389337142072, 43.25179570667064], [5.982819899191901, 43.249401135479445], [5.980250461241731, 43.24700656428824], [5.977681023291559, 43.24461199309704], [5.97511158534139, 43.24221742190584], [5.97511158534139, 43.24221742190584], [5.9775444051965145, 43.24026744376941], [5.979977225051638, 43.23831746563298], [5.982410044906761, 43.23636748749656], [5.984842864761886, 43.23441750936013], [5.9872756846170105, 43.23246753122369], [5.989708504472135, 43.23051755308727], [5.992141324327257, 43.22856757495083], [5.994574144182383, 43.2266175968144], [5.9970069640375065, 43.22466761867798], [5.999439783892631, 43.22271764054154], [5.999439783892631, 43.22271764054154], [5.9991798954622695, 43.220944306391516], [5.998920007031909, 43.21917097224149], [5.998660118601544, 43.21739763809147], [5.998400230171185, 43.21562430394143], [5.9981403417408234, 43.2138509697914], [5.99788045331046, 43.212077635641386], [5.9976205648800995, 43.21030430149136], [5.997360676449738, 43.208530967341325], [5.997100788019374, 43.2067576331913], [5.996840899589012, 43.20498429904128], [5.996840899589012, 43.20498429904128], [5.985936017494392, 43.20267745417679], [5.975031135399773, 43.200370609312316], [5.964126253305153, 43.198063764447824], [5.953221371210535, 43.19575691958334], [5.942316489115916, 43.193450074718854], [5.931411607021296, 43.191143229854376], [5.920506724926675, 43.18883638498989], [5.909601842832055, 43.186529540125406], [5.8986969607374355, 43.18422269526093], [5.887792078642816, 43.18191585039644], [5.887792078642816, 43.18191585039644], [5.8765387152433135, 43.176773776985364], [5.865285351843809, 43.17163170357428], [5.854031988444307, 43.1664896301632], [5.842778625044803, 43.16134755675211], [5.831525261645298, 43.15620548334103], [5.820271898245798, 43.15106340992995], [5.8090185348462935, 43.14592133651888], [5.797765171446789, 43.140779263107795], [5.786511808047287, 43.13563718969671], [5.775258444647784, 43.13049511628563], [5.775258444647784, 43.13049511628563], [5.773675934159108, 43.12654141047581], [5.7733762791004235, 43.123159640818685], [5.774238049056931, 43.120328932262375], [5.776139813613838, 43.118028409755055], [5.778960142356336, 43.11623719824484], [5.782577604869628, 43.11493442267989], [5.786870770738915, 43.11409920800832], [5.791718209549396, 43.11371067917829], [5.796998490886272, 43.11374796113794], [5.802590184334743, 43.114190178835415], [5.802590184334742, 43.114190178835415], [5.808566741297685, 43.11206591089244], [5.81178183837692, 43.109987408170475], [5.812642944301723, 43.10798488435539], [5.811557527801401, 43.10608855313307], [5.808933057605239, 43.104328628189386], [5.805177002442521, 43.10273532321021], [5.800696831042547, 43.10133885188145], [5.795900012134608, 43.10016942788895], [5.79119401444799, 43.099257264918606], [5.786986306711984, 43.09863257665629], [5.786986306711983, 43.0986325766563], [5.781882181774874, 43.097342882857575], [5.777685074604017, 43.09488124624074], [5.774475674663044, 43.09158951848142], [5.772334671415594, 43.08780955125526], [5.771342754325298, 43.083883196237906], [5.771580612855788, 43.080152305104995], [5.773128936470695, 43.076958729532166], [5.776068414633656, 43.07464432119506], [5.780479736808299, 43.073550931769304], [5.786443592458264, 43.07402041293056], [5.786443592458273, 43.074020412930544], [5.793491778933383, 43.074529747406814], [5.799315422670077, 43.07360044278476], [5.80418153556551, 43.07153308841118], [5.808357129516843, 43.068628273632875], [5.812109216421236, 43.065186587796674], [5.8157048081758465, 43.06150862024938], [5.81941091667783, 43.05789496033778], [5.823494553824359, 43.05464619740871], [5.828222731512577, 43.052062920808964], [5.833862461639654, 43.05044571988536], [5.833862461639653, 43.05044571988537], [5.839357744795915, 43.049375165285184], [5.844976325523065, 43.0486092333545], [5.850533558089147, 43.048234079180205], [5.8558447967622005, 43.04833585784914], [5.860725395810272, 43.0490007244482], [5.8649907095014076, 43.05031483406421], [5.8684560921036475, 43.05236434178408], [5.870936897885036, 43.05523540269465], [5.872248481113617, 43.05901417188278], [5.872206196057437, 43.06378680443536], [5.872206196057446, 43.06378680443536], [5.875179220364682, 43.06584568405371], [5.878203345132354, 43.06827607366144], [5.881310571082787, 43.07087398362794], [5.884532898938302, 43.073435424322646], [5.88790232942122, 43.07575640611494], [5.891450863253867, 43.077632939374254], [5.895210501158568, 43.07886103446998], [5.899213243857638, 43.07923670177155], [5.903491092073409, 43.078555951648354], [5.908076046528198, 43.07661479446981], [5.9080760465282065, 43.07661479446982], [5.9132239860461535, 43.07418255507072], [5.918317669429639, 43.07325802513906], [5.923026855849386, 43.07353976273939], [5.927021304476112, 43.07472632593625], [5.9299707744805445, 43.07651627279417], [5.931545025033401, 43.07860816137772], [5.931413815305405, 43.080700549751406], [5.929246904467275, 43.082491995979794], [5.924714051689735, 43.08368105812742], [5.9174850161435035, 43.083966294258815], [5.9174850161435035, 43.08396629425882], [5.913235776273444, 43.085328655392125], [5.910276046262981, 43.08751129626741], [5.908221231396629, 43.0902582378495], [5.906686736958923, 43.093313501103175], [5.905287968234379, 43.09642110699328], [5.9036403305075265, 43.099325076484604], [5.901359229062889, 43.10176943054196], [5.898060069184986, 43.10349819013015], [5.893358256158347, 43.10425537621399], [5.886869195267497, 43.1037850097583], [5.886869195267504, 43.1037850097583], [5.882202380413839, 43.105577288584875], [5.880296226404372, 43.107443455827735], [5.880690016011835, 43.10932470830644], [5.88292303200895, 43.111162242840535], [5.886534557168451, 43.11289725624958], [5.891063874263066, 43.11447094535314], [5.8960502660655205, 43.11582450697077], [5.901033015348544, 43.116899137922005], [5.905551404884866, 43.11763603502641], [5.909144717447214, 43.11797639510354], [5.909144717447218, 43.11797639510354], [5.911997939951695, 43.120213080401335], [5.916005302531866, 43.12190936356762], [5.920722781501453, 43.12304595609746], [5.925706353174165, 43.123603569485915], [5.930511993863719, 43.123562915228085], [5.934695679883834, 43.12290470481902], [5.937813387548227, 43.12160964975381], [5.939421093170608, 43.119658461527514], [5.939074773064702, 43.11703185163522], [5.936330403544218, 43.11371053157198], [5.936330403544211, 43.113710531571975], [5.933803156207404, 43.109217994582835], [5.933291708053984, 43.106460071672544], [5.934471054332082, 43.10510374333927], [5.937016190289819, 43.104815990081235], [5.940602111175327, 43.10526379239661], [5.9449038122367295, 43.10611413078359], [5.94959628872215, 43.10703398574037], [5.954354535879716, 43.10769033776513], [5.958853548957553, 43.107750167356066], [5.962768323203788, 43.106880455011364], [5.962768323203791, 43.106880455011364], [5.968016750436409, 43.104199478716545], [5.973526681385069, 43.10290733255488], [5.979236470121224, 43.102689646471674], [5.985084470716329, 43.10323205041227], [5.991009037241831, 43.10422017432198], [5.996948523769186, 43.10533964814613], [6.002841284369845, 43.10627610183004], [6.00862567311526, 43.106715165319045], [6.0142400440768835, 43.10634246855846], [6.019622751326164, 43.104843641493616], [6.019622751326162, 43.10484364149361], [6.021617171423445, 43.10006726066778], [6.0247964009949015, 43.09629625856798], [6.0289762248105525, 43.093473417119775], [6.0339724276404105, 43.0915415182487], [6.039600794254502, 43.09044334388029], [6.04567710942284, 43.0901216759401], [6.052017157915442, 43.09051929635365], [6.058436724502329, 43.09157898704651], [6.06475159395352, 43.093243529944196], [6.070777551039033, 43.095455706972274], [6.07077755103904, 43.09545570697227], [6.077202580705375, 43.09563126769968], [6.084155189077862, 43.095417233546485], [6.091332315165161, 43.09476144654598], [6.098430897975929, 43.09361174873151], [6.105147876518835, 43.09191598213639], [6.11118018980253, 43.08962198879395], [6.116224776835683, 43.08667761073752], [6.1199785766269486, 43.0830306900004], [6.122138528184987, 43.07862906861593], [6.122401570518459, 43.073420588617445], [6.122401570518457, 43.073420588617445], [6.123634087010858, 43.06943361691048], [6.123679881080383, 43.06583312214196], [6.122648166821898, 43.06264542049564], [6.120648158330276, 43.059896828155274], [6.117789069700393, 43.05761366130462], [6.114180115027105, 43.05582223612745], [6.109930508405295, 43.0545488688075], [6.105149463929825, 43.05381987552853], [6.099946195695569, 43.05366157247431], [6.094429917797392, 43.05410027582858], [6.094429917797397, 43.05410027582858], [6.087934801577674, 43.054575247117135], [6.083354550849682, 43.053838304493], [6.080551310397553, 43.052211762209296], [6.0793872250054175, 43.050017934519104], [6.0797244394574115, 43.047579135675505], [6.0814250985376646, 43.04521767993158], [6.084351347030314, 43.043255881540425], [6.088365329719487, 43.04201605475514], [6.093329191389323, 43.04182051382879], [6.09910507682395, 43.042991573014454], [6.099105076823964, 43.04299157301446], [6.103824412419399, 43.04337275996221], [6.1086072068460044, 43.04384932287101], [6.113438109637848, 43.0443595276614], [6.1183017703290155, 43.044841640253885], [6.123182838453575, 43.045233926569026], [6.128065963545614, 43.04547465252733], [6.132935795139206, 43.04550208404935], [6.137776982768427, 43.045254487055615], [6.142574175967356, 43.04467012746664], [6.14731202427007, 43.04368727120297], [6.147312024270089, 43.04368727120297], [6.151451682535537, 43.04152575094713], [6.15642395486733, 43.04063751369387], [6.161736600329368, 43.04080500737636], [6.166897377985549, 43.0418106799277], [6.171414046899775, 43.043436979281054], [6.17479436613594, 43.045466353369555], [6.176546094757949, 43.047681250126345], [6.176176991829699, 43.049864117484546], [6.173194816415089, 43.05179740337731], [6.167107327578021, 43.053263555737786], [6.167107327578025, 43.05326355573778], [6.160627544082187, 43.053801725243574], [6.1566747079483175, 43.05536114353745], [6.154759276235753, 43.057764652486696], [6.154391706003837, 43.06083509395859], [6.155082454311904, 43.064395309820405], [6.156341978219295, 43.06826814193944], [6.1576807347853535, 43.07227643218295], [6.158609181069416, 43.076243022418254], [6.158637774130822, 43.07999075451259], [6.157276971028912, 43.08334247033328], [6.157276971028914, 43.083342470333285], [6.156847293878583, 43.08925466289467], [6.157877276494627, 43.09523933954119], [6.160267947474905, 43.10107584350677], [6.163920335417288, 43.10654351802533], [6.168735468919639, 43.11142170633079], [6.174614376579834, 43.115489751657066], [6.181458086995727, 43.11852699723808], [6.18916762876519, 43.12031278630776], [6.1976440304860905, 43.1206264621], [6.20678832075629, 43.11924736784874], [6.206788320756299, 43.119247367848736], [6.212837782255205, 43.11785638972813], [6.218693337259609, 43.1176751953593], [6.224393374848056, 43.11841600095364], [6.229976284099072, 43.11979102272257], [6.235480454091201, 43.12151247687754], [6.240944273902974, 43.12329257962994], [6.246406132612934, 43.12484354719121], [6.251904419299613, 43.12587759577277], [6.257477523041548, 43.12610694158602], [6.263163832917279, 43.125243800842405], [6.263163832917279, 43.1252438008424], [6.267923932071266, 43.1227933720767], [6.272949329460509, 43.12084754625499], [6.278182423121692, 43.1192960700864], [6.283565611091499, 43.11802869028003], [6.289041291406617, 43.116935153545], [6.2945518621037255, 43.11590520659043], [6.3000397212195125, 43.11482859612544], [6.30544726679066, 43.113595068859155], [6.310716896853851, 43.11209437150068], [6.315791009445768, 43.11021625075915], [6.315791009445759, 43.11021625075915], [6.318271193506597, 43.10789713464719], [6.319833812322978, 43.105060004974206], [6.320801296526039, 43.10189444169878], [6.321496076746927, 43.09859002477947], [6.322240583616784, 43.09533633417484], [6.3233572477667455, 43.09232294984344], [6.325168499827953, 43.08973945174387], [6.327996770431547, 43.08777541983465], [6.332164490208669, 43.086620434074376], [6.33799408979046, 43.0864640744216], [6.337994089790454, 43.0864640744216], [6.341948597751976, 43.086251236399605], [6.346551869952634, 43.08566330233161], [6.351490788570768, 43.08493137649703], [6.356452235784724, 43.08428656317529], [6.361123093772845, 43.083959966645814], [6.365190244713473, 43.08418269118799], [6.368340570784953, 43.08518584108128], [6.370260954165634, 43.08720052060508], [6.370638277033851, 43.09045783403881], [6.369159421567954, 43.0951888856619], [6.369159421567957, 43.0951888856619], [6.3662092570956546, 43.09803095134113], [6.364235504571788, 43.100995290415824], [6.363040079081959, 43.104061264668985], [6.362424895711756, 43.10720823588362], [6.362191869546779, 43.110415565842715], [6.362142915672623, 43.11366261632929], [6.3620799491748805, 43.11692874912636], [6.361804885139151, 43.120193326016896], [6.361119638651028, 43.12343570878394], [6.359826124796102, 43.12663525921046], [6.359826124796115, 43.12663525921046], [6.360734260301328, 43.13072154032753], [6.362938904436103, 43.133932537643915], [6.366171116638331, 43.13646113249858], [6.370161956345889, 43.13850020623047], [6.3746424829966735, 43.140242640178535], [6.379343756028566, 43.141881315681744], [6.383996834879454, 43.14360911407901], [6.3883327789872215, 43.14561891670933], [6.392082647789758, 43.148103604911626], [6.394977500724947, 43.15125606002486], [6.394977500724936, 43.151256060024856], [6.3992730656243495, 43.152508991141254], [6.403862365929994, 43.152907226384464], [6.408617347634236, 43.15274101462155], [6.41340995672944, 43.15230060471958], [6.418112139207974, 43.1518762455456], [6.422595841062204, 43.15175818596672], [6.426733008284494, 43.152236674849966], [6.430395586867212, 43.15360196106244], [6.433455522802719, 43.15614429347119], [6.435784762083385, 43.16015392094329], [6.435784762083381, 43.160153920943294], [6.438700405227751, 43.16021964238741], [6.441627652737024, 43.160243207963916], [6.44456548358715, 43.160231715526955], [6.447512876754072, 43.16019226293068], [6.4504688112137405, 43.16013194802922], [6.4534322659421, 43.160057868676724], [6.4564022199150966, 43.15997712272736], [6.459377652108676, 43.159896808035256], [6.462357541498793, 43.15982402245456], [6.465340867061387, 43.15976586383941], [6.465340867061384, 43.15976586383941], [6.462351509245746, 43.16633795138226], [6.45936215143011, 43.1729100389251], [6.456372793614474, 43.179482126467946], [6.453383435798836, 43.18605421401079], [6.450394077983198, 43.19262630155363], [6.447404720167562, 43.199198389096466], [6.444415362351927, 43.205770476639316], [6.441426004536291, 43.212342564182144], [6.438436646720655, 43.218914651724994], [6.435447288905017, 43.225486739267836], [6.435447288905017, 43.225486739267836], [6.431346334584903, 43.22690429843265], [6.427245380264791, 43.22832185759746], [6.423144425944676, 43.22973941676228], [6.419043471624558, 43.23115697592709], [6.4149425173044445, 43.232574535091906], [6.410841562984331, 43.23399209425672], [6.406740608664219, 43.23540965342153], [6.402639654344103, 43.23682721258634], [6.3985387000239875, 43.238244771751155], [6.394437745703874, 43.23966233091597], [6.394437745703874, 43.23966233091597], [6.394186334408898, 43.242322172109375], [6.393934923113919, 43.24498201330278], [6.393683511818942, 43.24764185449618], [6.393432100523963, 43.25030169568959], [6.393180689228986, 43.25296153688299], [6.392929277934007, 43.25562137807639], [6.39267786663903, 43.2582812192698], [6.392426455344051, 43.2609410604632], [6.392175044049074, 43.2636009016566], [6.391923632754098, 43.26626074285001], [6.391923632754098, 43.26626074285001], [6.391929964299804, 43.26954125433336], [6.391936295845515, 43.272821765816715], [6.391942627391224, 43.27610227730006], [6.391948958936931, 43.279382788783415], [6.39195529048264, 43.28266330026677], [6.391961622028351, 43.28594381175013], [6.391967953574056, 43.289224323233476], [6.391974285119767, 43.29250483471683], [6.3919806166654745, 43.295785346200184], [6.3919869482111835, 43.29906585768354], [6.3919869482111835, 43.29906585768354], [6.387498728171119, 43.29915339557897], [6.383010508131052, 43.299240933474415], [6.378522288090986, 43.29932847136984], [6.374034068050921, 43.299416009265286], [6.369545848010857, 43.29950354716071], [6.36505762797079, 43.29959108505615], [6.360569407930727, 43.29967862295159], [6.356081187890659, 43.29976616084703], [6.3515929678505945, 43.29985369874246], [6.34710474781053, 43.29994123663789], [6.34710474781053, 43.29994123663789], [6.339533131373507, 43.29710218179851], [6.3319615149364825, 43.29426312695913], [6.32438989849946, 43.29142407211974], [6.316818282062435, 43.28858501728036], [6.309246665625409, 43.28574596244097], [6.301675049188388, 43.282906907601586], [6.294103432751363, 43.2800678527622], [6.286531816314341, 43.277228797922824], [6.278960199877318, 43.274389743083425], [6.271388583440293, 43.27155068824405], [6.271388583440293, 43.27155068824405], [6.267156750226189, 43.27163829012449], [6.262924917012082, 43.27172589200495], [6.258693083797976, 43.2718134938854], [6.254461250583873, 43.27190109576585], [6.250229417369765, 43.27198869764631], [6.24599758415566, 43.27207629952675], [6.241765750941555, 43.272163901407204], [6.237533917727449, 43.272251503287656], [6.2333020845133404, 43.2723391051681], [6.229070251299236, 43.27242670704856], [6.229070251299236, 43.27242670704856], [6.227662860836098, 43.274110912416575], [6.2262554703729585, 43.27579511778458], [6.2248480799098225, 43.27747932315261], [6.223440689446683, 43.27916352852062], [6.222033298983545, 43.28084773388864], [6.220625908520406, 43.28253193925666], [6.219218518057268, 43.28421614462467], [6.21781112759413, 43.28590034999269], [6.216403737130991, 43.2875845553607], [6.214996346667851, 43.28926876072872], [6.214996346667851, 43.28926876072872], [6.217308120779098, 43.2910426069563], [6.219619894890339, 43.29281645318387], [6.221931669001586, 43.29459029941144], [6.2242434431128295, 43.29636414563901], [6.226555217224075, 43.29813799186658], [6.228866991335316, 43.29991183809416], [6.231178765446561, 43.30168568432173], [6.233490539557806, 43.303459530549304], [6.2358023136690495, 43.305233376776876], [6.238114087780293, 43.30700722300445], [6.238114087780293, 43.30700722300445], [6.238116825820182, 43.308425860998035], [6.238119563860071, 43.309844498991616], [6.238122301899962, 43.311263136985204], [6.238125039939851, 43.31268177497879], [6.2381277779797415, 43.31410041297237], [6.238130516019632, 43.31551905096595], [6.238133254059521, 43.31693768895954], [6.238135992099412, 43.31835632695313], [6.238138730139301, 43.31977496494671], [6.23814146817919, 43.32119360294029], [6.23814146817919, 43.32119360294029], [6.233787128194283, 43.324207052169776], [6.229432788209374, 43.32722050139926], [6.225078448224465, 43.330233950628745], [6.220724108239558, 43.33324739985822], [6.216369768254648, 43.33626084908771], [6.212015428269742, 43.33927429831719], [6.207661088284832, 43.34228774754667], [6.203306748299923, 43.34530119677615], [6.198952408315014, 43.34831464600564], [6.194598068330105, 43.35132809523512], [6.194598068330105, 43.35132809523512], [6.189593456831247, 43.34884425831616], [6.184588845332387, 43.34636042139721], [6.179584233833529, 43.34387658447825], [6.174579622334667, 43.34139274755929], [6.1695750108358105, 43.33890891064034], [6.164570399336947, 43.33642507372138], [6.159565787838087, 43.33394123680242], [6.154561176339229, 43.33145739988346], [6.149556564840367, 43.32897356296451], [6.1445519533415105, 43.32648972604555], [6.1445519533415105, 43.32648972604555], [6.138910242057118, 43.32693166274494], [6.133268530772723, 43.327373599444336], [6.127626819488329, 43.327815536143724], [6.121985108203935, 43.32825747284311], [6.116343396919541, 43.3286994095425], [6.1107016856351475, 43.329141346241904], [6.105059974350755, 43.329583282941286], [6.099418263066362, 43.33002521964068], [6.093776551781968, 43.33046715634008], [6.088134840497574, 43.330909093039466], [6.088134840497574, 43.330909093039466], [6.084411911303077, 43.328868920652226], [6.080688982108578, 43.32682874826497], [6.076966052914077, 43.32478857587773], [6.073243123719578, 43.322748403490486], [6.069520194525079, 43.32070823110325], [6.065797265330582, 43.31866805871599], [6.062074336136082, 43.316627886328746], [6.058351406941583, 43.314587713941506], [6.054628477747084, 43.31254754155426], [6.050905548552587, 43.31050736916702], [6.050905548552587, 43.31050736916702], [6.048729707973635, 43.31272338542197], [6.0465538673946835, 43.31493940167692], [6.044378026815735, 43.317155417931865], [6.042202186236786, 43.31937143418682], [6.040026345657838, 43.321587450441776], [6.037850505078884, 43.323803466696724], [6.035674664499934, 43.326019482951665], [6.033498823920985, 43.32823549920662], [6.0313229833420365, 43.330451515461576], [6.029147142763085, 43.332667531716524], [6.029147142763085, 43.332667531716524], [6.027095165075227, 43.332578361620804], [6.025043187387366, 43.33248919152508], [6.022991209699507, 43.33240002142935], [6.0209392320116475, 43.33231085133363], [6.018887254323786, 43.332221681237904], [6.016835276635929, 43.332132511142184], [6.014783298948069, 43.33204334104646], [6.01273132126021, 43.33195417095073], [6.010679343572351, 43.331865000855004], [6.0086273658844895, 43.331775830759284], [6.0086273658844895, 43.331775830759284], [6.006961969459391, 43.33266204978125], [6.0052965730342915, 43.33354826880322], [6.003631176609192, 43.334434487825185], [6.00196578018409, 43.33532070684715], [6.000300383758988, 43.336206925869114], [5.99863498733389, 43.33709314489109], [5.99696959090879, 43.33797936391306], [5.995304194483689, 43.33886558293503], [5.993638798058589, 43.33975180195699], [5.991973401633489, 43.340638020978965]]]}}, {"type": "Feature", "properties": {"source": "0_Province_Arles.txt"}, "geometry": {"type": "Polygon", "coordinates": [[[6.234826843190476, 43.028529506605715], [6.232758940566125, 43.02834409458271], [6.230469577818029, 43.027661467601405], [6.22804252201486, 43.02656624959392], [6.225561540225302, 43.02514306449237], [6.223110399518028, 43.023476536228834], [6.220772866961719, 43.02165128873541], [6.21863270962505, 43.01975194594419], [6.216773694576702, 43.01786313178731], [6.215279588885348, 43.016069470196825], [6.21423415961967, 43.014455585104855], [6.214234159619661, 43.014455585104855], [6.210622765121151, 43.011812774567055], [6.2065887569964815, 43.01020264818043], [6.2022535359856565, 43.00936756799573], [6.197738502828674, 43.00904989606379], [6.193165058265535, 43.00899199443538], [6.188654603036241, 43.00893622516129], [6.184328537880795, 43.008624950292315], [6.180308263539192, 43.00780053187927], [6.176715180751438, 43.0062053319729], [6.173670690257531, 43.003581712624026], [6.173670690257518, 43.003581712624026], [6.170467387623237, 42.99938648046889], [6.169949234719496, 42.99680950953354], [6.171550326835776, 42.995461581800406], [6.174704759261543, 42.99495347925193], [6.178846627286276, 42.99489598387053], [6.183410026199448, 42.994899877638645], [6.187829051290533, 42.9945759425387], [6.191537797849005, 42.99353496055314], [6.193970361164336, 42.991387713664395], [6.194560836526001, 42.98774498385489], [6.194560836526003, 42.98774498385489], [6.201333265045319, 42.988005804759624], [6.2080947289543555, 42.98924522342537], [6.214656443001381, 42.99134987239663], [6.220829621934662, 42.99420638421791], [6.226425480502467, 42.99770139143372], [6.231255233453066, 43.001721526588554], [6.235130095534727, 43.006153422226895], [6.237861281495718, 43.01088371089328], [6.239260006084303, 43.0157990251322], [6.23913748404876, 43.02078599748816], [6.2391374840487615, 43.020785997488154], [6.239213603403641, 43.02232791247355], [6.239156077244687, 43.023677961394135], [6.238972757352856, 43.0248441303514], [6.2386714955091165, 43.02583440544687], [6.238260143494429, 43.02665677278204], [6.2377465530897585, 43.02731921845839], [6.237138576076061, 43.02782972857742], [6.236444064234309, 43.02819628924066], [6.235670869345455, 43.028426886549596], [6.23482684319047, 43.028529506605715], [6.234826843190476, 43.028529506605715], [6.234826843190476, 43.028529506605715], [6.234826843190476, 43.028529506605715], [6.234826843190476, 43.028529506605715], [6.234826843190476, 43.028529506605715], [6.234826843190476, 43.028529506605715], [6.234826843190476, 43.028529506605715], [6.234826843190476, 43.028529506605715], [6.234826843190476, 43.028529506605715], [6.234826843190476, 43.028529506605715], [6.234826843190476, 43.028529506605715]]]}}, {"type": "Feature", "properties": {"source": "0_Province_Arles.txt"}, "geometry": {"type": "Polygon", "coordinates": [[[6.395154232467611, 43.01862461838024], [6.391902739431291, 43.018565084264765], [6.388481144014367, 43.018085242547635], [6.3850701159187775, 43.017237424110455], [6.381850324846457, 43.01607395983485], [6.379002440499347, 43.014647180602395], [6.37670713257938, 43.013009417294704], [6.375145070788495, 43.01121300079339], [6.3744969248286285, 43.009310261980055], [6.374943364401718, 43.007353531736314], [6.376665059209699, 43.00539514094375], [6.376665059209719, 43.00539514094374], [6.379031701826701, 43.004048063320155], [6.381684546886897, 43.003449518747416], [6.384537011811609, 43.00348737946957], [6.387502514022158, 43.00404951773066], [6.390494470939844, 43.00502380577473], [6.393426299985979, 43.006298115845816], [6.396211418581872, 43.00776032018797], [6.398763244148835, 43.009298291045226], [6.400995194108173, 43.010799900661645], [6.402820685881197, 43.01215302128126], [6.402820685881206, 43.01215302128126], [6.402863924454373, 43.01338023757328], [6.4026819267426, 43.014465405940776], [6.402291666026528, 43.01541345630694], [6.401710115586804, 43.01622931859494], [6.400954248704064, 43.01691792272798], [6.40004103865895, 43.017484198629234], [6.398987458732105, 43.017933076221915], [6.3978104822041715, 43.01826948542918], [6.396527082355787, 43.01849835617423], [6.395154232467599, 43.01862461838024], [6.395154232467609, 43.01862461838024], [6.395154232467609, 43.01862461838024], [6.395154232467609, 43.01862461838024], [6.395154232467609, 43.01862461838024], [6.395154232467609, 43.01862461838024], [6.395154232467609, 43.01862461838024], [6.395154232467611, 43.01862461838024], [6.395154232467611, 43.01862461838024], [6.395154232467611, 43.01862461838024], [6.395154232467611, 43.01862461838024], [6.395154232467611, 43.01862461838024]]]}}, {"type": "Feature", "properties": {"source": "0_Province_Arles.txt"}, "geometry": {"type": "Polygon", "coordinates": [[[6.495805335704608, 43.06152826605058], [6.492650181734566, 43.061237073657786], [6.489488261753488, 43.06053643715552], [6.486339565227528, 43.05950128382813], [6.483224081622852, 43.058206540959986], [6.480161800405616, 43.05672713583543], [6.477172711041979, 43.05513799573883], [6.4742768029981, 43.053514047954536], [6.471494065740137, 43.051930219766916], [6.468844488734247, 43.05046143846032], [6.466348061446595, 43.0491826313191], [6.4663480614465865, 43.0491826313191], [6.464370200079641, 43.04500740391094], [6.461408442269054, 43.041492268394535], [6.457672914070249, 43.038490340119395], [6.453373741538654, 43.035854734435055], [6.448721050729686, 43.033438566691025], [6.443924967698775, 43.03109495223683], [6.439195618501339, 43.028677006421965], [6.434743129192803, 43.026037844595976], [6.430777625828588, 43.02303058210837], [6.427509234464118, 43.019508334308675], [6.4275092344641305, 43.019508334308675], [6.42843260110487, 43.01686401324769], [6.429789592282143, 43.01494001398359], [6.431511991245213, 43.01366944040706], [6.433531581243335, 43.012985396408745], [6.43578014552577, 43.012820985879344], [6.438189467341777, 43.013109312709524], [6.440691329940618, 43.01378348078997], [6.443217516571551, 43.01477659401132], [6.445699810483831, 43.016021756264294], [6.448069994926723, 43.017452071439536], [6.448069994926719, 43.01745207143954], [6.4519164311045785, 43.01770394498502], [6.455612835800622, 43.01825514211041], [6.459139329063984, 43.01911207010815], [6.462476030943801, 43.020281136270675], [6.46560306148921, 43.021768747890434], [6.4685005407493446, 43.023581312259864], [6.471148588773342, 43.02572523667141], [6.473527325610336, 43.02820692841752], [6.475616871309462, 43.03103279479062], [6.4773973459198615, 43.03420924308316], [6.477397345919872, 43.034209243083154], [6.478858836892741, 43.03759178782355], [6.48092833282743, 43.04065495782272], [6.483494499732851, 43.04343974862442], [6.4864460036179015, 43.04598715577239], [6.48967151049149, 43.04833817481038], [6.493059686362519, 43.05053380128213], [6.496499197239892, 43.052615030731396], [6.499878709132515, 43.05462285870191], [6.503086888049291, 43.05659828073744], [6.506012399999127, 43.058582292381715], [6.506012399999133, 43.058582292381715], [6.505026716152443, 43.05919833650077], [6.5040312353371235, 43.05973551795464], [6.503026712867845, 43.06019662301342], [6.502013904059277, 43.06058443794718], [6.500993564226102, 43.060901749026065], [6.499966448682985, 43.06115134252015], [6.4989333127446045, 43.06133600469954], [6.497894911725632, 43.06145852183434], [6.496852000940745, 43.06152168019465], [6.495805335704613, 43.06152826605058], [6.495805335704608, 43.06152826605058], [6.495805335704608, 43.06152826605058], [6.495805335704608, 43.06152826605058], [6.495805335704608, 43.06152826605058], [6.495805335704608, 43.06152826605058], [6.495805335704608, 43.06152826605058], [6.495805335704608, 43.06152826605058], [6.495805335704608, 43.06152826605058], [6.495805335704608, 43.06152826605058], [6.495805335704608, 43.06152826605058], [6.495805335704608, 43.06152826605058]]]}}]}