{
    "type": "FeatureCollection",
    "features": [
        {
            "type": "Feature",
            "properties": {
                "diocese": "Aurien",
                "province": "Compostellan",
                "date": 1592
            },
            "geometry": {
                "coordinates": [
                    [
                        [
                            -7.44240412399995,
                            42.407586398000035
                        ],
                        [
                            -7.531766439999956,
                            42.383555656000055
                        ],
                        [
                            -7.574836288999961,
                            42.40457573800006
                        ],
                        [
                            -7.617002573999969,
                            42.38444553800008
                        ],
                        [
                            -7.7129308719999585,
                            42.452595202000055
                        ],
                        [
                            -7.788821913999925,
                            42.47026482000007
                        ],
                        [
                            -7.75227865599993,
                            42.482535960000064
                        ],
                        [
                            -7.762082944999975,
                            42.48954696000004
                        ],
                        [
                            -7.798032003999936,
                            42.48297417100008
                        ],
                        [
                            -7.904941072999975,
                            42.51055104400007
                        ],
                        [
                            -7.909346566999943,
                            42.53086845000007
                        ],
                        [
                            -7.885958881999954,
                            42.54669994300008
                        ],
                        [
                            -7.91219872399995,
                            42.55594479900003
                        ],
                        [
                            -7.924177781999958,
                            42.581291090000036
                        ],
                        [
                            -7.9926295439999535,
                            42.57050967300006
                        ],
                        [
                            -8.010788274999925,
                            42.541989443000034
                        ],
                        [
                            -8.088628385999925,
                            42.55774808700005
                        ],
                        [
                            -8.152207712999939,
                            42.55162019800008
                        ],
                        [
                            -8.174193087999981,
                            42.570002060000036
                        ],
                        [
                            -8.28157248399998,
                            42.48919058000007
                        ],
                        [
                            -8.339373999999964,
                            42.44133800000003
                        ],
                        [
                            -8.314896999999974,
                            42.380956000000026
                        ],
                        [
                            -8.324893999999972,
                            42.34502200000003
                        ],
                        [
                            -8.273105999999927,
                            42.31440100000003
                        ],
                        [
                            -8.176145547999965,
                            42.33193502900008
                        ],
                        [
                            -8.177333946999966,
                            42.357231623000075
                        ],
                        [
                            -8.153922493999971,
                            42.34519944300007
                        ],
                        [
                            -8.15035729799996,
                            42.35960265700004
                        ],
                        [
                            -8.12373716899998,
                            42.36478349300006
                        ],
                        [
                            -8.119340093999938,
                            42.35020581200007
                        ],
                        [
                            -8.12442643999998,
                            42.28810568800003
                        ],
                        [
                            -8.175646420999954,
                            42.27737571800003
                        ],
                        [
                            -8.184202890999927,
                            42.26268982500005
                        ],
                        [
                            -8.154374084999972,
                            42.252838687000065
                        ],
                        [
                            -8.17250811699995,
                            42.23569074200003
                        ],
                        [
                            -8.164655739999944,
                            42.221782285000074
                        ],
                        [
                            -8.192455999999936,
                            42.20909700000004
                        ],
                        [
                            -8.161524594999946,
                            42.17892457100004
                        ],
                        [
                            -8.199232999999936,
                            42.154386000000045
                        ],
                        [
                            -8.18674254399997,
                            42.074954510000055
                        ],
                        [
                            -8.104411839999955,
                            42.07901001000005
                        ],
                        [
                            -8.082447051999964,
                            42.02527988000003
                        ],
                        [
                            -8.163244008999925,
                            41.98167800900006
                        ],
                        [
                            -8.216536878999932,
                            41.91296076800006
                        ],
                        [
                            -8.20062816199993,
                            41.87335956100003
                        ],
                        [
                            -8.163326501999961,
                            41.86666476800008
                        ],
                        [
                            -8.164924502999952,
                            41.81774127500006
                        ],
                        [
                            -8.081110357999933,
                            41.811046600000054
                        ],
                        [
                            -8.010603069999945,
                            41.83250415300006
                        ],
                        [
                            -7.979717850999975,
                            41.87095642100007
                        ],
                        [
                            -7.928526758999965,
                            41.87696444900007
                        ],
                        [
                            -7.907296776999942,
                            41.926746250000065
                        ],
                        [
                            -7.892529725999964,
                            41.92743301400003
                        ],
                        [
                            -7.889070868999966,
                            41.85550677700007
                        ],
                        [
                            -7.873632550999957,
                            41.849670410000044
                        ],
                        [
                            -7.837450742999977,
                            41.865463257000044
                        ],
                        [
                            -7.842521548999969,
                            41.87799453700006
                        ],
                        [
                            -7.698893307999981,
                            41.90717685300007
                        ],
                        [
                            -7.641016244999946,
                            41.87971115100004
                        ],
                        [
                            -7.588734745999943,
                            41.88005435500003
                        ],
                        [
                            -7.612000941999952,
                            41.845893741000054
                        ],
                        [
                            -7.6060116289999655,
                            41.830787659000066
                        ],
                        [
                            -7.519612431999974,
                            41.84331893900003
                        ],
                        [
                            -7.502790569999945,
                            41.87078476000005
                        ],
                        [
                            -7.452786444999958,
                            41.86494815300006
                        ],
                        [
                            -7.427943348999975,
                            41.833791733000055
                        ],
                        [
                            -7.429056763999938,
                            41.80950164800004
                        ],
                        [
                            -7.364733575999935,
                            41.85173034700006
                        ],
                        [
                            -7.31424427099995,
                            41.844005466000056
                        ],
                        [
                            -7.197321056999954,
                            41.882629275000056
                        ],
                        [
                            -7.174270629999967,
                            41.919410705000075
                        ],
                        [
                            -7.188996076999956,
                            41.97121655900003
                        ],
                        [
                            -7.163867115999949,
                            41.98699951200007
                        ],
                        [
                            -7.09317576899997,
                            41.97669982900004
                        ],
                        [
                            -7.072945832999949,
                            41.95129394500003
                        ],
                        [
                            -7.00926196599994,
                            41.95026385800003
                        ],
                        [
                            -6.981804251999961,
                            41.97206485300006
                        ],
                        [
                            -6.990962999999965,
                            41.98833300000007
                        ],
                        [
                            -6.964525999999978,
                            42.03366900000003
                        ],
                        [
                            -7.052777726999977,
                            42.03198102700003
                        ],
                        [
                            -7.213924581999947,
                            42.07734780100003
                        ],
                        [
                            -7.358196176999968,
                            42.07099652100004
                        ],
                        [
                            -7.372456960999955,
                            42.10750769800006
                        ],
                        [
                            -7.4169030699999325,
                            42.11632367200008
                        ],
                        [
                            -7.444038171999978,
                            42.19803339200007
                        ],
                        [
                            -7.3996217729999785,
                            42.279344510000044
                        ],
                        [
                            -7.405563765999943,
                            42.31626281200005
                        ],
                        [
                            -7.460230102999958,
                            42.36457547600003
                        ],
                        [
                            -7.44240412399995,
                            42.407586398000035
                        ]
                    ]
                ],
                "type": "Polygon"
            }
        }
    ]
}