{
    "type": "FeatureCollection",
    "features": [
        {
            "type": "Feature",
            "properties": {
                "diocese": "Caurien",
                "province": "Compostellan",
                "date": 1592
            },
            "geometry": {
                "coordinates": [
                    [
                        [
                            -7.231843999999967,
                            39.27805100000006
                        ],
                        [
                            -7.20407199999994,
                            39.26569893800007
                        ],
                        [
                            -7.152235999999959,
                            39.32148100000006
                        ],
                        [
                            -7.1780469999999355,
                            39.33121900000003
                        ],
                        [
                            -7.16144399999996,
                            39.36133700000005
                        ],
                        [
                            -7.119088999999974,
                            39.38365900000008
                        ],
                        [
                            -7.063185999999973,
                            39.372272000000066
                        ],
                        [
                            -7.079340999999943,
                            39.35141500000003
                        ],
                        [
                            -7.103259001999959,
                            39.354562000000044
                        ],
                        [
                            -7.0797829999999635,
                            39.311394000000064
                        ],
                        [
                            -7.044150895999962,
                            39.32681961000003
                        ],
                        [
                            -7.032496999999978,
                            39.36764400000004
                        ],
                        [
                            -7.009150999999974,
                            39.388491000000045
                        ],
                        [
                            -7.066908999999953,
                            39.414303000000075
                        ],
                        [
                            -7.049269338999977,
                            39.43667872300006
                        ],
                        [
                            -6.883442999999943,
                            39.38276100000007
                        ],
                        [
                            -6.802288999999973,
                            39.38949900000006
                        ],
                        [
                            -6.797224999999969,
                            39.34451300000006
                        ],
                        [
                            -6.7469639999999345,
                            39.321754000000055
                        ],
                        [
                            -6.761391999999944,
                            39.27661400000005
                        ],
                        [
                            -6.801075999999966,
                            39.23942200000005
                        ],
                        [
                            -6.7677190449999785,
                            39.188375680000036
                        ],
                        [
                            -6.681217999999944,
                            39.177156000000025
                        ],
                        [
                            -6.659951999999976,
                            39.19907500000005
                        ],
                        [
                            -6.6335829999999305,
                            39.196848000000045
                        ],
                        [
                            -6.580312999999933,
                            39.17980000000006
                        ],
                        [
                            -6.574469459999932,
                            39.15836237100007
                        ],
                        [
                            -6.538888842999938,
                            39.155280109000046
                        ],
                        [
                            -6.5405705459999695,
                            39.18169872800007
                        ],
                        [
                            -6.379313999999965,
                            39.16277750000006
                        ],
                        [
                            -6.32400199999995,
                            39.18644100000006
                        ],
                        [
                            -6.307662999999934,
                            39.148794000000066
                        ],
                        [
                            -6.312151999999969,
                            39.11215500000003
                        ],
                        [
                            -6.231070399999965,
                            39.089807000000064
                        ],
                        [
                            -6.20335799999998,
                            39.05651000000006
                        ],
                        [
                            -6.161762999999951,
                            39.05725200000006
                        ],
                        [
                            -6.142311999999947,
                            39.03159000000005
                        ],
                        [
                            -6.078866999999946,
                            39.093740000000025
                        ],
                        [
                            -5.995365291999974,
                            39.139468727000065
                        ],
                        [
                            -6.000118885999939,
                            39.15790103300003
                        ],
                        [
                            -5.959713332999968,
                            39.203960675000076
                        ],
                        [
                            -6.034582446999934,
                            39.28311265100007
                        ],
                        [
                            -6.012002872999972,
                            39.301507284000024
                        ],
                        [
                            -6.072611202999951,
                            39.37136281100004
                        ],
                        [
                            -6.060727216999965,
                            39.44573723800005
                        ],
                        [
                            -6.135596330999931,
                            39.54386329300007
                        ],
                        [
                            -6.425565598999981,
                            39.63727502800003
                        ],
                        [
                            -6.439826381999978,
                            39.68393365600008
                        ],
                        [
                            -6.419623605999959,
                            39.75888735500007
                        ],
                        [
                            -6.372087659999977,
                            39.78080961000006
                        ],
                        [
                            -6.370899260999977,
                            39.84744688300003
                        ],
                        [
                            -6.152233911999929,
                            40.00419971600007
                        ],
                        [
                            -6.153422310999929,
                            40.116076031000034
                        ],
                        [
                            -5.87771382699998,
                            40.31572166700005
                        ],
                        [
                            -5.881279021999944,
                            40.38093244400005
                        ],
                        [
                            -5.818293894999954,
                            40.42889452700007
                        ],
                        [
                            -5.819482292999965,
                            40.48314997500006
                        ],
                        [
                            -5.908612190999975,
                            40.48043824300004
                        ],
                        [
                            -5.890786211999966,
                            40.441558050000026
                        ],
                        [
                            -5.9668437239999434,
                            40.40537022800004
                        ],
                        [
                            -6.0655691419999584,
                            40.39591823100005
                        ],
                        [
                            -6.12936899999994,
                            40.42079200000006
                        ],
                        [
                            -6.116010999999958,
                            40.441590000000076
                        ],
                        [
                            -6.146900999999957,
                            40.436123000000066
                        ],
                        [
                            -6.199862562999954,
                            40.48224668700004
                        ],
                        [
                            -6.240847999999971,
                            40.48516900000004
                        ],
                        [
                            -6.275210999999956,
                            40.458521000000076
                        ],
                        [
                            -6.344527999999968,
                            40.442781000000025
                        ],
                        [
                            -6.371624999999938,
                            40.40187700000007
                        ],
                        [
                            -6.41905399999996,
                            40.399294000000054
                        ],
                        [
                            -6.439873999999975,
                            40.38158100000004
                        ],
                        [
                            -6.448770999999965,
                            40.37086000000005
                        ],
                        [
                            -6.3946672339999395,
                            40.314815518000046
                        ],
                        [
                            -6.50994190199998,
                            40.24954082700003
                        ],
                        [
                            -6.568312999999932,
                            40.28311000000008
                        ],
                        [
                            -6.671639999999968,
                            40.263239000000056
                        ],
                        [
                            -6.690024999999935,
                            40.24266800000004
                        ],
                        [
                            -6.718462999999929,
                            40.26920700000005
                        ],
                        [
                            -6.7554909999999495,
                            40.23892900000004
                        ],
                        [
                            -6.777986999999939,
                            40.24552700000004
                        ],
                        [
                            -6.792780777999951,
                            40.18329521000004
                        ],
                        [
                            -6.908055445999935,
                            40.194189348000066
                        ],
                        [
                            -6.847035999999946,
                            40.254432000000065
                        ],
                        [
                            -6.865440064999973,
                            40.27067802600004
                        ],
                        [
                            -6.951274780999938,
                            40.256812042000035
                        ],
                        [
                            -6.965861999999959,
                            40.23634300000003
                        ],
                        [
                            -7.01210599999996,
                            40.225847000000044
                        ],
                        [
                            -7.02912299999997,
                            40.18480000000005
                        ],
                        [
                            -7.013248999999973,
                            40.12613500000003
                        ],
                        [
                            -6.941546999999957,
                            40.11206200000004
                        ],
                        [
                            -6.863863999999978,
                            40.01274600000005
                        ],
                        [
                            -6.887096999999926,
                            39.979430000000036
                        ],
                        [
                            -6.885774999999967,
                            39.94051700000006
                        ],
                        [
                            -6.908706999999936,
                            39.918075000000044
                        ],
                        [
                            -6.90325699999994,
                            39.87145700000008
                        ],
                        [
                            -6.987157998999976,
                            39.80989100000005
                        ],
                        [
                            -6.977017998999941,
                            39.77169500000008
                        ],
                        [
                            -7.01588550799994,
                            39.67082226200006
                        ],
                        [
                            -7.14790499999998,
                            39.65337400000004
                        ],
                        [
                            -7.25417699999997,
                            39.66664100000003
                        ],
                        [
                            -7.336145999999928,
                            39.640949000000035
                        ],
                        [
                            -7.541562516999932,
                            39.66389768600004
                        ],
                        [
                            -7.4996419999999375,
                            39.58977900000008
                        ],
                        [
                            -7.4668309999999565,
                            39.57678400000003
                        ],
                        [
                            -7.427289999999971,
                            39.53288700000007
                        ],
                        [
                            -7.391316999999958,
                            39.52982900000006
                        ],
                        [
                            -7.381586999999968,
                            39.49153200000006
                        ],
                        [
                            -7.2939139999999725,
                            39.457250000000045
                        ],
                        [
                            -7.321630999999968,
                            39.38643700000006
                        ],
                        [
                            -7.310205999999937,
                            39.34103500000003
                        ],
                        [
                            -7.231843999999967,
                            39.27805100000006
                        ]
                    ],
                    [
                        [
                            -6.0683378849999485,
                            40.395802795000066
                        ],
                        [
                            -6.066356507999956,
                            40.39516714400003
                        ],
                        [
                            -6.066515999999979,
                            40.39501500000006
                        ],
                        [
                            -6.0683378849999485,
                            40.395802795000066
                        ]
                    ]
                ],
                "type": "Polygon"
            }
        }
    ]
}