{
    "type": "FeatureCollection",
    "features": [
        {
            "type": "Feature",
            "properties": {
                "diocese": "Compostellan",
                "province": "Compostellan",
                "date": 1592
            },
            "geometry": {
                "coordinates": [
                    [
                        [
                            -8.589537770999925,
                            42.34690030000007
                        ],
                        [
                            -8.563335957999925,
                            42.36997835400007
                        ],
                        [
                            -8.552497762999963,
                            42.36028449600008
                        ],
                        [
                            -8.504828715999963,
                            42.381170791000045
                        ],
                        [
                            -8.48153610299994,
                            42.37035483900007
                        ],
                        [
                            -8.45025745099997,
                            42.37976622700006
                        ],
                        [
                            -8.458762341999943,
                            42.41028939600005
                        ],
                        [
                            -8.339373999999964,
                            42.44133800000003
                        ],
                        [
                            -8.197790379999958,
                            42.540434925000056
                        ],
                        [
                            -8.229877142999953,
                            42.60082295900003
                        ],
                        [
                            -8.219181554999977,
                            42.628371971000036
                        ],
                        [
                            -8.331485226999973,
                            42.70177641600003
                        ],
                        [
                            -8.338615617999949,
                            42.76331681400006
                        ],
                        [
                            -8.301181060999966,
                            42.79471814500005
                        ],
                        [
                            -8.206703369999957,
                            42.758081711000045
                        ],
                        [
                            -8.131834254999944,
                            42.76331681400006
                        ],
                        [
                            -8.060530336999932,
                            42.80648953800005
                        ],
                        [
                            -8.071225924999965,
                            42.841790280000055
                        ],
                        [
                            -8.133616852999978,
                            42.886214392000056
                        ],
                        [
                            -8.03022617199997,
                            42.94757155100007
                        ],
                        [
                            -8.09083450199995,
                            42.989311678000035
                        ],
                        [
                            -7.9874438209999425,
                            42.99061560000007
                        ],
                        [
                            -7.903661716999977,
                            43.05447391700005
                        ],
                        [
                            -7.8894009329999335,
                            43.10004633200003
                        ],
                        [
                            -7.930400685999928,
                            43.18589066100003
                        ],
                        [
                            -7.880487942999935,
                            43.32221272600003
                        ],
                        [
                            -7.843053385999951,
                            43.35073677400004
                        ],
                        [
                            -7.848401179999939,
                            43.37795177600003
                        ],
                        [
                            -7.9649830869999505,
                            43.40722666100004
                        ],
                        [
                            -7.982809065999959,
                            43.46987397400005
                        ],
                        [
                            -8.060886856999957,
                            43.472720038000034
                        ],
                        [
                            -8.143955920999929,
                            43.52108261800004
                        ],
                        [
                            -8.18887738999996,
                            43.522633717000076
                        ],
                        [
                            -8.255774139999971,
                            43.48368394400006
                        ],
                        [
                            -8.200890301999948,
                            43.47785747000006
                        ],
                        [
                            -8.154571651999959,
                            43.51348245100007
                        ],
                        [
                            -8.192489504999969,
                            43.46420514600004
                        ],
                        [
                            -8.312177419999955,
                            43.45544147500004
                        ],
                        [
                            -8.303526043999966,
                            43.446618915000045
                        ],
                        [
                            -8.315382241999941,
                            43.44275045400008
                        ],
                        [
                            -8.257356046999973,
                            43.41910255000005
                        ],
                        [
                            -8.197129963999942,
                            43.426368833000026
                        ],
                        [
                            -8.172705053999948,
                            43.411272645000054
                        ],
                        [
                            -8.152643560999934,
                            43.41342461100004
                        ],
                        [
                            -8.149265527999944,
                            43.420964241000036
                        ],
                        [
                            -8.134349345999965,
                            43.423967481000034
                        ],
                        [
                            -8.161584257999948,
                            43.40491736000007
                        ],
                        [
                            -8.205343961999972,
                            43.40912854700008
                        ],
                        [
                            -8.22143804999996,
                            43.391835928000035
                        ],
                        [
                            -8.205357074999938,
                            43.36154937800006
                        ],
                        [
                            -8.220358013999942,
                            43.35361635700008
                        ],
                        [
                            -8.203053116999968,
                            43.339144945000044
                        ],
                        [
                            -8.213888048999934,
                            43.339164019000066
                        ],
                        [
                            -8.202367305999928,
                            43.32154023700008
                        ],
                        [
                            -8.216689704999965,
                            43.29135131900006
                        ],
                        [
                            -8.21002137599993,
                            43.32676517900006
                        ],
                        [
                            -8.306216358999961,
                            43.405446648000066
                        ],
                        [
                            -8.355019926999944,
                            43.389842749000024
                        ],
                        [
                            -8.337651967999932,
                            43.37795937100003
                        ],
                        [
                            -8.347518443999945,
                            43.34796762500008
                        ],
                        [
                            -8.383249878999948,
                            43.33999025900005
                        ],
                        [
                            -8.359853743999963,
                            43.31612062500005
                        ],
                        [
                            -8.386609911999926,
                            43.33645486800003
                        ],
                        [
                            -8.378814339999963,
                            43.35712683200006
                        ],
                        [
                            -8.40245854899996,
                            43.36097681500007
                        ],
                        [
                            -8.384873747999961,
                            43.368252754000025
                        ],
                        [
                            -8.399752020999927,
                            43.390312910000034
                        ],
                        [
                            -8.408625602999962,
                            43.368797302000075
                        ],
                        [
                            -8.438044666999929,
                            43.38224661400005
                        ],
                        [
                            -8.457222699999932,
                            43.36049103800008
                        ],
                        [
                            -8.491699337999933,
                            43.361056208000036
                        ],
                        [
                            -8.506093143999976,
                            43.328031063000026
                        ],
                        [
                            -8.53292691699994,
                            43.31516814300005
                        ],
                        [
                            -8.606981038999947,
                            43.323318243000074
                        ],
                        [
                            -8.712886452999953,
                            43.289532423000026
                        ],
                        [
                            -8.786578535999979,
                            43.30472576600005
                        ],
                        [
                            -8.839040874999966,
                            43.34590923700006
                        ],
                        [
                            -8.84518825999993,
                            43.32007062400004
                        ],
                        [
                            -8.909840464999945,
                            43.32198035700003
                        ],
                        [
                            -8.907299756999976,
                            43.29331636400008
                        ],
                        [
                            -8.929006933999972,
                            43.283213258000046
                        ],
                        [
                            -8.95198011399998,
                            43.29460585100003
                        ],
                        [
                            -8.991698979999967,
                            43.27530050300004
                        ],
                        [
                            -8.951820849999933,
                            43.26291143900005
                        ],
                        [
                            -8.940374970999926,
                            43.22324252200008
                        ],
                        [
                            -8.921635031999926,
                            43.242586852000045
                        ],
                        [
                            -8.91255724499996,
                            43.242486358000065
                        ],
                        [
                            -8.930940508999981,
                            43.22046124900004
                        ],
                        [
                            -8.980818747999933,
                            43.229266524000025
                        ],
                        [
                            -8.997671365999963,
                            43.215680837000036
                        ],
                        [
                            -9.011452912999971,
                            43.232931852000036
                        ],
                        [
                            -9.060151576999942,
                            43.18329942200006
                        ],
                        [
                            -9.091443419999962,
                            43.17977571500006
                        ],
                        [
                            -9.086236715999974,
                            43.18915271800006
                        ],
                        [
                            -9.136925934999965,
                            43.20177090200008
                        ],
                        [
                            -9.158896445999972,
                            43.18277704700006
                        ],
                        [
                            -9.174329876999934,
                            43.19128715900007
                        ],
                        [
                            -9.185704230999931,
                            43.162836552000044
                        ],
                        [
                            -9.214095354999927,
                            43.16384291600008
                        ],
                        [
                            -9.204795002999958,
                            43.128998041000045
                        ],
                        [
                            -9.182883143999959,
                            43.123348356000065
                        ],
                        [
                            -9.165671347999933,
                            43.15036904800007
                        ],
                        [
                            -9.165771961999951,
                            43.128401876000055
                        ],
                        [
                            -9.132287739999981,
                            43.133232116000045
                        ],
                        [
                            -9.159394740999971,
                            43.12629556600007
                        ],
                        [
                            -9.188048719999927,
                            43.08938670200007
                        ],
                        [
                            -9.217533945999946,
                            43.11315441200003
                        ],
                        [
                            -9.220898746999978,
                            43.08785760400008
                        ],
                        [
                            -9.256536125999958,
                            43.09189224200003
                        ],
                        [
                            -9.250287174999926,
                            43.07213377900007
                        ],
                        [
                            -9.272349834999943,
                            43.04484736900008
                        ],
                        [
                            -9.299975275999941,
                            43.05655145600008
                        ],
                        [
                            -9.279018640999936,
                            43.01231622700004
                        ],
                        [
                            -9.251971840999943,
                            43.00263130700006
                        ],
                        [
                            -9.29787743099996,
                            42.92149937200003
                        ],
                        [
                            -9.274281143999929,
                            42.91009843300003
                        ],
                        [
                            -9.281844257999978,
                            42.88993287100004
                        ],
                        [
                            -9.269352912999977,
                            42.87998294800008
                        ],
                        [
                            -9.262854575999938,
                            42.91941475800007
                        ],
                        [
                            -9.233373641999947,
                            42.92650103600005
                        ],
                        [
                            -9.231965541999955,
                            42.94139897800005
                        ],
                        [
                            -9.219152330999975,
                            42.94293963900003
                        ],
                        [
                            -9.208253501999934,
                            42.915826320000065
                        ],
                        [
                            -9.18353557599994,
                            42.91584217500008
                        ],
                        [
                            -9.189464568999938,
                            42.95234012600008
                        ],
                        [
                            -9.162338852999937,
                            42.91202271000003
                        ],
                        [
                            -9.127722978999941,
                            42.906913161000034
                        ],
                        [
                            -9.151300667999976,
                            42.86927366300006
                        ],
                        [
                            -9.136295556999926,
                            42.84614193400006
                        ],
                        [
                            -9.109900831999937,
                            42.84008824800003
                        ],
                        [
                            -9.107961057999944,
                            42.82019031100003
                        ],
                        [
                            -9.153323411999963,
                            42.80151426800006
                        ],
                        [
                            -9.09106862599998,
                            42.73674154200006
                        ],
                        [
                            -9.047855019999929,
                            42.769385457000055
                        ],
                        [
                            -9.062929510999936,
                            42.78645467800004
                        ],
                        [
                            -9.01809334799998,
                            42.80269730100008
                        ],
                        [
                            -9.015472649999936,
                            42.78265667000005
                        ],
                        [
                            -8.981590747999974,
                            42.77863514400008
                        ],
                        [
                            -8.979838847999929,
                            42.794434667000075
                        ],
                        [
                            -8.959436058999927,
                            42.77933454500004
                        ],
                        [
                            -8.934309363999944,
                            42.80505263800006
                        ],
                        [
                            -8.907176732999972,
                            42.803029657000025
                        ],
                        [
                            -8.904772758999968,
                            42.82815015300008
                        ],
                        [
                            -8.886579155999925,
                            42.81621575300005
                        ],
                        [
                            -8.87953555599995,
                            42.82726693200004
                        ],
                        [
                            -8.869707345999927,
                            42.82857227300008
                        ],
                        [
                            -8.879058718999943,
                            42.81613492900004
                        ],
                        [
                            -8.896110057999977,
                            42.81442093800007
                        ],
                        [
                            -8.89142632499994,
                            42.781007171000056
                        ],
                        [
                            -8.928734302999942,
                            42.78359544300008
                        ],
                        [
                            -8.956024407999962,
                            42.74634385100006
                        ],
                        [
                            -8.98935174899998,
                            42.74126863500004
                        ],
                        [
                            -9.03409206799995,
                            42.69517517100007
                        ],
                        [
                            -9.040150642999947,
                            42.64165401500003
                        ],
                        [
                            -9.09240841899998,
                            42.57516086100003
                        ],
                        [
                            -9.073718308999958,
                            42.56485545600003
                        ],
                        [
                            -9.058902621999948,
                            42.57685077200006
                        ],
                        [
                            -9.035188077999976,
                            42.55896973600005
                        ],
                        [
                            -9.048297404999971,
                            42.517020106000075
                        ],
                        [
                            -9.006379961999926,
                            42.51350605500005
                        ],
                        [
                            -9.009238599999946,
                            42.52665472100006
                        ],
                        [
                            -8.983091711999975,
                            42.54398155200005
                        ],
                        [
                            -8.990396737999959,
                            42.563559174000034
                        ],
                        [
                            -8.920573352999952,
                            42.58655512300004
                        ],
                        [
                            -8.936693548999926,
                            42.60735297200006
                        ],
                        [
                            -8.900329351999972,
                            42.64313912400007
                        ],
                        [
                            -8.873583912999948,
                            42.63239204900003
                        ],
                        [
                            -8.887638806999973,
                            42.61989104700007
                        ],
                        [
                            -8.887483953999947,
                            42.61014366200004
                        ],
                        [
                            -8.857001423999975,
                            42.60616040200006
                        ],
                        [
                            -8.855833410999935,
                            42.629585743000064
                        ],
                        [
                            -8.83789801599994,
                            42.63219320800005
                        ],
                        [
                            -8.860924362999981,
                            42.64665067200008
                        ],
                        [
                            -8.83983862399998,
                            42.66169297700003
                        ],
                        [
                            -8.841765879999969,
                            42.68612086700006
                        ],
                        [
                            -8.815474152999968,
                            42.66417884800006
                        ],
                        [
                            -8.824292063999962,
                            42.64613604500005
                        ],
                        [
                            -8.795135139999957,
                            42.63675463200008
                        ],
                        [
                            -8.746443747999933,
                            42.65103936200006
                        ],
                        [
                            -8.72119867799995,
                            42.706159472000024
                        ],
                        [
                            -8.686406254999952,
                            42.71069872400005
                        ],
                        [
                            -8.724068164999949,
                            42.69946587100003
                        ],
                        [
                            -8.728783368999927,
                            42.66628861400005
                        ],
                        [
                            -8.776278852999951,
                            42.617041707000055
                        ],
                        [
                            -8.771473526999955,
                            42.59357547800005
                        ],
                        [
                            -8.829725741999937,
                            42.57519972400007
                        ],
                        [
                            -8.819056272999944,
                            42.559926749000056
                        ],
                        [
                            -8.836314558999959,
                            42.55355823000008
                        ],
                        [
                            -8.829268812999942,
                            42.51970112300006
                        ],
                        [
                            -8.81517112299997,
                            42.524686932000066
                        ],
                        [
                            -8.819559573999982,
                            42.50745940200005
                        ],
                        [
                            -8.805741547999958,
                            42.50016605900004
                        ],
                        [
                            -8.830794333999961,
                            42.48462235900007
                        ],
                        [
                            -8.820875047999948,
                            42.45244824800005
                        ],
                        [
                            -8.848378538999953,
                            42.45970201500006
                        ],
                        [
                            -8.868700026999932,
                            42.44741392100008
                        ],
                        [
                            -8.855606674999933,
                            42.471875071000056
                        ],
                        [
                            -8.85810577899997,
                            42.49750375800005
                        ],
                        [
                            -8.871294855999963,
                            42.500754476000054
                        ],
                        [
                            -8.90630257099997,
                            42.47536456600005
                        ],
                        [
                            -8.940459847999932,
                            42.47661304400003
                        ],
                        [
                            -8.928982614999939,
                            42.448981643000025
                        ],
                        [
                            -8.91253173399997,
                            42.46285367000007
                        ],
                        [
                            -8.882112025999959,
                            42.45523095100003
                        ],
                        [
                            -8.870701908999933,
                            42.43452906600004
                        ],
                        [
                            -8.88156521299993,
                            42.414848447000054
                        ],
                        [
                            -8.838875412999926,
                            42.38406765500008
                        ],
                        [
                            -8.814148544999966,
                            42.40116584300006
                        ],
                        [
                            -8.774155020999956,
                            42.38774371200003
                        ],
                        [
                            -8.695013641999935,
                            42.43690002000005
                        ],
                        [
                            -8.674451708999982,
                            42.42083346900006
                        ],
                        [
                            -8.651630400999977,
                            42.43443322200005
                        ],
                        [
                            -8.736800670999969,
                            42.375459910000075
                        ],
                        [
                            -8.754947542999957,
                            42.340420246000065
                        ],
                        [
                            -8.789062499999943,
                            42.327008844000034
                        ],
                        [
                            -8.83703434499995,
                            42.34037780700004
                        ],
                        [
                            -8.816540121999935,
                            42.278878331000044
                        ],
                        [
                            -8.857433914999945,
                            42.30902946000003
                        ],
                        [
                            -8.872668146999956,
                            42.24953293800007
                        ],
                        [
                            -8.814464449999946,
                            42.26160764700006
                        ],
                        [
                            -8.79246926299993,
                            42.24611795000004
                        ],
                        [
                            -8.731705903999966,
                            42.286533236000025
                        ],
                        [
                            -8.690728425999964,
                            42.27962315000008
                        ],
                        [
                            -8.652456640999958,
                            42.29727184700005
                        ],
                        [
                            -8.66155731699996,
                            42.31207513800007
                        ],
                        [
                            -8.636245846999941,
                            42.32612586000005
                        ],
                        [
                            -8.632061719999967,
                            42.35365033100004
                        ],
                        [
                            -8.589537770999925,
                            42.34690030000007
                        ]
                    ]
                ],
                "type": "Polygon"
            }
        }
    ]
}