{
    "type": "FeatureCollection",
    "name": "Zamoren",
    "features": [
        {
            "type": "Feature",
            "properties": {
                "diocese": "Zamoren",
                "province": "Compostellan",
                "date": 1592
            },
            "geometry": {
                "type": "MultiPolygon",
                "coordinates": [
                    [
                        [
                            [
                                -5.107929370999955,
                                41.471719266000036
                            ],
                            [
                                -5.121239435999939,
                                41.451770195000051
                            ],
                            [
                                -5.204902699999934,
                                41.453729751000026
                            ],
                            [
                                -5.30574,
                                41.318934
                            ],
                            [
                                -5.293543,
                                41.226246
                            ],
                            [
                                -5.340188,
                                41.194099
                            ],
                            [
                                -5.3324,
                                41.178261
                            ],
                            [
                                -5.288636,
                                41.181985
                            ],
                            [
                                -5.296217,
                                41.129396
                            ],
                            [
                                -5.315939,
                                41.119093
                            ],
                            [
                                -5.357258630999979,
                                41.140670241000066
                            ],
                            [
                                -5.386853,
                                41.135848
                            ],
                            [
                                -5.417993,
                                41.187654
                            ],
                            [
                                -5.476765,
                                41.178316
                            ],
                            [
                                -5.469717,
                                41.157941
                            ],
                            [
                                -5.484227,
                                41.145497
                            ],
                            [
                                -5.485142,
                                41.178847
                            ],
                            [
                                -5.564954,
                                41.217032
                            ],
                            [
                                -5.587817,
                                41.202434
                            ],
                            [
                                -5.628212,
                                41.214452
                            ],
                            [
                                -5.662678,
                                41.245803
                            ],
                            [
                                -5.716686899999956,
                                41.230808674000059
                            ],
                            [
                                -5.713030266999965,
                                41.176550253000073
                            ],
                            [
                                -5.780531308999969,
                                41.13360070300007
                            ],
                            [
                                -5.834722286999977,
                                41.130020304000027
                            ],
                            [
                                -5.888913264999928,
                                41.171183098000029
                            ],
                            [
                                -6.07192665499997,
                                41.143266805000053
                            ],
                            [
                                -6.143434,
                                41.197783
                            ],
                            [
                                -6.268042,
                                41.255605
                            ],
                            [
                                -6.372146,
                                41.286298
                            ],
                            [
                                -6.414601,
                                41.275977
                            ],
                            [
                                -6.480979806700579,
                                41.2926439460485
                            ],
                            [
                                -6.438434,
                                41.305303
                            ],
                            [
                                -6.416353170999969,
                                41.345998205000058
                            ],
                            [
                                -6.380344,
                                41.355708
                            ],
                            [
                                -6.389727,
                                41.384683
                            ],
                            [
                                -6.318583,
                                41.386556
                            ],
                            [
                                -6.333053,
                                41.410758
                            ],
                            [
                                -6.300219,
                                41.429108
                            ],
                            [
                                -6.306315,
                                41.44911
                            ],
                            [
                                -6.251657,
                                41.499948
                            ],
                            [
                                -6.258394,
                                41.513428
                            ],
                            [
                                -6.190209,
                                41.574884
                            ],
                            [
                                -6.303047,
                                41.661491
                            ],
                            [
                                -6.442211,
                                41.685053
                            ],
                            [
                                -6.458161,
                                41.665993
                            ],
                            [
                                -6.500621,
                                41.656996
                            ],
                            [
                                -6.545296,
                                41.681783
                            ],
                            [
                                -6.549064,
                                41.725758
                            ],
                            [
                                -6.567253998999945,
                                41.74647
                            ],
                            [
                                -6.516390005999938,
                                41.871732703000077
                            ],
                            [
                                -6.570715,
                                41.883593
                            ],
                            [
                                -6.549855,
                                41.94515
                            ],
                            [
                                -6.549855,
                                41.94515
                            ],
                            [
                                -6.549265,
                                41.922556
                            ],
                            [
                                -6.408881243999929,
                                41.927005134000069
                            ],
                            [
                                -6.273403798999936,
                                41.862516972000037
                            ],
                            [
                                -6.159674049999978,
                                41.835694096000054
                            ],
                            [
                                -6.151117578999958,
                                41.813643116000037
                            ],
                            [
                                -6.085161454999934,
                                41.766327457000045
                            ],
                            [
                                -6.002092389999973,
                                41.740528380000057
                            ],
                            [
                                -5.815632643999948,
                                41.79344519700004
                            ],
                            [
                                -5.782832840999959,
                                41.851098707000062
                            ],
                            [
                                -5.697268139999949,
                                41.832506472000034
                            ],
                            [
                                -5.662685738999926,
                                41.764200090000031
                            ],
                            [
                                -5.60778172199997,
                                41.755423958000051
                            ],
                            [
                                -5.569990644999962,
                                41.768720660000042
                            ],
                            [
                                -5.549219818449663,
                                41.839965605500794
                            ],
                            [
                                -5.548955988999978,
                                41.815768843000058
                            ],
                            [
                                -5.437721876999944,
                                41.833834668000065
                            ],
                            [
                                -5.270514188999925,
                                41.781748755000081
                            ],
                            [
                                -5.234505709999951,
                                41.740262356000073
                            ],
                            [
                                -5.215598287999967,
                                41.672470196000063
                            ],
                            [
                                -5.159030511999958,
                                41.626116437000064
                            ],
                            [
                                -5.149523322999926,
                                41.582751727000073
                            ],
                            [
                                -5.102462736999939,
                                41.575639978000027
                            ],
                            [
                                -5.073228130999951,
                                41.531707578000066
                            ],
                            [
                                -5.026880583999969,
                                41.512488888000064
                            ],
                            [
                                -4.999219333999974,
                                41.476123192000045
                            ],
                            [
                                -5.020463230999951,
                                41.494866741000067
                            ],
                            [
                                -5.107929370999955,
                                41.471719266000036
                            ]
                        ]
                    ],
                    [
                        [
                            [
                                -6.479499,
                                41.274323
                            ],
                            [
                                -6.487168119999978,
                                41.29080267900008
                            ],
                            [
                                -6.483043388019317,
                                41.292029949293635
                            ],
                            [
                                -6.479499,
                                41.274323
                            ]
                        ]
                    ],
                    [
                        [
                            [
                                -6.510028,
                                41.263854
                            ],
                            [
                                -6.52342,
                                41.275092
                            ],
                            [
                                -6.501893098175787,
                                41.266643619286533
                            ],
                            [
                                -6.510028,
                                41.263854
                            ]
                        ]
                    ]
                ]
            }
        }
    ]
}