{
  "type": "FeatureCollection",
  "features": [
    {
      "type": "Feature",
      "properties": {
                "diocese": "Ariminen",
                "province": "Ravennaten",
                "date": 1592
            },
      "geometry": {
        "type": "Polygon",
        "coordinates": [
          [
            [
              12.256490463114245,
              44.02015290935419
            ],
            [
              12.28124312400007,
              44.01059588900006
            ],
            [
              12.288198764305392,
              43.989611979694644
            ],
            [
              12.330390468000076,
              43.944276374000026
            ],
            [
              12.36693372600007,
              43.96523646800006
            ],
            [
              12.419223266000074,
              43.95304629200007
            ],
            [
              12.463194015000056,
              43.972292795000044
            ],
            [
              12.494983679000029,
              43.91581870700003
            ],
            [
              12.539845728000046,
              43.89419890200003
            ],
            [
              12.525287844000047,
              43.84750760900005
            ],
            [
              12.533012435000046,
              43.811929158000055
            ],
            [
              12.68085323500003,
              43.83067354700006
            ],
            [
              12.67758513900003,
              43.84974538900008
            ],
            [
              12.731485139000029,
              43.86942288500006
            ],
            [
              12.726541401000077,
              43.91217608100004
            ],
            [
              12.755918615000041,
              43.96181072100006
            ],
            [
              12.668441622000046,
              43.99887500400007
            ],
            [
              12.44299626000003,
              44.168487818000074
            ],
            [
              12.293685856000025,
              44.09159962900003
            ],
            [
              12.28655546400006,
              44.07179414900003
            ],
            [
              12.249002067000049,
              44.05266532700006
            ],
            [
              12.256490463114245,
              44.02015290935419
            ]
          ]
        ]
      }
    }
  ]
}