{
  "type": "FeatureCollection",
  "features": [
    {
      "type": "Feature",
      "properties": {
                "diocese": "Sarsinaten",
                "province": "Ravennaten",
                "date": 1592
            },
      "geometry": {
        "type": "Polygon",
        "coordinates": [
          [
            [
              11.985583461000033,
              43.76246620400008
            ],
            [
              12.073078503000033,
              43.740274860000056
            ],
            [
              12.109645421000039,
              43.75487368600005
            ],
            [
              12.096573036000052,
              43.78126324700003
            ],
            [
              12.147079978000022,
              43.829721035000034
            ],
            [
              12.144406081000056,
              43.86271842300005
            ],
            [
              12.173521847000075,
              43.901263663000066
            ],
            [
              12.219869394000057,
              43.92116893200006
            ],
            [
              12.241260570000065,
              43.99730392600003
            ],
            [
              12.288202316000024,
              43.98960931600004
            ],
            [
              12.28124312400007,
              44.01059588900006
            ],
            [
              12.195678422000071,
              44.04368101800003
            ],
            [
              12.130877162892602,
              44.029839602800756
            ],
            [
              12.09424314541601,
              44.01723168068359
            ],
            [
              12.016219626000066,
              44.03332633400004
            ],
            [
              12.017075273000046,
              43.97691028700007
            ],
            [
              11.991263254000046,
              43.92783603700008
            ],
            [
              11.963739942000075,
              43.923932998000055
            ],
            [
              11.956419406000066,
              43.881051194000065
            ],
            [
              11.910666059000418,
              43.813772156999434
            ],
            [
              11.918943162000062,
              43.79466553100008
            ],
            [
              11.985583461000033,
              43.76246620400008
            ]
          ]
        ]
      }
    }
  ]
}