{
  "type": "FeatureCollection",
  "features": [
    {
      "type": "Feature",
      "properties": {
        "diocese": "Hispalen",
        "province": "Hispalen",
        "start": 1582,
        "end": 1671
      },
      "geometry": {
        "coordinates": [
          [
            [
              -5.6220790789999455,
              38.13681608200005
            ],
            [
              -5.693506999999954,
              38.08375600000005
            ],
            [
              -5.719444999999951,
              38.085087000000044
            ],
            [
              -5.742485647999956,
              38.01044180300005
            ],
            [
              -5.939531999999929,
              38.01979600000004
            ],
            [
              -5.953561997999941,
              37.995361754000044
            ],
            [
              -6.115965782999979,
              37.981499134000046
            ],
            [
              -6.180110999999954,
              37.941040000000044
            ],
            [
              -6.201388999999949,
              37.962076000000025
            ],
            [
              -6.30356299999994,
              37.978256000000044
            ],
            [
              -6.353055049999966,
              38.00831410300003
            ],
            [
              -6.367439999999931,
              38.048928000000046
            ],
            [
              -6.41409699999997,
              38.05857200000003
            ],
            [
              -6.452633999999932,
              38.05596700000007
            ],
            [
              -6.443802999999946,
              38.046966000000054
            ],
            [
              -6.476432999999929,
              38.00784500000003
            ],
            [
              -6.545566999999949,
              38.028129000000035
            ],
            [
              -6.582201999999938,
              38.02085500000004
            ],
            [
              -6.580398999999943,
              38.052782000000036
            ],
            [
              -6.622298999999941,
              38.09701300000006
            ],
            [
              -6.758090999999979,
              38.09271800000005
            ],
            [
              -6.769928999999934,
              38.11212000000006
            ],
            [
              -6.8156889999999635,
              38.12014400000004
            ],
            [
              -6.795220805999975,
              38.17840810100006
            ],
            [
              -6.854204900999946,
              38.17881719300004
            ],
            [
              -6.932156323999948,
              38.20800979300003
            ],
            [
              -6.969324999999969,
              38.166281000000026
            ],
            [
              -6.952167999999972,
              38.15271500000006
            ],
            [
              -6.988124999999968,
              38.10190800000004
            ],
            [
              -7.002211999999929,
              38.022591000000034
            ],
            [
              -7.045366999999942,
              38.01419100000004
            ],
            [
              -7.098723999999947,
              38.04401400000006
            ],
            [
              -7.128426612999931,
              38.02951755500004
            ],
            [
              -7.120907999999929,
              38.004090000000076
            ],
            [
              -7.173557999999957,
              37.99271100000004
            ],
            [
              -7.2020752379999635,
              38.003061700000046
            ],
            [
              -7.263240999999937,
              37.97939400000007
            ],
            [
              -7.248352999999952,
              37.95455400000003
            ],
            [
              -7.283407999999952,
              37.86909600000007
            ],
            [
              -7.321886999999947,
              37.81791500000003
            ],
            [
              -7.42136811499995,
              37.75866819300006
            ],
            [
              -7.447642999999971,
              37.697204000000056
            ],
            [
              -7.444298999999944,
              37.66457200000008
            ],
            [
              -7.488464999999962,
              37.604539000000045
            ],
            [
              -7.501541999999972,
              37.60544700000003
            ],
            [
              -7.506931216999931,
              37.55727944500006
            ],
            [
              -7.521854099999928,
              37.551788878000025
            ],
            [
              -7.511991770999941,
              37.52553835900005
            ],
            [
              -7.463825999999926,
              37.486267000000055
            ],
            [
              -7.445699999999931,
              37.41903200000007
            ],
            [
              -7.462636999999972,
              37.40859000000006
            ],
            [
              -7.439673999999968,
              37.388468000000046
            ],
            [
              -7.44219099999998,
              37.31199300000003
            ],
            [
              -7.4217219999999315,
              37.27314400000006
            ],
            [
              -7.433191999999963,
              37.24786000000006
            ],
            [
              -7.406966999999952,
              37.18410600000004
            ],
            [
              -7.364920999999981,
              37.171696000000054
            ],
            [
              -7.28468799999996,
              37.20064800000006
            ],
            [
              -7.047251999999958,
              37.20805800000005
            ],
            [
              -6.79053399999998,
              37.11912700000005
            ],
            [
              -6.592249999999979,
              37.02052200000003
            ],
            [
              -6.465394999999944,
              36.92723700000005
            ],
            [
              -6.397036999999955,
              36.80729000000008
            ],
            [
              -6.3425099999999475,
              36.79442700000004
            ],
            [
              -6.4425189999999475,
              36.73826100000008
            ],
            [
              -6.394765999999947,
              36.63463800000005
            ],
            [
              -6.358961999999963,
              36.614678000000026
            ],
            [
              -6.345025999999962,
              36.625837999000055
            ],
            [
              -6.299657999999965,
              36.61787799900003
            ],
            [
              -6.26577199999997,
              36.57985000000008
            ],
            [
              -6.231174999999951,
              36.58155100000005
            ],
            [
              -6.225573999999938,
              36.55229200000008
            ],
            [
              -6.059468892999973,
              36.60132005600008
            ],
            [
              -5.964634681999939,
              36.58414522900006
            ],
            [
              -5.921852330999968,
              36.55436647500005
            ],
            [
              -5.825592040999936,
              36.574411130000044
            ],
            [
              -5.767835866999974,
              36.48502917700006
            ],
            [
              -5.606096999999977,
              36.52529500000003
            ],
            [
              -5.611626999999942,
              36.54163100000005
            ],
            [
              -5.59653308399993,
              36.55086400400006
            ],
            [
              -5.523174999999981,
              36.531153000000074
            ],
            [
              -5.4606679999999415,
              36.588816000000065
            ],
            [
              -5.455765999999926,
              36.61961300000007
            ],
            [
              -5.531061179999938,
              36.66226701900007
            ],
            [
              -5.531821754999953,
              36.72526936700007
            ],
            [
              -5.544299940999963,
              36.73755583700006
            ],
            [
              -5.529326117999972,
              36.78325566400008
            ],
            [
              -5.479413374999979,
              36.80666627100004
            ],
            [
              -5.340570999999954,
              36.819447000000025
            ],
            [
              -5.301441999999952,
              36.869669000000044
            ],
            [
              -5.2151729379999665,
              36.89828731700004
            ],
            [
              -5.183323854999969,
              36.93990197100004
            ],
            [
              -5.095441275999974,
              36.96832204100008
            ],
            [
              -5.1439446549999275,
              37.00183481200003
            ],
            [
              -5.122780703999979,
              37.02749136400007
            ],
            [
              -5.052951999999948,
              37.03063100000003
            ],
            [
              -4.922482999999943,
              37.103252000000055
            ],
            [
              -4.9031759999999736,
              37.13881300000003
            ],
            [
              -4.942528999999979,
              37.15761400000008
            ],
            [
              -4.939467999999977,
              37.175726000000054
            ],
            [
              -4.904976999999974,
              37.181891000000064
            ],
            [
              -4.897482999999966,
              37.15605500000004
            ],
            [
              -4.875364999999931,
              37.15821900000003
            ],
            [
              -4.843855117999965,
              37.21092507600008
            ],
            [
              -4.882359233999978,
              37.26088151000005
            ],
            [
              -5.00024837899997,
              37.238178144000074
            ],
            [
              -4.9900933329999475,
              37.336380176000034
            ],
            [
              -4.919062745999952,
              37.36756898100003
            ],
            [
              -4.836171940999975,
              37.34111861000008
            ],
            [
              -4.812949983999943,
              37.352640923000024
            ],
            [
              -4.814555999999925,
              37.37756100000007
            ],
            [
              -4.849679999999978,
              37.41068800000005
            ],
            [
              -4.8405049999999505,
              37.43604800000003
            ],
            [
              -4.884609999999952,
              37.438011000000074
            ],
            [
              -4.875211999999976,
              37.450481000000025
            ],
            [
              -4.903958999999929,
              37.46743300000003
            ],
            [
              -4.904338999999936,
              37.48951600000004
            ],
            [
              -4.915071999999952,
              37.48418700000008
            ],
            [
              -4.90589099999994,
              37.49986400000006
            ],
            [
              -4.948805999999934,
              37.52197300000006
            ],
            [
              -4.931896999999935,
              37.54593500000004
            ],
            [
              -4.93157999999994,
              37.61735200000004
            ],
            [
              -4.974154999999939,
              37.600182000000075
            ],
            [
              -4.953640999999948,
              37.65246900000005
            ],
            [
              -4.999695999999972,
              37.706615000000056
            ],
            [
              -5.047102999999936,
              37.718319000000065
            ],
            [
              -5.072456999999929,
              37.707719000000054
            ],
            [
              -5.091379999999958,
              37.67997200000008
            ],
            [
              -5.076308999999981,
              37.66892800000005
            ],
            [
              -5.076678999999956,
              37.664686000000074
            ],
            [
              -5.069888999999932,
              37.66185900000005
            ],
            [
              -5.069751999999937,
              37.65937400000007
            ],
            [
              -5.097752999999955,
              37.67031500000007
            ],
            [
              -5.108486999999968,
              37.70069100000006
            ],
            [
              -5.129584999999963,
              37.69877100000008
            ],
            [
              -5.107794999999953,
              37.66260200000005
            ],
            [
              -5.149927999999932,
              37.66094000000004
            ],
            [
              -5.176641999999958,
              37.68060000000003
            ],
            [
              -5.35774755999995,
              37.58512226500005
            ],
            [
              -5.3598049999999375,
              37.60547100000008
            ],
            [
              -5.413887999999929,
              37.64529700000003
            ],
            [
              -5.393528999999944,
              37.65537200000006
            ],
            [
              -5.410168999999939,
              37.660656000000074
            ],
            [
              -5.412255999999957,
              37.682394000000045
            ],
            [
              -5.387755352999932,
              37.697400198000025
            ],
            [
              -5.376215999999943,
              37.677584000000024
            ],
            [
              -5.344709999999964,
              37.705366000000026
            ],
            [
              -5.326972999999953,
              37.69164200000006
            ],
            [
              -5.307476999999949,
              37.699261000000035
            ],
            [
              -5.30990036999998,
              37.77365309600003
            ],
            [
              -5.3499179999999456,
              37.79473500000006
            ],
            [
              -5.344385999999929,
              37.83989200000008
            ],
            [
              -5.414582999999936,
              37.86948000000007
            ],
            [
              -5.415486999999928,
              37.94369300000005
            ],
            [
              -5.493319747999976,
              37.996593637000046
            ],
            [
              -5.489844999999946,
              38.033574000000044
            ],
            [
              -5.538657999999941,
              38.09382900000003
            ],
            [
              -5.581560586999956,
              38.11549073700007
            ],
            [
              -5.584664999999973,
              38.13172300000008
            ],
            [
              -5.6220790789999455,
              38.13681608200005
            ]
          ],
          [
            [
              -6.351976999999977,
              36.861334000000056
            ],
            [
              -6.349959869999964,
              36.86953958300006
            ],
            [
              -6.3520986879999555,
              36.86021858000004
            ],
            [
              -6.351976999999977,
              36.861334000000056
            ]
          ],
          [
            [
              -6.351656999999932,
              36.82528400000007
            ],
            [
              -6.352738999999929,
              36.82925400000005
            ],
            [
              -6.353729999999928,
              36.84526400000004
            ],
            [
              -6.343712338999978,
              36.81302058700004
            ],
            [
              -6.351656999999932,
              36.82528400000007
            ]
          ]
        ],
        "type": "Polygon"
      }
    },
    {
      "type": "Feature",
      "properties": {
        "diocese": "Canarien",
        "province": "Hispalen",
        "start": 1582,
        "end": 1671
      },
      "geometry": {
        "type": "MultiPolygon",
        "coordinates": [
          [
            [
              [
                -18.15803780678608,
                27.710980590421773
              ],
              [
                -18.049149514830805,
                27.696875749579252
              ],
              [
                -17.983620931947318,
                27.634026457568137
              ],
              [
                -17.87816664201385,
                27.82471468387774
              ],
              [
                -17.94452836884757,
                27.85444592566089
              ],
              [
                -18.035058514973556,
                27.761458273522223
              ],
              [
                -18.148699349811487,
                27.764984168381964
              ],
              [
                -18.15803780678608,
                27.710980590421773
              ]
            ]
          ],
          [
            [
              [
                -18.01313923180752,
                28.77389009407542
              ],
              [
                -17.84642967137579,
                28.448310945707803
              ],
              [
                -17.744288452135642,
                28.595634690745122
              ],
              [
                -17.76250899247604,
                28.83881852242394
              ],
              [
                -17.928142646767917,
                28.849760418219436
              ],
              [
                -18.01313923180752,
                28.77389009407542
              ]
            ]
          ],
          [
            [
              [
                -17.34744321122713,
                28.092625266284493
              ],
              [
                -17.239006831920065,
                28.017663944622612
              ],
              [
                -17.13851356032776,
                28.057475365614025
              ],
              [
                -17.097494498320625,
                28.147923030489267
              ],
              [
                -17.272456310471842,
                28.219105837163262
              ],
              [
                -17.333089207555076,
                28.1890769602713
              ],
              [
                -17.34744321122713,
                28.092625266284493
              ]
            ]
          ],
          [
            [
              [
                -16.928288008937677,
                28.358551966366772
              ],
              [
                -16.690124367553764,
                27.997069533036107
              ],
              [
                -16.535302373619032,
                28.02962170239343
              ],
              [
                -16.355012123567242,
                28.32795176376149
              ],
              [
                -16.348624096441803,
                28.398377383745203
              ],
              [
                -16.11583463062293,
                28.545610610813668
              ],
              [
                -16.139374281891705,
                28.590466101546447
              ],
              [
                -16.34805999858098,
                28.56141933181627
              ],
              [
                -16.526162463686532,
                28.41050044127375
              ],
              [
                -16.928288008937677,
                28.358551966366772
              ]
            ]
          ],
          [
            [
              [
                -15.828311517584076,
                27.998837747603545
              ],
              [
                -15.833155382592068,
                27.91153138171024
              ],
              [
                -15.690003473898935,
                27.759471097967953
              ],
              [
                -15.566137324033654,
                27.739853153445566
              ],
              [
                -15.41556264072207,
                27.817540117556575
              ],
              [
                -15.363154712373095,
                28.003866977319806
              ],
              [
                -15.415405663615337,
                28.05713466863931
              ],
              [
                -15.404096174383957,
                28.178389600940154
              ],
              [
                -15.440012361093567,
                28.175346689025492
              ],
              [
                -15.445319156719945,
                28.125639603529553
              ],
              [
                -15.698108108767682,
                28.1672984510493
              ],
              [
                -15.710081888413784,
                28.07938249825675
              ],
              [
                -15.828311517584076,
                27.998837747603545
              ]
            ]
          ],
          [
            [
              [
                -14.01914389664166,
                28.70473053793474
              ],
              [
                -14.224984612537524,
                28.222686938007033
              ],
              [
                -14.353150055869074,
                28.12195043272465
              ],
              [
                -14.499957067175881,
                28.098641139461346
              ],
              [
                -14.321836201191312,
                28.0337762856544
              ],
              [
                -14.20983756130752,
                28.17501089611766
              ],
              [
                -13.911174521616857,
                28.236656918188462
              ],
              [
                -13.825838671418998,
                28.538168669671247
              ],
              [
                -13.869576092745971,
                28.766133754511454
              ],
              [
                -14.01914389664166,
                28.70473053793474
              ]
            ]
          ],
          [
            [
              [
                -13.894795658129208,
                28.868065616513498
              ],
              [
                -13.77299125890573,
                28.837400052900907
              ],
              [
                -13.721543363020375,
                28.91853511204233
              ],
              [
                -13.620089887492755,
                28.92440335584889
              ],
              [
                -13.454033323970915,
                29.024320541698444
              ],
              [
                -13.425916082042091,
                29.21841488031693
              ],
              [
                -13.486826206468374,
                29.22562162250002
              ],
              [
                -13.545596630973513,
                29.10562775034919
              ],
              [
                -13.607093191674474,
                29.141460671879013
              ],
              [
                -13.8404314304992,
                29.029573020261093
              ],
              [
                -13.835739940301426,
                28.922697021324435
              ],
              [
                -13.894795658129208,
                28.868065616513498
              ]
            ]
          ]
        ]
      }
    },
    {
      "type": "Feature",
      "properties": {
        "diocese": "Carthaginen",
        "province": "Hispalen",
        "start": 1582,
        "end": 1671
      },
      "geometry": {
        "type": "MultiPolygon",
        "coordinates": [
          [
            [
              [
                -0.76047147104446,
                37.94113589230161
              ],
              [
                -0.748122,
                37.79072100000011
              ],
              [
                -0.784613,
                37.819042
              ],
              [
                -0.797815,
                37.784938000000125
              ],
              [
                -0.859814239999939,
                37.722744792000114
              ],
              [
                -0.803298999999898,
                37.658239000000115
              ],
              [
                -0.726328038999909,
                37.63585800400007
              ],
              [
                -0.709302,
                37.62081000000012
              ],
              [
                -0.717886903999936,
                37.60693516000002
              ],
              [
                -0.819497,
                37.575255
              ],
              [
                -0.850785,
                37.587724
              ],
              [
                -0.919869,
                37.5546280000001
              ],
              [
                -0.967266516999906,
                37.559228965000024
              ],
              [
                -0.965607579999918,
                37.57415854300008
              ],
              [
                -0.986476582999953,
                37.58494798200007
              ],
              [
                -1.02375,
                37.573516
              ],
              [
                -1.073834282999951,
                37.58404724900002
              ],
              [
                -1.120310033999909,
                37.56215403300011
              ],
              [
                -1.110928,
                37.534352
              ],
              [
                -1.165274,
                37.541673
              ],
              [
                -1.200006,
                37.573292
              ],
              [
                -1.246244,
                37.576438
              ],
              [
                -1.266387563999909,
                37.55473000300005
              ],
              [
                -1.325379978999888,
                37.56244896200012
              ],
              [
                -1.46107368499993,
                37.48476748800012
              ],
              [
                -1.487487630999933,
                37.42229165400007
              ],
              [
                -1.518489558999945,
                37.43196089900013
              ],
              [
                -1.625564,
                37.37541200000015
              ],
              [
                -1.630657729999911,
                37.37508233100002
              ],
              [
                -1.73699,
                37.442676
              ],
              [
                -1.81167,
                37.451599
              ],
              [
                -1.808859,
                37.433517
              ],
              [
                -1.845174,
                37.454869
              ],
              [
                -1.976721,
                37.618768
              ],
              [
                -2.011727,
                37.672288
              ],
              [
                -1.995746,
                37.728087
              ],
              [
                -2.008749,
                37.774992
              ],
              [
                -1.995556,
                37.840277
              ],
              [
                -1.974413,
                37.868511
              ],
              [
                -1.994612,
                37.880519
              ],
              [
                -2.021674,
                37.86855300000011
              ],
              [
                -2.070326727999917,
                37.884529891000106
              ],
              [
                -2.084475,
                37.872366
              ],
              [
                -2.123105,
                37.90049100000011
              ],
              [
                -2.171949091999943,
                37.88877507800002
              ],
              [
                -2.247054999999897,
                37.934471
              ],
              [
                -2.319157873893309,
                37.9920108414502
              ],
              [
                -2.371295494769307,
                38.06855141446914
              ],
              [
                -2.28452034463206,
                38.15816091590245
              ],
              [
                -2.214015535145547,
                38.24766043289289
              ],
              [
                -2.110970044357566,
                38.27746914983517
              ],
              [
                -2.067582469288943,
                38.34555741973675
              ],
              [
                -1.991654212918851,
                38.320031810285144
              ],
              [
                -1.872338381480137,
                38.33704988231886
              ],
              [
                -1.736752209390689,
                38.42208028591712
              ],
              [
                -1.681220145374968,
                38.40396388082671
              ],
              [
                -1.649977059253442,
                38.3498108137652
              ],
              [
                -1.54628137929615,
                38.34895565659947
              ],
              [
                -1.436980978772307,
                38.42510975237124
              ],
              [
                -1.443727917076248,
                38.61092642089803
              ],
              [
                -1.40582771291783,
                38.63519651750438
              ],
              [
                -1.393423048050459,
                38.71589889223212
              ],
              [
                -1.318995058846232,
                38.76427663268794
              ],
              [
                -1.285915952533242,
                38.725577062000994
              ],
              [
                -1.170139080437777,
                38.790064692348416
              ],
              [
                -1.058497096631436,
                38.796510250231485
              ],
              [
                -1.02955287860757,
                38.74815436063416
              ],
              [
                -0.942720224535972,
                38.70299262711454
              ],
              [
                -0.926180671379477,
                38.593195331899544
              ],
              [
                -0.934450447957724,
                38.53499925516046
              ],
              [
                -1.019990297430211,
                38.474951308541826
              ],
              [
                -0.989458670796593,
                38.38526082514757
              ],
              [
                -0.878781524249729,
                38.337380361695985
              ],
              [
                -0.905496697554145,
                38.2235373840442
              ],
              [
                -0.958927044162976,
                38.17555010798141
              ],
              [
                -0.936028324187762,
                38.09449988480681
              ],
              [
                -0.76047147104446,
                37.94113589230161
              ]
            ],
            [
              [
                -1.267008034999929,
                37.55836906400006
              ],
              [
                -1.265715944999905,
                37.55663756000014
              ],
              [
                -1.266406541999975,
                37.558064274000095
              ],
              [
                -1.267008034999929,
                37.55836906400006
              ]
            ]
          ],
          [
            [
              [
                -0.708262800999914,
                37.622133957000095
              ],
              [
                -0.705562558999924,
                37.624263866000035
              ],
              [
                -0.705578918999933,
                37.62257533100009
              ],
              [
                -0.706709162999925,
                37.62198046500011
              ],
              [
                -0.708262800999914,
                37.622133957000095
              ]
            ]
          ],
          [
            [
              [
                -0.690096455999888,
                37.63250458500002
              ],
              [
                -0.69087576799995,
                37.63201564700011
              ],
              [
                -0.690970217999921,
                37.632326362000136
              ],
              [
                -0.690096455999888,
                37.63250458500002
              ]
            ]
          ]
        ]
      }
    },
    {
      "type": "Feature",
      "properties": {
        "diocese": "Gadicen",
        "province": "Hispalen",
        "start": 1582,
        "end": 1671
      },
      "geometry": {
        "type": "Polygon",
        "coordinates": [
          [
            [
              -6.227698703910948,
              36.55353293723836
            ],
            [
              -6.236369901937944,
              36.52881751704799
            ],
            [
              -6.287375815638304,
              36.54564681052655
            ],
            [
              -6.314329324753419,
              36.53377052294944
            ],
            [
              -6.310845858293211,
              36.52559505426269
            ],
            [
              -6.29224881482816,
              36.525373107151964
            ],
            [
              -6.214759960034028,
              36.388407327247485
            ],
            [
              -6.184868591934008,
              36.37264706668619
            ],
            [
              -6.143333695471738,
              36.29370938119469
            ],
            [
              -6.108362612356786,
              36.29146752742981
            ],
            [
              -6.054654258646026,
              36.200480414675305
            ],
            [
              -6.034553099110862,
              36.178182604866365
            ],
            [
              -5.980010974769731,
              36.17509933153008
            ],
            [
              -5.920035179299469,
              36.187214594604384
            ],
            [
              -5.796048684097382,
              36.078034697758184
            ],
            [
              -5.772602222088878,
              36.08460795560276
            ],
            [
              -5.711330366474725,
              36.05738247717888
            ],
            [
              -5.6907892512868905,
              36.06734072291551
            ],
            [
              -5.662100596285163,
              36.053663247770324
            ],
            [
              -5.6500962599438616,
              36.050093693528915
            ],
            [
              -5.609811245185014,
              36.00719630866103
            ],
            [
              -5.614291927787421,
              36.00583247869321
            ],
            [
              -5.614488659748201,
              36.00246126018956
            ],
            [
              -5.6122616541228405,
              36.000632951462656
            ],
            [
              -5.609359857952963,
              36.001491605329726
            ],
            [
              -5.607222365403281,
              36.004607429646015
            ],
            [
              -5.6071589193605424,
              36.00826103539056
            ],
            [
              -5.595598950375953,
              36.011924815626756
            ],
            [
              -5.572576261414234,
              36.01677467714746
            ],
            [
              -5.48665118937453,
              36.053844960279285
            ],
            [
              -5.463159446709759,
              36.04874818136567
            ],
            [
              -5.421127891244318,
              36.0818158103623
            ],
            [
              -5.440982159909417,
              36.08735827232004
            ],
            [
              -5.4443024641628535,
              36.0907734921544
            ],
            [
              -5.442172404018106,
              36.102939695206494
            ],
            [
              -5.431016969346037,
              36.10568516517987
            ],
            [
              -5.433059221148117,
              36.11060373339928
            ],
            [
              -5.436335510491524,
              36.11120785390668
            ],
            [
              -5.434558572020699,
              36.12034079656818
            ],
            [
              -5.420605545073786,
              36.12077171342331
            ],
            [
              -5.423806300327469,
              36.13375073554781
            ],
            [
              -5.436834035195095,
              36.13467113584219
            ],
            [
              -5.436489411111478,
              36.14891651849413
            ],
            [
              -5.445475130241234,
              36.15042073723499
            ],
            [
              -5.442752365196666,
              36.16004949537453
            ],
            [
              -5.425641345367154,
              36.17628170144026
            ],
            [
              -5.401415822599164,
              36.18098114539911
            ],
            [
              -5.384999047049556,
              36.17957376418705
            ],
            [
              -5.383362471268342,
              36.168527002693516
            ],
            [
              -5.376907200242308,
              36.16423465740494
            ],
            [
              -5.369937748342154,
              36.1674440455441
            ],
            [
              -5.361756870242171,
              36.163272784449845
            ],
            [
              -5.358483718708088,
              36.12507907699003
            ],
            [
              -5.351179148887035,
              36.11015602419407
            ],
            [
              -5.3441456744571045,
              36.109838412833085
            ],
            [
              -5.335296561236149,
              36.18003401211089
            ],
            [
              -5.3231258556820205,
              36.21288574079121
            ],
            [
              -5.308331794872233,
              36.24294700838551
            ],
            [
              -5.297721521036582,
              36.24578464784022
            ],
            [
              -5.279220627482699,
              36.28354071557932
            ],
            [
              -5.257721345601794,
              36.31065348489049
            ],
            [
              -5.248700507128252,
              36.31141517201147
            ],
            [
              -5.218727944039784,
              36.37965432355702
            ],
            [
              -5.212361349325134,
              36.38082192883712
            ],
            [
              -5.174536529840036,
              36.41627001397394
            ],
            [
              -5.154218514962104,
              36.41509647701122
            ],
            [
              -5.139205087085365,
              36.42693609466969
            ],
            [
              -5.124274097085659,
              36.42806341736574
            ],
            [
              -5.108671446457641,
              36.43424283767508
            ],
            [
              -5.080345980531707,
              36.45106267567691
            ],
            [
              -5.068496190352251,
              36.45015195928181
            ],
            [
              -5.0548413603205855,
              36.450930868255156
            ],
            [
              -5.038555919353761,
              36.460945170987074
            ],
            [
              -5.029423793014799,
              36.46214314991323
            ],
            [
              -5.027063604238886,
              36.46091015899074
            ],
            [
              -5.018164565631051,
              36.462502443803395
            ],
            [
              -5.009336892440275,
              36.459191776859974
            ],
            [
              -4.973261590390351,
              36.479924842770885
            ],
            [
              -5.003162694831358,
              36.50514567050027
            ],
            [
              -5.144189982143845,
              36.75327022694075
            ],
            [
              -5.221858547870491,
              36.75906935264348
            ],
            [
              -5.278251726872881,
              36.808912215930555
            ],
            [
              -5.341348972682663,
              36.81837491347801
            ],
            [
              -5.4783133127504415,
              36.806625294206256
            ],
            [
              -5.52878949653823,
              36.78335763753269
            ],
            [
              -5.543484071914806,
              36.73733198883301
            ],
            [
              -5.531574868990643,
              36.724990873421476
            ],
            [
              -5.5305905506217785,
              36.66227413627302
            ],
            [
              -5.455282774999741,
              36.619274981052314
            ],
            [
              -5.460622747446108,
              36.58843349469404
            ],
            [
              -5.522567221231608,
              36.530932694886964
            ],
            [
              -5.596105665033324,
              36.550583654426234
            ],
            [
              -5.611725862317235,
              36.54145247841668
            ],
            [
              -5.60673822507298,
              36.524981214199386
            ],
            [
              -5.768013642038246,
              36.48515818715514
            ],
            [
              -5.825830420923556,
              36.57464738580171
            ],
            [
              -5.922157941310086,
              36.55464464978079
            ],
            [
              -5.964646566124062,
              36.58394058389602
            ],
            [
              -6.058831974098725,
              36.60139999900388
            ],
            [
              -6.227698703910948,
              36.55353293723836
            ]
          ]
        ]
      }
    },
    {
      "type": "Feature",
      "properties": {
        "diocese": "Giennen",
        "province": "Hispalen",
        "start": 1582,
        "end": 1671
      },
      "geometry": {
        "coordinates": [
          [
            [
              [
                -4.16424799999993,
                37.681534000000056
              ],
              [
                -4.2279799999999454,
                37.639564000000064
              ],
              [
                -4.220013999999935,
                37.620269000000064
              ],
              [
                -4.173714999999959,
                37.61011200000007
              ],
              [
                -4.160584999999969,
                37.57513700000004
              ],
              [
                -4.120853999999952,
                37.55433100000005
              ],
              [
                -4.09504899999996,
                37.50995900000004
              ],
              [
                -4.019711194999957,
                37.51573614900008
              ],
              [
                -3.998462626999981,
                37.60244456800007
              ],
              [
                -4.069196113999965,
                37.640510094000035
              ],
              [
                -4.080462132999969,
                37.70202881100005
              ],
              [
                -4.116827131999969,
                37.67686309700008
              ],
              [
                -4.16424799999993,
                37.681534000000056
              ]
            ]
          ],
          [
            [
              [
                -3.152155999999934,
                37.62749700000006
              ],
              [
                -3.160907229999964,
                37.69603822400006
              ],
              [
                -3.2304285499999423,
                37.74562452300006
              ],
              [
                -3.224783656999932,
                37.82874211800004
              ],
              [
                -3.204177948999927,
                37.846124737000025
              ],
              [
                -3.2195385249999617,
                37.86039353500007
              ],
              [
                -3.2079427959999407,
                37.89046786900008
              ],
              [
                -3.2296283139999673,
                37.92753867600004
              ],
              [
                -3.252217395999935,
                37.924687739000035
              ],
              [
                -3.2574881809999283,
                37.93537818400006
              ],
              [
                -3.2314354409999737,
                37.93502186100005
              ],
              [
                -3.235350880999931,
                37.946542100000045
              ],
              [
                -3.158246816999963,
                37.97919275400005
              ],
              [
                -3.156590284999936,
                38.01040507000005
              ],
              [
                -3.1172852829999442,
                38.042197110000075
              ],
              [
                -3.0894254159999264,
                38.032708393000064
              ],
              [
                -3.0794862199999784,
                38.046348038000076
              ],
              [
                -3.045494215999952,
                38.03066447400005
              ],
              [
                -3.010436456999969,
                38.045640210000045
              ],
              [
                -2.9091254729999605,
                38.02095200900004
              ],
              [
                -2.898875534999945,
                38.06049592200003
              ],
              [
                -2.8400022179999382,
                38.10487581600006
              ],
              [
                -2.820274420999965,
                38.156641824000076
              ],
              [
                -2.795577024999943,
                38.17416523800006
              ],
              [
                -2.798287714999958,
                38.20233594800004
              ],
              [
                -2.829159458999925,
                38.21274924900007
              ],
              [
                -3.007462607999969,
                38.222569521000025
              ],
              [
                -3.0142393319999314,
                38.25013018800007
              ],
              [
                -3.085771422999926,
                38.25367801300007
              ],
              [
                -3.0984213089999457,
                38.27992653200005
              ],
              [
                -3.0912866429999326,
                38.32911345700006
              ],
              [
                -2.9840336659999593,
                38.385027036000054
              ],
              [
                -3.0648599999999533,
                38.478278000000046
              ],
              [
                -3.138179999999977,
                38.43860600000005
              ],
              [
                -3.27931499999994,
                38.46027200000003
              ],
              [
                -3.3101879999999255,
                38.48052500000006
              ],
              [
                -3.3749029999999607,
                38.47526200000004
              ],
              [
                -3.3765749999999457,
                38.43962300000004
              ],
              [
                -3.4247139999999376,
                38.40682600000008
              ],
              [
                -3.472484999999949,
                38.39798300000007
              ],
              [
                -3.528332999999975,
                38.40866700000004
              ],
              [
                -3.535054999999943,
                38.43943900000005
              ],
              [
                -3.5672479999999496,
                38.45205800000008
              ],
              [
                -3.5829669999999396,
                38.451494000000025
              ],
              [
                -3.585736999999938,
                38.40562700000004
              ],
              [
                -3.6203629999999407,
                38.39401300000003
              ],
              [
                -3.7855049999999437,
                38.425294000000065
              ],
              [
                -3.8299489999999423,
                38.41282200000006
              ],
              [
                -3.8304539999999747,
                38.39292900000004
              ],
              [
                -3.8541779999999335,
                38.37516700000003
              ],
              [
                -3.915012999999931,
                38.36884100000003
              ],
              [
                -4.1564429999999675,
                38.38135200000005
              ],
              [
                -4.255438999999967,
                38.40184500000004
              ],
              [
                -4.276420999999971,
                38.39087600000005
              ],
              [
                -4.268777178999926,
                38.34734257500003
              ],
              [
                -4.237325999999939,
                38.34156900000005
              ],
              [
                -4.23842099999996,
                38.31513400000006
              ],
              [
                -4.210101999999949,
                38.301480000000026
              ],
              [
                -4.216567999999938,
                38.24698100000006
              ],
              [
                -4.195883999999978,
                38.23787500000003
              ],
              [
                -4.201056999999935,
                38.21411200000006
              ],
              [
                -4.167742999999973,
                38.18081500000005
              ],
              [
                -4.16122704199995,
                38.14516875700008
              ],
              [
                -4.217829999999935,
                38.11079600000005
              ],
              [
                -4.213963999999976,
                38.089504000000034
              ],
              [
                -4.22858199999996,
                38.09080300000005
              ],
              [
                -4.236156999999935,
                38.06256100000007
              ],
              [
                -4.250005999999928,
                38.06722700000006
              ],
              [
                -4.239964999999927,
                38.047056000000055
              ],
              [
                -4.2688200989999245,
                38.03979041000008
              ],
              [
                -4.257716523999932,
                38.01440107700006
              ],
              [
                -4.197824654999977,
                37.98607689500005
              ],
              [
                -4.181068233999952,
                37.932106100000055
              ],
              [
                -4.125807696999971,
                37.90510583100007
              ],
              [
                -4.104060001999926,
                37.859801884000035
              ],
              [
                -4.024556132999976,
                37.85473511500004
              ],
              [
                -3.894426482999961,
                37.74515153400006
              ],
              [
                -3.866261434999956,
                37.59756330100004
              ],
              [
                -3.8751744249999547,
                37.57241868700004
              ],
              [
                -3.840948543999957,
                37.52804175600005
              ],
              [
                -3.792105359999937,
                37.51786243000004
              ],
              [
                -3.7806967329999566,
                37.49665104200005
              ],
              [
                -3.696558108999966,
                37.538502393000044
              ],
              [
                -3.64842796399995,
                37.53030363900007
              ],
              [
                -3.570350173999941,
                37.57411409700006
              ],
              [
                -3.5264982639999403,
                37.62100511700004
              ],
              [
                -3.461050999999941,
                37.598446000000024
              ],
              [
                -3.436766999999975,
                37.573923000000036
              ],
              [
                -3.378725999999972,
                37.56419100000005
              ],
              [
                -3.296128999999951,
                37.58828600000004
              ],
              [
                -3.262384999999938,
                37.63923700000004
              ],
              [
                -3.186286999999936,
                37.64451900000006
              ],
              [
                -3.152155999999934,
                37.62749700000006
              ]
            ]
          ]
        ],
        "type": "MultiPolygon"
      }
    },
    {
      "type": "Feature",
      "properties": {
        "diocese": "Malacitan",
        "province": "Hispalen",
        "start": 1582,
        "end": 1671
      },
      "geometry": {
        "type": "Polygon",
        "coordinates": [
          [
            [
              -5.338325450513755,
              36.81796002519691
            ],
            [
              -5.278813915196942,
              36.809590040314426
            ],
            [
              -5.221688495595545,
              36.75956382477814
            ],
            [
              -5.143941834255316,
              36.7529588488605
            ],
            [
              -5.000130300835207,
              36.50312133618063
            ],
            [
              -4.972548612543021,
              36.47921514079646
            ],
            [
              -4.902595313572216,
              36.509344334639636
            ],
            [
              -4.743072485635123,
              36.48388172632785
            ],
            [
              -4.689912903553445,
              36.49098176434979
            ],
            [
              -4.676938192132925,
              36.50242315155947
            ],
            [
              -4.6335970723063395,
              36.50575390051976
            ],
            [
              -4.603274745593148,
              36.56082039348044
            ],
            [
              -4.528379950449787,
              36.58157113180663
            ],
            [
              -4.452492576852378,
              36.66498189692666
            ],
            [
              -4.4271305105503265,
              36.70568991436442
            ],
            [
              -4.398027835754345,
              36.721239899310504
            ],
            [
              -4.325569656729375,
              36.71156160887597
            ],
            [
              -4.246648906838065,
              36.71044146490656
            ],
            [
              -4.099919733301471,
              36.72638373854383
            ],
            [
              -4.074259309488883,
              36.74817790633732
            ],
            [
              -3.9522531445902156,
              36.72423943888746
            ],
            [
              -3.9082314960217146,
              36.742335363681185
            ],
            [
              -3.8735023703503453,
              36.740963810333014
            ],
            [
              -3.8580797841759864,
              36.75054307067957
            ],
            [
              -3.8077226836120546,
              36.74894801691535
            ],
            [
              -3.7687198495680554,
              36.72917574050397
            ],
            [
              -3.78190945285049,
              36.76444362131346
            ],
            [
              -3.767841998940759,
              36.80172860876383
            ],
            [
              -3.826263744855829,
              36.854942894131526
            ],
            [
              -3.8676234662100604,
              36.85072960143348
            ],
            [
              -3.9295886521440453,
              36.88264497375353
            ],
            [
              -4.046507420115582,
              36.90287802939031
            ],
            [
              -4.099648661741787,
              36.95253420637305
            ],
            [
              -4.166542553895313,
              36.956993235959075
            ],
            [
              -4.251396217469753,
              37.0227694423363
            ],
            [
              -4.346198177396418,
              36.96233753204433
            ],
            [
              -4.374930130210062,
              36.92096616928255
            ],
            [
              -4.588295855201914,
              36.893500330501276
            ],
            [
              -4.727001287972673,
              36.931291917912546
            ],
            [
              -4.767717566177271,
              36.91963696318654
            ],
            [
              -4.766369201597833,
              36.886567139815384
            ],
            [
              -4.788269747036274,
              36.86421513728241
            ],
            [
              -4.891642784333543,
              36.84578640817137
            ],
            [
              -4.932608406401487,
              36.88136108851365
            ],
            [
              -5.0055758437824585,
              36.896852853922006
            ],
            [
              -5.046360941646723,
              36.886315016425584
            ],
            [
              -5.090937047787966,
              36.92000353576834
            ],
            [
              -5.110157780835611,
              36.95934375911074
            ],
            [
              -5.09676924030621,
              36.96769539950048
            ],
            [
              -5.183012269076107,
              36.93947343757068
            ],
            [
              -5.215507710946081,
              36.897821281057986
            ],
            [
              -5.302012862205951,
              36.86855287030843
            ],
            [
              -5.338325450513755,
              36.81796002519691
            ]
          ]
        ]
      }
    }
  ]
}