{
  "type": "FeatureCollection",
  "features": [
    {
      "type": "Feature",
      "properties": {
                "diocese": "Gadicen",
                "province": "Hispalen",
                "date": 1592
            },
      "geometry": {
        "type": "Polygon",
        "coordinates": [
          [
            [
              -6.227698703910948,
              36.55353293723836
            ],
            [
              -6.236369901937944,
              36.52881751704799
            ],
            [
              -6.287375815638304,
              36.54564681052655
            ],
            [
              -6.314329324753419,
              36.53377052294944
            ],
            [
              -6.310845858293211,
              36.52559505426269
            ],
            [
              -6.29224881482816,
              36.525373107151964
            ],
            [
              -6.214759960034028,
              36.388407327247485
            ],
            [
              -6.184868591934008,
              36.37264706668619
            ],
            [
              -6.143333695471738,
              36.29370938119469
            ],
            [
              -6.108362612356786,
              36.29146752742981
            ],
            [
              -6.054654258646026,
              36.200480414675305
            ],
            [
              -6.034553099110862,
              36.178182604866365
            ],
            [
              -5.980010974769731,
              36.17509933153008
            ],
            [
              -5.920035179299469,
              36.187214594604384
            ],
            [
              -5.796048684097382,
              36.078034697758184
            ],
            [
              -5.772602222088878,
              36.08460795560276
            ],
            [
              -5.711330366474725,
              36.05738247717888
            ],
            [
              -5.6907892512868905,
              36.06734072291551
            ],
            [
              -5.662100596285163,
              36.053663247770324
            ],
            [
              -5.6500962599438616,
              36.050093693528915
            ],
            [
              -5.609811245185014,
              36.00719630866103
            ],
            [
              -5.614291927787421,
              36.00583247869321
            ],
            [
              -5.614488659748201,
              36.00246126018956
            ],
            [
              -5.6122616541228405,
              36.000632951462656
            ],
            [
              -5.609359857952963,
              36.001491605329726
            ],
            [
              -5.607222365403281,
              36.004607429646015
            ],
            [
              -5.6071589193605424,
              36.00826103539056
            ],
            [
              -5.595598950375953,
              36.011924815626756
            ],
            [
              -5.572576261414234,
              36.01677467714746
            ],
            [
              -5.48665118937453,
              36.053844960279285
            ],
            [
              -5.463159446709759,
              36.04874818136567
            ],
            [
              -5.421127891244318,
              36.0818158103623
            ],
            [
              -5.440982159909417,
              36.08735827232004
            ],
            [
              -5.4443024641628535,
              36.0907734921544
            ],
            [
              -5.442172404018106,
              36.102939695206494
            ],
            [
              -5.431016969346037,
              36.10568516517987
            ],
            [
              -5.433059221148117,
              36.11060373339928
            ],
            [
              -5.436335510491524,
              36.11120785390668
            ],
            [
              -5.434558572020699,
              36.12034079656818
            ],
            [
              -5.420605545073786,
              36.12077171342331
            ],
            [
              -5.423806300327469,
              36.13375073554781
            ],
            [
              -5.436834035195095,
              36.13467113584219
            ],
            [
              -5.436489411111478,
              36.14891651849413
            ],
            [
              -5.445475130241234,
              36.15042073723499
            ],
            [
              -5.442752365196666,
              36.16004949537453
            ],
            [
              -5.425641345367154,
              36.17628170144026
            ],
            [
              -5.401415822599164,
              36.18098114539911
            ],
            [
              -5.384999047049556,
              36.17957376418705
            ],
            [
              -5.383362471268342,
              36.168527002693516
            ],
            [
              -5.376907200242308,
              36.16423465740494
            ],
            [
              -5.369937748342154,
              36.1674440455441
            ],
            [
              -5.361756870242171,
              36.163272784449845
            ],
            [
              -5.358483718708088,
              36.12507907699003
            ],
            [
              -5.351179148887035,
              36.11015602419407
            ],
            [
              -5.3441456744571045,
              36.109838412833085
            ],
            [
              -5.335296561236149,
              36.18003401211089
            ],
            [
              -5.3231258556820205,
              36.21288574079121
            ],
            [
              -5.308331794872233,
              36.24294700838551
            ],
            [
              -5.297721521036582,
              36.24578464784022
            ],
            [
              -5.279220627482699,
              36.28354071557932
            ],
            [
              -5.257721345601794,
              36.31065348489049
            ],
            [
              -5.248700507128252,
              36.31141517201147
            ],
            [
              -5.218727944039784,
              36.37965432355702
            ],
            [
              -5.212361349325134,
              36.38082192883712
            ],
            [
              -5.174536529840036,
              36.41627001397394
            ],
            [
              -5.154218514962104,
              36.41509647701122
            ],
            [
              -5.139205087085365,
              36.42693609466969
            ],
            [
              -5.124274097085659,
              36.42806341736574
            ],
            [
              -5.108671446457641,
              36.43424283767508
            ],
            [
              -5.080345980531707,
              36.45106267567691
            ],
            [
              -5.068496190352251,
              36.45015195928181
            ],
            [
              -5.0548413603205855,
              36.450930868255156
            ],
            [
              -5.038555919353761,
              36.460945170987074
            ],
            [
              -5.029423793014799,
              36.46214314991323
            ],
            [
              -5.027063604238886,
              36.46091015899074
            ],
            [
              -5.018164565631051,
              36.462502443803395
            ],
            [
              -5.009336892440275,
              36.459191776859974
            ],
            [
              -4.973261590390351,
              36.479924842770885
            ],
            [
              -5.003162694831358,
              36.50514567050027
            ],
            [
              -5.144189982143845,
              36.75327022694075
            ],
            [
              -5.221858547870491,
              36.75906935264348
            ],
            [
              -5.278251726872881,
              36.808912215930555
            ],
            [
              -5.341348972682663,
              36.81837491347801
            ],
            [
              -5.4783133127504415,
              36.806625294206256
            ],
            [
              -5.52878949653823,
              36.78335763753269
            ],
            [
              -5.543484071914806,
              36.73733198883301
            ],
            [
              -5.531574868990643,
              36.724990873421476
            ],
            [
              -5.5305905506217785,
              36.66227413627302
            ],
            [
              -5.455282774999741,
              36.619274981052314
            ],
            [
              -5.460622747446108,
              36.58843349469404
            ],
            [
              -5.522567221231608,
              36.530932694886964
            ],
            [
              -5.596105665033324,
              36.550583654426234
            ],
            [
              -5.611725862317235,
              36.54145247841668
            ],
            [
              -5.60673822507298,
              36.524981214199386
            ],
            [
              -5.768013642038246,
              36.48515818715514
            ],
            [
              -5.825830420923556,
              36.57464738580171
            ],
            [
              -5.922157941310086,
              36.55464464978079
            ],
            [
              -5.964646566124062,
              36.58394058389602
            ],
            [
              -6.058831974098725,
              36.60139999900388
            ],
            [
              -6.227698703910948,
              36.55353293723836
            ]
          ]
        ]
      }
    }
  ]
}