{
  "type": "FeatureCollection",
  "features": [
    {
      "type": "Feature",
      "properties": {
                "diocese": "Giennen",
                "province": "Hispalen",
                "date": 1592
            },
      "geometry": {
        "coordinates": [
          [
            [
              [
                -4.16424799999993,
                37.681534000000056
              ],
              [
                -4.2279799999999454,
                37.639564000000064
              ],
              [
                -4.220013999999935,
                37.620269000000064
              ],
              [
                -4.173714999999959,
                37.61011200000007
              ],
              [
                -4.160584999999969,
                37.57513700000004
              ],
              [
                -4.120853999999952,
                37.55433100000005
              ],
              [
                -4.09504899999996,
                37.50995900000004
              ],
              [
                -4.019711194999957,
                37.51573614900008
              ],
              [
                -3.998462626999981,
                37.60244456800007
              ],
              [
                -4.069196113999965,
                37.640510094000035
              ],
              [
                -4.080462132999969,
                37.70202881100005
              ],
              [
                -4.116827131999969,
                37.67686309700008
              ],
              [
                -4.16424799999993,
                37.681534000000056
              ]
            ]
          ],
          [
            [
              [
                -3.152155999999934,
                37.62749700000006
              ],
              [
                -3.160907229999964,
                37.69603822400006
              ],
              [
                -3.2304285499999423,
                37.74562452300006
              ],
              [
                -3.224783656999932,
                37.82874211800004
              ],
              [
                -3.204177948999927,
                37.846124737000025
              ],
              [
                -3.2195385249999617,
                37.86039353500007
              ],
              [
                -3.2079427959999407,
                37.89046786900008
              ],
              [
                -3.2296283139999673,
                37.92753867600004
              ],
              [
                -3.252217395999935,
                37.924687739000035
              ],
              [
                -3.2574881809999283,
                37.93537818400006
              ],
              [
                -3.2314354409999737,
                37.93502186100005
              ],
              [
                -3.235350880999931,
                37.946542100000045
              ],
              [
                -3.158246816999963,
                37.97919275400005
              ],
              [
                -3.156590284999936,
                38.01040507000005
              ],
              [
                -3.1172852829999442,
                38.042197110000075
              ],
              [
                -3.0894254159999264,
                38.032708393000064
              ],
              [
                -3.0794862199999784,
                38.046348038000076
              ],
              [
                -3.045494215999952,
                38.03066447400005
              ],
              [
                -3.010436456999969,
                38.045640210000045
              ],
              [
                -2.9091254729999605,
                38.02095200900004
              ],
              [
                -2.898875534999945,
                38.06049592200003
              ],
              [
                -2.8400022179999382,
                38.10487581600006
              ],
              [
                -2.820274420999965,
                38.156641824000076
              ],
              [
                -2.795577024999943,
                38.17416523800006
              ],
              [
                -2.798287714999958,
                38.20233594800004
              ],
              [
                -2.829159458999925,
                38.21274924900007
              ],
              [
                -3.007462607999969,
                38.222569521000025
              ],
              [
                -3.0142393319999314,
                38.25013018800007
              ],
              [
                -3.085771422999926,
                38.25367801300007
              ],
              [
                -3.0984213089999457,
                38.27992653200005
              ],
              [
                -3.0912866429999326,
                38.32911345700006
              ],
              [
                -2.9840336659999593,
                38.385027036000054
              ],
              [
                -3.0648599999999533,
                38.478278000000046
              ],
              [
                -3.138179999999977,
                38.43860600000005
              ],
              [
                -3.27931499999994,
                38.46027200000003
              ],
              [
                -3.3101879999999255,
                38.48052500000006
              ],
              [
                -3.3749029999999607,
                38.47526200000004
              ],
              [
                -3.3765749999999457,
                38.43962300000004
              ],
              [
                -3.4247139999999376,
                38.40682600000008
              ],
              [
                -3.472484999999949,
                38.39798300000007
              ],
              [
                -3.528332999999975,
                38.40866700000004
              ],
              [
                -3.535054999999943,
                38.43943900000005
              ],
              [
                -3.5672479999999496,
                38.45205800000008
              ],
              [
                -3.5829669999999396,
                38.451494000000025
              ],
              [
                -3.585736999999938,
                38.40562700000004
              ],
              [
                -3.6203629999999407,
                38.39401300000003
              ],
              [
                -3.7855049999999437,
                38.425294000000065
              ],
              [
                -3.8299489999999423,
                38.41282200000006
              ],
              [
                -3.8304539999999747,
                38.39292900000004
              ],
              [
                -3.8541779999999335,
                38.37516700000003
              ],
              [
                -3.915012999999931,
                38.36884100000003
              ],
              [
                -4.1564429999999675,
                38.38135200000005
              ],
              [
                -4.255438999999967,
                38.40184500000004
              ],
              [
                -4.276420999999971,
                38.39087600000005
              ],
              [
                -4.268777178999926,
                38.34734257500003
              ],
              [
                -4.237325999999939,
                38.34156900000005
              ],
              [
                -4.23842099999996,
                38.31513400000006
              ],
              [
                -4.210101999999949,
                38.301480000000026
              ],
              [
                -4.216567999999938,
                38.24698100000006
              ],
              [
                -4.195883999999978,
                38.23787500000003
              ],
              [
                -4.201056999999935,
                38.21411200000006
              ],
              [
                -4.167742999999973,
                38.18081500000005
              ],
              [
                -4.16122704199995,
                38.14516875700008
              ],
              [
                -4.217829999999935,
                38.11079600000005
              ],
              [
                -4.213963999999976,
                38.089504000000034
              ],
              [
                -4.22858199999996,
                38.09080300000005
              ],
              [
                -4.236156999999935,
                38.06256100000007
              ],
              [
                -4.250005999999928,
                38.06722700000006
              ],
              [
                -4.239964999999927,
                38.047056000000055
              ],
              [
                -4.2688200989999245,
                38.03979041000008
              ],
              [
                -4.257716523999932,
                38.01440107700006
              ],
              [
                -4.197824654999977,
                37.98607689500005
              ],
              [
                -4.181068233999952,
                37.932106100000055
              ],
              [
                -4.125807696999971,
                37.90510583100007
              ],
              [
                -4.104060001999926,
                37.859801884000035
              ],
              [
                -4.024556132999976,
                37.85473511500004
              ],
              [
                -3.894426482999961,
                37.74515153400006
              ],
              [
                -3.866261434999956,
                37.59756330100004
              ],
              [
                -3.8751744249999547,
                37.57241868700004
              ],
              [
                -3.840948543999957,
                37.52804175600005
              ],
              [
                -3.792105359999937,
                37.51786243000004
              ],
              [
                -3.7806967329999566,
                37.49665104200005
              ],
              [
                -3.696558108999966,
                37.538502393000044
              ],
              [
                -3.64842796399995,
                37.53030363900007
              ],
              [
                -3.570350173999941,
                37.57411409700006
              ],
              [
                -3.5264982639999403,
                37.62100511700004
              ],
              [
                -3.461050999999941,
                37.598446000000024
              ],
              [
                -3.436766999999975,
                37.573923000000036
              ],
              [
                -3.378725999999972,
                37.56419100000005
              ],
              [
                -3.296128999999951,
                37.58828600000004
              ],
              [
                -3.262384999999938,
                37.63923700000004
              ],
              [
                -3.186286999999936,
                37.64451900000006
              ],
              [
                -3.152155999999934,
                37.62749700000006
              ]
            ]
          ]
        ],
        "type": "MultiPolygon"
      }
    }
  ]
}