{
  "type": "FeatureCollection",
  "features": [
    {
      "type": "Feature",
      "properties": {
                "diocese": "Septen",
                "province": "Hispalen",
                "date": 1675
            },
      "geometry": {
        "type": "MultiPolygon",
        "coordinates": [
          [
            [
              [-5.930922903602627, 35.786971860828444],
              [-5.996112413323008, 35.571483639962906],
              [-5.257003116794762, 35.58133560104556],
              [-5.285019605071471, 35.66522179859983],
              [-5.280277888894072, 35.676764626419704],
              [-5.273998350618557, 35.682062336317024],
              [-5.273748910504043, 35.685627077525545],
              [-5.290108419531112, 35.68701088052624],
              [-5.3084199154561365, 35.68132165293261],
              [-5.31988357318526, 35.68310310428561],
              [-5.326475208457222, 35.69369748354457],
              [-5.343179438217205, 35.75033005619699],
              [-5.353980669514022, 35.841945042706776],
              [-5.353627251387875, 35.84885844583934],
              [-5.3458661620921735, 35.85354558184043],
              [-5.344531864184341, 35.87165627887115],
              [-5.338131620271024, 35.87883917010807],
              [-5.334685068709422, 35.879743532263085],
              [-5.32895312799797, 35.878526802708905],
              [-5.321346706426948, 35.886679749476215],
              [-5.314608271093792, 35.88681814969296],
              [-5.310381455377474, 35.884229651808795],
              [-5.306730603896952, 35.88449523857111],
              [-5.29749901671838, 35.888869810808764],
              [-5.288121995711778, 35.890527746077474],
              [-5.2837959155633465, 35.894492436338425],
              [-5.277678459733716, 35.90064385872728],
              [-5.2823879916330085, 35.89982492950876],
              [-5.288503841023934, 35.90681501914761],
              [-5.291477865043817, 35.90382959640591],
              [-5.298837013186334, 35.90110281774085],
              [-5.300782296307893, 35.89565645316439],
              [-5.324468526423359, 35.90025515503428],
              [-5.335005316510017, 35.89425765634783],
              [-5.349040777232726, 35.90769603792596],
              [-5.366290230732407, 35.918123089676875],
              [-5.378911713895844, 35.916004726173895],
              [-5.389422623385003, 35.90874541704637],
              [-5.398713411530667, 35.913275789042366],
              [-5.396411838272235, 35.91679557867684],
              [-5.400505865599134, 35.92018150992221],
              [-5.402024692179289, 35.922348896557374],
              [-5.4153485988660774, 35.909729714995365],
              [-5.424003342739697, 35.90979565163999],
              [-5.432062997967277, 35.90708152828114],
              [-5.436619870898244, 35.90989177126009],
              [-5.439490211222047, 35.90866033550361],
              [-5.441515645758224, 35.90398431190777],
              [-5.447846530037095, 35.90480807528117],
              [-5.451130214275045, 35.90710793439457],
              [-5.451062402460181, 35.91248529659981],
              [-5.455196177959111, 35.913391728458144],
              [-5.457052858860996, 35.914466131845806],
              [-5.459149550714376, 35.91446613717374],
              [-5.462031007434566, 35.9135887669362],
              [-5.46469601696173, 35.9144366439359],
              [-5.481820700598729, 35.90823631057262],
              [-5.501710689847026, 35.89165942856331],
              [-5.561567560062218, 35.84874079400539],
              [-5.597263404092983, 35.831342300593256],
              [-5.627554693206731, 35.83595798356206],
              [-5.6541551128612415, 35.826788280760084],
              [-5.688024703833444, 35.83979271839061],
              [-5.751069217368192, 35.818187697525175],
              [-5.75004483940476, 35.81195788027038],
              [-5.749378761066362, 35.803957909986195],
              [-5.75658684081455, 35.79248336825896],
              [-5.782670178155915, 35.77649057499276],
              [-5.804078084544958, 35.790890730085714],
              [-5.824492044041289, 35.79543882374864],
              [-5.9077269360446, 35.801320261210854],
              [-5.930922903602627, 35.786971860828444]
            ]
          ],
          [
            [
              [-5.420999349523545, 35.912338361455674],
              [-5.416163317031317, 35.91232469800991],
              [-5.416131006284026, 35.91361368320741],
              [-5.41768456706796, 35.91428670993709],
              [-5.416599941025707, 35.91548193340094],
              [-5.416794305898155, 35.916381711414864],
              [-5.417696218952379, 35.91659174691463],
              [-5.4188074370256265, 35.91617283322053],
              [-5.420287512304444, 35.91471281250227],
              [-5.4201099461612205, 35.913959836767],
              [-5.421349334964961, 35.91382743132761],
              [-5.4217796683713075, 35.91300827268014],
              [-5.421278637333932, 35.9126979523965],
              [-5.420999349523545, 35.912338361455674]
            ]
          ]
        ]
      }
    }
  ]
}
