{"type": "FeatureCollection", "features": [{"type": "Feature", "properties": {"diocese": "Castres", "province": "II_Albi", "source": "9_Castres.txt"}, "geometry": {"type": "Polygon", "coordinates": [[[3.0007287336202424, 43.668660627519294], [2.995470816093891, 43.66941244339593], [2.9902128985675427, 43.67016425927256], [2.9849549810411915, 43.670916075149194], [2.9796970635148425, 43.671667891025834], [2.9744391459884936, 43.67241970690247], [2.9691812284621406, 43.67317152277909], [2.9639233109357934, 43.67392333865573], [2.958665393409444, 43.67467515453236], [2.953407475883092, 43.67542697040899], [2.9481495583567425, 43.67617878628563], [2.9481495583567425, 43.67617878628563], [2.939090760616091, 43.68094081258087], [2.9300319628754368, 43.68570283887613], [2.9209731651347854, 43.69046486517138], [2.9119143673941323, 43.695226891466625], [2.9028555696534792, 43.69998891776187], [2.8937967719128284, 43.70475094405713], [2.8847379741721735, 43.70951297035238], [2.875679176431524, 43.714274996647625], [2.8666203786908695, 43.71903702294287], [2.857561580950218, 43.72379904923813], [2.857561580950218, 43.72379904923813], [2.850489248038498, 43.72429936961284], [2.8434169151267783, 43.724799689987556], [2.8363445822150566, 43.72530001036228], [2.82927224930334, 43.725800330737], [2.822199916391618, 43.726300651111714], [2.8151275834798986, 43.72680097148644], [2.8080552505681786, 43.72730129186115], [2.8009829176564582, 43.727801612235865], [2.7939105847447405, 43.728301932610584], [2.7868382518330184, 43.72880225298531], [2.7868382518330184, 43.72880225298531], [2.7817563029738808, 43.726292745562894], [2.776674354114741, 43.72378323814047], [2.771592405255601, 43.72127373071805], [2.766510456396463, 43.718764223295636], [2.7614285075373255, 43.71625471587323], [2.756346558678186, 43.7137452084508], [2.7512646098190463, 43.711235701028386], [2.746182660959907, 43.708726193605976], [2.7411007121007684, 43.70621668618356], [2.736018763241629, 43.703707178761135], [2.736018763241629, 43.703707178761135], [2.7258698215473975, 43.70721596198209], [2.7157208798531642, 43.71072474520303], [2.705571938158931, 43.714233528423975], [2.6954229964646976, 43.71774231164492], [2.6852740547704643, 43.72125109486587], [2.675125113076233, 43.724759878086815], [2.664976171382, 43.72826866130776], [2.6548272296877666, 43.7317774445287], [2.6446782879935333, 43.73528622774965], [2.634529346299303, 43.7387950109706], [2.634529346299303, 43.7387950109706], [2.6309078539567716, 43.742053231960476], [2.627286361614242, 43.74531145295036], [2.623664869271708, 43.748569673940246], [2.6200433769291798, 43.75182789493012], [2.616421884586648, 43.75508611592], [2.612800392244116, 43.758344336909886], [2.609178899901586, 43.76160255789977], [2.605557407559054, 43.76486077888964], [2.601935915216524, 43.768118999879526], [2.598314422873992, 43.77137722086941], [2.598314422873992, 43.77137722086941], [2.588518660629735, 43.769744694216314], [2.578722898385478, 43.76811216756321], [2.5689271361412205, 43.76647964091012], [2.5591313738969617, 43.764847114257016], [2.5493356116527006, 43.76321458760392], [2.539539849408444, 43.76158206095082], [2.5297440871641883, 43.759949534297725], [2.519948324919929, 43.75831700764462], [2.51015256267567, 43.756684480991524], [2.500356800431413, 43.75505195433843], [2.500356800431413, 43.75505195433843], [2.494012044972667, 43.75630443579471], [2.4876672895139227, 43.757556917250994], [2.4813225340551788, 43.75880939870727], [2.474977778596432, 43.76006188016355], [2.468633023137686, 43.761314361619824], [2.4622882676789435, 43.76256684307612], [2.455943512220199, 43.76381932453239], [2.4495987567614534, 43.765071805988676], [2.4432540013027073, 43.76632428744495], [2.4369092458439647, 43.767576768901236], [2.4369092458439647, 43.767576768901236], [2.433472439391796, 43.7720902494246], [2.4300356329396275, 43.776603729947965], [2.4265988264874587, 43.78111721047133], [2.4231620200352904, 43.785630690994694], [2.4197252135831215, 43.79014417151806], [2.416288407130955, 43.794657652041415], [2.4128516006787843, 43.79917113256478], [2.4094147942266173, 43.80368461308814], [2.405977987774447, 43.8081980936115], [2.40254118132228, 43.812711574134866], [2.40254118132228, 43.812711574134866], [2.3960071445883893, 43.810327827294664], [2.389473107854498, 43.80794408045446], [2.382939071120607, 43.80556033361427], [2.3764050343867162, 43.803176586774065], [2.3698709976528214, 43.80079283993386], [2.36333696091893, 43.79840909309366], [2.3568029241850392, 43.796025346253465], [2.350268887451148, 43.793641599413256], [2.3437348507172566, 43.79125785257307], [2.337200813983366, 43.788874105732866], [2.337200813983366, 43.788874105732866], [2.3333806553207164, 43.78285474573451], [2.3295604966580647, 43.77683538573615], [2.3257403379954154, 43.77081602573779], [2.321920179332766, 43.76479666573944], [2.318100020670115, 43.75877730574108], [2.314279862007465, 43.752757945742715], [2.3104597033448173, 43.74673858574436], [2.306639544682166, 43.740719225746005], [2.3028193860195167, 43.73469986574764], [2.2989992273568647, 43.72868050574929], [2.2989992273568647, 43.72868050574929], [2.28539580999661, 43.72754796565683], [2.271792392636357, 43.72641542556437], [2.258188975276102, 43.725282885471906], [2.244585557915847, 43.72415034537944], [2.2309821405555943, 43.72301780528698], [2.2173787231953397, 43.72188526519452], [2.2037753058350846, 43.72075272510205], [2.1901718884748296, 43.7196201850096], [2.1765684711145763, 43.71848764491713], [2.1629650537543212, 43.71735510482468], [2.1629650537543212, 43.71735510482468], [2.160246898290045, 43.718733520454755], [2.157528742825767, 43.72011193608484], [2.15481058736149, 43.72149035171493], [2.1520924318972114, 43.72286876734501], [2.1493742764329347, 43.7242471829751], [2.1466561209686565, 43.72562559860518], [2.1439379655043798, 43.72700401423527], [2.1412198100401016, 43.728382429865356], [2.138501654575825, 43.729760845495434], [2.1357834991115463, 43.73113926112552], [2.1357834991115463, 43.73113926112552], [2.130345240485379, 43.732140980816006], [2.1249069818592115, 43.733142700506505], [2.119468723233044, 43.734144420196984], [2.114030464606877, 43.735146139887476], [2.108592205980709, 43.73614785957796], [2.1031539473545435, 43.73714957926846], [2.0977156887283748, 43.73815129895895], [2.0922774301022073, 43.73915301864944], [2.08683917147604, 43.74015473833993], [2.081400912849873, 43.741156458030424], [2.081400912849873, 43.741156458030424], [2.0748663835749332, 43.738521613685414], [2.0683318542999927, 43.735886769340404], [2.0617973250250543, 43.73325192499539], [2.055262795750115, 43.73061708065039], [2.0487282664751754, 43.72798223630538], [2.042193737200236, 43.72534739196036], [2.035659207925297, 43.72271254761535], [2.029124678650357, 43.72007770327034], [2.022590149375418, 43.71744285892533], [2.016055620100479, 43.71480801458032], [2.016055620100479, 43.71480801458032], [1.992477542953687, 43.713799053446444], [1.9688994658068952, 43.71279009231256], [1.9453213886601044, 43.711781131178675], [1.9217433115133127, 43.7107721700448], [1.8981652343665214, 43.709763208910914], [1.874587157219731, 43.70875424777703], [1.8510090800729393, 43.70774528664315], [1.8274310029261471, 43.70673632550927], [1.8038529257793559, 43.705727364375385], [1.7802748486325646, 43.70471840324151], [1.7802748486325646, 43.70471840324151], [1.7804508770028993, 43.7014593223866], [1.7806269053732335, 43.69820024153169], [1.7808029337435682, 43.694941160676784], [1.780978962113903, 43.69168207982188], [1.7811549904842363, 43.68842299896697], [1.7813310188545706, 43.68516391811207], [1.7815070472249053, 43.68190483725715], [1.78168307559524, 43.67864575640225], [1.7818591039655742, 43.67538667554734], [1.7820351323359076, 43.672127594692434], [1.7820351323359076, 43.672127594692434], [1.7872942838507333, 43.67200283891103], [1.7925534353655568, 43.67187808312963], [1.7978125868803807, 43.67175332734822], [1.803071738395205, 43.67162857156682], [1.8083308899100299, 43.671503815785414], [1.8135900414248534, 43.67137906000401], [1.8188491929396782, 43.67125430422261], [1.8241083444545017, 43.67112954844119], [1.829367495969326, 43.6710047926598], [1.83462664748415, 43.670880036878394], [1.83462664748415, 43.670880036878394], [1.83661721747916, 43.66874940547135], [1.8386077874741686, 43.666618774064304], [1.8405983574691787, 43.66448814265726], [1.8425889274641887, 43.662357511250214], [1.8445794974591978, 43.66022687984317], [1.8465700674542078, 43.65809624843613], [1.8485606374492178, 43.65596561702909], [1.8505512074442279, 43.65383498562204], [1.8525417774392374, 43.65170435421499], [1.8545323474342466, 43.64957372280795], [1.8545323474342466, 43.64957372280795], [1.8585219470850411, 43.649699692880134], [1.8625115467358362, 43.64982566295232], [1.8665011463866326, 43.64995163302451], [1.8704907460374258, 43.65007760309669], [1.8744803456882209, 43.65020357316888], [1.8784699453390163, 43.65032954324106], [1.8824595449898118, 43.65045551331325], [1.886449144640606, 43.65058148338543], [1.8904387442914015, 43.65070745345762], [1.8944283439421965, 43.650833423529804], [1.8944283439421965, 43.650833423529804], [1.8976884659067963, 43.648452120962595], [1.900948587871396, 43.64607081839538], [1.9042087098359954, 43.643689515828164], [1.9074688318005952, 43.64130821326096], [1.910728953765196, 43.638926910693755], [1.9139890757297957, 43.63654560812653], [1.9172491976943955, 43.63416430555933], [1.9205093196589962, 43.631783002992115], [1.923769441623596, 43.62940170042491], [1.9270295635881953, 43.6270203978577], [1.9270295635881953, 43.6270203978577], [1.9299285346550934, 43.62564202735274], [1.9328275057219924, 43.62426365684779], [1.9357264767888918, 43.622885286342836], [1.9386254478557907, 43.62150691583788], [1.9415244189226888, 43.62012854533293], [1.9444233899895877, 43.61875017482798], [1.9473223610564871, 43.61737180432302], [1.9502213321233852, 43.61599343381807], [1.9531203031902837, 43.61461506331311], [1.9560192742571827, 43.61323669280816], [1.9560192742571827, 43.61323669280816], [1.9598288235905397, 43.61373863504498], [1.963638372923897, 43.6142405772818], [1.967447922257254, 43.614742519518614], [1.9712574715906106, 43.615244461755445], [1.9750670209239662, 43.615746403992254], [1.9788765702573228, 43.61624834622908], [1.9826861195906806, 43.616750288465894], [1.9864956689240372, 43.61725223070272], [1.990305218257395, 43.617754172939534], [1.9941147675907511, 43.618256115176365], [1.9941147675907511, 43.618256115176365], [1.995927223256123, 43.61750453330315], [1.9977396789214965, 43.61675295142994], [1.9995521345868688, 43.616001369556734], [2.0013645902522406, 43.61524978768352], [2.003177045917614, 43.614498205810314], [2.0049895015829864, 43.613746623937104], [2.006801957248359, 43.612995042063886], [2.008614412913731, 43.61224346019068], [2.010426868579104, 43.61149187831747], [2.0122393242444767, 43.61074029644426], [2.0122393242444767, 43.61074029644426], [2.0142286839832084, 43.607982604947914], [2.0162180437219397, 43.605224913451565], [2.018207403460672, 43.60246722195521], [2.020196763199403, 43.59970953045886], [2.0221861229381357, 43.596951838962504], [2.024175482676866, 43.594194147466155], [2.026164842415598, 43.5914364559698], [2.028154202154331, 43.58867876447346], [2.030143561893062, 43.58592107297711], [2.032132921631794, 43.58316338148075], [2.032132921631794, 43.58316338148075], [2.0395660729991794, 43.58228713405469], [2.046999224366567, 43.58141088662862], [2.054432375733954, 43.58053463920255], [2.0618655271013404, 43.579658391776476], [2.0692986784687277, 43.57878214435042], [2.0767318298361133, 43.57790589692436], [2.084164981203501, 43.57702964949828], [2.0915981325708866, 43.576153402072215], [2.0990312839382743, 43.575277154646145], [2.1064644353056603, 43.57440090722008], [2.1064644353056603, 43.57440090722008], [2.109545934683673, 43.57314761137137], [2.112627434061683, 43.571894315522655], [2.1157089334396955, 43.57064101967395], [2.1187904328177063, 43.56938772382524], [2.1218719321957185, 43.568134427976524], [2.124953431573731, 43.56688113212781], [2.1280349309517432, 43.5656278362791], [2.1311164303297536, 43.56437454043039], [2.1341979297077645, 43.56312124458168], [2.1372794290857766, 43.561867948732974], [2.1372794290857766, 43.561867948732974], [2.1398191932590693, 43.562495642354875], [2.1423589574323594, 43.56312333597677], [2.1448987216056508, 43.56375102959867], [2.147438485778943, 43.56437872322057], [2.1499782499522353, 43.56500641684248], [2.152518014125526, 43.56563411046438], [2.155057778298818, 43.56626180408628], [2.157597542472109, 43.56688949770818], [2.1601373066454013, 43.56751719133008], [2.1626770708186918, 43.56814488495199], [2.1626770708186918, 43.56814488495199], [2.1663006886741876, 43.566766695293055], [2.169924306529681, 43.56538850563411], [2.173547924385175, 43.56401031597517], [2.177171542240669, 43.56263212631623], [2.1807951600961633, 43.561253936657295], [2.184418777951657, 43.55987574699836], [2.1880423958071513, 43.558497557339415], [2.191666013662645, 43.55711936768048], [2.195289631518139, 43.55574117802154], [2.1989132493736325, 43.554362988362605], [2.1989132493736325, 43.554362988362605], [2.203259441663104, 43.55110379967069], [2.207605633952575, 43.54784461097876], [2.211951826242044, 43.544585422286836], [2.2162980185315155, 43.54132623359492], [2.220644210820987, 43.538067044903], [2.224990403110456, 43.53480785621108], [2.229336595399927, 43.53154866751916], [2.2336827876893968, 43.52828947882724], [2.238028979978868, 43.52503029013533], [2.242375172268339, 43.5217711014434], [2.242375172268339, 43.5217711014434], [2.250164920491614, 43.516757715750124], [2.257954668714891, 43.51174433005685], [2.265744416938166, 43.50673094436357], [2.2735341651614425, 43.50171755867029], [2.2813239133847176, 43.49670417297702], [2.2891136616079937, 43.49169078728373], [2.296903409831269, 43.486677401590455], [2.304693158054544, 43.481664015897174], [2.3124829062778223, 43.4766506302039], [2.3202726545010974, 43.47163724451062], [2.3202726545010974, 43.47163724451062], [2.3231740698127483, 43.471512994190206], [2.326075485124398, 43.47138874386979], [2.3289769004360505, 43.47126449354937], [2.331878315747702, 43.47114024322896], [2.3347797310593488, 43.47101599290854], [2.337681146371002, 43.47089174258812], [2.3405825616826528, 43.470767492267704], [2.343483976994302, 43.470643241947286], [2.346385392305955, 43.470518991626875], [2.349286807617606, 43.47039474130645], [2.349286807617606, 43.47039474130645], [2.3520078165431486, 43.471273522849074], [2.3547288254686918, 43.472152304391706], [2.3574498343942345, 43.47303108593433], [2.360170843319779, 43.473909867476955], [2.3628918522453217, 43.47478864901958], [2.3656128611708644, 43.47566743056221], [2.3683338700964094, 43.47654621210483], [2.3710548790219517, 43.47742499364746], [2.3737758879474966, 43.47830377519008], [2.3764968968730393, 43.47918255673272], [2.3764968968730393, 43.47918255673272], [2.3775832996399444, 43.47767766559709], [2.37866970240685, 43.47617277446148], [2.3797561051737532, 43.474667883325864], [2.380842507940657, 43.47316299219024], [2.3819289107075643, 43.47165810105462], [2.38301531347447, 43.470153209919005], [2.3841017162413753, 43.468648318783394], [2.3851881190082787, 43.46714342764778], [2.386274521775184, 43.46563853651216], [2.3873609245420897, 43.46413364537654], [2.3873609245420897, 43.46413364537654], [2.392615810570202, 43.46263088841372], [2.3978706965983103, 43.461128131450906], [2.4031255826264233, 43.459625374488084], [2.4083804686545354, 43.45812261752527], [2.413635354682646, 43.45661986056245], [2.418890240710758, 43.455117103599626], [2.4241451267388703, 43.453614346636805], [2.4294000127669833, 43.452111589674], [2.4346548987950936, 43.45060883271117], [2.4399097848232043, 43.44910607574836], [2.4399097848232043, 43.44910607574836], [2.441534483767937, 43.44471711739782], [2.4431591827126726, 43.44032815904728], [2.4447838816574055, 43.435939200696744], [2.4464085806021374, 43.43155024234621], [2.44803327954687, 43.42716128399567], [2.449657978491602, 43.42277232564514], [2.4512826774363368, 43.4183833672946], [2.452907376381069, 43.41399440894406], [2.4545320753258033, 43.409605450593524], [2.4561567742705357, 43.40521649224299], [2.4561567742705357, 43.40521649224299], [2.463589178285423, 43.40396532139956], [2.4710215823003074, 43.40271415055613], [2.4784539863151953, 43.4014629797127], [2.485886390330081, 43.40021180886926], [2.4933187943449684, 43.39896063802582], [2.500751198359854, 43.397709467182395], [2.508183602374742, 43.39645829633896], [2.5156160063896276, 43.39520712549553], [2.5230484104045154, 43.39395595465209], [2.530480814419401, 43.392704783808654], [2.530480814419401, 43.392704783808654], [2.5351983377862344, 43.393709038020425], [2.5399158611530703, 43.39471329223219], [2.544633384519904, 43.39571754644396], [2.549350907886737, 43.396721800655726], [2.5540684312535724, 43.397726054867505], [2.558785954620409, 43.39873030907926], [2.5635034779872417, 43.39973456329103], [2.5682210013540767, 43.4007388175028], [2.57293852472091, 43.40174307171457], [2.577656048087745, 43.40274732592634], [2.577656048087745, 43.40274732592634], [2.578933055126258, 43.4063838803738], [2.5802100621647672, 43.41002043482127], [2.58148706920328, 43.41365698926873], [2.582764076241791, 43.4172935437162], [2.5840410832803027, 43.42093009816367], [2.585318090318815, 43.424566652611134], [2.586595097357327, 43.4282032070586], [2.58787210439584, 43.43183976150607], [2.5891491114343492, 43.43547631595354], [2.590426118472862, 43.439112870401], [2.590426118472862, 43.439112870401], [2.5897060415475415, 43.44224689576389], [2.5889859646222235, 43.44538092112678], [2.5882658876969047, 43.44851494648967], [2.587545810771584, 43.45164897185255], [2.5868257338462675, 43.454782997215446], [2.5861056569209473, 43.45791702257833], [2.5853855799956285, 43.46105104794121], [2.5846655030703083, 43.4641850733041], [2.5839454261449895, 43.46731909866699], [2.583225349219673, 43.47045312402987], [2.583225349219673, 43.47045312402987], [2.5825041136141196, 43.47220805511877], [2.5817828780085654, 43.47396298620767], [2.5810616424030157, 43.47571791729656], [2.580340406797462, 43.47747284838545], [2.5796191711919105, 43.47922777947436], [2.578897935586357, 43.480982710563254], [2.5781766999808062, 43.48273764165215], [2.577455464375253, 43.48449257274105], [2.5767342287697015, 43.48624750382995], [2.5760129931641496, 43.48800243491885], [2.5760129931641496, 43.48800243491885], [2.5698463363191375, 43.48787592153076], [2.563679679474129, 43.487749408142676], [2.557513022629117, 43.4876228947546], [2.5513463657841062, 43.487496381366526], [2.5451797089390964, 43.487369867978444], [2.5390130520940826, 43.48724335459037], [2.532846395249074, 43.48711684120228], [2.526679738404062, 43.4869903278142], [2.5205130815590517, 43.48686381442612], [2.5143464247140415, 43.48673730103804], [2.5143464247140415, 43.48673730103804], [2.511993792258164, 43.48936987277079], [2.509641159802286, 43.492002444503534], [2.507288527346408, 43.49463501623628], [2.50493589489053, 43.49726758796903], [2.502583262434654, 43.499900159701774], [2.5002306299787778, 43.50253273143452], [2.4978779975228984, 43.50516530316726], [2.495525365067022, 43.50779787490001], [2.493172732611143, 43.51043044663276], [2.4908201001552683, 43.5130630183655], [2.4908201001552683, 43.5130630183655], [2.490825664800684, 43.51594618213418], [2.4908312294461, 43.51882934590285], [2.490836794091515, 43.52171250967152], [2.49084235873693, 43.52459567344019], [2.4908479233823457, 43.527478837208854], [2.490853488027763, 43.53036200097753], [2.4908590526731786, 43.533245164746205], [2.4908646173185938, 43.53612832851487], [2.4908701819640098, 43.53901149228355], [2.490875746609425, 43.54189465605222], [2.490875746609425, 43.54189465605222], [2.4928762456609395, 43.54490438596364], [2.4948767447124545, 43.547914115875045], [2.4968772437639672, 43.550923845786464], [2.498877742815482, 43.55393357569788], [2.500878241866997, 43.5569433056093], [2.50287874091851, 43.55995303552072], [2.5048792399700264, 43.56296276543214], [2.5068797390215414, 43.56597249534356], [2.5088802380730537, 43.56898222525497], [2.5108807371245687, 43.57199195516639], [2.5108807371245687, 43.57199195516639], [2.5168706698227905, 43.57425059180732], [2.5228606025210105, 43.57650922844826], [2.5288505352192305, 43.5787678650892], [2.534840467917454, 43.581026501730136], [2.540830400615674, 43.583285138371075], [2.546820333313896, 43.58554377501201], [2.5528102660121177, 43.587802411652945], [2.558800198710339, 43.59006104829388], [2.564790131408559, 43.59231968493482], [2.570780064106781, 43.59457832157576], [2.570780064106781, 43.59457832157576], [2.5747785645955914, 43.59934470037527], [2.5787770650844, 43.60411107917477], [2.5827755655732125, 43.60887745797428], [2.586774066062021, 43.61364383677379], [2.590772566550831, 43.61841021557329], [2.5947710670396416, 43.6231765943728], [2.598769567528452, 43.6279429731723], [2.602768068017261, 43.632709351971805], [2.6067665685060706, 43.637475730771314], [2.6107650689948816, 43.642242109570816], [2.6107650689948816, 43.642242109570816], [2.614573932150375, 43.64236803453762], [2.618382795305871, 43.64249395950441], [2.6221916584613645, 43.64261988447121], [2.6260005216168567, 43.64274580943801], [2.6298093847723525, 43.6428717344048], [2.6336182479278465, 43.642997659371595], [2.63742711108334, 43.64312358433839], [2.641235974238836, 43.64324950930519], [2.6450448373943276, 43.64337543427199], [2.648853700549822, 43.64350135923878], [2.648853700549822, 43.64350135923878], [2.653927824344779, 43.64199751798963], [2.659001948139738, 43.64049367674047], [2.6640760719346948, 43.63898983549131], [2.669150195729652, 43.63748599424215], [2.6742243195246056, 43.635982152992995], [2.679298443319565, 43.63447831174384], [2.6843725671145218, 43.63297447049469], [2.6894466909094787, 43.63147062924552], [2.694520814704434, 43.62996678799636], [2.6995949384993927, 43.628462946747206], [2.6995949384993927, 43.628462946747206], [2.7035856616152585, 43.6283389682792], [2.7075763847311247, 43.62821498981119], [2.7115671078469923, 43.62809101134319], [2.7155578309628585, 43.627967032875176], [2.7195485540787243, 43.627843054407165], [2.72353927719459, 43.62771907593916], [2.727530000310456, 43.62759509747116], [2.731520723426322, 43.62747111900315], [2.7355114465421875, 43.62734714053514], [2.7395021696580555, 43.62722316206714], [2.7395021696580555, 43.62722316206714], [2.740766783567755, 43.62521732389761], [2.742031397477454, 43.62321148572808], [2.7432960113871547, 43.62120564755855], [2.744560625296852, 43.61919980938902], [2.745825239206553, 43.61719397121949], [2.747089853116252, 43.61518813304997], [2.7483544670259517, 43.61318229488044], [2.749619080935652, 43.6111764567109], [2.7508836948453497, 43.60917061854138], [2.752148308755049, 43.607164780371846], [2.752148308755049, 43.607164780371846], [2.753780915756091, 43.60691414512388], [2.755413522757135, 43.60666350987592], [2.757046129758177, 43.60641287462795], [2.7586787367592174, 43.60616223937999], [2.7603113437602596, 43.605911604132025], [2.7619439507613035, 43.60566096888406], [2.7635765577623457, 43.6054103336361], [2.7652091647633874, 43.60515969838813], [2.766841771764428, 43.60490906314017], [2.76847437876547, 43.604658427892204], [2.76847437876547, 43.604658427892204], [2.7737370877465453, 43.60716792573251], [2.778999796727622, 43.60967742357281], [2.784262505708697, 43.61218692141312], [2.78952521468977, 43.61469641925343], [2.7947879236708455, 43.617205917093735], [2.800050632651922, 43.61971541493404], [2.8053133416329974, 43.62222491277434], [2.8105760506140722, 43.62473441061466], [2.8158387595951493, 43.62724390845496], [2.8211014685762223, 43.62975340629526], [2.8211014685762223, 43.62975340629526], [2.8298068435489134, 43.630006621535124], [2.838512218521603, 43.63025983677499], [2.847217593494295, 43.63051305201485], [2.8559229684669867, 43.63076626725472], [2.864628343439676, 43.63101948249458], [2.8733337184123675, 43.631272697734445], [2.882039093385059, 43.631525912974304], [2.89074446835775, 43.63177912821417], [2.89944984333044, 43.63203234345403], [2.9081552183031296, 43.6322855586939], [2.9081552183031296, 43.6322855586939], [2.910693900897853, 43.63153311888652], [2.913232583492573, 43.630780679079145], [2.915771266087293, 43.63002823927178], [2.918309948682016, 43.6292757994644], [2.920848631276738, 43.628523359657024], [2.9233873138714577, 43.62777091984965], [2.9259259964661775, 43.627018480042274], [2.928464679060901, 43.6262660402349], [2.931003361655621, 43.62551360042753], [2.933542044250342, 43.62476116062016], [2.933542044250342, 43.62476116062016], [2.9402607131873335, 43.629151107310065], [2.9469793821243226, 43.633541053999984], [2.953698051061312, 43.637931000689896], [2.9604167199983027, 43.642320947379815], [2.9671353889352905, 43.64671089406973], [2.973854057872282, 43.65110084075964], [2.9805727268092728, 43.65549078744955], [2.98729139574626, 43.65988073413946], [2.9940100646832515, 43.66427068082939], [3.0007287336202424, 43.668660627519294]]]}}]}