{
    "type": "FeatureCollection",
    "name": "Uxellen et Terralben",
    "crs": {
        "type": "name",
        "properties": {
            "name": "urn:ogc:def:crs:OGC:1.3:CRS84"
        }
    },
    "features": [
        {
            "type": "Feature",
            "properties": {
                "diocese": "Uxellen et Terralben",
                "province": "Arboren",
                "date": 1592
            },
            "geometry": {
                "type": "MultiPolygon",
                "coordinates": [
                    [
                        [
                            [
                                9.031471330694364,
                                39.67211581874939
                            ],
                            [
                                9.015194939648255,
                                39.661688167898092
                            ],
                            [
                                8.968862016314741,
                                39.642168788337422
                            ],
                            [
                                8.943510039396404,
                                39.628030624882506
                            ],
                            [
                                8.903296558767318,
                                39.597051217724839
                            ],
                            [
                                8.877944581848979,
                                39.565384028091827
                            ],
                            [
                                8.866579902540758,
                                39.559318447574967
                            ],
                            [
                                8.828989040213568,
                                39.541118523146899
                            ],
                            [
                                8.81762436090535,
                                39.504029836758967
                            ],
                            [
                                8.815001742603451,
                                39.459497271898819
                            ],
                            [
                                8.807133887697761,
                                39.432493962948122
                            ],
                            [
                                8.792272383987012,
                                39.409532918326406
                            ],
                            [
                                8.76954302537057,
                                39.386564310417562
                            ],
                            [
                                8.73982001794907,
                                39.373725618109006
                            ],
                            [
                                8.710971216628206,
                                39.370346622400433
                            ],
                            [
                                8.688241858011764,
                                39.359532737287246
                            ],
                            [
                                8.651525201785207,
                                39.323023514470606
                            ],
                            [
                                8.602569660149795,
                                39.349393199355404
                            ],
                            [
                                8.580714507633989,
                                39.354125166847325
                            ],
                            [
                                8.554488324615019,
                                39.368319146484708
                            ],
                            [
                                8.516023256187195,
                                39.377780197105452
                            ],
                            [
                                8.495042309772021,
                                39.392644972019525
                            ],
                            [
                                8.471438745054947,
                                39.430468292685937
                            ],
                            [
                                8.443464149834712,
                                39.43992091670723
                            ],
                            [
                                8.422483203419535,
                                39.43722029786332
                            ],
                            [
                                8.42335740952017,
                                39.453422440327031
                            ],
                            [
                                8.40150225700436,
                                39.470970507319976
                            ],
                            [
                                8.396257020400565,
                                39.495935127716365
                            ],
                            [
                                8.408495905809419,
                                39.507402353954539
                            ],
                            [
                                8.446960974237241,
                                39.533702370449539
                            ],
                            [
                                8.474061363356844,
                                39.612542654211381
                            ],
                            [
                                8.461822477947992,
                                39.632070395021074
                            ],
                            [
                                8.441715737633446,
                                39.705418478581691
                            ],
                            [
                                8.449583592539136,
                                39.774657479103361
                            ],
                            [
                                8.460948271847359,
                                39.775329361413242
                            ],
                            [
                                8.498539134174548,
                                39.729626425307181
                            ],
                            [
                                8.525638713933004,
                                39.738365834602426
                            ],
                            [
                                8.525621487694366,
                                39.738341911765168
                            ],
                            [
                                8.583884418431603,
                                39.701970824121005
                            ],
                            [
                                8.618504420753728,
                                39.698722472830838
                            ],
                            [
                                8.637925397666141,
                                39.709766243383676
                            ],
                            [
                                8.777249797255184,
                                39.850581396870247
                            ],
                            [
                                8.819469312282168,
                                39.859008178196902
                            ],
                            [
                                8.854089314604293,
                                39.855767230895594
                            ],
                            [
                                8.874354681817245,
                                39.836318333142238
                            ],
                            [
                                8.886176146024798,
                                39.763660444154965
                            ],
                            [
                                8.896308829631277,
                                39.742886948926007
                            ],
                            [
                                8.944439076762038,
                                39.70521902251226
                            ],
                            [
                                8.972303956679847,
                                39.697423089503808
                            ],
                            [
                                9.009457129903589,
                                39.671430285988968
                            ],
                            [
                                9.031411277717622,
                                39.672080225321082
                            ],
                            [
                                9.031466960850905,
                                39.672142126500837
                            ],
                            [
                                9.031471330694364,
                                39.67211581874939
                            ]
                        ]
                    ]
                ]
            }
        }
    ]
}