{"type": "FeatureCollection", "features": [{"type": "Feature", "properties": {"diocese": "Lisieux", "province": "XIV_Rouen", "source": "100_Lisieux.txt"}, "geometry": {"type": "Polygon", "coordinates": [[[-0.14139805160150165, 49.292718432992295], [-0.1403931917261816, 49.28901299287367], [-0.13938833185086053, 49.28530755275506], [-0.13838347197554068, 49.281602112636435], [-0.13737861210021973, 49.27789667251782], [-0.13637375222489878, 49.274191232399204], [-0.13536889234957872, 49.27048579228059], [-0.13436403247425888, 49.26678035216197], [-0.1333591725989386, 49.26307491204336], [-0.13235431272361686, 49.259369471924735], [-0.1313494528482968, 49.25566403180613], [-0.1313494528482968, 49.25566403180613], [-0.12981022996224656, 49.25503736709271], [-0.1282710070761962, 49.254410702379296], [-0.12673178419014586, 49.253784037665895], [-0.12519256130409573, 49.25315737295248], [-0.1236533384180436, 49.252530708239064], [-0.12211411553199414, 49.25190404352566], [-0.12057489264594379, 49.251277378812254], [-0.11903566975989255, 49.25065071409884], [-0.11749644687384131, 49.25002404938543], [-0.11595722398779196, 49.24939738467202], [-0.11595722398779196, 49.24939738467202], [-0.1129644358360784, 49.24939813156529], [-0.10997164768436696, 49.249398878458564], [-0.10697885953265429, 49.249399625351835], [-0.10398607138094085, 49.24940037224511], [-0.10099328322922818, 49.24940111913838], [-0.09800049507751651, 49.249401866031654], [-0.09500770692580274, 49.24940261292493], [-0.09201491877409018, 49.2494033598182], [-0.0890221306223784, 49.249404106711474], [-0.08602934247066496, 49.249404853604744], [-0.08602934247066496, 49.249404853604744], [-0.08503410200351502, 49.24871609098417], [-0.08403886153636564, 49.2480273283636], [-0.0830436210692167, 49.24733856574302], [-0.08204838060206665, 49.246649803122445], [-0.08105314013491649, 49.245961040501875], [-0.0800578996677681, 49.24527227788129], [-0.07906265920061817, 49.244583515260715], [-0.07806741873346823, 49.24389475264014], [-0.07707217826631896, 49.24320599001957], [-0.07607693779916902, 49.24251722739899], [-0.07607693779916902, 49.24251722739899], [-0.07771203536404647, 49.24069869052222], [-0.07934713292892659, 49.238880153645454], [-0.08098223049380437, 49.23706161676868], [-0.08261732805868383, 49.2352430798919], [-0.08425242562356106, 49.23342454301513], [-0.08588752318843973, 49.231606006138364], [-0.08752262075331829, 49.22978746926159], [-0.08915771831819663, 49.227968932384826], [-0.09079281588307508, 49.22615039550805], [-0.09242791344795276, 49.22433185863127], [-0.09242791344795276, 49.22433185863127], [-0.09134200417739435, 49.22339102036736], [-0.09025609490683661, 49.222450182103444], [-0.08917018563627821, 49.221509343839536], [-0.0880842763657198, 49.22056850557562], [-0.08699836709516195, 49.21962766731171], [-0.08591245782460355, 49.2186868290478], [-0.08482654855404514, 49.21774599078389], [-0.08374063928348652, 49.21680515251998], [-0.08265473001292922, 49.21586431425606], [-0.0815688207423706, 49.21492347599215], [-0.0815688207423706, 49.21492347599215], [-0.08111711865727012, 49.21360752887517], [-0.08066541657216963, 49.212291581758194], [-0.08021371448706827, 49.210975634641215], [-0.07976201240196756, 49.20965968752424], [-0.07931031031686708, 49.208343740407265], [-0.0788586082317666, 49.20702779329029], [-0.07840690614666612, 49.205711846173315], [-0.07795520406156364, 49.20439589905633], [-0.07750350197646316, 49.20307995193936], [-0.07705179989136268, 49.20176400482238], [-0.07705179989136268, 49.20176400482238], [-0.07786758622398415, 49.20176380123118], [-0.07868337255660462, 49.20176359763999], [-0.07949915888922632, 49.20176339404878], [-0.08031494522184779, 49.201763190457584], [-0.08113073155446826, 49.20176298686639], [-0.08194651788708973, 49.20176278327519], [-0.08276230421971031, 49.201762579684], [-0.08357809055233267, 49.2017623760928], [-0.08439387688495337, 49.201762172501596], [-0.08520966321757395, 49.201761968910404], [-0.08520966321757395, 49.201761968910404], [-0.08838407479820876, 49.20132213092186], [-0.09155848637884179, 49.20088229293331], [-0.0947328979594777, 49.200442454944756], [-0.09790730954011162, 49.200002616956205], [-0.10108172112074443, 49.19956277896766], [-0.10425613270137946, 49.1991229409791], [-0.10743054428201249, 49.19868310299055], [-0.11060495586264818, 49.198243265002], [-0.11377936744328121, 49.197803427013454], [-0.11695377902391524, 49.1973635890249], [-0.11695377902391524, 49.1973635890249], [-0.11822612215588135, 49.196172196996635], [-0.11949846528784858, 49.19498080496838], [-0.1207708084198148, 49.19378941294011], [-0.12204315155178169, 49.19259802091186], [-0.12331549468374792, 49.19140662888359], [-0.12458783781571414, 49.19021523685533], [-0.12586018094768114, 49.18902384482707], [-0.12713252407964726, 49.18783245279881], [-0.12840486721161448, 49.18664106077055], [-0.1296772103435807, 49.18544966874229], [-0.1296772103435807, 49.18544966874229], [-0.13022470388853558, 49.1835683800923], [-0.13077219743349233, 49.181687091442306], [-0.13131969097844653, 49.179805802792316], [-0.13186718452340251, 49.17792451414232], [-0.13241467806835827, 49.176043225492336], [-0.13296217161331314, 49.17416193684234], [-0.13350966515826923, 49.17228064819234], [-0.1340571587032241, 49.17039935954236], [-0.1346046522481792, 49.16851807089236], [-0.13515214579313584, 49.16663678224237], [-0.13515214579313584, 49.16663678224237], [-0.1328879575344859, 49.16538431065778], [-0.13062376927583663, 49.164131839073185], [-0.12835958101718736, 49.1628793674886], [-0.1260953927585381, 49.16162689590401], [-0.12383120449988794, 49.160374424319414], [-0.12156701624123867, 49.159121952734814], [-0.1193028279825894, 49.15786948115023], [-0.11703863972394013, 49.156617009565636], [-0.11477445146529086, 49.15536453798104], [-0.11251026320664159, 49.15411206639645], [-0.11251026320664159, 49.15411206639645], [-0.10879489379219165, 49.15304689900312], [-0.10507952437774248, 49.1519817316098], [-0.10136415496329243, 49.150916564216466], [-0.09764878554884338, 49.14985139682314], [-0.09393341613439321, 49.14878622942982], [-0.09021804671994316, 49.14772106203649], [-0.0865026773054931, 49.14665589464316], [-0.08278730789104383, 49.14559072724984], [-0.07907193847659477, 49.14452555985651], [-0.07535656906214472, 49.143460392463176], [-0.07535656906214472, 49.143460392463176], [-0.0740920914559261, 49.14057648459991], [-0.07282761384970837, 49.13769257673664], [-0.07156313624349053, 49.13480866887337], [-0.07029865863727103, 49.1319247610101], [-0.06903418103105441, 49.129040853146826], [-0.06776970342483568, 49.126156945283554], [-0.06650522581861706, 49.12327303742028], [-0.06524074821240022, 49.12038912955702], [-0.06397627060618061, 49.11750522169374], [-0.06271179299996288, 49.114621313830476], [-0.06271179299996288, 49.114621313830476], [-0.06389321408358772, 49.11330495914415], [-0.06507463516721246, 49.11198860445783], [-0.06625605625083808, 49.110672249771504], [-0.06743747733446193, 49.10935589508519], [-0.0686188984180861, 49.10803954039886], [-0.06980031950171173, 49.106723185712546], [-0.07098174058533657, 49.105406831026215], [-0.07216316166896042, 49.10409047633989], [-0.07334458275258515, 49.102774121653574], [-0.07452600383620989, 49.10145776696725], [-0.07452600383620989, 49.10145776696725], [-0.07779399916339713, 49.09976380792635], [-0.08106199449058504, 49.09806984888545], [-0.08432998981777218, 49.096375889844545], [-0.08759798514495998, 49.09468193080365], [-0.09086598047214811, 49.09298797176275], [-0.09413397579933536, 49.091294012721846], [-0.09740197112652338, 49.08960005368095], [-0.10066996645371151, 49.08790609464005], [-0.10393796178089842, 49.08621213559915], [-0.10720595710808634, 49.084518176558255], [-0.10720595710808634, 49.084518176558255], [-0.10915588577808566, 49.084486711585946], [-0.1111058144480851, 49.08445524661363], [-0.11305574311808453, 49.08442378164132], [-0.11500567178808363, 49.08439231666901], [-0.11695560045808284, 49.08436085169671], [-0.11890552912808217, 49.0843293867244], [-0.12085545779808138, 49.08429792175209], [-0.1228053864680817, 49.08426645677978], [-0.12475531513808102, 49.08423499180746], [-0.12670524380808024, 49.08420352683517], [-0.12670524380808024, 49.08420352683517], [-0.12324733827691725, 49.07942833273795], [-0.11978943274575327, 49.07465313864074], [-0.11633152721459117, 49.06987794454353], [-0.11287362168342718, 49.065102750446314], [-0.1094157161522642, 49.0603275563491], [-0.1059578106211011, 49.055552362251895], [-0.10249990508993811, 49.050777168154674], [-0.09904199955877502, 49.04600197405747], [-0.09558409402761114, 49.04122677996025], [-0.09212618849644827, 49.03645158586304], [-0.09212618849644827, 49.03645158586304], [-0.08532961685277662, 49.03636461858057], [-0.07853304520910687, 49.03627765129809], [-0.07173647356543522, 49.036190684015615], [-0.06493990192176358, 49.03610371673314], [-0.05814333027809104, 49.03601674945066], [-0.051346758634420286, 49.03592978216819], [-0.04455018699074875, 49.03584281488571], [-0.03775361534707733, 49.03575584760324], [-0.03095704370340746, 49.03566888032076], [-0.024160472059735927, 49.035581913038286], [-0.024160472059735927, 49.035581913038286], [-0.021729379274616822, 49.03274529982527], [-0.01929828648949683, 49.02990868661226], [-0.016867193704377725, 49.02707207339925], [-0.014436100919258621, 49.02423546018624], [-0.012005008134139294, 49.02139884697323], [-0.0095739153490213, 49.01856223376021], [-0.007142822563902196, 49.0157256205472], [-0.004711729778781315, 49.01288900733418], [-0.002280636993663099, 49.01005239412117], [0.00015045579145600563, 49.007215780908155], [0.00015045579145600563, 49.007215780908155], [0.0014231025694301236, 49.002162297443725], [0.0026957493474040195, 48.99710881397928], [0.003968396125377804, 48.99205533051485], [0.005241042903351034, 48.98700184705042], [0.00651368968132493, 48.98194836358598], [0.007786336459299714, 48.97689488012155], [0.009058983237273832, 48.97184139665711], [0.010331630015247728, 48.966787913192675], [0.011604276793221624, 48.96173442972824], [0.012876923571195742, 48.95668094626381], [0.012876923571195742, 48.95668094626381], [0.010945104360017721, 48.95242463425986], [0.009013285148839922, 48.948168322255924], [0.007081465937662124, 48.943912010251985], [0.00514964672648488, 48.939655698248046], [0.003217827515306859, 48.9353993862441], [0.0012860083041290604, 48.93114307424017], [-0.0006458109070487383, 48.92688676223622], [-0.002577630118226759, 48.922630450232276], [-0.004509449329403781, 48.918374138228344], [-0.0064412685405815795, 48.9141178262244], [-0.0064412685405815795, 48.9141178262244], [-0.004906492898233861, 48.91199029703902], [-0.00337171725588703, 48.909862767853646], [-0.0018369416135403105, 48.90773523866827], [-0.0003021659711925917, 48.905607709482894], [0.001232609671154128, 48.90348018029752], [0.0027673853135009585, 48.90135265111215], [0.004302160955848677, 48.89922512192676], [0.005836936598196285, 48.89709759274139], [0.007371712240543116, 48.894970063556016], [0.008906487882890723, 48.89284253437064], [0.008906487882890723, 48.89284253437064], [0.015313203169935008, 48.89009557679588], [0.021719918456978293, 48.887348619221136], [0.028126633744024243, 48.88460166164638], [0.03453334903106775, 48.88185470407162], [0.0409400643181117, 48.879107746496864], [0.0473467796051561, 48.87636078892211], [0.05375349489220116, 48.87361383134736], [0.06016021017924533, 48.870866873772606], [0.06656692546628884, 48.868119916197855], [0.0729736407533339, 48.8653729586231], [0.0729736407533339, 48.8653729586231], [0.07746496475185682, 48.866881352925645], [0.08195628875037997, 48.86838974722818], [0.08644761274890311, 48.86989814153073], [0.09093893674742604, 48.87140653583328], [0.0954302607459494, 48.87291493013582], [0.09992158474447144, 48.87442332443837], [0.10441290874299436, 48.87593171874091], [0.1089042327415175, 48.877440113043455], [0.11339555674004087, 48.878948507346], [0.11788688073856357, 48.88045690164854], [0.11788688073856357, 48.88045690164854], [0.1232729738559959, 48.88045824582545], [0.12865906697342822, 48.88045959000235], [0.1340451600908601, 48.88046093417926], [0.13943125320829242, 48.88046227835617], [0.14481734632572452, 48.88046362253307], [0.15020343944315773, 48.88046496670997], [0.15558953256058983, 48.880466310886874], [0.16097562567802193, 48.88046765506378], [0.16636171879545403, 48.880468999240684], [0.17174781191288635, 48.880470343417585], [0.17174781191288635, 48.880470343417585], [0.17341048617234156, 48.878165513752705], [0.175073160431797, 48.875860684087804], [0.17673583469125131, 48.87355585442291], [0.17839850895070652, 48.871251024758024], [0.18006118321016107, 48.86894619509312], [0.18172385746961628, 48.86664136542824], [0.1833865317290715, 48.864336535763336], [0.18504920598852626, 48.86203170609845], [0.18671188024798147, 48.85972687643356], [0.188374554507436, 48.85742204676866], [0.188374554507436, 48.85742204676866], [0.18503397592929227, 48.85414068129871], [0.18169339735114787, 48.85085931582876], [0.17835281877300502, 48.847577950358804], [0.1750122401948615, 48.84429658488885], [0.1716716616167182, 48.84101521941891], [0.16833108303857358, 48.83773385394895], [0.16499050446043007, 48.834452488479], [0.16164992588228633, 48.83117112300904], [0.15830934730414192, 48.8278897575391], [0.15496876872599818, 48.82460839206914], [0.15496876872599818, 48.82460839206914], [0.15817272135114413, 48.82354523555621], [0.16137667397628985, 48.82248207904326], [0.16458062660143535, 48.82141892253032], [0.16778457922658108, 48.82035576601738], [0.1709885318517248, 48.81929260950443], [0.17419248447687163, 48.818229452991496], [0.17739643710201713, 48.817166296478554], [0.18060038972716197, 48.81610313996561], [0.18380434235230858, 48.815039983452664], [0.1870082949774532, 48.81397682693972], [0.1870082949774532, 48.81397682693972], [0.1905892775481255, 48.80892391955364], [0.194170260118798, 48.80387101216757], [0.1977512426894683, 48.79881810478148], [0.20133222526014127, 48.79376519739541], [0.20491320783081268, 48.78871229000932], [0.20849419040148387, 48.78365938262325], [0.21207517297215728, 48.77860647523717], [0.21565615554282846, 48.77355356785108], [0.21923713811350076, 48.768500660465], [0.22281812068417306, 48.76344775307893], [0.22281812068417306, 48.76344775307893], [0.2235825954380164, 48.76087671433111], [0.22434707019186062, 48.75830567558331], [0.22511154494570484, 48.75573463683549], [0.22587601969954818, 48.753163598087674], [0.2266404944533924, 48.750592559339864], [0.22740496920723574, 48.748021520592054], [0.22816944396108085, 48.74545048184424], [0.22893391871492508, 48.74287944309643], [0.2296983934687684, 48.74030840434862], [0.23046286822261264, 48.7377373656008], [0.23046286822261264, 48.7377373656008], [0.22648177180490658, 48.73481155519053], [0.2225006753872012, 48.73188574478028], [0.21851957896949603, 48.72895993437001], [0.21453848255179064, 48.726034123959735], [0.2105573861340846, 48.723108313549474], [0.2065762897163801, 48.72018250313921], [0.20259519329867404, 48.71725669272894], [0.19861409688096776, 48.71433088231868], [0.1946330004632626, 48.71140507190841], [0.1906519040455572, 48.708479261498134], [0.1906519040455572, 48.708479261498134], [0.19077432669900252, 48.70546474519422], [0.19089674935244694, 48.7024502288903], [0.19101917200589247, 48.699435712586386], [0.19114159465933755, 48.69642119628246], [0.19126401731278286, 48.69340667997854], [0.19138643996622906, 48.69039216367462], [0.19150886261967415, 48.6873776473707], [0.19163128527311946, 48.684363131066775], [0.1917537079265641, 48.68134861476286], [0.19187613058000919, 48.67833409845894], [0.19187613058000919, 48.67833409845894], [0.1963621497291672, 48.677093934975], [0.20084816887832635, 48.67585377149106], [0.2053341880274835, 48.67461360800712], [0.20982020717664351, 48.673373444523186], [0.21430622632580065, 48.67213328103925], [0.2187922454749589, 48.67089311755531], [0.22327826462411782, 48.66965295407137], [0.22776428377327496, 48.66841279058743], [0.23225030292243498, 48.6671726271035], [0.23673632207159212, 48.665932463619555], [0.23673632207159212, 48.665932463619555], [0.24186577022015765, 48.665845080282466], [0.24699521836872473, 48.66575769694537], [0.25212466651729115, 48.66567031360829], [0.25725411466585557, 48.665582930271185], [0.2623835628144211, 48.6654955469341], [0.2675130109629884, 48.66540816359701], [0.2726424591115546, 48.665320780259925], [0.27777190726012013, 48.66523339692284], [0.28290135540868544, 48.66514601358573], [0.28803080355725275, 48.66505863024865], [0.28803080355725275, 48.66505863024865], [0.2930292624615398, 48.66435057543875], [0.298027721365828, 48.663642520628855], [0.30302618027011685, 48.662934465818964], [0.3080246391744057, 48.662226411009065], [0.3130230980786939, 48.66151835619917], [0.31802155698298096, 48.660810301389276], [0.3230200158872689, 48.66010224657938], [0.3280184747915589, 48.659394191769486], [0.33301693369584684, 48.65868613695959], [0.3380153926001339, 48.65797808214969], [0.3380153926001339, 48.65797808214969], [0.33814996506543915, 48.661258647514764], [0.3382845375307453, 48.66453921287984], [0.3384191099960505, 48.66781977824491], [0.33855368246135553, 48.671100343609986], [0.33868825492666077, 48.67438090897506], [0.338822827391966, 48.67766147434014], [0.338957399857271, 48.680942039705215], [0.33909197232257604, 48.68422260507028], [0.3392265447878813, 48.68750317043536], [0.3393611172531876, 48.69078373580044], [0.3393611172531876, 48.69078373580044], [0.35308660049311147, 48.69273775194285], [0.3668120837330364, 48.69469176808526], [0.38053756697296137, 48.69664578422766], [0.39426305021288566, 48.698599800370076], [0.4079885334528115, 48.70055381651249], [0.4217140166927358, 48.7025078326549], [0.4354394999326596, 48.704461848797294], [0.44916498317258435, 48.70641586493971], [0.4628904664125095, 48.70836988108212], [0.4766159496524347, 48.710323897224534], [0.4766159496524347, 48.710323897224534], [0.47801169963538226, 48.71221180763513], [0.47940744961833204, 48.714099718045745], [0.4808031996012798, 48.71598762845634], [0.4821989495842285, 48.71787553886694], [0.48359469956717804, 48.71976344927754], [0.4849904495501267, 48.721651359688146], [0.4863861995330754, 48.72353927009875], [0.4877819495160234, 48.72542718050936], [0.4891776994989727, 48.72731509091995], [0.4905734494819207, 48.72920300133056], [0.4905734494819207, 48.72920300133056], [0.49030660025712614, 48.73183612641651], [0.49003975103232955, 48.73446925150246], [0.48977290180753386, 48.73710237658841], [0.48950605258273816, 48.73973550167435], [0.48923920335794246, 48.74236862676031], [0.48897235413314766, 48.74500175184626], [0.4887055049083511, 48.74763487693221], [0.48843865568355627, 48.75026800201816], [0.4881718064587597, 48.7529011271041], [0.4879049572339642, 48.75553425219006], [0.4879049572339642, 48.75553425219006], [0.48528070090705344, 48.758354792031255], [0.482656444580142, 48.761175331872444], [0.48003218825323213, 48.76399587171364], [0.4774079319263207, 48.766816411554835], [0.47478367559941015, 48.76963695139602], [0.4721594192724996, 48.77245749123722], [0.46953516294558817, 48.775278031078415], [0.4669109066186783, 48.77809857091961], [0.46428665029176686, 48.7809191107608], [0.4616623939648561, 48.78373965060199], [0.4616623939648561, 48.78373965060199], [0.4607597928928582, 48.78599659445882], [0.45985719182085827, 48.78825353831565], [0.45895459074885925, 48.79051048217248], [0.4580519896768602, 48.79276742602931], [0.45714938860486143, 48.79502436988613], [0.45624678753286263, 48.797281313742964], [0.4553441864608643, 48.799538257599785], [0.4544415853888637, 48.80179520145661], [0.45353898431686535, 48.80405214531344], [0.45263638324486655, 48.80630908917026], [0.45263638324486655, 48.80630908917026], [0.45573001452735706, 48.81132520190591], [0.4588236458098476, 48.816341314641555], [0.4619172770923379, 48.8213574273772], [0.4650109083748284, 48.82637354011285], [0.4681045396573198, 48.83138965284849], [0.47119817093981053, 48.83640576558414], [0.47429180222230105, 48.841421878319785], [0.47738543350479157, 48.84643799105543], [0.4804790647872821, 48.85145410379108], [0.4835726960697726, 48.85647021652672], [0.4835726960697726, 48.85647021652672], [0.4834898886857917, 48.86079546448746], [0.48340708130180987, 48.86512071244819], [0.48332427391782806, 48.86944596040892], [0.48324146653384803, 48.87377120836966], [0.4831586591498669, 48.87809645633038], [0.4830758517658851, 48.88242170429111], [0.4829930443819044, 48.886746952251855], [0.48291023699792324, 48.891072200212584], [0.4828274296139412, 48.89539744817331], [0.4827446222299603, 48.899722696134056], [0.4827446222299603, 48.899722696134056], [0.48184674047130005, 48.90442481883193], [0.48094885871263804, 48.90912694152981], [0.4800509769539776, 48.913829064227684], [0.47915309519531624, 48.91853118692556], [0.4782552134366549, 48.92323330962344], [0.4773573316779931, 48.92793543232132], [0.47645944991933287, 48.9326375550192], [0.4755615681606713, 48.93733967771708], [0.4746636864020104, 48.94204180041495], [0.47376580464334994, 48.946743923112834], [0.47376580464334994, 48.946743923112834], [0.4809433371756473, 48.95351616065896], [0.48812086970794555, 48.96028839820509], [0.4952984022402447, 48.96706063575122], [0.5024759347725429, 48.97383287329734], [0.5096534673048403, 48.98060511084347], [0.516830999837139, 48.98737734838959], [0.5240085323694379, 48.99414958593572], [0.5311860649017361, 49.000921823481846], [0.5383635974340337, 49.00769406102798], [0.5455411299663329, 49.014466298574106], [0.5455411299663329, 49.014466298574106], [0.5476311121891912, 49.01741300027021], [0.5497210944120519, 49.02035970196632], [0.5518110766349114, 49.023306403662424], [0.5539010588577697, 49.02625310535853], [0.5559910410806301, 49.02919980705463], [0.5580810233034896, 49.032146508750735], [0.5601710055263482, 49.03509321044684], [0.5622609877492077, 49.03803991214294], [0.564350969972067, 49.040986613839046], [0.5664409521949265, 49.04393331553515], [0.5664409521949265, 49.04393331553515], [0.5699854687012904, 49.048009498048735], [0.5735299852076534, 49.05208568056232], [0.5770745017140158, 49.056161863075914], [0.5806190182203796, 49.0602380455895], [0.5841635347267435, 49.06431422810308], [0.5877080512331065, 49.06839041061667], [0.5912525677394687, 49.07246659313026], [0.5947970842458317, 49.076542775643844], [0.5983416007521956, 49.08061895815743], [0.6018861172585577, 49.084695140671016], [0.6018861172585577, 49.084695140671016], [0.6039701414726211, 49.083755618022245], [0.6060541656866829, 49.08281609537348], [0.6081381899007452, 49.08187657272471], [0.6102222141148061, 49.08093705007595], [0.6123062383288684, 49.07999752742719], [0.6143902625429312, 49.079058004778425], [0.6164742867569921, 49.07811848212966], [0.6185583109710553, 49.07717895948089], [0.6206423351851171, 49.07623943683213], [0.6227263593991785, 49.07529991418336], [0.6227263593991785, 49.07529991418336], [0.6287107559756149, 49.075489416224876], [0.6346951525520503, 49.0756789182664], [0.6406795491284862, 49.07586842030791], [0.6466639457049217, 49.07605792234942], [0.6526483422813578, 49.076247424390935], [0.6586327388577944, 49.07643692643246], [0.6646171354342294, 49.07662642847397], [0.6706015320106657, 49.07681593051549], [0.6765859285871012, 49.07700543255701], [0.6825703251635371, 49.07719493459852], [0.6825703251635371, 49.07719493459852], [0.6836708542908632, 49.08302561279421], [0.6847713834181901, 49.0888562909899], [0.685871912545517, 49.0946869691856], [0.6869724416728427, 49.10051764738129], [0.6880729708001696, 49.10634832557698], [0.6891734999274957, 49.112179003772674], [0.6902740290548235, 49.11800968196837], [0.6913745581821493, 49.12384036016405], [0.692475087309476, 49.12967103835975], [0.6935756164368021, 49.135501716555446], [0.6935756164368021, 49.135501716555446], [0.6934443660875484, 49.13794686146331], [0.6933131157382952, 49.14039200637118], [0.6931818653890407, 49.142837151279046], [0.6930506150397873, 49.14528229618691], [0.692919364690533, 49.147727441094794], [0.6927881143412804, 49.150172586002654], [0.692656863992027, 49.15261773091053], [0.6925256136427724, 49.15506287581839], [0.692394363293519, 49.15750802072627], [0.6922631129442656, 49.15995316563413], [0.6922631129442656, 49.15995316563413], [0.6921318705057433, 49.16239831054397], [0.6920006280672224, 49.16484345545381], [0.6918693856287002, 49.16728860036366], [0.6917381431901783, 49.1697337452735], [0.6916069007516565, 49.172178890183346], [0.6914756583131352, 49.17462403509318], [0.6913444158746131, 49.17706918000303], [0.6912131734360911, 49.17951432491287], [0.6910819309975702, 49.181959469822715], [0.6909506885590488, 49.18440461473256], [0.6909506885590488, 49.18440461473256], [0.6892341075830593, 49.18760140366529], [0.6875175266070706, 49.190798192598024], [0.6858009456310821, 49.19399498153076], [0.6840843646550943, 49.19719177046348], [0.6823677836791064, 49.200388559396224], [0.680651202703116, 49.20358534832896], [0.6789346217271284, 49.20678213726169], [0.6772180407511406, 49.209978926194424], [0.675501459775151, 49.21317571512716], [0.6737848787991632, 49.21637250405989], [0.6737848787991632, 49.21637250405989], [0.6709784234099827, 49.21925495510988], [0.6681719680208014, 49.22213740615989], [0.665365512631622, 49.22501985720989], [0.6625590572424418, 49.227902308259885], [0.6597526018532625, 49.230784759309884], [0.6569461464640809, 49.23366721035988], [0.6541396910749018, 49.23654966140989], [0.6513332356857213, 49.239432112459895], [0.6485267802965411, 49.242314563509886], [0.6457203249073606, 49.24519701455989], [0.6457203249073606, 49.24519701455989], [0.645184449252644, 49.24933520742276], [0.6446485735979284, 49.253473400285635], [0.6441126979432119, 49.25761159314852], [0.6435768222884954, 49.26174978601139], [0.643040946633779, 49.26588797887427], [0.6425050709790625, 49.270026171737136], [0.641969195324346, 49.27416436460001], [0.6414333196696305, 49.27830255746289], [0.640897444014914, 49.28244075032576], [0.6403615683601975, 49.286578943188644], [0.6403615683601975, 49.286578943188644], [0.6360152939126134, 49.289775070374255], [0.6316690194650294, 49.29297119755986], [0.6273227450174441, 49.296167324745475], [0.6229764705698613, 49.29936345193109], [0.6186301961222762, 49.30255957911671], [0.614283921674692, 49.30575570630232], [0.6099376472271079, 49.30895183348793], [0.6055913727795228, 49.31214796067355], [0.6012450983319408, 49.31534408785917], [0.5968988238843558, 49.31854021504478], [0.5968988238843558, 49.31854021504478], [0.591190593532066, 49.32054492783798], [0.5854823631797772, 49.32254964063117], [0.5797741328274864, 49.32455435342437], [0.5740659024751964, 49.32655906621756], [0.5683576721229076, 49.328563779010764], [0.5626494417706178, 49.33056849180396], [0.5569412114183279, 49.33257320459716], [0.5512329810660372, 49.334577917390355], [0.5455247507137484, 49.33658263018355], [0.5398165203614584, 49.338587342976744], [0.5398165203614584, 49.338587342976744], [0.5330176819642785, 49.339901706074684], [0.5262188435670985, 49.341216069172624], [0.519420005169918, 49.34253043227057], [0.5126211667727372, 49.343844795368504], [0.505822328375557, 49.345159158466444], [0.49902348997837787, 49.34647352156438], [0.49222465158119677, 49.34778788466232], [0.4854258131840168, 49.34910224776025], [0.4786269747868366, 49.35041661085819], [0.47182813638965637, 49.35173097395614], [0.47182813638965637, 49.35173097395614], [0.4694211960930368, 49.35267041601655], [0.4670142557964181, 49.35360985807697], [0.4646073154997985, 49.354549300137386], [0.4622003752031798, 49.35548874219781], [0.4597934349065609, 49.35642818425823], [0.4573864946099424, 49.35736762631865], [0.4549795543133235, 49.35830706837906], [0.45257261401670323, 49.35924651043948], [0.4501656737200852, 49.3601859524999], [0.4477587334234665, 49.36112539456032], [0.4477587334234665, 49.36112539456032], [0.44101497437508197, 49.363757964292276], [0.434271215326699, 49.36639053402422], [0.42752745627831445, 49.36902310375617], [0.4207836972299299, 49.37165567348813], [0.41403993818154694, 49.37428824322008], [0.4072961791331633, 49.37692081295203], [0.40055242008477876, 49.379553382683994], [0.3938086610363951, 49.382185952415945], [0.3870649019880106, 49.384818522147896], [0.3803211429396267, 49.387451091879846], [0.3803211429396267, 49.387451091879846], [0.37618614546074713, 49.39204345199446], [0.37205114798186845, 49.39663581210906], [0.36791615050298776, 49.401228172223675], [0.36378115302410907, 49.40582053233828], [0.3596461555452304, 49.4104128924529], [0.3555111580663508, 49.415005252567504], [0.3513761605874721, 49.41959761268211], [0.34724116310859166, 49.424189972796725], [0.3431061656297121, 49.42878233291133], [0.3389711681508334, 49.43337469302595], [0.3389711681508334, 49.43337469302595], [0.33168425496128195, 49.43252733666319], [0.3243940958059839, 49.43170537385297], [0.3171001776015938, 49.430923809272336], [0.3098019872647635, 49.43019764759833], [0.302499011712144, 49.42954189350796], [0.2951907378603891, 49.428971551678295], [0.28787665262615025, 49.428501626786336], [0.28055624292608083, 49.428147123509156], [0.27322899567683434, 49.427923046523766], [0.2658943977950594, 49.4278444005072], [0.26589439779505675, 49.4278444005072], [0.26080024833998516, 49.4262523309597], [0.25546458131602856, 49.42550925507596], [0.2500068234569994, 49.42536812874377], [0.2445464014967087, 49.425581907850884], [0.2392027421689722, 49.42590354828507], [0.23409527220759996, 49.426086005934096], [0.22934341834640493, 49.425882236685716], [0.2250666073191998, 49.425045196427696], [0.22138426585979865, 49.42332784104781], [0.2184158207020115, 49.42048312643382], [0.21841582070201415, 49.42048312643382], [0.2095103445217661, 49.41814224385786], [0.20032583910855672, 49.41618649285999], [0.190969107538292, 49.4144669349729], [0.1815469528868805, 49.412834631729226], [0.1721661782302284, 49.41114064466162], [0.16293358664424784, 49.40923603530275], [0.15395598120484388, 49.40697186518526], [0.14534016498792313, 49.40419919584182], [0.13719294106939683, 49.40076908880505], [0.12962111252517095, 49.39653260560763], [0.12962111252516095, 49.39653260560764], [0.12302593732634626, 49.393136307728696], [0.11713023543503409, 49.38929533545672], [0.11178594230052386, 49.3851061296783], [0.10684499337211406, 49.380665131280026], [0.1021593240991081, 49.3760687811485], [0.0975808699308025, 49.3714135201703], [0.09296156631649843, 49.36679578923206], [0.08815334870549707, 49.36231202922032], [0.08300815254709426, 49.358058681021724], [0.07737791329059474, 49.35413218552284], [0.07737791329059629, 49.354132185522836], [0.0644951555103388, 49.34988203025541], [0.05182954181686528, 49.34530814547725], [0.039315656233755325, 49.34050982833489], [0.026888082784591427, 49.335586375974906], [0.014481405492951405, 49.33063708554383], [0.0020302083824162986, 49.32576125418823], [-0.010530924523432739, 49.32105817905465], [-0.023267409201014777, 49.31662715728965], [-0.03624466162675144, 49.312567486039775], [-0.0495280977770608, 49.30897846245158], [-0.049528097777062574, 49.30897846245158], [-0.05818904834453986, 49.30601958463071], [-0.06701557388544177, 49.303472735817444], [-0.07598942085264548, 49.301294478040184], [-0.08509233569903119, 49.29944137332732], [-0.09430606487748205, 49.29786998370723], [-0.10361235484087516, 49.29653687120833], [-0.11299295204209381, 49.29539859785899], [-0.12242960293401595, 49.2944117256876], [-0.13190405396952376, 49.293532816722575], [-0.14139805160149443, 49.292718432992295], [-0.14139805160150165, 49.292718432992295]]]}}, {"type": "Feature", "properties": {"diocese": "Lisieux", "province": "XIV_Rouen", "source": "100_Lisieux.txt"}, "geometry": {"type": "Polygon", "coordinates": [[[0.10968853106537724, 49.17171852074652], [0.11104492028734003, 49.17002571578721], [0.1124013095093046, 49.1683329108279], [0.11375769873126762, 49.16664010586859], [0.1151140879532313, 49.16494730090928], [0.1164704771751941, 49.163254495949964], [0.11782686639715712, 49.16156169099066], [0.11918325561912169, 49.15986888603135], [0.12053964484108448, 49.158176081072035], [0.12189603406304839, 49.15648327611272], [0.12325242328501118, 49.15479047115342], [0.12325242328501118, 49.15479047115342], [0.12189046738030629, 49.153599056761], [0.12052851147560073, 49.152407642368594], [0.11916655557089495, 49.15121622797617], [0.11780459966618917, 49.150024813583755], [0.11644264376148428, 49.14883339919134], [0.11508068785677872, 49.14764198479892], [0.11371873195207294, 49.14645057040651], [0.11235677604736716, 49.14525915601409], [0.1109948201426616, 49.144067741621676], [0.1096328642379567, 49.14287632722926], [0.1096328642379567, 49.14287632722926], [0.10455265652115875, 49.14205999652312], [0.09947244880436079, 49.141243665816994], [0.09439224108756394, 49.140427335110864], [0.08931203337076532, 49.13961100440474], [0.08423182565396758, 49.13879467369861], [0.0791516179371714, 49.13797834299248], [0.07407141022037256, 49.13716201228635], [0.06899120250357571, 49.136345681580224], [0.06391099478677775, 49.1355293508741], [0.05883078706998002, 49.13471302016797], [0.05883078706998002, 49.13471302016797], [0.05628813581317238, 49.13258126836912], [0.05374548455636563, 49.13044951657028], [0.05120283329955955, 49.12831776477143], [0.04866018204275124, 49.12618601297259], [0.046117530785943384, 49.12405426117375], [0.043574879529136634, 49.12192250937489], [0.04103222827233077, 49.11979075757605], [0.038489577015523135, 49.11765900577721], [0.0359469257587155, 49.11552725397837], [0.03340427450190764, 49.113395502179515], [0.03340427450190764, 49.113395502179515], [0.028869267349909578, 49.11326831853315], [0.024334260197911295, 49.11314113488679], [0.019799253045911236, 49.11301395124042], [0.015264245893912842, 49.11288676759405], [0.010729238741914782, 49.112759583947685], [0.006194231589914501, 49.112632400301315], [0.001659224437916329, 49.11250521665495], [-0.0028757827140819536, 49.11237803300858], [-0.0074107898660811244, 49.11225084936222], [-0.011945797018080295, 49.11212366571585], [-0.011945797018080295, 49.11212366571585], [-0.01339310828838447, 49.113941433333224], [-0.014840419558690532, 49.11575920095059], [-0.016287730828996705, 49.11757696856797], [-0.01773504209930077, 49.119394736185335], [-0.01918235336960694, 49.12121250380271], [-0.020629664639911005, 49.12303027142008], [-0.02207697591021629, 49.12484803903745], [-0.023524287180521464, 49.12666580665481], [-0.024971598450827415, 49.128483574272195], [-0.026418909721133477, 49.130301341889556], [-0.026418909721133477, 49.130301341889556], [-0.024965306026006107, 49.13174381637315], [-0.023511702330879514, 49.13318629085675], [-0.022058098635753032, 49.13462876534034], [-0.02060449494062644, 49.13607123982393], [-0.019150891245500845, 49.137513714307524], [-0.017697287550374252, 49.13895618879111], [-0.01624368385524777, 49.14039866327471], [-0.014790080160121288, 49.1418411377583], [-0.013336476464994695, 49.143283612241895], [-0.011882872769869102, 49.144726086725484], [-0.011882872769869102, 49.144726086725484], [-0.005623791951063883, 49.145542706166985], [0.0006352888677392254, 49.14635932560849], [0.0068943696865435555, 49.14717594505], [0.013153450505346664, 49.1479925644915], [0.01941253132415066, 49.148809183933004], [0.025671612142954103, 49.14962580337451], [0.031930692961757545, 49.15044242281602], [0.03818977378056143, 49.15125904225753], [0.04444885459936465, 49.15207566169902], [0.05070793541816987, 49.15289228114054], [0.05070793541816987, 49.15289228114054], [0.056605994982890095, 49.154774905101135], [0.0625040545476101, 49.15665752906173], [0.0684021141123321, 49.15854015302233], [0.07430017367705233, 49.160422776982934], [0.08019823324177255, 49.162305400943524], [0.08609629280649433, 49.16418802490413], [0.09199435237121478, 49.166070648864725], [0.09789241193593501, 49.16795327282532], [0.10379047150065612, 49.16983589678592], [0.10968853106537724, 49.17171852074652]]]}}, {"type": "Feature", "properties": {"diocese": "Lisieux", "province": "XIV_Rouen", "source": "100_Lisieux.txt"}, "geometry": {"type": "Polygon", "coordinates": [[[1.1112183690596664, 49.41145219835339], [1.1074978267916022, 49.41000934408026], [1.103777284523538, 49.40856648980712], [1.1000567422554743, 49.40712363553399], [1.0963361999874102, 49.40568078126087], [1.092615657719346, 49.40423792698773], [1.0888951154512814, 49.40279507271461], [1.0851745731832172, 49.40135221844148], [1.081454030915154, 49.39990936416835], [1.0777334886470897, 49.39846650989522], [1.0740129463790247, 49.39702365562209], [1.0740129463790247, 49.39702365562209], [1.0709299284174731, 49.39702288621068], [1.0678469104559212, 49.397022116799256], [1.0647638924943696, 49.39702134738784], [1.0616808745328168, 49.39702057797642], [1.0585978565712648, 49.397019808565], [1.0555148386097133, 49.397019039153584], [1.0524318206481604, 49.39701826974217], [1.0493488026866085, 49.39701750033075], [1.046265784725057, 49.39701673091933], [1.043182766763505, 49.39701596150792], [1.043182766763505, 49.39701596150792], [1.0408222589392984, 49.395510751610864], [1.0384617511150949, 49.39400554171382], [1.0361012432908896, 49.39250033181678], [1.0337407354666852, 49.39099512191973], [1.03138022764248, 49.38948991202269], [1.0290197198182751, 49.38798470212564], [1.0266592119940712, 49.386479492228595], [1.024298704169866, 49.38497428233155], [1.021938196345661, 49.3834690724345], [1.0195776885214554, 49.38196386253746], [1.0195776885214554, 49.38196386253746], [1.0193017901920616, 49.37995763444163], [1.0190258918626687, 49.3779514063458], [1.0187499935332753, 49.37594517824998], [1.0184740952038807, 49.373938950154155], [1.0181981968744869, 49.371932722058325], [1.017922298545094, 49.3699264939625], [1.0176464002157002, 49.36792026586668], [1.017370501886305, 49.36591403777084], [1.017094603556913, 49.36390780967502], [1.0168187052275193, 49.3619015815792], [1.0168187052275193, 49.3619015815792], [1.0199915489999651, 49.36146352453562], [1.0231643927724106, 49.36102546749204], [1.0263372365448555, 49.36058741044847], [1.0295100803173014, 49.36014935340489], [1.0326829240897468, 49.35971129636131], [1.035855767862194, 49.35927323931774], [1.0390286116346386, 49.35883518227416], [1.0422014554070853, 49.35839712523059], [1.0453742991795294, 49.357959068187014], [1.0485471429519762, 49.35752101114344], [1.0485471429519762, 49.35752101114344], [1.0547102748828223, 49.35601792844312], [1.0608734068136694, 49.35451484574282], [1.0670365387445155, 49.3530117630425], [1.0731996706753621, 49.3515086803422], [1.0793628026062105, 49.35000559764189], [1.0855259345370558, 49.34850251494158], [1.0916890664679033, 49.34699943224127], [1.0978521983987495, 49.345496349540966], [1.1040153303295965, 49.343993266840656], [1.110178462260444, 49.342490184140345], [1.110178462260444, 49.342490184140345], [1.1113577481733672, 49.34274124766959], [1.1125370340862921, 49.34299231119885], [1.1137163199992157, 49.3432433747281], [1.1148956059121389, 49.34349443825735], [1.1160748918250634, 49.3437455017866], [1.1172541777379874, 49.343996565315855], [1.1184334636509106, 49.3442476288451], [1.1196127495638346, 49.34449869237436], [1.1207920354767595, 49.34474975590361], [1.1219713213896818, 49.34500081943286], [1.1219713213896818, 49.34500081943286], [1.1222530356143232, 49.35001629057694], [1.1225347498389637, 49.35503176172104], [1.1228164640636051, 49.36004723286512], [1.1230981782882457, 49.36506270400921], [1.1233798925128866, 49.370078175153296], [1.1236616067375258, 49.37509364629738], [1.1239433209621672, 49.38010911744148], [1.1242250351868086, 49.38512458858556], [1.1245067494114482, 49.39014005972965], [1.1247884636360892, 49.39515553087374], [1.1247884636360892, 49.39515553087374], [1.1234314541784474, 49.3967851976217], [1.122074444720805, 49.39841486436967], [1.1207174352631628, 49.40004453111763], [1.1193604258055196, 49.4016741978656], [1.1180034163478778, 49.403303864613555], [1.116646406890236, 49.40493353136152], [1.1152893974325928, 49.40656319810949], [1.1139323879749514, 49.408192864857455], [1.1125753785173083, 49.40982253160542], [1.1112183690596664, 49.41145219835339]]]}}, {"type": "Feature", "properties": {"diocese": "Lisieux", "province": "XIV_Rouen", "source": "100_Lisieux.txt"}, "geometry": {"type": "Polygon", "coordinates": [[[1.6626469594701647, 49.291341898906026], [1.659122760154406, 49.29253793514294], [1.6555985608386474, 49.293733971379844], [1.6520743615228883, 49.294930007616756], [1.648550162207131, 49.296126043853654], [1.645025962891371, 49.297322080090574], [1.6415017635756137, 49.29851811632748], [1.6379775642598546, 49.29971415256439], [1.634453364944096, 49.300910188801296], [1.6309291656283373, 49.302106225038195], [1.6274049663125787, 49.30330226127511], [1.6274049663125787, 49.30330226127511], [1.6249051223019628, 49.30370060932029], [1.6224052782913465, 49.304098957365454], [1.6199054342807298, 49.30449730541063], [1.6174055902701143, 49.304895653455816], [1.6149057462594976, 49.30529400150098], [1.6124059022488813, 49.30569234954616], [1.6099060582382654, 49.30609069759134], [1.6074062142276486, 49.30648904563651], [1.6049063702170323, 49.306887393681684], [1.6024065262064164, 49.30728574172686], [1.6024065262064164, 49.30728574172686], [1.6014422660824743, 49.30599992186586], [1.6004780059585326, 49.30471410200487], [1.59951374583459, 49.303428282143884], [1.598549485710648, 49.302142462282895], [1.5975852255867053, 49.3008566424219], [1.596620965462764, 49.29957082256091], [1.5956567053388215, 49.29828500269992], [1.594692445214879, 49.29699918283893], [1.5937281850909364, 49.295713362977935], [1.5927639249669951, 49.294427543116946], [1.5927639249669951, 49.294427543116946], [1.5932081359589803, 49.292033822473236], [1.593652346950965, 49.28964010182954], [1.5940965579429496, 49.28724638118583], [1.5945407689349351, 49.28485266054212], [1.5949849799269207, 49.28245893989842], [1.5954291909189062, 49.280065219254716], [1.5958734019108913, 49.277671498611], [1.5963176129028764, 49.275277777967304], [1.596761823894861, 49.272884057323594], [1.5972060348868466, 49.2704903366799], [1.5972060348868466, 49.2704903366799], [1.6011812819930067, 49.270446972415606], [1.605156529099168, 49.27040360815131], [1.6091317762053285, 49.270360243887026], [1.6131070233114895, 49.27031687962273], [1.6170822704176508, 49.27027351535844], [1.6210575175238122, 49.270230151094154], [1.6250327646299731, 49.27018678682986], [1.6290080117361332, 49.27014342256558], [1.632983258842295, 49.27010005830129], [1.636958505948455, 49.270056694036995], [1.636958505948455, 49.270056694036995], [1.6401634838934895, 49.26956986397291], [1.643368461838524, 49.26908303390881], [1.6465734397835594, 49.26859620384472], [1.649778417728594, 49.26810937378063], [1.6529833956736293, 49.26762254371654], [1.6561883736186638, 49.26713571365246], [1.6593933515636983, 49.26664888358836], [1.6625983295087328, 49.266162053524276], [1.6658033074537673, 49.26567522346018], [1.6690082853988026, 49.265188393396095], [1.6690082853988026, 49.265188393396095], [1.6694599400738728, 49.2666514067888], [1.669911594748943, 49.26811442018151], [1.6703632494240126, 49.269577433574234], [1.6708149040990827, 49.27104044696694], [1.6712665587741529, 49.27250346035965], [1.6717182134492217, 49.27396647375236], [1.6721698681242918, 49.275429487145075], [1.672621522799362, 49.276892500537784], [1.6730731774744316, 49.2783555139305], [1.6735248321495027, 49.27981852732321], [1.6735248321495027, 49.27981852732321], [1.6724370448815686, 49.280970864481496], [1.671349257613635, 49.28212320163978], [1.6702614703457015, 49.28327553879806], [1.669173683077768, 49.28442787595634], [1.6680858958098326, 49.28558021311463], [1.666998108541899, 49.286732550272895], [1.665910321273965, 49.28788488743118], [1.6648225340060319, 49.289037224589464], [1.6637347467380992, 49.29018956174775], [1.6626469594701647, 49.291341898906026]]]}}]}