{"type": "FeatureCollection", "features": [{"type": "Feature", "properties": {"diocese": "Evreux", "province": "XIV_Rouen", "source": "99_Evreux.txt"}, "geometry": {"type": "Polygon", "coordinates": [[[1.5230542191235004, 49.0291313681659], [1.517715860390347, 49.03464744554628], [1.5123775016571939, 49.04016352292666], [1.5070391429240417, 49.04567960030704], [1.5017007841908883, 49.05119567768743], [1.4963624254577361, 49.05671175506781], [1.491024066724584, 49.062227832448194], [1.4856857079914305, 49.06774390982858], [1.480347349258278, 49.073259987208964], [1.4750089905251258, 49.07877606458935], [1.4696706317919728, 49.08429214196973], [1.4696706317919728, 49.08429214196973], [1.463606081619035, 49.08980697159739], [1.4575415314460982, 49.09532180122504], [1.4514769812731614, 49.1008366308527], [1.4454124311002237, 49.10635146048035], [1.439347880927286, 49.111866290108], [1.4332833307543482, 49.117381119735654], [1.4272187805814105, 49.122895949363304], [1.4211542304084723, 49.12841077899097], [1.4150896802355355, 49.13392560861862], [1.4090251300625978, 49.13944043824627], [1.4090251300625978, 49.13944043824627], [1.405851565861925, 49.13943964623774], [1.4026780016612506, 49.139438854229205], [1.399504437460577, 49.13943806222068], [1.3963308732599025, 49.13943727021214], [1.3931573090592297, 49.13943647820361], [1.3899837448585552, 49.13943568619507], [1.386810180657882, 49.13943489418654], [1.383636616457208, 49.13943410217801], [1.380463052256534, 49.13943331016948], [1.3772894880558608, 49.139432518160945], [1.3772894880558608, 49.139432518160945], [1.375843032065692, 49.141689326290965], [1.3743965760755228, 49.143946134420986], [1.372950120085354, 49.146202942551014], [1.3715036640951843, 49.14845975068103], [1.3700572081050169, 49.15071655881104], [1.3686107521148476, 49.15297336694107], [1.3671642961246788, 49.15523017507108], [1.3657178401345083, 49.1574869832011], [1.36427138414434, 49.15974379133113], [1.3628249281541707, 49.16200059946115], [1.3628249281541707, 49.16200059946115], [1.3646417608061259, 49.16432017867093], [1.3664585934580802, 49.1666397578807], [1.3682754261100354, 49.16895933709047], [1.3700922587619888, 49.171278916300245], [1.371909091413944, 49.17359849551002], [1.3737259240658974, 49.175918074719796], [1.3755427567178526, 49.17823765392957], [1.377359589369807, 49.180557233139346], [1.3791764220217613, 49.18287681234912], [1.3809932546737156, 49.1851963915589], [1.3809932546737156, 49.1851963915589], [1.3826301381176642, 49.18714098075155], [1.384267021561612, 49.189085569944204], [1.3859039050055597, 49.191030159136865], [1.3875407884495083, 49.19297474832951], [1.389177671893456, 49.194919337522165], [1.3908145553374047, 49.19686392671481], [1.3924514387813525, 49.19880851590747], [1.394088322225301, 49.20075310510013], [1.3957252056692493, 49.20269769429278], [1.3973620891131975, 49.204642283485434], [1.3973620891131975, 49.204642283485434], [1.3968227023218707, 49.206961280136134], [1.396283315530543, 49.20928027678684], [1.395743928739217, 49.21159927343755], [1.3952045419478902, 49.21391827008826], [1.3946651551565634, 49.216237266738965], [1.3941257683652362, 49.21855626338968], [1.393586381573908, 49.22087526004038], [1.393046994782582, 49.22319425669109], [1.3925076079912553, 49.22551325334179], [1.3919682211999285, 49.2278322499925], [1.3919682211999285, 49.2278322499925], [1.385342899467485, 49.22538541341568], [1.3787175777350424, 49.22293857683885], [1.3720922560025972, 49.22049174026203], [1.3654669342701546, 49.218044903685204], [1.3588416125377107, 49.215598067108374], [1.3522162908052668, 49.21315123053156], [1.3455909690728247, 49.210704393954735], [1.338965647340379, 49.208257557377905], [1.332340325607937, 49.205810720801075], [1.3257150038754921, 49.20336388422425], [1.3257150038754921, 49.20336388422425], [1.3219932203983418, 49.201105786285844], [1.3182714369211888, 49.19884768834742], [1.3145496534440366, 49.196589590409005], [1.3108278699668836, 49.19433149247058], [1.3071060864897328, 49.19207339453217], [1.3033843030125802, 49.18981529659375], [1.299662519535428, 49.187557198655334], [1.295940736058275, 49.18529910071691], [1.2922189525811247, 49.1830410027785], [1.2884971691039717, 49.18078290484008], [1.2884971691039717, 49.18078290484008], [1.283692024327323, 49.18078170564718], [1.2788868795506754, 49.180780506454276], [1.2740817347740268, 49.18077930726138], [1.2692765899973795, 49.18077810806847], [1.2644714452207308, 49.18077690887557], [1.2596663004440836, 49.18077570968267], [1.2548611556674358, 49.180774510489776], [1.2500560108907872, 49.18077331129687], [1.2452508661141395, 49.180772112103966], [1.2404457213374909, 49.180770912911065], [1.2404457213374909, 49.180770912911065], [1.239816383563546, 49.18371800248303], [1.2391870457896021, 49.186665092054994], [1.2385577080156573, 49.18961218162695], [1.2379283702417125, 49.192559271198924], [1.2372990324677686, 49.195506360770885], [1.236669694693823, 49.198453450342846], [1.2360403569198786, 49.20140053991481], [1.2354110191459338, 49.204347629486776], [1.234781681371989, 49.20729471905874], [1.2341523435980446, 49.2102418086307], [1.2341523435980446, 49.2102418086307], [1.2356975851038654, 49.211934271212414], [1.2372428266096862, 49.21362673379413], [1.2387880681155066, 49.215319196375845], [1.240333309621327, 49.21701165895755], [1.2418785511271477, 49.21870412153927], [1.2434237926329685, 49.220396584120984], [1.2449690341387893, 49.22208904670269], [1.2465142756446101, 49.2237815092844], [1.2480595171504318, 49.225473971866116], [1.2496047586562518, 49.22716643444783], [1.2496047586562518, 49.22716643444783], [1.2524192217480672, 49.22923629740202], [1.2552336848398835, 49.23130616035622], [1.2580481479316985, 49.23337602331041], [1.2608626110235135, 49.2354458862646], [1.263677074115328, 49.237515749218794], [1.266491537207144, 49.23958561217299], [1.269306000298959, 49.24165547512718], [1.2721204633907752, 49.243725338081376], [1.2749349264825907, 49.24579520103558], [1.2777493895744065, 49.24786506398977], [1.2777493895744065, 49.24786506398977], [1.2763035376778782, 49.250434866168895], [1.2748576857813512, 49.25300466834803], [1.2734118338848233, 49.255574470527165], [1.2719659819882962, 49.258144272706296], [1.2705201300917692, 49.26071407488543], [1.2690742781952422, 49.26328387706456], [1.2676284262987152, 49.26585367924369], [1.2661825744021882, 49.26842348142282], [1.2647367225056603, 49.27099328360196], [1.2632908706091333, 49.2735630857811], [1.2632908706091333, 49.2735630857811], [1.2602113746797685, 49.27506745763432], [1.2571318787504029, 49.27657182948755], [1.2540523828210377, 49.27807620134079], [1.2509728868916734, 49.27958057319402], [1.2478933909623078, 49.28108494504725], [1.2448138950329413, 49.28258931690048], [1.241734399103577, 49.28409368875371], [1.2386549031742122, 49.28559806060694], [1.2355754072448462, 49.287102432460166], [1.2324959113154814, 49.2886068043134], [1.2324959113154814, 49.2886068043134], [1.2249710130855687, 49.289984009413104], [1.2174461148556546, 49.291361214512804], [1.2099212166257423, 49.29273841961251], [1.2023963183958295, 49.29411562471221], [1.1948714201659154, 49.29549282981191], [1.1873465219360022, 49.29687003491162], [1.1798216237060895, 49.298247240011314], [1.1722967254761758, 49.29962444511102], [1.1647718272462622, 49.30100165021072], [1.1572469290163498, 49.30237885531042], [1.1572469290163498, 49.30237885531042], [1.1457280520695097, 49.30055785179454], [1.1342091751226677, 49.298736848278644], [1.122690298175828, 49.29691584476276], [1.111171421228986, 49.295094841246865], [1.0996525442821459, 49.29327383773097], [1.0881336673353066, 49.291452834215086], [1.0766147903884646, 49.289631830699186], [1.065095913441625, 49.2878108271833], [1.053577036494783, 49.285989823667414], [1.0420581595479428, 49.28416882015152], [1.0420581595479428, 49.28416882015152], [1.0302636008911552, 49.280404639141], [1.0184690422343672, 49.27664045813045], [1.0066744835775792, 49.27287627711992], [0.9948799249207916, 49.269112096109396], [0.983085366264004, 49.26534791509886], [0.9712908076072151, 49.26158373408833], [0.9594962489504266, 49.257819553077795], [0.9477016902936395, 49.25405537206726], [0.935907131636851, 49.25029119105673], [0.9241125729800634, 49.2465270100462], [0.9241125729800634, 49.2465270100462], [0.9194867654176049, 49.24658781228867], [0.9148609578551448, 49.246648614531146], [0.9102351502926846, 49.246709416773626], [0.9056093427302256, 49.2467702190161], [0.9009835351677671, 49.24683102125857], [0.8963577276053072, 49.24689182350105], [0.8917319200428471, 49.246952625743525], [0.8871061124803878, 49.247013427986005], [0.8824803049179297, 49.247074230228485], [0.8778544973554694, 49.24713503247095], [0.8778544973554694, 49.24713503247095], [0.8753183797408073, 49.2483885027129], [0.8727822621261458, 49.249641972954834], [0.8702461445114844, 49.25089544319678], [0.8677100268968219, 49.25214891343872], [0.8651739092821589, 49.25340238368066], [0.8626377916674981, 49.2546558539226], [0.8601016740528367, 49.25590932416454], [0.8575655564381743, 49.25716279440648], [0.8550294388235111, 49.258416264648424], [0.8524933212088506, 49.259669734890366], [0.8524933212088506, 49.259669734890366], [0.8489471120115613, 49.254716532407826], [0.845400902814271, 49.24976332992529], [0.8418546936169822, 49.24481012744275], [0.8383084844196937, 49.23985692496021], [0.8347622752224044, 49.23490372247767], [0.8312160660251142, 49.22995051999513], [0.827669856827824, 49.22499731751259], [0.8241236476305356, 49.22004411503004], [0.8205774384332467, 49.21509091254751], [0.8170312292359574, 49.21013771006497], [0.8170312292359574, 49.21013771006497], [0.8102283688072247, 49.208568920717894], [0.8034255083784916, 49.20700013137081], [0.7966226479497591, 49.20543134202375], [0.7898197875210258, 49.203862552676675], [0.7830169270922933, 49.2022937633296], [0.7762140666635611, 49.20072497398253], [0.7694112062348268, 49.199156184635456], [0.762608345806095, 49.19758739528838], [0.755805485377361, 49.19601860594131], [0.7490026249486295, 49.194449816594236], [0.7490026249486295, 49.194449816594236], [0.743328673748193, 49.19100015149823], [0.7376547225477557, 49.187550486402216], [0.7319807713473194, 49.1841008213062], [0.7263068201468839, 49.180651156210196], [0.7206328689464476, 49.17720149111419], [0.714958917746011, 49.17375182601817], [0.7092849665455745, 49.170302160922155], [0.7036110153451371, 49.16685249582615], [0.697937064144702, 49.16340283073014], [0.6922631129442656, 49.15995316563413], [0.6922631129442656, 49.15995316563413], [0.692394363293519, 49.15750802072627], [0.6925256136427724, 49.15506287581839], [0.692656863992027, 49.15261773091053], [0.6927881143412804, 49.150172586002654], [0.692919364690533, 49.147727441094794], [0.6930506150397873, 49.14528229618691], [0.6931818653890407, 49.142837151279046], [0.6933131157382952, 49.14039200637118], [0.6934443660875484, 49.13794686146331], [0.6935756164368021, 49.135501716555446], [0.6935756164368021, 49.135501716555446], [0.692475087309476, 49.12967103835975], [0.6913745581821493, 49.12384036016405], [0.6902740290548235, 49.11800968196837], [0.6891734999274957, 49.112179003772674], [0.6880729708001696, 49.10634832557698], [0.6869724416728427, 49.10051764738129], [0.685871912545517, 49.0946869691856], [0.6847713834181901, 49.0888562909899], [0.6836708542908632, 49.08302561279421], [0.6825703251635371, 49.07719493459852], [0.6825703251635371, 49.07719493459852], [0.6765859285871012, 49.07700543255701], [0.6706015320106657, 49.07681593051549], [0.6646171354342294, 49.07662642847397], [0.6586327388577944, 49.07643692643246], [0.6526483422813578, 49.076247424390935], [0.6466639457049217, 49.07605792234942], [0.6406795491284862, 49.07586842030791], [0.6346951525520503, 49.0756789182664], [0.6287107559756149, 49.075489416224876], [0.6227263593991785, 49.07529991418336], [0.6227263593991785, 49.07529991418336], [0.6206423351851171, 49.07623943683213], [0.6185583109710553, 49.07717895948089], [0.6164742867569921, 49.07811848212966], [0.6143902625429312, 49.079058004778425], [0.6123062383288684, 49.07999752742719], [0.6102222141148061, 49.08093705007595], [0.6081381899007452, 49.08187657272471], [0.6060541656866829, 49.08281609537348], [0.6039701414726211, 49.083755618022245], [0.6018861172585577, 49.084695140671016], [0.6018861172585577, 49.084695140671016], [0.5983416007521956, 49.08061895815743], [0.5947970842458317, 49.076542775643844], [0.5912525677394687, 49.07246659313026], [0.5877080512331065, 49.06839041061667], [0.5841635347267435, 49.06431422810308], [0.5806190182203796, 49.0602380455895], [0.5770745017140158, 49.056161863075914], [0.5735299852076534, 49.05208568056232], [0.5699854687012904, 49.048009498048735], [0.5664409521949265, 49.04393331553515], [0.5664409521949265, 49.04393331553515], [0.564350969972067, 49.040986613839046], [0.5622609877492077, 49.03803991214294], [0.5601710055263482, 49.03509321044684], [0.5580810233034896, 49.032146508750735], [0.5559910410806301, 49.02919980705463], [0.5539010588577697, 49.02625310535853], [0.5518110766349114, 49.023306403662424], [0.5497210944120519, 49.02035970196632], [0.5476311121891912, 49.01741300027021], [0.5455411299663329, 49.014466298574106], [0.5455411299663329, 49.014466298574106], [0.5383635974340337, 49.00769406102798], [0.5311860649017361, 49.000921823481846], [0.5240085323694379, 48.99414958593572], [0.516830999837139, 48.98737734838959], [0.5096534673048403, 48.98060511084347], [0.5024759347725429, 48.97383287329734], [0.4952984022402447, 48.96706063575122], [0.48812086970794555, 48.96028839820509], [0.4809433371756473, 48.95351616065896], [0.47376580464334994, 48.946743923112834], [0.47376580464334994, 48.946743923112834], [0.4746636864020104, 48.94204180041495], [0.4755615681606713, 48.93733967771708], [0.47645944991933287, 48.9326375550192], [0.4773573316779931, 48.92793543232132], [0.4782552134366549, 48.92323330962344], [0.47915309519531624, 48.91853118692556], [0.4800509769539776, 48.913829064227684], [0.48094885871263804, 48.90912694152981], [0.48184674047130005, 48.90442481883193], [0.4827446222299603, 48.899722696134056], [0.4827446222299603, 48.899722696134056], [0.4828274296139412, 48.89539744817331], [0.48291023699792324, 48.891072200212584], [0.4829930443819044, 48.886746952251855], [0.4830758517658851, 48.88242170429111], [0.4831586591498669, 48.87809645633038], [0.48324146653384803, 48.87377120836966], [0.48332427391782806, 48.86944596040892], [0.48340708130180987, 48.86512071244819], [0.4834898886857917, 48.86079546448746], [0.4835726960697726, 48.85647021652672], [0.4835726960697726, 48.85647021652672], [0.4804790647872821, 48.85145410379108], [0.47738543350479157, 48.84643799105543], [0.47429180222230105, 48.841421878319785], [0.47119817093981053, 48.83640576558414], [0.4681045396573198, 48.83138965284849], [0.4650109083748284, 48.82637354011285], [0.4619172770923379, 48.8213574273772], [0.4588236458098476, 48.816341314641555], [0.45573001452735706, 48.81132520190591], [0.45263638324486655, 48.80630908917026], [0.45263638324486655, 48.80630908917026], [0.45353898431686535, 48.80405214531344], [0.4544415853888637, 48.80179520145661], [0.4553441864608643, 48.799538257599785], [0.45624678753286263, 48.797281313742964], [0.45714938860486143, 48.79502436988613], [0.4580519896768602, 48.79276742602931], [0.45895459074885925, 48.79051048217248], [0.45985719182085827, 48.78825353831565], [0.4607597928928582, 48.78599659445882], [0.4616623939648561, 48.78373965060199], [0.4616623939648561, 48.78373965060199], [0.46428665029176686, 48.7809191107608], [0.4669109066186783, 48.77809857091961], [0.46953516294558817, 48.775278031078415], [0.4721594192724996, 48.77245749123722], [0.47478367559941015, 48.76963695139602], [0.4774079319263207, 48.766816411554835], [0.48003218825323213, 48.76399587171364], [0.482656444580142, 48.761175331872444], [0.48528070090705344, 48.758354792031255], [0.4879049572339642, 48.75553425219006], [0.4879049572339642, 48.75553425219006], [0.4881718064587597, 48.7529011271041], [0.48843865568355627, 48.75026800201816], [0.4887055049083511, 48.74763487693221], [0.48897235413314766, 48.74500175184626], [0.48923920335794246, 48.74236862676031], [0.48950605258273816, 48.73973550167435], [0.48977290180753386, 48.73710237658841], [0.49003975103232955, 48.73446925150246], [0.49030660025712614, 48.73183612641651], [0.4905734494819207, 48.72920300133056], [0.4905734494819207, 48.72920300133056], [0.494194963413761, 48.72594367007012], [0.4978164773456002, 48.722684338809685], [0.5014379912774396, 48.719425007549255], [0.5050595052092808, 48.71616567628881], [0.50868101914112, 48.71290634502838], [0.5123025330729594, 48.70964701376794], [0.5159240470047997, 48.70638768250751], [0.5195455609366388, 48.703128351247074], [0.5231670748684791, 48.69986901998663], [0.5267885888003183, 48.6966096887262], [0.5267885888003183, 48.6966096887262], [0.5294133296308721, 48.694040180755735], [0.532038070461426, 48.691470672785265], [0.5346628112919789, 48.6889011648148], [0.5372875521225329, 48.68633165684434], [0.5399122929530875, 48.68376214887387], [0.5425370337836404, 48.681192640903404], [0.5451617746141932, 48.67862313293294], [0.5477865154447472, 48.67605362496248], [0.5504112562753027, 48.67348411699201], [0.5530359971058558, 48.670914609021544], [0.5530359971058558, 48.670914609021544], [0.5535763508565861, 48.66909661505989], [0.5541167046073154, 48.66727862109825], [0.5546570583580457, 48.665460627136596], [0.555197412108775, 48.66364263317495], [0.5557377658595053, 48.6618246392133], [0.5562781196102355, 48.660006645251656], [0.556818473360966, 48.65818865129001], [0.5573588271116956, 48.65637065732837], [0.5578991808624256, 48.654552663366715], [0.5584395346131559, 48.65273466940507], [0.5584395346131559, 48.65273466940507], [0.5614311125191478, 48.65210836167837], [0.5644226904251377, 48.65148205395169], [0.5674142683311276, 48.65085574622499], [0.5704058462371195, 48.65022943849829], [0.5733974241431092, 48.64960313077161], [0.5763890020491003, 48.64897682304491], [0.5793805799550917, 48.64835051531822], [0.5823721578610828, 48.64772420759153], [0.5853637357670733, 48.64709789986483], [0.5883553136730644, 48.64647159213814], [0.5883553136730644, 48.64647159213814], [0.5910066373756844, 48.64406339803519], [0.5936579610783053, 48.64165520393223], [0.5963092847809262, 48.639247009829276], [0.5989606084835459, 48.636838815726314], [0.6016119321861659, 48.63443062162336], [0.6042632558887859, 48.6320224275204], [0.6069145795914066, 48.62961423341744], [0.6095659032940277, 48.627206039314494], [0.6122172269966477, 48.62479784521153], [0.6148685506992684, 48.62238965110858], [0.6148685506992684, 48.62238965110858], [0.6162958127502083, 48.623795797133816], [0.6177230748011484, 48.62520194315908], [0.6191503368520868, 48.62660808918432], [0.6205775989030267, 48.62801423520957], [0.6220048609539668, 48.62942038123482], [0.6234321230049078, 48.63082652726007], [0.6248593850558479, 48.63223267328532], [0.6262866471067872, 48.63363881931057], [0.627713909157726, 48.63504496533582], [0.6291411712086661, 48.63645111136106], [0.6291411712086661, 48.63645111136106], [0.6337668797306888, 48.63714234329144], [0.6383925882527102, 48.6378335752218], [0.6430182967747338, 48.63852480715216], [0.6476440052967556, 48.63921603908252], [0.652269713818777, 48.63990727101288], [0.6568954223407997, 48.64059850294324], [0.661521130862821, 48.6412897348736], [0.6661468393848446, 48.64198096680396], [0.6707725479068662, 48.642672198734324], [0.6753982564288887, 48.64336343066469], [0.6753982564288887, 48.64336343066469], [0.6781227723319416, 48.646059253498635], [0.6808472882349939, 48.648755076332584], [0.6835718041380467, 48.65145089916653], [0.6862963200410999, 48.654146722000476], [0.6890208359441528, 48.656842544834426], [0.6917453518472056, 48.65953836766837], [0.6944698677502577, 48.66223419050231], [0.6971943836533097, 48.66493001333626], [0.6999188995563626, 48.66762583617021], [0.7026434154594157, 48.67032165900415], [0.7026434154594157, 48.67032165900415], [0.7062688113043596, 48.66906953259781], [0.7098942071493037, 48.66781740619146], [0.7135196029942468, 48.66656527978511], [0.7171449988391916, 48.66531315337876], [0.7207703946841346, 48.66406102697242], [0.7243957905290788, 48.66280890056608], [0.7280211863740227, 48.66155677415972], [0.731646582218966, 48.66030464775338], [0.7352719780639108, 48.65905252134703], [0.7388973739088538, 48.657800394940686], [0.7388973739088538, 48.657800394940686], [0.7426164936188004, 48.65867833717761], [0.746335613328746, 48.65955627941453], [0.7500547330386915, 48.66043422165146], [0.7537738527486373, 48.66131216388838], [0.7574929724585839, 48.66219010612531], [0.7612120921685304, 48.663068048362234], [0.7649312118784752, 48.66394599059915], [0.7686503315884219, 48.66482393283608], [0.7723694512983674, 48.665701875073005], [0.7760885710083141, 48.66657981730993], [0.7760885710083141, 48.66657981730993], [0.7783580826844991, 48.668085524084844], [0.7806275943606833, 48.66959123085976], [0.7828971060368684, 48.67109693763467], [0.7851666177130534, 48.67260264440959], [0.7874361293892385, 48.6741083511845], [0.7897056410654235, 48.675614057959415], [0.7919751527416088, 48.67711976473433], [0.794244664417793, 48.67862547150924], [0.7965141760939787, 48.68013117828415], [0.7987836877701637, 48.68163688505906], [0.7987836877701637, 48.68163688505906], [0.8011415773069266, 48.68169943018347], [0.8034994668436894, 48.68176197530788], [0.805857356380453, 48.68182452043227], [0.8082152459172169, 48.68188706555668], [0.8105731354539796, 48.68194961068107], [0.8129310249907431, 48.68201215580548], [0.8152889145275062, 48.68207470092989], [0.8176468040642706, 48.68213724605428], [0.8200046936010335, 48.6821997911787], [0.8223625831377963, 48.6822623363031], [0.8223625831377963, 48.6822623363031], [0.8249944637625748, 48.68339211094427], [0.8276263443873542, 48.68452188558544], [0.8302582250121326, 48.68565166022661], [0.8328901056369129, 48.68678143486779], [0.8355219862616923, 48.687911209508954], [0.8381538668864712, 48.68904098415013], [0.8407857475112506, 48.690170758791304], [0.8434176281360288, 48.69130053343247], [0.8460495087608082, 48.69243030807365], [0.8486813893855867, 48.69356008271482], [0.8486813893855867, 48.69356008271482], [0.8531257236172998, 48.69393720896104], [0.8575700578490122, 48.694314335207274], [0.8620143920807264, 48.6946914614535], [0.8664587263124397, 48.69506858769972], [0.8709030605441517, 48.695445713945944], [0.875347394775865, 48.695822840192164], [0.8797917290075783, 48.69619996643839], [0.8842360632392914, 48.69657709268462], [0.8886803974710036, 48.69695421893084], [0.8931247317027167, 48.69733134517706], [0.8931247317027167, 48.69733134517706], [0.8978436511363612, 48.69908762299612], [0.902562570570006, 48.70084390081517], [0.9072814900036494, 48.70260017863422], [0.9120004094372929, 48.704356456453276], [0.9167193288709363, 48.706112734272324], [0.9214382483045802, 48.70786901209138], [0.9261571677382237, 48.709625289910434], [0.9308760871718671, 48.71138156772948], [0.935595006605511, 48.71313784554854], [0.9403139260391544, 48.71489412336759], [0.9403139260391544, 48.71489412336759], [0.941495235454068, 48.71614852134684], [0.9426765448689816, 48.71740291932609], [0.9438578542838965, 48.71865731730535], [0.94503916369881, 48.7199117152846], [0.9462204731137236, 48.721166113263855], [0.9474017825286374, 48.722420511243115], [0.9485830919435518, 48.72367490922237], [0.9497644013584656, 48.72492930720162], [0.9509457107733794, 48.72618370518088], [0.952127020188293, 48.727438103160125], [0.952127020188293, 48.727438103160125], [0.9559268006169406, 48.723677813940924], [0.9597265810455862, 48.71991752472171], [0.9635263614742335, 48.71615723550249], [0.9673261419028791, 48.712396946283285], [0.9711259223315265, 48.70863665706406], [0.9749257027601741, 48.70487636784486], [0.9787254831888195, 48.701116078625645], [0.9825252636174668, 48.69735578940643], [0.9863250440461129, 48.69359550018722], [0.9901248244747598, 48.689835210968006], [0.9901248244747598, 48.689835210968006], [0.992483683029364, 48.69039982530321], [0.994842541583969, 48.690964439638414], [0.997201400138575, 48.69152905397362], [0.99956025869318, 48.692093668308814], [1.0019191172477837, 48.69265828264401], [1.0042779758023905, 48.693222896979215], [1.0066368343569956, 48.69378751131442], [1.0089956929116006, 48.69435212564963], [1.0113545514662055, 48.694916739984826], [1.0137134100208103, 48.69548135432002], [1.0137134100208103, 48.69548135432002], [1.0157102624820271, 48.69660990395957], [1.017707114943243, 48.69773845359913], [1.01970396740446, 48.69886700323867], [1.0217008198656754, 48.699995552878214], [1.0236976723268922, 48.70112410251777], [1.0256945247881082, 48.702252652157306], [1.027691377249325, 48.70338120179686], [1.0296882297105419, 48.704509751436404], [1.0316850821717565, 48.70563830107594], [1.0336819346329733, 48.706766850715496], [1.0336819346329733, 48.706766850715496], [1.03413751657274, 48.70745704193087], [1.0345930985125062, 48.70814723314624], [1.035048680452273, 48.70883742436162], [1.0355042623920392, 48.70952761557699], [1.0359598443318045, 48.710217806792365], [1.0364154262715712, 48.710907998007734], [1.0368710082113375, 48.7115981892231], [1.0373265901511042, 48.71228838043848], [1.0377821720908704, 48.71297857165385], [1.0382377540306362, 48.71366876286922], [1.0382377540306362, 48.71366876286922], [1.0370617759334348, 48.71517253778211], [1.0358857978362317, 48.71667631269499], [1.034709819739029, 48.71818008760788], [1.0335338416418267, 48.71968386252076], [1.0323578635446258, 48.721187637433644], [1.0311818854474217, 48.72269141234652], [1.0300059073502195, 48.724195187259404], [1.0288299292530176, 48.725698962172295], [1.0276539511558158, 48.72720273708518], [1.0264779730586135, 48.728706511998055], [1.0264779730586135, 48.728706511998055], [1.0292006461831193, 48.72964830074841], [1.0319233193076287, 48.730590089498776], [1.0346459924321354, 48.73153187824913], [1.0373686655566439, 48.73247366699949], [1.0400913386811506, 48.73341545574984], [1.0428140118056586, 48.734357244500195], [1.0455366849301657, 48.73529903325055], [1.0482593580546729, 48.7362408220009], [1.0509820311791809, 48.73718261075127], [1.053704704303689, 48.73812439950163], [1.053704704303689, 48.73812439950163], [1.0566047639889837, 48.7373100658552], [1.059504823674279, 48.736495732208766], [1.0624048833595743, 48.73568139856234], [1.06530494304487, 48.73486706491592], [1.0682050027301653, 48.734052731269486], [1.0711050624154614, 48.73323839762306], [1.0740051221007567, 48.73242406397663], [1.0769051817860515, 48.731609730330206], [1.0798052414713468, 48.730795396683774], [1.0827053011566425, 48.72998106303734], [1.0827053011566425, 48.72998106303734], [1.0843394297036792, 48.731297530703316], [1.0859735582507164, 48.732613998369295], [1.0876076867977527, 48.73393046603526], [1.0892418153447898, 48.735246933701234], [1.090875943891826, 48.736563401367206], [1.0925100724388623, 48.73787986903318], [1.0941442009859004, 48.73919633669915], [1.0957783295329366, 48.740512804365125], [1.0974124580799742, 48.741829272031104], [1.0990465866270105, 48.74314573969708], [1.0990465866270105, 48.74314573969708], [1.1012223702896478, 48.74251922837721], [1.1033981539522855, 48.74189271705735], [1.1055739376149236, 48.741266205737475], [1.10774972127756, 48.74063969441762], [1.109925504940199, 48.74001318309775], [1.1121012886028367, 48.739386671777886], [1.1142770722654736, 48.73876016045803], [1.1164528559281126, 48.738133649138156], [1.1186286395907499, 48.73750713781829], [1.1208044232533876, 48.73688062649844], [1.1208044232533876, 48.73688062649844], [1.1231588362891505, 48.73594117132909], [1.1255132493249111, 48.73500171615973], [1.127867662360674, 48.734062260990385], [1.1302220753964356, 48.733122805821026], [1.1325764884321985, 48.732183350651674], [1.13493090146796, 48.73124389548233], [1.1372853145037225, 48.73030444031298], [1.139639727539484, 48.729364985143626], [1.1419941405752456, 48.728425529974274], [1.144348553611008, 48.72748607480492], [1.144348553611008, 48.72748607480492], [1.149700200317326, 48.7280514360334], [1.155051847023643, 48.72861679726188], [1.1604034937299605, 48.729182158490346], [1.165755140436279, 48.72974751971882], [1.1711067871425977, 48.730312880947295], [1.176458433848913, 48.73087824217577], [1.1818100805552318, 48.731443603404244], [1.1871617272615502, 48.73200896463272], [1.1925133739678677, 48.732574325861194], [1.1978650206741839, 48.73313968708966], [1.1978650206741839, 48.73313968708966], [1.202398120309232, 48.73307779518937], [1.20693121994428, 48.73301590328907], [1.2114643195793282, 48.73295401138878], [1.2159974192143768, 48.732892119488476], [1.2205305188494235, 48.73283022758819], [1.2250636184844717, 48.73276833568789], [1.2295967181195198, 48.73270644378759], [1.234129817754567, 48.7326445518873], [1.2386629173896155, 48.732582659987], [1.2431960170246632, 48.7325207680867], [1.2431960170246632, 48.7325207680867], [1.2460065776643687, 48.731769435304926], [1.2488171383040734, 48.73101810252315], [1.2516276989437807, 48.73026676974138], [1.2544382595834862, 48.7295154369596], [1.2572488202231917, 48.72876410417783], [1.2600593808628973, 48.72801277139605], [1.2628699415026023, 48.72726143861428], [1.2656805021423088, 48.7265101058325], [1.2684910627820147, 48.72575877305073], [1.2713016234217198, 48.72500744026895], [1.2713016234217198, 48.72500744026895], [1.2761985455374014, 48.72532272278579], [1.281095467653084, 48.72563800530262], [1.2859923897687668, 48.72595328781945], [1.2908893118844493, 48.72626857033629], [1.2957862340001314, 48.72658385285312], [1.3006831561158143, 48.72689913536995], [1.3055800782314955, 48.72721441788678], [1.3104770003471775, 48.727529700403615], [1.3153739224628596, 48.727844982920445], [1.3202708445785425, 48.728160265437275], [1.3202708445785425, 48.728160265437275], [1.3236269912462526, 48.72910114575883], [1.3269831379139627, 48.73004202608038], [1.3303392845816733, 48.730982906401934], [1.3336954312493838, 48.73192378672349], [1.337051577917093, 48.73286466704504], [1.3404077245848036, 48.7338055473666], [1.3437638712525133, 48.73474642768815], [1.3471200179202243, 48.73568730800971], [1.350476164587934, 48.73662818833126], [1.3538323112556445, 48.73756906865281], [1.3538323112556445, 48.73756906865281], [1.3545606699208275, 48.73869730172151], [1.3552890285860095, 48.739825534790214], [1.3560173872511938, 48.74095376785891], [1.3567457459163768, 48.7420820009276], [1.3574741045815606, 48.74321023399631], [1.358202463246743, 48.744338467065006], [1.3589308219119265, 48.745466700133704], [1.3596591805771103, 48.74659493320241], [1.3603875392422924, 48.74772316627111], [1.3611158979074767, 48.748851399339806], [1.3611158979074767, 48.748851399339806], [1.361849975412015, 48.75374193786595], [1.3625840529165534, 48.75863247639209], [1.3633181304210926, 48.763523014918235], [1.364052207925631, 48.76841355344438], [1.3647862854301702, 48.77330409197052], [1.3655203629347095, 48.778194630496664], [1.3662544404392478, 48.783085169022804], [1.3669885179437862, 48.787975707548945], [1.3677225954483254, 48.792866246075086], [1.3684566729528642, 48.797756784601226], [1.3684566729528642, 48.797756784601226], [1.3723639133839636, 48.80164505455773], [1.3762711538150625, 48.805533324514236], [1.3801783942461605, 48.80942159447074], [1.384085634677259, 48.81330986442725], [1.3879928751083583, 48.81719813438375], [1.3919001155394572, 48.82108640434025], [1.3958073559705566, 48.824974674296755], [1.399714596401655, 48.82886294425326], [1.403621836832754, 48.832751214209765], [1.407529077263852, 48.83663948416626], [1.407529077263852, 48.83663948416626], [1.4110658557346434, 48.83670232349933], [1.414602634205432, 48.8367651628324], [1.4181394126762217, 48.836828002165475], [1.4216761911470113, 48.836890841498544], [1.4252129696178018, 48.83695368083161], [1.4287497480885913, 48.83701652016468], [1.432286526559381, 48.83707935949775], [1.4358233050301705, 48.837142198830826], [1.4393600835009597, 48.83720503816389], [1.4428968619717502, 48.83726787749696], [1.4428968619717502, 48.83726787749696], [1.4445279680132512, 48.83701831933431], [1.4461590740547536, 48.83676876117167], [1.4477901800962552, 48.83651920300902], [1.4494212861377584, 48.836269644846375], [1.45105239217926, 48.83602008668373], [1.4526834982207615, 48.83577052852108], [1.4543146042622639, 48.83552097035844], [1.4559457103037663, 48.835271412195794], [1.4575768163452696, 48.83502185403315], [1.459207922386771, 48.83477229587051], [1.459207922386771, 48.83477229587051], [1.4601183810632299, 48.8365906464339], [1.4610288397396887, 48.83840899699728], [1.4619392984161483, 48.84022734756067], [1.4628497570926067, 48.84204569812406], [1.4637602157690668, 48.84386404868745], [1.4646706744455265, 48.84568239925084], [1.4655811331219852, 48.84750074981423], [1.466491591798444, 48.84931910037762], [1.4674020504749037, 48.851137450941], [1.468312509151363, 48.85295580150439], [1.468312509151363, 48.85295580150439], [1.4674106396631794, 48.855587696121354], [1.4665087701749968, 48.8582195907383], [1.4656069006868155, 48.86085148535526], [1.4647050311986325, 48.863483379972216], [1.4638031617104503, 48.86611527458918], [1.4629012922222668, 48.868747169206124], [1.4619994227340851, 48.871379063823085], [1.4610975532459025, 48.87401095844004], [1.46019568375772, 48.876642853057], [1.4592938142695382, 48.87927474767396], [1.4592938142695382, 48.87927474767396], [1.4640091050561232, 48.87915094456288], [1.4687243958427083, 48.8790271414518], [1.4734396866292925, 48.87890333834073], [1.4781549774158775, 48.878779535229654], [1.4828702682024626, 48.878655732118574], [1.4875855589890477, 48.8785319290075], [1.4923008497756327, 48.87840812589642], [1.4970161405622182, 48.87828432278534], [1.5017314313488028, 48.87816051967427], [1.5064467221353879, 48.87803671656319], [1.5064467221353879, 48.87803671656319], [1.5088968656040955, 48.87866437688028], [1.511347009072804, 48.87929203719736], [1.513797152541513, 48.87991969751445], [1.5162472960102211, 48.880547357831546], [1.5186974394789288, 48.881175018148625], [1.5211475829476377, 48.88180267846572], [1.5235977264163458, 48.88243033878281], [1.526047869885054, 48.8830579990999], [1.528498013353763, 48.88368565941698], [1.5309481568224714, 48.88431331973407], [1.5309481568224714, 48.88431331973407], [1.5308647374341162, 48.88832557364372], [1.530781318045762, 48.89233782755336], [1.5306978986574058, 48.89635008146301], [1.530614479269051, 48.900362335372655], [1.5305310598806963, 48.9043745892823], [1.530447640492342, 48.90838684319195], [1.5303642211039867, 48.91239909710159], [1.530280801715632, 48.91641135101124], [1.5301973823272772, 48.920423604920884], [1.530113962938921, 48.924435858830535], [1.530113962938921, 48.924435858830535], [1.5278471150299424, 48.92431030775711], [1.5255802671209637, 48.92418475668369], [1.5233134192119855, 48.92405920561027], [1.5210465713030072, 48.923933654536846], [1.5187797233940272, 48.92380810346343], [1.5165128754850494, 48.923682552390005], [1.5142460275760707, 48.92355700131659], [1.5119791796670925, 48.923431450243164], [1.5097123317581138, 48.92330589916974], [1.5074454838491351, 48.923180348096324], [1.5074454838491351, 48.923180348096324], [1.505453107425493, 48.92437093083626], [1.5034607310018533, 48.925561513576206], [1.5014683545782117, 48.926752096316136], [1.4994759781545706, 48.92794267905608], [1.4974836017309285, 48.92913326179602], [1.4954912253072883, 48.93032384453596], [1.4934988488836471, 48.931514427275914], [1.4915064724600056, 48.93270501001585], [1.4895140960363658, 48.93389559275579], [1.4875217196127228, 48.93508617549573], [1.4875217196127228, 48.93508617549573], [1.489430070495931, 48.93759378609458], [1.4913384213791363, 48.940101396693436], [1.4932467722623408, 48.94260900729229], [1.4951551231455475, 48.945116617891145], [1.4970634740287534, 48.94762422848999], [1.4989718249119592, 48.95013183908885], [1.500880175795166, 48.9526394496877], [1.5027885266783705, 48.95514706028655], [1.5046968775615777, 48.957654670885404], [1.506605228444783, 48.960162281484266], [1.506605228444783, 48.960162281484266], [1.5036144979081967, 48.96122762972163], [1.5006237673716107, 48.962292977959], [1.497633036835024, 48.963358326196364], [1.4946423062984366, 48.96442367443373], [1.4916515757618503, 48.96548902267109], [1.4886608452252639, 48.96655437090847], [1.4856701146886775, 48.96761971914583], [1.482679384152091, 48.9686850673832], [1.4796886536155043, 48.96975041562056], [1.4766979230789175, 48.970815763857935], [1.4766979230789175, 48.970815763857935], [1.47498352720823, 48.97514060463233], [1.4732691313375432, 48.97946544540672], [1.4715547354668552, 48.983790286181105], [1.4698403395961672, 48.98811512695549], [1.4681259437254797, 48.99243996772988], [1.466411547854792, 48.996764808504274], [1.464697151984105, 49.00108964927866], [1.462982756113417, 49.00541449005305], [1.461268360242729, 49.00973933082744], [1.4595539643720419, 49.01406417160183], [1.4595539643720419, 49.01406417160183], [1.4613690817356262, 49.01469167343903], [1.4631841990992096, 49.01531917527623], [1.4649993164627948, 49.01594667711344], [1.466814433826379, 49.016574178950634], [1.4686295511899625, 49.017201680787835], [1.4704446685535468, 49.01782918262505], [1.4722597859171311, 49.018456684462244], [1.4740749032807154, 49.019084186299445], [1.4758900206442997, 49.019711688136645], [1.477705138007884, 49.02033918997385], [1.477705138007884, 49.02033918997385], [1.4822400461194447, 49.02121840779306], [1.4867749542310063, 49.02209762561226], [1.4913098623425682, 49.022976843431465], [1.4958447704541298, 49.02385606125067], [1.5003796785656922, 49.02473527906987], [1.5049145866772529, 49.02561449688907], [1.5094494947888144, 49.02649371470828], [1.5139844029003764, 49.027372932527484], [1.518519311011938, 49.02825215034669], [1.5230542191235004, 49.0291313681659]]]}}]}