{
    "type": "FeatureCollection",
    "features": [
        {
            "type": "Feature",
            "properties": {
                "diocese": "Augustan",
                "province": "Moguntin",
                "date": 1592
            },
            "geometry": {
                "coordinates": [
                    [
                        [
                            9.614123246000077,
                            48.862835407000034
                        ],
                        [
                            9.637763466000024,
                            48.80618998300008
                        ],
                        [
                            9.621601244000033,
                            48.77236641700006
                        ],
                        [
                            9.693855881000047,
                            48.781764139000074
                        ],
                        [
                            9.692905162000045,
                            48.75043155600008
                        ],
                        [
                            9.719525292000071,
                            48.74855098000006
                        ],
                        [
                            9.888753258000065,
                            48.79116010200005
                        ],
                        [
                            9.915373388000035,
                            48.74792410500004
                        ],
                        [
                            10.003790246000051,
                            48.73224970000007
                        ],
                        [
                            10.043245081000066,
                            48.69115957900004
                        ],
                        [
                            9.992143940000062,
                            48.66094793100007
                        ],
                        [
                            10.004027926000049,
                            48.635823163000055
                        ],
                        [
                            9.979665754000052,
                            48.60282790600007
                        ],
                        [
                            9.985607747000074,
                            48.56587906800007
                        ],
                        [
                            9.904202440000063,
                            48.58239146200003
                        ],
                        [
                            9.869738880000057,
                            48.55132796800007
                        ],
                        [
                            9.942825396000046,
                            48.48993135100005
                        ],
                        [
                            10.015317713000059,
                            48.46196337500004
                        ],
                        [
                            10.049781273000065,
                            48.41939097300008
                        ],
                        [
                            10.05928846300003,
                            48.38625443500007
                        ],
                        [
                            10.03540165000004,
                            48.30893092700006
                        ],
                        [
                            10.065111616000024,
                            48.282365887000026
                        ],
                        [
                            10.064636256000028,
                            48.24059289500008
                        ],
                        [
                            10.111736456000074,
                            48.12772252900004
                        ],
                        [
                            10.139069624000058,
                            48.100150625000026
                        ],
                        [
                            10.117678449000039,
                            48.04396929200004
                        ],
                        [
                            10.125700140000049,
                            48.01635246400008
                        ],
                        [
                            10.085294586000032,
                            47.952916876000074
                        ],
                        [
                            10.109359659000063,
                            47.939583507000066
                        ],
                        [
                            10.103714765000063,
                            47.92126939600007
                        ],
                        [
                            10.123739282000031,
                            47.89609682300005
                        ],
                        [
                            10.189695406000055,
                            47.868600127000036
                        ],
                        [
                            10.173652025000024,
                            47.84946338300006
                        ],
                        [
                            10.185536011000067,
                            47.85664048900003
                        ],
                        [
                            10.202767791000042,
                            47.822739865000074
                        ],
                        [
                            10.22178217000004,
                            47.831516269000076
                        ],
                        [
                            10.251492136000024,
                            47.792809153000064
                        ],
                        [
                            10.284767298000077,
                            47.79879667500006
                        ],
                        [
                            10.320419257000026,
                            47.733295628000064
                        ],
                        [
                            10.311506267000027,
                            47.640895072000035
                        ],
                        [
                            10.283578899000076,
                            47.62968388100006
                        ],
                        [
                            10.291303490000075,
                            47.60805550500004
                        ],
                        [
                            10.231289359000073,
                            47.561965257000054
                        ],
                        [
                            10.251492136000024,
                            47.561063087000036
                        ],
                        [
                            10.284767298000077,
                            47.43259614400006
                        ],
                        [
                            10.24317334500006,
                            47.405256422000036
                        ],
                        [
                            10.213463379000075,
                            47.29253150300008
                        ],
                        [
                            10.161173839000071,
                            47.27640828800003
                        ],
                        [
                            10.149289853000028,
                            47.24576064200005
                        ],
                        [
                            10.079174333000026,
                            47.23849939000007
                        ],
                        [
                            9.967464861000053,
                            47.16300417300005
                        ],
                        [
                            9.985290841000051,
                            47.14603325300004
                        ],
                        [
                            10.097594512000057,
                            47.156943752000075
                        ],
                        [
                            10.183159214000057,
                            47.126631280000026
                        ],
                        [
                            10.334995751000065,
                            47.162615697000035
                        ],
                        [
                            10.371839267000041,
                            47.193703139000036
                        ],
                        [
                            10.436034087000053,
                            47.20386126000005
                        ],
                        [
                            10.469957660000034,
                            47.23909051900006
                        ],
                        [
                            10.503587349000043,
                            47.24101635200003
                        ],
                        [
                            10.614338458000077,
                            47.30078049800005
                        ],
                        [
                            10.67552032900005,
                            47.300407059000065
                        ],
                        [
                            10.679331111000067,
                            47.35449495600005
                        ],
                        [
                            10.749830812000027,
                            47.35818135100004
                        ],
                        [
                            10.732266070000037,
                            47.41242152900003
                        ],
                        [
                            10.843254247000061,
                            47.44698283100007
                        ],
                        [
                            10.861479466000048,
                            47.43642805600007
                        ],
                        [
                            10.921485623000024,
                            47.48666280100008
                        ],
                        [
                            10.935151527000073,
                            47.50165724900006
                        ],
                        [
                            10.908842621000076,
                            47.526069033000056
                        ],
                        [
                            10.919708439000033,
                            47.62876253600007
                        ],
                        [
                            10.826676190000057,
                            47.680924651000055
                        ],
                        [
                            10.862864530000024,
                            47.70180246600006
                        ],
                        [
                            10.863617875000045,
                            47.74412822000005
                        ],
                        [
                            10.940814309000075,
                            47.79488137100003
                        ],
                        [
                            10.927758726000036,
                            47.816164152000056
                        ],
                        [
                            10.95918136900002,
                            47.81588632800003
                        ],
                        [
                            10.964390834000028,
                            47.83116045100007
                        ],
                        [
                            10.955524487000048,
                            47.852067900000065
                        ],
                        [
                            10.968817210000054,
                            47.897771128000045
                        ],
                        [
                            10.895304424000074,
                            47.942154265000056
                        ],
                        [
                            10.917199527000037,
                            47.95238393500006
                        ],
                        [
                            10.91791220500005,
                            47.98987353000007
                        ],
                        [
                            10.899878726000054,
                            48.021274263000066
                        ],
                        [
                            10.907146135000062,
                            48.07746181600004
                        ],
                        [
                            10.876858988000038,
                            48.12146523000007
                        ],
                        [
                            10.927802245000066,
                            48.18146004100004
                        ],
                        [
                            11.062805978000029,
                            48.24142604800005
                        ],
                        [
                            11.112269935000029,
                            48.22579732300005
                        ],
                        [
                            11.245670474000065,
                            48.30603594400003
                        ],
                        [
                            11.128267450000067,
                            48.328511854000055
                        ],
                        [
                            11.147283560000062,
                            48.36462513600003
                        ],
                        [
                            11.225471810000045,
                            48.40310763100007
                        ],
                        [
                            11.286899186000028,
                            48.490164297000035
                        ],
                        [
                            11.35517759000004,
                            48.48933006800007
                        ],
                        [
                            11.424445887000047,
                            48.52173567300008
                        ],
                        [
                            11.420611324000049,
                            48.54600210600006
                        ],
                        [
                            11.38450501400007,
                            48.558578090000026
                        ],
                        [
                            11.38538369400004,
                            48.588837872000056
                        ],
                        [
                            11.504957524000076,
                            48.59535522600004
                        ],
                        [
                            11.494831937000072,
                            48.653642509000065
                        ],
                        [
                            11.451612753000063,
                            48.67537452600004
                        ],
                        [
                            11.484434145000023,
                            48.70400596400003
                        ],
                        [
                            11.488730114000077,
                            48.73812994200006
                        ],
                        [
                            11.379176340000072,
                            48.721288591000075
                        ],
                        [
                            11.367886553000062,
                            48.73951359700004
                        ],
                        [
                            11.258553878000043,
                            48.752443465000056
                        ],
                        [
                            11.21993092300005,
                            48.74206065300007
                        ],
                        [
                            11.174177575000044,
                            48.77026555500004
                        ],
                        [
                            11.115946042000076,
                            48.78044676800005
                        ],
                        [
                            11.112975045000042,
                            48.804716711000026
                        ],
                        [
                            11.078214385000024,
                            48.801781455000025
                        ],
                        [
                            11.059497106000038,
                            48.76556583800004
                        ],
                        [
                            11.038105931000075,
                            48.75910300800007
                        ],
                        [
                            10.962345518000063,
                            48.80647778200006
                        ],
                        [
                            10.918374768000035,
                            48.80452103300007
                        ],
                        [
                            10.862222933000055,
                            48.76360749300005
                        ],
                        [
                            10.795375509000053,
                            48.77653116100004
                        ],
                        [
                            10.767745241000057,
                            48.75538160800005
                        ],
                        [
                            10.678615343000047,
                            48.79160457100005
                        ],
                        [
                            10.666137157000037,
                            48.884685166000054
                        ],
                        [
                            10.683368937000068,
                            48.912614672000075
                        ],
                        [
                            10.605231727000046,
                            48.92101000300005
                        ],
                        [
                            10.64860827700005,
                            48.97291255400006
                        ],
                        [
                            10.638506889000041,
                            49.01073225300007
                        ],
                        [
                            10.592446934000066,
                            49.03799713800004
                        ],
                        [
                            10.572375167000075,
                            49.01547944200007
                        ],
                        [
                            10.521749385000021,
                            49.02903945600008
                        ],
                        [
                            10.522462424000025,
                            49.08441008900007
                        ],
                        [
                            10.487880024000049,
                            49.122922849000076
                        ],
                        [
                            10.472906201000058,
                            49.16909871200005
                        ],
                        [
                            10.388411058000031,
                            49.19589827300007
                        ],
                        [
                            10.35758147200005,
                            49.22207064600008
                        ],
                        [
                            10.279147162000072,
                            49.22983181200004
                        ],
                        [
                            10.204278048000049,
                            49.20576822900006
                        ],
                        [
                            10.260132784000064,
                            49.13506228500006
                        ],
                        [
                            10.197147656000027,
                            49.087609454000074
                        ],
                        [
                            10.239930007000055,
                            49.03855314100008
                        ],
                        [
                            10.18645206900004,
                            49.02141095600007
                        ],
                        [
                            10.163872494000032,
                            48.99802573100004
                        ],
                        [
                            10.021264658000064,
                            48.99568660400007
                        ],
                        [
                            9.939265152000075,
                            48.93873399800003
                        ],
                        [
                            9.831120876000057,
                            48.931707939000034
                        ],
                        [
                            9.840628065000033,
                            48.96448775300007
                        ],
                        [
                            9.690180759000043,
                            48.94657469200007
                        ],
                        [
                            9.679722851000065,
                            48.92783928100005
                        ],
                        [
                            9.693983634000062,
                            48.895347910000055
                        ],
                        [
                            9.614123246000077,
                            48.862835407000034
                        ]
                    ]
                ],
                "type": "Polygon"
            }
        }
    ]
}