{
    "type": "FeatureCollection",
    "features": [
        {
            "type": "Feature",
            "properties": {
                "diocese": "Curien",
                "province": "Moguntin",
                "date": 1592
            },
            "geometry": {
                "coordinates": [
          [
            [
              8.42682486700005,
              46.62063959400007
            ],
            [
              8.414046473000042,
              46.60517625500006
            ],
            [
              8.422365263000074,
              46.545133511000074
            ],
            [
              8.486447843000064,
              46.51383548800004
            ],
            [
              8.658496279000076,
              46.56740968300005
            ],
            [
              8.752617451000049,
              46.57695169400006
            ],
            [
              8.844565927000076,
              46.564376174000074
            ],
            [
              8.902678620000074,
              46.584717416000046
            ],
            [
              8.907669894000037,
              46.61558230900005
            ],
            [
              8.951521804000038,
              46.63321149700005
            ],
            [
              8.964713029000052,
              46.60456115200003
            ],
            [
              9.028886555000042,
              46.59941717700008
            ],
            [
              9.042434300000025,
              46.58716765300005
            ],
            [
              9.022112683000046,
              46.52097237700008
            ],
            [
              9.050634251000076,
              46.47237785600004
            ],
            [
              9.093060082000022,
              46.46255550800004
            ],
            [
              9.103042630000061,
              46.411942348000025
            ],
            [
              9.091277484000045,
              46.35586908600004
            ],
            [
              9.063825475000044,
              46.328303230000074
            ],
            [
              9.074164544000041,
              46.31377634200004
            ],
            [
              9.060260280000023,
              46.29284099300003
            ],
            [
              9.082364494000046,
              46.25834178900004
            ],
            [
              9.038156065000067,
              46.23491924500007
            ],
            [
              9.129771214000073,
              46.21648601700008
            ],
            [
              9.245521242000052,
              46.23325827700006
            ],
            [
              9.254553071000032,
              46.26925199200008
            ],
            [
              9.29733542200006,
              46.32229550400007
            ],
            [
              9.301613658000065,
              46.344942392000064
            ],
            [
              9.27855872400005,
              46.364463700000044
            ],
            [
              9.280697842000052,
              46.412335178000035
            ],
            [
              9.24694732000006,
              46.442151641000066
            ],
            [
              9.276894966000043,
              46.45983721600004
            ],
            [
              9.285689116000071,
              46.497154572000056
            ],
            [
              9.36150894900004,
              46.50795218800005
            ],
            [
              9.40405362000007,
              46.46671338900006
            ],
            [
              9.460621395000032,
              46.504516816000034
            ],
            [
              9.462285153000039,
              46.377419373000066
            ],
            [
              9.499125511000045,
              46.36331558100005
            ],
            [
              9.537154268000052,
              46.304401115000076
            ],
            [
              9.623432009000055,
              46.28847183100004
            ],
            [
              9.675246189000063,
              46.30489370000004
            ],
            [
              9.711135828000067,
              46.29290622100007
            ],
            [
              9.73728059800004,
              46.35101279000003
            ],
            [
              9.773407917000043,
              46.336409883000044
            ],
            [
              9.898902813000063,
              46.38069880300003
            ],
            [
              9.92457222400003,
              46.36954793800004
            ],
            [
              9.975198006000028,
              46.380206901000065
            ],
            [
              10.033667219000051,
              46.43330670000006
            ],
            [
              10.051413972000034,
              46.46871877600006
            ],
            [
              10.045769078000035,
              46.54437831100006
            ],
            [
              10.097464419000062,
              46.58053496000008
            ],
            [
              10.10043541500005,
              46.60870817400007
            ],
            [
              10.188079815000037,
              46.62870634500007
            ],
            [
              10.212144887000022,
              46.61789192500004
            ],
            [
              10.24244905300003,
              46.63605075700008
            ],
            [
              10.258195335000039,
              46.61034095500003
            ],
            [
              10.24571714900003,
              46.57828863900005
            ],
            [
              10.285825603000035,
              46.57093639200008
            ],
            [
              10.296521191000068,
              46.55091689100004
            ],
            [
              10.422491446000038,
              46.551938473000064
            ],
            [
              10.453686911000034,
              46.537021467000045
            ],
            [
              10.472701289000042,
              46.49899522700008
            ],
            [
              10.544302307000066,
              46.49879071200007
            ],
            [
              10.615840930000047,
              46.45144105700007
            ],
            [
              10.680489816000033,
              46.450393021000025
            ],
            [
              10.842682462000027,
              46.55208934500007
            ],
            [
              10.98053670400003,
              46.58738330300008
            ],
            [
              11.083024203000036,
              46.62774709800004
            ],
            [
              11.112496489000023,
              46.66325279700004
            ],
            [
              11.164025454000068,
              46.66873321800006
            ],
            [
              11.168398761000049,
              46.689866779000056
            ],
            [
              11.132271442000047,
              46.73002383800008
            ],
            [
              11.142539207000027,
              46.773927693000076
            ],
            [
              11.23647023500007,
              46.82456156200004
            ],
            [
              11.207948668000029,
              46.85044581400007
            ],
            [
              11.219167151000022,
              46.856817410000076
            ],
            [
              11.216319992000024,
              46.90230183600005
            ],
            [
              11.177622584000062,
              46.93394626000003
            ],
            [
              11.134734223000066,
              46.91777737000007
            ],
            [
              11.133633189000022,
              46.869947386000035
            ],
            [
              11.115440379000063,
              46.870142602000044
            ],
            [
              11.105364639000072,
              46.826570952000054
            ],
            [
              11.06183267700004,
              46.77502761100004
            ],
            [
              11.025300449000042,
              46.76499384500005
            ],
            [
              10.95586823900004,
              46.773969839000074
            ],
            [
              10.950415821000036,
              46.80521457300006
            ],
            [
              10.981070244000023,
              46.823649610000075
            ],
            [
              10.930158486000039,
              46.85531160600004
            ],
            [
              10.845208237000065,
              46.85187165100007
            ],
            [
              10.784055015000035,
              46.81907097200008
            ],
            [
              10.72386719900004,
              46.84654092000005
            ],
            [
              10.736394487000041,
              46.87349132700007
            ],
            [
              10.712254135000023,
              46.881977652000046
            ],
            [
              10.678489139000021,
              46.85308397400007
            ],
            [
              10.679119240000034,
              46.89883679400003
            ],
            [
              10.612859075000074,
              46.938764578000075
            ],
            [
              10.588516248000076,
              46.93474385900004
            ],
            [
              10.52535083400005,
              46.99124175800006
            ],
            [
              10.452144168000075,
              46.964540670000076
            ],
            [
              10.376282377000052,
              46.97732053100003
            ],
            [
              10.327989795000065,
              47.02740695500006
            ],
            [
              10.267179806000058,
              47.033819909000044
            ],
            [
              10.273149366000041,
              47.01300210800008
            ],
            [
              10.172690910000028,
              46.98617308300004
            ],
            [
              10.157579245000022,
              47.01323895000007
            ],
            [
              10.185037333000025,
              47.03607684900004
            ],
            [
              10.163856033000059,
              47.07147761500005
            ],
            [
              10.243527339000025,
              47.133583110000075
            ],
            [
              10.183159214000057,
              47.126631280000026
            ],
            [
              10.097594512000057,
              47.156943752000075
            ],
            [
              9.985290841000051,
              47.14603325300004
            ],
            [
              9.967464861000053,
              47.16300417300005
            ],
            [
              10.094623515000023,
              47.240113088000044
            ],
            [
              10.01809064300005,
              47.27452020700008
            ],
            [
              9.996699468000031,
              47.269682112000055
            ],
            [
              9.945598326000038,
              47.316431839000074
            ],
            [
              9.831512057000054,
              47.30595704600006
            ],
            [
              9.64612186900007,
              47.36153029600007
            ],
            [
              9.566499161000024,
              47.290643997000075
            ],
            [
              9.508267627000066,
              47.29709213700005
            ],
            [
              9.376355379000074,
              47.21885540800008
            ],
            [
              9.30029786600005,
              47.14616122900003
            ],
            [
              9.098270097000068,
              47.168787863000034
            ],
            [
              9.05905294200005,
              47.20997590300004
            ],
            [
              9.029342976000066,
              47.194635075000065
            ],
            [
              8.975865038000052,
              47.13565273100005
            ],
            [
              8.984183828000027,
              47.11058562300008
            ],
            [
              9.006763402000047,
              47.100879055000064
            ],
            [
              9.089951307000035,
              47.11624697000008
            ],
            [
              9.106588888000033,
              47.07174873100007
            ],
            [
              9.154124833000026,
              47.02478303400005
            ],
            [
              9.23255914300006,
              47.02397291800003
            ],
            [
              9.249196724000058,
              46.92423488400004
            ],
            [
              9.20760277200003,
              46.89338389400007
            ],
            [
              9.12084967100003,
              46.86332770900003
            ],
            [
              9.049545753000075,
              46.86901530500006
            ],
            [
              9.009140199000058,
              46.81373885900007
            ],
            [
              8.924763896000059,
              46.794215946000065
            ],
            [
              8.876039552000066,
              46.80885879500005
            ],
            [
              8.81424282300003,
              46.782824308000045
            ],
            [
              8.811866025000029,
              46.738048105000075
            ],
            [
              8.780967661000034,
              46.72827380700005
            ],
            [
              8.75125769500005,
              46.73886255000008
            ],
            [
              8.606273061000024,
              46.62880120600005
            ],
            [
              8.549229926000066,
              46.643489008000074
            ],
            [
              8.42682486700005,
              46.62063959400007
            ]
          ]
        ],
        "type": "Polygon"
      }
    }
  ]
}