{
    "type": "FeatureCollection",
    "features": [
        {
            "type": "Feature",
            "properties": {
                "diocese": "Eystetten",
                "province": "Moguntin",
                "date": 1592
            },
            "geometry": {
                "type": "Polygon",
                "coordinates": [
                    [
                        [
                            11.379176340000072,
                            48.721288591000075
                        ],
                        [
                            11.367886553000062,
                            48.739513597000041
                        ],
                        [
                            11.258553878000043,
                            48.752443465000056
                        ],
                        [
                            11.219930923000049,
                            48.742060653000067
                        ],
                        [
                            11.174177575000044,
                            48.770265555000037
                        ],
                        [
                            11.115946042000076,
                            48.780446768000047
                        ],
                        [
                            11.112975045000042,
                            48.804716711000026
                        ],
                        [
                            11.078214385000024,
                            48.801781455000025
                        ],
                        [
                            11.059497106000038,
                            48.765565838000043
                        ],
                        [
                            11.038105931000075,
                            48.759103008000068
                        ],
                        [
                            10.962345518000063,
                            48.806477782000059
                        ],
                        [
                            10.918374768000035,
                            48.804521033000071
                        ],
                        [
                            10.862222933000055,
                            48.763607493000052
                        ],
                        [
                            10.795375509000053,
                            48.776531161000037
                        ],
                        [
                            10.767745241000057,
                            48.75538160800005
                        ],
                        [
                            10.678615343000047,
                            48.79160457100005
                        ],
                        [
                            10.666137157000037,
                            48.884685166000054
                        ],
                        [
                            10.683368937000068,
                            48.912614672000075
                        ],
                        [
                            10.605231727000046,
                            48.921010003000049
                        ],
                        [
                            10.648608277000051,
                            48.972912554000061
                        ],
                        [
                            10.638506889000041,
                            49.010732253000072
                        ],
                        [
                            10.592446934000066,
                            49.037997138000037
                        ],
                        [
                            10.572375167000075,
                            49.015479442000071
                        ],
                        [
                            10.521749385000021,
                            49.029039456000078
                        ],
                        [
                            10.522462424000025,
                            49.084410089000073
                        ],
                        [
                            10.487880024000049,
                            49.122922849000076
                        ],
                        [
                            10.472906201000058,
                            49.16909871200005
                        ],
                        [
                            10.388411058000031,
                            49.195898273000068
                        ],
                        [
                            10.357581472000049,
                            49.222070646000077
                        ],
                        [
                            10.458595357000036,
                            49.305826735000039
                        ],
                        [
                            10.489493721000031,
                            49.301952277000055
                        ],
                        [
                            10.483551728000066,
                            49.287226556000064
                        ],
                        [
                            10.532276072000059,
                            49.268619357000034
                        ],
                        [
                            10.578623619000041,
                            49.273271815000044
                        ],
                        [
                            10.619029173000058,
                            49.250005139000052
                        ],
                        [
                            10.678449105000027,
                            49.242247142000053
                        ],
                        [
                            10.867404488000034,
                            49.268619357000034
                        ],
                        [
                            10.851361107000059,
                            49.280249679000065
                        ],
                        [
                            10.874534880000056,
                            49.31047568300005
                        ],
                        [
                            10.863839292000023,
                            49.319772263000061
                        ],
                        [
                            10.760448611000072,
                            49.326743547000035
                        ],
                        [
                            10.762231209000049,
                            49.351135267000075
                        ],
                        [
                            10.812143951000053,
                            49.354618812000069
                        ],
                        [
                            10.833535127000061,
                            49.33022881800008
                        ],
                        [
                            10.854926302000024,
                            49.358102110000061
                        ],
                        [
                            10.986838551000062,
                            49.329067089000034
                        ],
                        [
                            10.986838551000062,
                            49.359263155000065
                        ],
                        [
                            10.972577768000065,
                            49.368550524000057
                        ],
                        [
                            11.024273108000045,
                            49.406842382000036
                        ],
                        [
                            11.135622184000056,
                            49.417086703000052
                        ],
                        [
                            11.145561379000071,
                            49.436186844000076
                        ],
                        [
                            11.118906264000032,
                            49.458314116000054
                        ],
                        [
                            11.137128122000036,
                            49.470939807000036
                        ],
                        [
                            11.231550482000046,
                            49.469178278000072
                        ],
                        [
                            11.26874717000004,
                            49.487964656000031
                        ],
                        [
                            11.307600389000072,
                            49.479159438000067
                        ],
                        [
                            11.376421791000041,
                            49.510068554000043
                        ],
                        [
                            11.487108289000048,
                            49.508699576000026
                        ],
                        [
                            11.49177669900007,
                            49.527470792000031
                        ],
                        [
                            11.468133461000036,
                            49.538319614000045
                        ],
                        [
                            11.499758174000021,
                            49.570558649000077
                        ],
                        [
                            11.471145338000042,
                            49.59350377800007
                        ],
                        [
                            11.570765468000047,
                            49.625715170000035
                        ],
                        [
                            11.601605608000057,
                            49.575008429000036
                        ],
                        [
                            11.642730226000026,
                            49.587632273000054
                        ],
                        [
                            11.678099053000039,
                            49.552709444000072
                        ],
                        [
                            11.619370385000025,
                            49.500678699000048
                        ],
                        [
                            11.682706272000075,
                            49.454760717000056
                        ],
                        [
                            11.743144176000044,
                            49.443240396000078
                        ],
                        [
                            11.741473945000052,
                            49.398297710000065
                        ],
                        [
                            11.663011838000045,
                            49.357189405000042
                        ],
                        [
                            11.641574404000039,
                            49.323126681000076
                        ],
                        [
                            11.540206246000025,
                            49.316658896000035
                        ],
                        [
                            11.539426685000024,
                            49.292866519000029
                        ],
                        [
                            11.598702825000032,
                            49.252348292000079
                        ],
                        [
                            11.643122067000036,
                            49.251692469000034
                        ],
                        [
                            11.641461917000072,
                            49.204112416000044
                        ],
                        [
                            11.567001468000058,
                            49.149666264000075
                        ],
                        [
                            11.590569904000063,
                            49.011821983000061
                        ],
                        [
                            11.522013354000023,
                            49.004866285000048
                        ],
                        [
                            11.426109364000069,
                            48.889830463000067
                        ],
                        [
                            11.382026418000066,
                            48.89039837100006
                        ],
                        [
                            11.368706155000041,
                            48.845625006000034
                        ],
                        [
                            11.451894786000025,
                            48.815468250000038
                        ],
                        [
                            11.478914852000059,
                            48.783382233000054
                        ],
                        [
                            11.482131921534341,
                            48.737115622992839
                        ],
                        [
                            11.379176340000072,
                            48.721288591000075
                        ]
                    ]
                ]
            }
        }
    ]
}