{
    "type": "FeatureCollection",
    "features": [
        {
            "type": "Feature",
            "properties": {
                "diocese": "Moguntin",
                "province": "Moguntin",
                "date": 1592
            },
            "geometry": {
                "coordinates": [
                    [
                        [
                            7.143833872000073,
                            49.51350287300005
                        ],
                        [
                            7.153703544000052,
                            49.47564950300006
                        ],
                        [
                            7.193189080000025,
                            49.48602574800003
                        ],
                        [
                            7.237161405000052,
                            49.445169159000045
                        ],
                        [
                            7.2631596610000315,
                            49.44755947400006
                        ],
                        [
                            7.29938377600007,
                            49.367268237000076
                        ],
                        [
                            7.329121254000029,
                            49.354935873000045
                        ],
                        [
                            7.397383717000025,
                            49.37826540800006
                        ],
                        [
                            7.38448459600005,
                            49.40536093800006
                        ],
                        [
                            7.623634307000032,
                            49.42327877900004
                        ],
                        [
                            7.614602478000052,
                            49.451408367000056
                        ],
                        [
                            7.654532672000073,
                            49.46407686600003
                        ],
                        [
                            7.661187704000042,
                            49.48786007500007
                        ],
                        [
                            7.678300645000036,
                            49.49187428300007
                        ],
                        [
                            7.72155835500007,
                            49.47828640600005
                        ],
                        [
                            7.735343779000061,
                            49.446772732000056
                        ],
                        [
                            7.778126130000032,
                            49.45913345100007
                        ],
                        [
                            7.8313663890000385,
                            49.451408367000056
                        ],
                        [
                            7.905522464000057,
                            49.50885382600006
                        ],
                        [
                            7.933568672000035,
                            49.50885382600006
                        ],
                        [
                            7.968269912000039,
                            49.555440102000034
                        ],
                        [
                            8.066669320000074,
                            49.58780836300008
                        ],
                        [
                            8.086634417000027,
                            49.61091540900003
                        ],
                        [
                            8.123712454000042,
                            49.613071508000075
                        ],
                        [
                            8.11135310800006,
                            49.638013716000046
                        ],
                        [
                            8.167920883000022,
                            49.63462725200003
                        ],
                        [
                            8.165544086000068,
                            49.65648119400004
                        ],
                        [
                            8.114205265000066,
                            49.708152865000045
                        ],
                        [
                            8.29484185800004,
                            49.74318451500005
                        ],
                        [
                            8.247305913000048,
                            49.77297224200004
                        ],
                        [
                            8.235897286000068,
                            49.81777288300003
                        ],
                        [
                            8.311479439000038,
                            49.81961311900005
                        ],
                        [
                            8.381357279000042,
                            49.84261016000005
                        ],
                        [
                            8.387536952000062,
                            49.81685273900007
                        ],
                        [
                            8.442963864000035,
                            49.83690791300006
                        ],
                        [
                            8.477189745000032,
                            49.82427473600006
                        ],
                        [
                            8.430984806000026,
                            49.80746627000008
                        ],
                        [
                            8.416153591000068,
                            49.77567372800007
                        ],
                        [
                            8.478710895000063,
                            49.758111375000055
                        ],
                        [
                            8.438400414000057,
                            49.72186124000007
                        ],
                        [
                            8.35408590700007,
                            49.684504513000036
                        ],
                        [
                            8.412555120000036,
                            49.59954502900007
                        ],
                        [
                            8.445354922000035,
                            49.61941296600003
                        ],
                        [
                            8.520224037000048,
                            49.60324200300005
                        ],
                        [
                            8.592597514000033,
                            49.637194829000066
                        ],
                        [
                            8.608640895000065,
                            49.606014549000065
                        ],
                        [
                            8.66960574500007,
                            49.58313632800008
                        ],
                        [
                            8.740909664000071,
                            49.70848793700003
                        ],
                        [
                            8.849648139000067,
                            49.642274169000075
                        ],
                        [
                            8.835030836000044,
                            49.614100241000074
                        ],
                        [
                            8.861056766000047,
                            49.60185567100007
                        ],
                        [
                            8.84287426700007,
                            49.578975498000034
                        ],
                        [
                            8.893143529000042,
                            49.510502071000076
                        ],
                        [
                            8.917386861000068,
                            49.51790923100003
                        ],
                        [
                            8.933430243000032,
                            49.492210843000066
                        ],
                        [
                            9.054290384000069,
                            49.45607137400003
                        ],
                        [
                            9.10206401000005,
                            49.49498969800004
                        ],
                        [
                            9.083643831000074,
                            49.56649088100005
                        ],
                        [
                            9.121197228000028,
                            49.62410924000005
                        ],
                        [
                            9.155423109000026,
                            49.635809463000044
                        ],
                        [
                            9.210564805000047,
                            49.61979792300008
                        ],
                        [
                            9.299932383000055,
                            49.62287747400006
                        ],
                        [
                            9.400708587000054,
                            49.581903527000065
                        ],
                        [
                            9.55947864600006,
                            49.58282813100004
                        ],
                        [
                            9.619373937000034,
                            49.564024406000044
                        ],
                        [
                            9.691153215000043,
                            49.59330575100006
                        ],
                        [
                            9.721100860000035,
                            49.55508239000005
                        ],
                        [
                            9.78194687100006,
                            49.54490500000003
                        ],
                        [
                            9.872740527000076,
                            49.60809385500005
                        ],
                        [
                            9.838990005000028,
                            49.65089244300003
                        ],
                        [
                            9.902688172000069,
                            49.65643195700005
                        ],
                        [
                            9.897459218000051,
                            49.69180841100007
                        ],
                        [
                            9.914096799000049,
                            49.73453343400007
                        ],
                        [
                            9.86608549400006,
                            49.713636680000036
                        ],
                        [
                            9.835187130000065,
                            49.72254963100005
                        ],
                        [
                            9.819975627000076,
                            49.70718145300003
                        ],
                        [
                            9.776242557000046,
                            49.72961736000008
                        ],
                        [
                            9.802862687000072,
                            49.69580587000007
                        ],
                        [
                            9.779094714000053,
                            49.68719555000007
                        ],
                        [
                            9.75817889800004,
                            49.652739018000034
                        ],
                        [
                            9.67261419600004,
                            49.68012164700008
                        ],
                        [
                            9.525252765000062,
                            49.646275701000036
                        ],
                        [
                            9.487224008000055,
                            49.67212382100007
                        ],
                        [
                            9.42780407600003,
                            49.770467093000036
                        ],
                        [
                            9.454899565000062,
                            49.77323011800007
                        ],
                        [
                            9.429230155000027,
                            49.83183050900004
                        ],
                        [
                            9.468684990000042,
                            49.84072174800008
                        ],
                        [
                            9.501960151000048,
                            49.79563550000006
                        ],
                        [
                            9.551872894000041,
                            49.83581643900004
                        ],
                        [
                            9.530957078000029,
                            49.84286766500003
                        ],
                        [
                            9.532383157000027,
                            49.86462800600003
                        ],
                        [
                            9.545693221000022,
                            49.86401517300004
                        ],
                        [
                            9.52049917000005,
                            49.912711159000025
                        ],
                        [
                            9.481519695000031,
                            49.92281171700006
                        ],
                        [
                            9.53190779700003,
                            49.95401824900006
                        ],
                        [
                            9.596794363000072,
                            49.94652440600004
                        ],
                        [
                            9.584316177000062,
                            49.99811651500005
                        ],
                        [
                            9.655620095000074,
                            50.03477059000005
                        ],
                        [
                            9.645637547000035,
                            50.05949628500008
                        ],
                        [
                            9.596437843000047,
                            50.04530346200005
                        ],
                        [
                            9.527273042000047,
                            50.051713644000074
                        ],
                        [
                            9.512655739000024,
                            50.067735353000046
                        ],
                        [
                            9.508734024000034,
                            50.091529156000036
                        ],
                        [
                            9.522994807000032,
                            50.10319295600004
                        ],
                        [
                            9.501960151000048,
                            50.120111852000036
                        ],
                        [
                            9.504455789000076,
                            50.193890570000065
                        ],
                        [
                            9.481995054000038,
                            50.24863695700003
                        ],
                        [
                            9.457395203000033,
                            50.25342427600003
                        ],
                        [
                            9.467021232000036,
                            50.29284437100006
                        ],
                        [
                            9.453830007000022,
                            50.32517636400007
                        ],
                        [
                            9.462742996000031,
                            50.38340949500008
                        ],
                        [
                            9.504812308000055,
                            50.40022920400003
                        ],
                        [
                            9.598576961000049,
                            50.38477347800006
                        ],
                        [
                            9.663463526000044,
                            50.42135902500007
                        ],
                        [
                            9.716941465000048,
                            50.47629784500003
                        ],
                        [
                            9.675421788000051,
                            50.50435916600003
                        ],
                        [
                            9.672747891000029,
                            50.54175866000003
                        ],
                        [
                            9.63840317000006,
                            50.57467588800006
                        ],
                        [
                            9.644464003000053,
                            50.59723657200004
                        ],
                        [
                            9.62711338300005,
                            50.59670851900006
                        ],
                        [
                            9.637571291000029,
                            50.60591088000007
                        ],
                        [
                            9.612614920000055,
                            50.60470411600005
                        ],
                        [
                            9.66232863600004,
                            50.64274865300007
                        ],
                        [
                            9.612653573000046,
                            50.67408910000006
                        ],
                        [
                            9.581422456000041,
                            50.72103046800004
                        ],
                        [
                            9.583062447000032,
                            50.77016463100006
                        ],
                        [
                            9.602599720000057,
                            50.774538635000056
                        ],
                        [
                            9.619926572000054,
                            50.80640690800004
                        ],
                        [
                            9.674901893000026,
                            50.823796825000045
                        ],
                        [
                            9.695936549000066,
                            50.85135513300003
                        ],
                        [
                            9.763033536000023,
                            50.834290714000076
                        ],
                        [
                            9.95662367400007,
                            50.86175281300007
                        ],
                        [
                            9.98443220300004,
                            50.84352158400003
                        ],
                        [
                            9.966606223000042,
                            50.81514772700007
                        ],
                        [
                            9.992275634000066,
                            50.796898283000075
                        ],
                        [
                            9.991206075000036,
                            50.77187820700004
                        ],
                        [
                            10.07118530300005,
                            50.74774708000007
                        ],
                        [
                            10.18812372900004,
                            50.73932456800003
                        ],
                        [
                            10.27368843100004,
                            50.69478040700005
                        ],
                        [
                            10.437212084000066,
                            50.71103791200005
                        ],
                        [
                            10.420099143000073,
                            50.76939801000003
                        ],
                        [
                            10.476191559000029,
                            50.77180305100006
                        ],
                        [
                            10.522776786000065,
                            50.793442853000045
                        ],
                        [
                            10.595031423000023,
                            50.689359986000056
                        ],
                        [
                            10.694856908000077,
                            50.649591093000026
                        ],
                        [
                            10.755702919000043,
                            50.59832393900007
                        ],
                        [
                            10.80514030200004,
                            50.60194463000005
                        ],
                        [
                            10.848873372000071,
                            50.58564932500008
                        ],
                        [
                            10.858380561000047,
                            50.56693294400003
                        ],
                        [
                            10.895458599000051,
                            50.55364583900007
                        ],
                        [
                            10.897028275000025,
                            50.52524562600007
                        ],
                        [
                            10.960013403000062,
                            50.44887737200003
                        ],
                        [
                            11.026563727000052,
                            50.410646953000025
                        ],
                        [
                            11.140055797000059,
                            50.41519079700004
                        ],
                        [
                            11.238098684000022,
                            50.396634024000036
                        ],
                        [
                            11.330793778000043,
                            50.463253103000056
                        ],
                        [
                            11.408039689000077,
                            50.456822395000074
                        ],
                        [
                            11.412199085000054,
                            50.44017414900003
                        ],
                        [
                            11.476966810000022,
                            50.426169954000045
                        ],
                        [
                            11.559353110000075,
                            50.445529874000044
                        ],
                        [
                            11.599639824000064,
                            50.53353778300004
                        ],
                        [
                            11.71369638300007,
                            50.546452972000054
                        ],
                        [
                            11.700178349000055,
                            50.55721292800007
                        ],
                        [
                            11.70849713900003,
                            50.57240482200007
                        ],
                        [
                            11.686039631000028,
                            50.57332938800005
                        ],
                        [
                            11.731119553000042,
                            50.59683368100008
                        ],
                        [
                            11.729336955000065,
                            50.64132009400004
                        ],
                        [
                            11.861249204000046,
                            50.65752078500003
                        ],
                        [
                            11.896901163000052,
                            50.67710485500004
                        ],
                        [
                            11.904625754000051,
                            50.715872267000066
                        ],
                        [
                            11.881451980000065,
                            50.77452695000005
                        ],
                        [
                            11.733496350000053,
                            50.76475627200006
                        ],
                        [
                            11.710322577000056,
                            50.78241716200006
                        ],
                        [
                            11.595142537000072,
                            50.77304097700005
                        ],
                        [
                            11.567282670000054,
                            50.78570546900005
                        ],
                        [
                            11.594540161000054,
                            50.80283992200003
                        ],
                        [
                            11.583697402000041,
                            50.81787498800003
                        ],
                        [
                            11.614418553000064,
                            50.85468094200007
                        ],
                        [
                            11.595346371000062,
                            50.87822985100007
                        ],
                        [
                            11.598959103000027,
                            50.90149921600005
                        ],
                        [
                            11.57766299900004,
                            50.91276988300007
                        ],
                        [
                            11.671403884000028,
                            50.98452632100003
                        ],
                        [
                            11.667220721000035,
                            51.00080283800003
                        ],
                        [
                            11.693080275000057,
                            51.02891425000007
                        ],
                        [
                            11.677518908000025,
                            51.046342897000045
                        ],
                        [
                            11.709745997000027,
                            51.05315914700003
                        ],
                        [
                            11.695740767000075,
                            51.09006306900005
                        ],
                        [
                            11.72058875600004,
                            51.14356873300005
                        ],
                        [
                            11.80195204100005,
                            51.175297501000045
                        ],
                        [
                            11.770223981000072,
                            51.208744480000064
                        ],
                        [
                            11.674248907000049,
                            51.22696657100005
                        ],
                        [
                            11.682947985000055,
                            51.243842365000035
                        ],
                        [
                            11.67196718200006,
                            51.253750661000026
                        ],
                        [
                            11.63560218300006,
                            51.243842365000035
                        ],
                        [
                            11.628899615000023,
                            51.259373339000035
                        ],
                        [
                            11.651859477000073,
                            51.27409614100003
                        ],
                        [
                            11.633320458000071,
                            51.287903775000075
                        ],
                        [
                            11.571969378000063,
                            51.29756479200006
                        ],
                        [
                            11.557857144000025,
                            51.27266496500005
                        ],
                        [
                            11.483879329000047,
                            51.266623793000065
                        ],
                        [
                            11.339463796000075,
                            51.33180126500008
                        ],
                        [
                            11.33118113300003,
                            51.343655384000044
                        ],
                        [
                            11.36536594200004,
                            51.36867067800006
                        ],
                        [
                            11.353318432000037,
                            51.41368257600004
                        ],
                        [
                            11.279075652000074,
                            51.438847370000076
                        ],
                        [
                            11.269890946000032,
                            51.52243734400008
                        ],
                        [
                            11.217363727000077,
                            51.54254543400003
                        ],
                        [
                            11.184563924000031,
                            51.57667926200003
                        ],
                        [
                            10.797431184000061,
                            51.67110065700007
                        ],
                        [
                            10.617745310000032,
                            51.75327685700006
                        ],
                        [
                            10.54644139100003,
                            51.83045689900007
                        ],
                        [
                            10.514354628000035,
                            51.84499605100007
                        ],
                        [
                            10.455410056000062,
                            51.84719854300005
                        ],
                        [
                            10.46075785000005,
                            51.856741431000046
                        ],
                        [
                            10.262889476000055,
                            51.842793451000034
                        ],
                        [
                            10.15296260200006,
                            51.85894334800008
                        ],
                        [
                            10.098890464000021,
                            51.84205922700005
                        ],
                        [
                            10.013919962000045,
                            51.85490641700005
                        ],
                        [
                            10.001441776000036,
                            51.841692110000054
                        ],
                        [
                            9.955094229000053,
                            51.859310324000035
                        ],
                        [
                            9.891886277000026,
                            51.93327121500005
                        ],
                        [
                            9.678568721000033,
                            51.88745150400007
                        ],
                        [
                            9.646481958000038,
                            51.86892708000005
                        ],
                        [
                            9.666645121000045,
                            51.843396117000054
                        ],
                        [
                            9.633369960000039,
                            51.82577167300008
                        ],
                        [
                            9.62445697000004,
                            51.80079190200007
                        ],
                        [
                            9.647630743000036,
                            51.74895148200005
                        ],
                        [
                            9.720123060000049,
                            51.75961856100008
                        ],
                        [
                            9.699326084000063,
                            51.72760976500007
                        ],
                        [
                            9.69992028300004,
                            51.68121198700004
                        ],
                        [
                            9.67734070900002,
                            51.67568527200007
                        ],
                        [
                            9.660703128000023,
                            51.70036604300003
                        ],
                        [
                            9.62564536800005,
                            51.687106406000055
                        ],
                        [
                            9.612572983000064,
                            51.71325363300008
                        ],
                        [
                            9.570384832000059,
                            51.69336838500004
                        ],
                        [
                            9.530573477000075,
                            51.723561061000055
                        ],
                        [
                            9.503834508000068,
                            51.72061632100008
                        ],
                        [
                            9.519283690000066,
                            51.682685664000076
                        ],
                        [
                            9.578703622000035,
                            51.651728380000065
                        ],
                        [
                            9.528196680000065,
                            51.62554560600006
                        ],
                        [
                            9.49492151800007,
                            51.63402900500006
                        ],
                        [
                            9.492544721000058,
                            51.656889396000054
                        ],
                        [
                            9.45748696100003,
                            51.65135971300003
                        ],
                        [
                            9.449168171000053,
                            51.64509192400004
                        ],
                        [
                            9.473550149000062,
                            51.63252915700008
                        ],
                        [
                            9.414130217000036,
                            51.59740379200008
                        ],
                        [
                            9.429805195000029,
                            51.57518182700005
                        ],
                        [
                            9.371425112000054,
                            51.53962402900004
                        ],
                        [
                            9.33725865200006,
                            51.53703692200003
                        ],
                        [
                            9.263577936000047,
                            51.48803895800006
                        ],
                        [
                            9.130784466000023,
                            51.47648877100005
                        ],
                        [
                            9.119791113000076,
                            51.417453401000046
                        ],
                        [
                            9.070095134000042,
                            51.39800853300005
                        ],
                        [
                            9.061661877000063,
                            51.36511192300003
                        ],
                        [
                            9.03135134200005,
                            51.349103899000056
                        ],
                        [
                            9.050068620000047,
                            51.31791911300007
                        ],
                        [
                            9.048583122000025,
                            51.256229646000065
                        ],
                        [
                            8.931822956000076,
                            51.26849981500004
                        ],
                        [
                            8.895576797000047,
                            51.23182831100007
                        ],
                        [
                            8.811438174000045,
                            51.20190413800003
                        ],
                        [
                            8.756177637000064,
                            51.14669442400003
                        ],
                        [
                            8.712216985000055,
                            51.14833280000005
                        ],
                        [
                            8.693392130000063,
                            51.13434997000007
                        ],
                        [
                            8.714070266000022,
                            51.106153307000056
                        ],
                        [
                            8.635635956000044,
                            51.09406375400005
                        ],
                        [
                            8.539375666000069,
                            51.10995862300007
                        ],
                        [
                            8.503367188000027,
                            51.14106092500003
                        ],
                        [
                            8.490532482000049,
                            51.18421141300007
                        ],
                        [
                            8.337942097000052,
                            51.10704870400008
                        ],
                        [
                            8.218151514000056,
                            51.104586321000056
                        ],
                        [
                            8.240255729000069,
                            51.075251499000046
                        ],
                        [
                            8.211734162000027,
                            51.02258132800006
                        ],
                        [
                            8.08053495200005,
                            51.03155069400003
                        ],
                        [
                            8.046309071000053,
                            51.01809599500007
                        ],
                        [
                            8.002457162000042,
                            51.03020540000006
                        ],
                        [
                            7.9992484850000665,
                            51.04836357600004
                        ],
                        [
                            7.935074959000076,
                            51.03581053400006
                        ],
                        [
                            7.899690389000057,
                            50.94177892000005
                        ],
                        [
                            7.848589248000053,
                            50.934290101000045
                        ],
                        [
                            7.8574467560000585,
                            50.91440861900003
                        ],
                        [
                            7.910885773000075,
                            50.918900704000066
                        ],
                        [
                            7.9251465560000725,
                            50.88742408500008
                        ],
                        [
                            8.192536251000035,
                            50.80863941100006
                        ],
                        [
                            8.324448499000027,
                            50.869427889000065
                        ],
                        [
                            8.445665160000033,
                            50.86717787600003
                        ],
                        [
                            8.616794564000031,
                            50.68230706500003
                        ],
                        [
                            8.795054360000051,
                            50.62127499500008
                        ],
                        [
                            8.631055348000075,
                            50.43543200700003
                        ],
                        [
                            8.552621037000051,
                            50.45813498200005
                        ],
                        [
                            8.442099964000022,
                            50.38772029900008
                        ],
                        [
                            8.46349114000003,
                            50.32630606300006
                        ],
                        [
                            8.385056829000064,
                            50.25569542100004
                        ],
                        [
                            8.24601418900005,
                            50.214647600000035
                        ],
                        [
                            8.110536744000058,
                            50.26025410800003
                        ],
                        [
                            7.6470612750000555,
                            50.08214192400004
                        ],
                        [
                            7.5935833360000515,
                            50.130160517000036
                        ],
                        [
                            7.468801479000035,
                            50.12558939200005
                        ],
                        [
                            7.458105892000049,
                            50.089004671000055
                        ],
                        [
                            7.254889725000055,
                            50.05925900500006
                        ],
                        [
                            7.254889725000055,
                            49.990544724000074
                        ],
                        [
                            7.180020610000042,
                            49.95844441600008
                        ],
                        [
                            7.201411786000051,
                            49.83212869400006
                        ],
                        [
                            7.155064239000069,
                            49.769998126000075
                        ],
                        [
                            7.201411786000051,
                            49.71931426000003
                        ],
                        [
                            7.3618456020000735,
                            49.717009190000056
                        ],
                        [
                            7.365410798000028,
                            49.65473092700006
                        ],
                        [
                            7.215672570000038,
                            49.587750576000076
                        ],
                        [
                            7.244194137000022,
                            49.550756482000054
                        ],
                        [
                            7.143833872000073,
                            49.51350287300005
                        ]
                    ]
                ],
                "type": "Polygon"
            }
        }
    ]
}