{
    "type": "FeatureCollection",
    "features": [
        {
            "type": "Feature",
            "properties": {
                "diocese": "Paderbornen",
                "province": "Moguntin",
                "date": 1592
            },
            "geometry": {
                "coordinates": [
                    [
                        [
                            9.536150570000075,
                            51.89234359000005
                        ],
                        [
                            9.370250120000037,
                            51.89381038500005
                        ],
                        [
                            9.285160777000044,
                            51.87239042200008
                        ],
                        [
                            9.287062215000049,
                            51.93691277000005
                        ],
                        [
                            9.23049444000003,
                            51.94365293800007
                        ],
                        [
                            9.222413329000062,
                            51.97441040500007
                        ],
                        [
                            9.244755224000073,
                            52.01860558300007
                        ],
                        [
                            9.10975313800003,
                            52.01802050200007
                        ],
                        [
                            8.773198644000047,
                            52.18183604700005
                        ],
                        [
                            8.614748574000032,
                            52.16502193600007
                        ],
                        [
                            8.51444772900004,
                            52.092359172000045
                        ],
                        [
                            8.418900479000058,
                            52.07191054700007
                        ],
                        [
                            8.387526755000067,
                            52.00202248100004
                        ],
                        [
                            8.28956566900007,
                            51.99027066300005
                        ],
                        [
                            8.322923016000061,
                            51.94029278000005
                        ],
                        [
                            8.464516986000035,
                            51.94864652200005
                        ],
                        [
                            8.470221300000048,
                            51.930403804000036
                        ],
                        [
                            8.507655857000032,
                            51.957874951000065
                        ],
                        [
                            8.52049056200002,
                            51.938317220000044
                        ],
                        [
                            8.573611981000056,
                            51.940295355000046
                        ],
                        [
                            8.591081441000028,
                            51.887735261000046
                        ],
                        [
                            8.52904703200005,
                            51.85823950100007
                        ],
                        [
                            8.469508260000055,
                            51.79411863400003
                        ],
                        [
                            8.400343460000045,
                            51.758382923000056
                        ],
                        [
                            8.365780335000068,
                            51.69600053100004
                        ],
                        [
                            8.423120570000037,
                            51.69857859100006
                        ],
                        [
                            8.449265340000068,
                            51.67794999600005
                        ],
                        [
                            8.532750344000021,
                            51.68458164100008
                        ],
                        [
                            8.596329671000035,
                            51.65970796300007
                        ],
                        [
                            8.596032571000023,
                            51.62744397500006
                        ],
                        [
                            8.501851979000037,
                            51.58832769900005
                        ],
                        [
                            8.500663581000026,
                            51.54843871300005
                        ],
                        [
                            8.533344543000055,
                            51.53310169200006
                        ],
                        [
                            8.546416928000042,
                            51.48668960700007
                        ],
                        [
                            8.583257286000048,
                            51.47318239500004
                        ],
                        [
                            8.621375172000057,
                            51.48691161000005
                        ],
                        [
                            8.697670365000022,
                            51.47780860300003
                        ],
                        [
                            8.795000213000037,
                            51.447600253000076
                        ],
                        [
                            8.883773592000068,
                            51.48779961100007
                        ],
                        [
                            8.920851629000026,
                            51.47869678100005
                        ],
                        [
                            8.909443002000046,
                            51.46337328300007
                        ],
                        [
                            8.916929914000036,
                            51.43159950000006
                        ],
                        [
                            8.950086236000061,
                            51.42048456900005
                        ],
                        [
                            8.939390648000028,
                            51.39246294900005
                        ],
                        [
                            8.675566150000066,
                            51.37265955100003
                        ],
                        [
                            8.68412262000004,
                            51.359971975000065
                        ],
                        [
                            8.604618752000022,
                            51.32812626500004
                        ],
                        [
                            8.558984244000044,
                            51.284664631000055
                        ],
                        [
                            8.628862084000048,
                            51.23401897600007
                        ],
                        [
                            8.72298325600002,
                            51.23513512000005
                        ],
                        [
                            8.754713499000047,
                            51.20789347400006
                        ],
                        [
                            8.755426539000041,
                            51.18041221400006
                        ],
                        [
                            8.712216985000055,
                            51.14833280000005
                        ],
                        [
                            8.74690812800003,
                            51.14512881300004
                        ],
                        [
                            8.781134009000027,
                            51.161453289000065
                        ],
                        [
                            8.811438174000045,
                            51.20190413800003
                        ],
                        [
                            8.895576797000047,
                            51.23182831100007
                        ],
                        [
                            8.931822956000076,
                            51.26849981500004
                        ],
                        [
                            9.048583122000025,
                            51.256229646000065
                        ],
                        [
                            9.050068620000047,
                            51.31791911300007
                        ],
                        [
                            9.03135134200005,
                            51.349103899000056
                        ],
                        [
                            9.061661877000063,
                            51.36511192300003
                        ],
                        [
                            9.070095134000042,
                            51.39800853300005
                        ],
                        [
                            9.119791113000076,
                            51.417453401000046
                        ],
                        [
                            9.130784466000023,
                            51.47648877100005
                        ],
                        [
                            9.263577936000047,
                            51.48803895800006
                        ],
                        [
                            9.33725865200006,
                            51.53703692200003
                        ],
                        [
                            9.371425112000054,
                            51.53962402900004
                        ],
                        [
                            9.429805195000029,
                            51.57518182700005
                        ],
                        [
                            9.414130217000036,
                            51.59740379200008
                        ],
                        [
                            9.473550149000062,
                            51.63252915700008
                        ],
                        [
                            9.449168171000053,
                            51.64509192400004
                        ],
                        [
                            9.45748696100003,
                            51.65135971300003
                        ],
                        [
                            9.492544721000058,
                            51.656889396000054
                        ],
                        [
                            9.49492151800007,
                            51.63402900500006
                        ],
                        [
                            9.528196680000065,
                            51.62554560600006
                        ],
                        [
                            9.578703622000035,
                            51.651728380000065
                        ],
                        [
                            9.519283690000066,
                            51.682685664000076
                        ],
                        [
                            9.503834508000068,
                            51.72061632100008
                        ],
                        [
                            9.530573477000075,
                            51.723561061000055
                        ],
                        [
                            9.570384832000059,
                            51.69336838500004
                        ],
                        [
                            9.612572983000064,
                            51.71325363300008
                        ],
                        [
                            9.62564536800005,
                            51.687106406000055
                        ],
                        [
                            9.660703128000023,
                            51.70036604300003
                        ],
                        [
                            9.67734070900002,
                            51.67568527200007
                        ],
                        [
                            9.69992028300004,
                            51.68121198700004
                        ],
                        [
                            9.699326084000063,
                            51.72760976500007
                        ],
                        [
                            9.720123060000049,
                            51.75961856100008
                        ],
                        [
                            9.647630743000036,
                            51.74895148200005
                        ],
                        [
                            9.62683376700005,
                            51.778004159000034
                        ],
                        [
                            9.625051169000074,
                            51.816956864000076
                        ],
                        [
                            9.666645121000045,
                            51.843396117000054
                        ],
                        [
                            9.633774403000075,
                            51.88964638900006
                        ],
                        [
                            9.599905042000046,
                            51.90797898800008
                        ],
                        [
                            9.536150570000075,
                            51.89234359000005
                        ]
                    ]
                ],
                "type": "Polygon"
            }
        }
    ]
}