{
    "type": "FeatureCollection",
    "features": [
        {
            "type": "Feature",
            "properties": {
                "diocese": "Spiren",
                "province": "Moguntin",
                "date": 1592
            },
            "geometry": {
                "coordinates": [
                    [
                        [
                            8.217492621000076,
                            48.59320255700004
                        ],
                        [
                            8.298328274000028,
                            48.56423834600008
                        ],
                        [
                            8.346814938000023,
                            48.56990052900005
                        ],
                        [
                            8.458049051000046,
                            48.66292106900005
                        ],
                        [
                            8.571184601000027,
                            48.67422268900003
                        ],
                        [
                            8.613966952000055,
                            48.67422268900003
                        ],
                        [
                            8.64248851900004,
                            48.65287305700008
                        ],
                        [
                            8.695728778000046,
                            48.65726930900007
                        ],
                        [
                            8.708088124000028,
                            48.671711437000056
                        ],
                        [
                            8.780342761000043,
                            48.65287305700008
                        ],
                        [
                            8.88872471700006,
                            48.66982791600003
                        ],
                        [
                            8.90013334400004,
                            48.637797284000044
                        ],
                        [
                            8.910591252000074,
                            48.68301108500003
                        ],
                        [
                            8.95527504100005,
                            48.70497536700003
                        ],
                        [
                            9.007564581000054,
                            48.69932832400008
                        ],
                        [
                            9.090277126000046,
                            48.743233072000066
                        ],
                        [
                            9.066509153000027,
                            48.784593879000056
                        ],
                        [
                            9.093129283000053,
                            48.81653117400003
                        ],
                        [
                            9.084572813000023,
                            48.83718564700007
                        ],
                        [
                            9.148270980000063,
                            48.85908260400004
                        ],
                        [
                            9.135911634000024,
                            48.87971953600004
                        ],
                        [
                            9.343168356000035,
                            48.90659731400007
                        ],
                        [
                            9.33841476200007,
                            48.88909714600004
                        ],
                        [
                            9.372640642000022,
                            48.88409597300006
                        ],
                        [
                            9.42017658800006,
                            48.90284779400008
                        ],
                        [
                            9.614123246000077,
                            48.862835407000034
                        ],
                        [
                            9.693983634000062,
                            48.895347910000055
                        ],
                        [
                            9.679722851000065,
                            48.92783928100005
                        ],
                        [
                            9.690180759000043,
                            48.94657469200007
                        ],
                        [
                            9.617926121000039,
                            48.95344258100005
                        ],
                        [
                            9.619827559000043,
                            49.01271683300007
                        ],
                        [
                            9.56373514300003,
                            49.039523056000064
                        ],
                        [
                            9.573242333000053,
                            49.06257731800008
                        ],
                        [
                            9.467712534000043,
                            49.05946250200003
                        ],
                        [
                            9.424930183000072,
                            49.04388549300006
                        ],
                        [
                            9.391655021000076,
                            49.00710440000006
                        ],
                        [
                            9.265209406000054,
                            49.02705684100005
                        ],
                        [
                            9.151319345000047,
                            49.02412472700007
                        ],
                        [
                            9.144112545000041,
                            49.00698876700005
                        ],
                        [
                            9.12688076400002,
                            49.02959059300008
                        ],
                        [
                            9.005664103000072,
                            49.02452555900004
                        ],
                        [
                            9.003881505000038,
                            49.05685499100008
                        ],
                        [
                            8.976548337000054,
                            49.074763457000074
                        ],
                        [
                            9.003287306000061,
                            49.10978309500007
                        ],
                        [
                            8.97833093500003,
                            49.13816976900006
                        ],
                        [
                            8.860679470000036,
                            49.15177405600008
                        ],
                        [
                            8.854143277000048,
                            49.18906950000007
                        ],
                        [
                            8.93673698200007,
                            49.22711295500005
                        ],
                        [
                            8.979400493000071,
                            49.22610401700007
                        ],
                        [
                            8.979400493000071,
                            49.26055147300008
                        ],
                        [
                            8.910235693000061,
                            49.26287813700003
                        ],
                        [
                            8.872444616000053,
                            49.241468689000044
                        ],
                        [
                            8.88171412500003,
                            49.223775620000026
                        ],
                        [
                            8.791871188000073,
                            49.23588208800004
                        ],
                        [
                            8.754080112000054,
                            49.22656968300004
                        ],
                        [
                            8.74481060200003,
                            49.26287813700003
                        ],
                        [
                            8.632150411000055,
                            49.281022352000036
                        ],
                        [
                            8.62644609800003,
                            49.31543149500004
                        ],
                        [
                            8.584376786000064,
                            49.34795857600005
                        ],
                        [
                            8.586515904000066,
                            49.371179047000055
                        ],
                        [
                            8.49809904500006,
                            49.37675032900006
                        ],
                        [
                            8.507368554000038,
                            49.43938374100003
                        ],
                        [
                            8.488829536000026,
                            49.444020074000036
                        ],
                        [
                            8.385438854000029,
                            49.46070724500004
                        ],
                        [
                            8.325543563000053,
                            49.45051020500006
                        ],
                        [
                            8.247109253000076,
                            49.477852029000076
                        ],
                        [
                            7.989702108000074,
                            49.45051020500006
                        ],
                        [
                            7.9661718150000524,
                            49.44355646000008
                        ],
                        [
                            7.967597893000061,
                            49.425008321000064
                        ],
                        [
                            7.939076326000077,
                            49.39763701100003
                        ],
                        [
                            7.852798585000073,
                            49.371179047000055
                        ],
                        [
                            7.815720547000069,
                            49.33680885500007
                        ],
                        [
                            7.694503886000064,
                            49.32890960800006
                        ],
                        [
                            7.61723068200007,
                            49.28780190500004
                        ],
                        [
                            7.677231977000076,
                            49.25251372000008
                        ],
                        [
                            7.738263704000076,
                            49.271409317000064
                        ],
                        [
                            7.7754444440000725,
                            49.25350105800004
                        ],
                        [
                            7.734914224000022,
                            49.24960955000006
                        ],
                        [
                            7.728938201000062,
                            49.23519748800004
                        ],
                        [
                            7.748374515000023,
                            49.21682933900007
                        ],
                        [
                            7.748832809000021,
                            49.18238488800006
                        ],
                        [
                            7.777852693000057,
                            49.16369575500005
                        ],
                        [
                            7.730874898000025,
                            49.11828134800004
                        ],
                        [
                            7.637364474000037,
                            49.07120845000003
                        ],
                        [
                            7.643903513000055,
                            49.05221980400006
                        ],
                        [
                            7.711234802000035,
                            49.04858965300008
                        ],
                        [
                            7.782538720000048,
                            48.98311910400008
                        ],
                        [
                            7.8538426390000495,
                            48.98311910400008
                        ],
                        [
                            7.850277443000039,
                            48.92693294600008
                        ],
                        [
                            7.953668124000046,
                            48.880062800000076
                        ],
                        [
                            8.146188704000053,
                            48.90115980600007
                        ],
                        [
                            8.18184066300006,
                            48.891784458000075
                        ],
                        [
                            8.146188704000053,
                            48.83549544200008
                        ],
                        [
                            8.228188209000052,
                            48.80028265400006
                        ],
                        [
                            8.377926437000042,
                            48.64034102100004
                        ],
                        [
                            8.349404871000047,
                            48.58612799100007
                        ],
                        [
                            8.217492621000076,
                            48.59320255700004
                        ]
                    ]
                ],
                "type": "Polygon"
            }
        }
    ]
}