{
    "type": "FeatureCollection",
    "features": [
        {
            "type": "Feature",
            "properties": {
                "diocese": "Wormatien",
                "province": "Moguntin",
                "date": 1592
            },
            "geometry": {
                "coordinates": [
                    [
                        [
                            8.990829897000026,
                            49.47947240700006
                        ],
                        [
                            8.933430243000032,
                            49.492210843000066
                        ],
                        [
                            8.917386861000068,
                            49.51790923100003
                        ],
                        [
                            8.893143529000042,
                            49.510502071000076
                        ],
                        [
                            8.872821912000063,
                            49.52878646200003
                        ],
                        [
                            8.861769805000051,
                            49.569496729000036
                        ],
                        [
                            8.84287426700007,
                            49.578975498000034
                        ],
                        [
                            8.861056766000047,
                            49.60185567100007
                        ],
                        [
                            8.835030836000044,
                            49.614100241000074
                        ],
                        [
                            8.849648139000067,
                            49.642274169000075
                        ],
                        [
                            8.740909664000071,
                            49.70848793700003
                        ],
                        [
                            8.66960574500007,
                            49.58313632800008
                        ],
                        [
                            8.608640895000065,
                            49.606014549000065
                        ],
                        [
                            8.592597514000033,
                            49.637194829000066
                        ],
                        [
                            8.520224037000048,
                            49.60324200300005
                        ],
                        [
                            8.445354922000035,
                            49.61941296600003
                        ],
                        [
                            8.412555120000036,
                            49.59954502900007
                        ],
                        [
                            8.35408590700007,
                            49.684504513000036
                        ],
                        [
                            8.438400414000057,
                            49.72186124000007
                        ],
                        [
                            8.478710895000063,
                            49.758111375000055
                        ],
                        [
                            8.416153591000068,
                            49.77567372800007
                        ],
                        [
                            8.430984806000026,
                            49.80746627000008
                        ],
                        [
                            8.477189745000032,
                            49.82427473600006
                        ],
                        [
                            8.442963864000035,
                            49.83690791300006
                        ],
                        [
                            8.387536952000062,
                            49.81685273900007
                        ],
                        [
                            8.381357279000042,
                            49.84261016000005
                        ],
                        [
                            8.311479439000038,
                            49.81961311900005
                        ],
                        [
                            8.235897286000068,
                            49.81777288300003
                        ],
                        [
                            8.247305913000048,
                            49.77297224200004
                        ],
                        [
                            8.29484185800004,
                            49.74318451500005
                        ],
                        [
                            8.114205265000066,
                            49.708152865000045
                        ],
                        [
                            8.165544086000068,
                            49.65648119400004
                        ],
                        [
                            8.167920883000022,
                            49.63462725200003
                        ],
                        [
                            8.11135310800006,
                            49.638013716000046
                        ],
                        [
                            8.123712454000042,
                            49.613071508000075
                        ],
                        [
                            8.086634417000027,
                            49.61091540900003
                        ],
                        [
                            8.066669320000074,
                            49.58780836300008
                        ],
                        [
                            7.968269912000039,
                            49.555440102000034
                        ],
                        [
                            7.933568672000035,
                            49.50885382600006
                        ],
                        [
                            7.905522464000057,
                            49.50885382600006
                        ],
                        [
                            7.8313663890000385,
                            49.451408367000056
                        ],
                        [
                            7.778126130000032,
                            49.45913345100007
                        ],
                        [
                            7.735343779000061,
                            49.446772732000056
                        ],
                        [
                            7.72155835500007,
                            49.47828640600005
                        ],
                        [
                            7.678300645000036,
                            49.49187428300007
                        ],
                        [
                            7.661187704000042,
                            49.48786007500007
                        ],
                        [
                            7.654532672000073,
                            49.46407686600003
                        ],
                        [
                            7.614602478000052,
                            49.451408367000056
                        ],
                        [
                            7.623634307000032,
                            49.42327877900004
                        ],
                        [
                            7.38448459600005,
                            49.40536093800006
                        ],
                        [
                            7.397383717000025,
                            49.37826540800006
                        ],
                        [
                            7.422396068000069,
                            49.37409124200008
                        ],
                        [
                            7.431266113000049,
                            49.341493944000035
                        ],
                        [
                            7.5012156870000695,
                            49.32895040300008
                        ],
                        [
                            7.517743544000041,
                            49.291937492000045
                        ],
                        [
                            7.553490193000073,
                            49.27518965100006
                        ],
                        [
                            7.6459322970000585,
                            49.29387063100006
                        ],
                        [
                            7.694503886000064,
                            49.32890960800006
                        ],
                        [
                            7.815720547000069,
                            49.33680885500007
                        ],
                        [
                            7.852798585000073,
                            49.371179047000055
                        ],
                        [
                            7.939076326000077,
                            49.39763701100003
                        ],
                        [
                            7.967597893000061,
                            49.425008321000064
                        ],
                        [
                            7.9661718150000524,
                            49.44355646000008
                        ],
                        [
                            7.989702108000074,
                            49.45051020500006
                        ],
                        [
                            8.247109253000076,
                            49.477852029000076
                        ],
                        [
                            8.325543563000053,
                            49.45051020500006
                        ],
                        [
                            8.385438854000029,
                            49.46070724500004
                        ],
                        [
                            8.488829536000026,
                            49.444020074000036
                        ],
                        [
                            8.507368554000038,
                            49.43938374100003
                        ],
                        [
                            8.49809904500006,
                            49.37675032900006
                        ],
                        [
                            8.586515904000066,
                            49.371179047000055
                        ],
                        [
                            8.584376786000064,
                            49.34795857600005
                        ],
                        [
                            8.62644609800003,
                            49.31543149500004
                        ],
                        [
                            8.632150411000055,
                            49.281022352000036
                        ],
                        [
                            8.74481060200003,
                            49.26287813700003
                        ],
                        [
                            8.754080112000054,
                            49.22656968300004
                        ],
                        [
                            8.791871188000073,
                            49.23588208800004
                        ],
                        [
                            8.88171412500003,
                            49.223775620000026
                        ],
                        [
                            8.872444616000053,
                            49.241468689000044
                        ],
                        [
                            8.910235693000061,
                            49.26287813700003
                        ],
                        [
                            8.979400493000071,
                            49.26055147300008
                        ],
                        [
                            8.979400493000071,
                            49.22610401700007
                        ],
                        [
                            8.93673698200007,
                            49.22711295500005
                        ],
                        [
                            8.854143277000048,
                            49.18906950000007
                        ],
                        [
                            8.860679470000036,
                            49.15177405600008
                        ],
                        [
                            8.97833093500003,
                            49.13816976900006
                        ],
                        [
                            9.003287306000061,
                            49.10978309500007
                        ],
                        [
                            8.976548337000054,
                            49.074763457000074
                        ],
                        [
                            9.003881505000038,
                            49.05685499100008
                        ],
                        [
                            9.005664103000072,
                            49.02452555900004
                        ],
                        [
                            9.12688076400002,
                            49.02959059300008
                        ],
                        [
                            9.144112545000041,
                            49.00698876700005
                        ],
                        [
                            9.153619734000074,
                            49.05101387800005
                        ],
                        [
                            9.168474717000038,
                            49.04166667000004
                        ],
                        [
                            9.178576105000047,
                            49.058801876000075
                        ],
                        [
                            9.158373328000039,
                            49.077488093000056
                        ],
                        [
                            9.17798190600007,
                            49.084882779000054
                        ],
                        [
                            9.15064873700004,
                            49.10278114400006
                        ],
                        [
                            9.203532477000067,
                            49.13389336500006
                        ],
                        [
                            9.203532477000067,
                            49.17974827300003
                        ],
                        [
                            9.223141054000052,
                            49.21081220200006
                        ],
                        [
                            9.158373328000039,
                            49.239141016000076
                        ],
                        [
                            9.157184930000028,
                            49.28257283000005
                        ],
                        [
                            9.131040160000055,
                            49.29497490000006
                        ],
                        [
                            9.154808132000028,
                            49.303886961000046
                        ],
                        [
                            9.099547596000036,
                            49.33680885500007
                        ],
                        [
                            9.102518592000024,
                            49.36661322000003
                        ],
                        [
                            9.046069657000032,
                            49.37280406900004
                        ],
                        [
                            9.08409841300005,
                            49.39678624600003
                        ],
                        [
                            9.039533465000034,
                            49.423848829000065
                        ],
                        [
                            9.001504708000027,
                            49.42655426700003
                        ],
                        [
                            9.006852502000072,
                            49.452055347000055
                        ],
                        [
                            8.981896131000042,
                            49.45978032900007
                        ],
                        [
                            8.990829897000026,
                            49.47947240700006
                        ]
                    ]
                ],
                "type": "Polygon"
            }
        }
    ]
}