{
    "type": "FeatureCollection",
    "name": "Bituntin",
    "features": [
        {
            "type": "Feature",
            "properties": {
                "diocese": "Bituntin",
                "province": "Baren",
                "date": 1592
            },
            "geometry": {
                "type": "MultiPolygon",
                "coordinates": [
                    [
                        [
                            [
                                16.4721794,
                                40.9845459
                            ],
                            [
                                16.4722394,
                                40.9823286
                            ],
                            [
                                16.4727041,
                                40.979833
                            ],
                            [
                                16.4762516,
                                40.9777518
                            ],
                            [
                                16.480391,
                                40.9753233
                            ],
                            [
                                16.481401,
                                40.974848
                            ],
                            [
                                16.4947818,
                                40.9686196
                            ],
                            [
                                16.5059655,
                                40.9632461
                            ],
                            [
                                16.5164501,
                                40.957678
                            ],
                            [
                                16.5185257,
                                40.9565612
                            ],
                            [
                                16.5239827,
                                40.953567
                            ],
                            [
                                16.5286848,
                                40.9508245
                            ],
                            [
                                16.5299685,
                                40.9499214
                            ],
                            [
                                16.5324941,
                                40.9482035
                            ],
                            [
                                16.5334593,
                                40.9477847
                            ],
                            [
                                16.539274,
                                40.9454275
                            ],
                            [
                                16.5412783,
                                40.944751
                            ],
                            [
                                16.5420998,
                                40.9469517
                            ],
                            [
                                16.5431,
                                40.9617267
                            ],
                            [
                                16.5428813,
                                40.962550899999989
                            ],
                            [
                                16.5429511,
                                40.9635225
                            ],
                            [
                                16.5498559,
                                40.971272399999989
                            ],
                            [
                                16.5565355,
                                40.9787687
                            ],
                            [
                                16.5589351,
                                40.9807203
                            ],
                            [
                                16.5610852,
                                40.9822118
                            ],
                            [
                                16.5642483,
                                40.9842745
                            ],
                            [
                                16.5576648,
                                40.9874665
                            ],
                            [
                                16.5477674,
                                40.9981102
                            ],
                            [
                                16.5465205,
                                40.9996272
                            ],
                            [
                                16.5448392,
                                41.0016724
                            ],
                            [
                                16.5444483,
                                41.0022245
                            ],
                            [
                                16.5452257,
                                41.0024657
                            ],
                            [
                                16.5466893,
                                41.0024908
                            ],
                            [
                                16.5478663,
                                41.0024493
                            ],
                            [
                                16.5498665,
                                41.0020791
                            ],
                            [
                                16.5513281,
                                41.0019874
                            ],
                            [
                                16.5531094,
                                41.0019824
                            ],
                            [
                                16.5550275,
                                41.0021124
                            ],
                            [
                                16.558627,
                                41.0024958
                            ],
                            [
                                16.559606,
                                41.0026697
                            ],
                            [
                                16.5611954,
                                41.0030012
                            ],
                            [
                                16.5649121,
                                41.0038221
                            ],
                            [
                                16.5659296,
                                41.0041238
                            ],
                            [
                                16.5672439,
                                41.004803699999989
                            ],
                            [
                                16.5720545,
                                41.0111734
                            ],
                            [
                                16.5725967,
                                41.0119878
                            ],
                            [
                                16.5731282,
                                41.0128254
                            ],
                            [
                                16.5735995,
                                41.013604
                            ],
                            [
                                16.5769859,
                                41.0194757
                            ],
                            [
                                16.5772677,
                                41.0243156
                            ],
                            [
                                16.5767287,
                                41.025179
                            ],
                            [
                                16.5761021,
                                41.0258367
                            ],
                            [
                                16.5757347,
                                41.0263468
                            ],
                            [
                                16.5757252,
                                41.0269863
                            ],
                            [
                                16.5770855,
                                41.0295919
                            ],
                            [
                                16.5777869,
                                41.0309455
                            ],
                            [
                                16.5779031,
                                41.0311579
                            ],
                            [
                                16.5826589,
                                41.0402664
                            ],
                            [
                                16.5834432,
                                41.039841
                            ],
                            [
                                16.5844433,
                                41.039343
                            ],
                            [
                                16.5878425,
                                41.0377548
                            ],
                            [
                                16.5924473,
                                41.0367304
                            ],
                            [
                                16.5933076,
                                41.0369249
                            ],
                            [
                                16.5942041,
                                41.0376392
                            ],
                            [
                                16.6102316,
                                41.052379
                            ],
                            [
                                16.6158199,
                                41.0610005
                            ],
                            [
                                16.6164682,
                                41.0612093
                            ],
                            [
                                16.6265589,
                                41.065024199999989
                            ],
                            [
                                16.6310619,
                                41.0676607
                            ],
                            [
                                16.6317746,
                                41.06809
                            ],
                            [
                                16.6333503,
                                41.0692311
                            ],
                            [
                                16.6349744,
                                41.070405
                            ],
                            [
                                16.6354647,
                                41.0709661
                            ],
                            [
                                16.6358953,
                                41.0715627
                            ],
                            [
                                16.6362844,
                                41.072378
                            ],
                            [
                                16.6365915,
                                41.0732032
                            ],
                            [
                                16.6399901,
                                41.0753968
                            ],
                            [
                                16.6420001,
                                41.0766839
                            ],
                            [
                                16.6461471,
                                41.0760206
                            ],
                            [
                                16.6584288,
                                41.0744039
                            ],
                            [
                                16.6713995,
                                41.0728387
                            ],
                            [
                                16.6742266,
                                41.0726269
                            ],
                            [
                                16.6749722,
                                41.0725859
                            ],
                            [
                                16.6800638,
                                41.0724606
                            ],
                            [
                                16.6826832,
                                41.0729776
                            ],
                            [
                                16.6831416,
                                41.0741254
                            ],
                            [
                                16.6832136,
                                41.0750698
                            ],
                            [
                                16.683241,
                                41.0756842
                            ],
                            [
                                16.7007397,
                                41.0826782
                            ],
                            [
                                16.7042378,
                                41.0840129
                            ],
                            [
                                16.7182169,
                                41.0886041
                            ],
                            [
                                16.7240229,
                                41.0872102
                            ],
                            [
                                16.7328797,
                                41.0840169
                            ],
                            [
                                16.7395871,
                                41.0782602
                            ],
                            [
                                16.7384274,
                                41.0772229
                            ],
                            [
                                16.7385058,
                                41.0724325
                            ],
                            [
                                16.7404479,
                                41.0726153
                            ],
                            [
                                16.7498016,
                                41.0751494
                            ],
                            [
                                16.7490558,
                                41.0808093
                            ],
                            [
                                16.7531316,
                                41.0935203
                            ],
                            [
                                16.7560393,
                                41.10119550000001
                            ],
                            [
                                16.7545563,
                                41.1040145
                            ],
                            [
                                16.7531379,
                                41.1067046
                            ],
                            [
                                16.7524567,
                                41.1079966
                            ],
                            [
                                16.7507797,
                                41.1129102
                            ],
                            [
                                16.750357,
                                41.115352
                            ],
                            [
                                16.7505766,
                                41.1156544
                            ],
                            [
                                16.7507921,
                                41.1158056
                            ],
                            [
                                16.7510391,
                                41.1159875
                            ],
                            [
                                16.7514624,
                                41.1166741
                            ],
                            [
                                16.7521672,
                                41.1185832
                            ],
                            [
                                16.7513842,
                                41.1193021
                            ],
                            [
                                16.7513424,
                                41.1193058
                            ],
                            [
                                16.7513081,
                                41.1193595
                            ],
                            [
                                16.7512983,
                                41.119463
                            ],
                            [
                                16.7512737,
                                41.1195499
                            ],
                            [
                                16.751205,
                                41.1196258
                            ],
                            [
                                16.7510356,
                                41.1197034
                            ],
                            [
                                16.7510846,
                                41.119996
                            ],
                            [
                                16.7510625,
                                41.1205132
                            ],
                            [
                                16.7510541,
                                41.1207087
                            ],
                            [
                                16.7509556,
                                41.1208379
                            ],
                            [
                                16.7508781,
                                41.1209395
                            ],
                            [
                                16.7505713,
                                41.1212502
                            ],
                            [
                                16.750449,
                                41.1214972
                            ],
                            [
                                16.7505241,
                                41.1218043
                            ],
                            [
                                16.7508567,
                                41.1221841
                            ],
                            [
                                16.7510122,
                                41.1224166
                            ],
                            [
                                16.7511946,
                                41.1235198
                            ],
                            [
                                16.7509997,
                                41.1238747
                            ],
                            [
                                16.7506567,
                                41.1238112
                            ],
                            [
                                16.7503844,
                                41.1237765
                            ],
                            [
                                16.7499995,
                                41.123768
                            ],
                            [
                                16.7493595,
                                41.1237525
                            ],
                            [
                                16.7486413,
                                41.1236838
                            ],
                            [
                                16.748579,
                                41.1237606
                            ],
                            [
                                16.7485231,
                                41.1239138
                            ],
                            [
                                16.7482871,
                                41.1240189
                            ],
                            [
                                16.7476863,
                                41.1242695
                            ],
                            [
                                16.7471176,
                                41.1245402
                            ],
                            [
                                16.7470103,
                                41.1246412
                            ],
                            [
                                16.7468494,
                                41.1249847
                            ],
                            [
                                16.7466241,
                                41.1254171
                            ],
                            [
                                16.7465222,
                                41.1256272
                            ],
                            [
                                16.7465329,
                                41.1257404
                            ],
                            [
                                16.7465812,
                                41.1258818
                            ],
                            [
                                16.7465866,
                                41.1259868
                            ],
                            [
                                16.7465544,
                                41.126096
                            ],
                            [
                                16.7464363,
                                41.1262616
                            ],
                            [
                                16.7463505,
                                41.1263909
                            ],
                            [
                                16.7463156,
                                41.126517
                            ],
                            [
                                16.7462743,
                                41.1266853
                            ],
                            [
                                16.7462097,
                                41.1268112
                            ],
                            [
                                16.7460653,
                                41.1269543
                            ],
                            [
                                16.7455764,
                                41.1273275
                            ],
                            [
                                16.7454237,
                                41.1274519
                            ],
                            [
                                16.7446221,
                                41.1281146
                            ],
                            [
                                16.7437971,
                                41.1288516
                            ],
                            [
                                16.7435932,
                                41.1289485
                            ],
                            [
                                16.7420917,
                                41.1303703
                            ],
                            [
                                16.7419879,
                                41.1304679
                            ],
                            [
                                16.7418886,
                                41.1305184
                            ],
                            [
                                16.7416996,
                                41.1306173
                            ],
                            [
                                16.7416191,
                                41.1307183
                            ],
                            [
                                16.7415891,
                                41.1308161
                            ],
                            [
                                16.7407126,
                                41.1306351
                            ],
                            [
                                16.7401738,
                                41.1305525
                            ],
                            [
                                16.7400514,
                                41.1306423
                            ],
                            [
                                16.7399997,
                                41.1307829
                            ],
                            [
                                16.7399084,
                                41.1313897
                            ],
                            [
                                16.7398737,
                                41.1314635
                            ],
                            [
                                16.7397612,
                                41.1314796
                            ],
                            [
                                16.7390088,
                                41.1314181
                            ],
                            [
                                16.738909,
                                41.1314451
                            ],
                            [
                                16.7388659,
                                41.1315301
                            ],
                            [
                                16.7387009,
                                41.1325069
                            ],
                            [
                                16.738673,
                                41.1329922
                            ],
                            [
                                16.7386819,
                                41.13330710000001
                            ],
                            [
                                16.7387904,
                                41.1334774
                            ],
                            [
                                16.7390436,
                                41.1337874
                            ],
                            [
                                16.7393108,
                                41.1340768
                            ],
                            [
                                16.738906,
                                41.1342356
                            ],
                            [
                                16.7387344,
                                41.1343487
                            ],
                            [
                                16.7380424,
                                41.1344861
                            ],
                            [
                                16.7379917,
                                41.1351772
                            ],
                            [
                                16.7384009,
                                41.1356759
                            ],
                            [
                                16.7384744,
                                41.1357655
                            ],
                            [
                                16.7390062,
                                41.13664
                            ],
                            [
                                16.7394751,
                                41.1373917
                            ],
                            [
                                16.7396079,
                                41.1379195
                            ],
                            [
                                16.7390348,
                                41.1381869
                            ],
                            [
                                16.7381657,
                                41.1383404
                            ],
                            [
                                16.7376762,
                                41.138483
                            ],
                            [
                                16.7374147,
                                41.1387848
                            ],
                            [
                                16.7370714,
                                41.1394312
                            ],
                            [
                                16.7365671,
                                41.1398191
                            ],
                            [
                                16.7364169,
                                41.1400534
                            ],
                            [
                                16.7358483,
                                41.1405139
                            ],
                            [
                                16.7356794,
                                41.1405584
                            ],
                            [
                                16.7354541,
                                41.1405887
                            ],
                            [
                                16.7351939,
                                41.1404251
                            ],
                            [
                                16.7349763,
                                41.1406405
                            ],
                            [
                                16.7340124,
                                41.1415503
                            ],
                            [
                                16.7332721,
                                41.1422532
                            ],
                            [
                                16.7325693,
                                41.1429642
                            ],
                            [
                                16.7318773,
                                41.1436227
                            ],
                            [
                                16.7314803,
                                41.1440186
                            ],
                            [
                                16.7311714,
                                41.1442707
                            ],
                            [
                                16.7311727,
                                41.1444882
                            ],
                            [
                                16.7307347,
                                41.144568
                            ],
                            [
                                16.7304075,
                                41.1446407
                            ],
                            [
                                16.7301178,
                                41.144766
                            ],
                            [
                                16.7296725,
                                41.1450447
                            ],
                            [
                                16.7285192,
                                41.1453154
                            ],
                            [
                                16.7282081,
                                41.1454244
                            ],
                            [
                                16.7276126,
                                41.145687
                            ],
                            [
                                16.727339,
                                41.1457759
                            ],
                            [
                                16.7270493,
                                41.1458769
                            ],
                            [
                                16.726985,
                                41.1459859
                            ],
                            [
                                16.7270493,
                                41.1461677
                            ],
                            [
                                16.7271872,
                                41.146478
                            ],
                            [
                                16.7271083,
                                41.1465636
                            ],
                            [
                                16.726926,
                                41.1466525
                            ],
                            [
                                16.7264324,
                                41.146814
                            ],
                            [
                                16.7259979,
                                41.146907
                            ],
                            [
                                16.7255044,
                                41.1470928
                            ],
                            [
                                16.7254293,
                                41.1471534
                            ],
                            [
                                16.7247856,
                                41.147929
                            ],
                            [
                                16.7239702,
                                41.1484904
                            ],
                            [
                                16.7233318,
                                41.1489065
                            ],
                            [
                                16.7228047,
                                41.1492147
                            ],
                            [
                                16.7229361,
                                41.1492788
                            ],
                            [
                                16.7231451,
                                41.1494608
                            ],
                            [
                                16.7229563,
                                41.149585
                            ],
                            [
                                16.7229292,
                                41.1496174
                            ],
                            [
                                16.7231223,
                                41.1498477
                            ],
                            [
                                16.7231545,
                                41.1499931
                            ],
                            [
                                16.7232618,
                                41.150191
                            ],
                            [
                                16.7233798,
                                41.1503849
                            ],
                            [
                                16.7233959,
                                41.1504697
                            ],
                            [
                                16.7233852,
                                41.1506394
                            ],
                            [
                                16.7233691,
                                41.1513786
                            ],
                            [
                                16.7233262,
                                41.1525257
                            ],
                            [
                                16.7233047,
                                41.1529781
                            ],
                            [
                                16.7232833,
                                41.1530993
                            ],
                            [
                                16.7231706,
                                41.15315180000001
                            ],
                            [
                                16.7228434,
                                41.1532204
                            ],
                            [
                                16.7225376,
                                41.1532972
                            ],
                            [
                                16.7223499,
                                41.1534103
                            ],
                            [
                                16.721851,
                                41.1536849
                            ],
                            [
                                16.7209551,
                                41.1541575
                            ],
                            [
                                16.7200485,
                                41.1545897
                            ],
                            [
                                16.7193458,
                                41.1547755
                            ],
                            [
                                16.7185494,
                                41.154948
                            ],
                            [
                                16.7175111,
                                41.1551794
                            ],
                            [
                                16.7172805,
                                41.155244
                            ],
                            [
                                16.7172376,
                                41.1553248
                            ],
                            [
                                16.7076135,
                                41.1535071
                            ],
                            [
                                16.6994171,
                                41.1518279
                            ],
                            [
                                16.6939527,
                                41.1507197
                            ],
                            [
                                16.6907404,
                                41.148448
                            ],
                            [
                                16.6902556,
                                41.1491291
                            ],
                            [
                                16.6882413,
                                41.148976
                            ],
                            [
                                16.6875725,
                                41.1490139
                            ],
                            [
                                16.6856801,
                                41.1490148
                            ],
                            [
                                16.682292,
                                41.1498642
                            ],
                            [
                                16.6803887,
                                41.150195399999987
                            ],
                            [
                                16.6627296,
                                41.1444823
                            ],
                            [
                                16.6550126,
                                41.1412679
                            ],
                            [
                                16.6436279,
                                41.1391416
                            ],
                            [
                                16.6344922,
                                41.1379156
                            ],
                            [
                                16.6330892,
                                41.1389853
                            ],
                            [
                                16.628498,
                                41.136889
                            ],
                            [
                                16.626697,
                                41.135322
                            ],
                            [
                                16.6219749,
                                41.1302831
                            ],
                            [
                                16.6213976,
                                41.1272534
                            ],
                            [
                                16.6211182,
                                41.1245459
                            ],
                            [
                                16.6210927,
                                41.1230495
                            ],
                            [
                                16.6195481,
                                41.1211819
                            ],
                            [
                                16.6134956,
                                41.1175514
                            ],
                            [
                                16.6136785,
                                41.1175143
                            ],
                            [
                                16.6136694,
                                41.1164053
                            ],
                            [
                                16.6137597,
                                41.1158963
                            ],
                            [
                                16.613704,
                                41.1156868
                            ],
                            [
                                16.6129996,
                                41.1145144
                            ],
                            [
                                16.6125021,
                                41.1136489
                            ],
                            [
                                16.6124832,
                                41.1132927
                            ],
                            [
                                16.6124181,
                                41.1130854
                            ],
                            [
                                16.6110333,
                                41.1112501
                            ],
                            [
                                16.6092845,
                                41.1095256
                            ],
                            [
                                16.6085896,
                                41.10809
                            ],
                            [
                                16.6082554,
                                41.1070653
                            ],
                            [
                                16.6064836,
                                41.1065281
                            ],
                            [
                                16.605766,
                                41.1063585
                            ],
                            [
                                16.6051621,
                                41.1063008
                            ],
                            [
                                16.6041095,
                                41.1060944
                            ],
                            [
                                16.6015875,
                                41.1059289
                            ],
                            [
                                16.5992319,
                                41.1055312
                            ],
                            [
                                16.5962495,
                                41.1050316
                            ],
                            [
                                16.5949304,
                                41.1050023
                            ],
                            [
                                16.5931376,
                                41.1048333
                            ],
                            [
                                16.5905254,
                                41.10417
                            ],
                            [
                                16.5874851,
                                41.103539
                            ],
                            [
                                16.584811,
                                41.1029391
                            ],
                            [
                                16.5839832,
                                41.1027534
                            ],
                            [
                                16.5804744,
                                41.1016179
                            ],
                            [
                                16.5801878,
                                41.1015345
                            ],
                            [
                                16.5768443,
                                41.100562
                            ],
                            [
                                16.5759188,
                                41.1003243
                            ],
                            [
                                16.5742679,
                                41.0999002
                            ],
                            [
                                16.5736386,
                                41.0990089
                            ],
                            [
                                16.5686799,
                                41.0934251
                            ],
                            [
                                16.56846,
                                41.0926781
                            ],
                            [
                                16.5678785,
                                41.0902646
                            ],
                            [
                                16.5679839,
                                41.0894271
                            ],
                            [
                                16.5679377,
                                41.0887689
                            ],
                            [
                                16.567864,
                                41.0868892
                            ],
                            [
                                16.5678444,
                                41.0857274
                            ],
                            [
                                16.5677543,
                                41.0851679
                            ],
                            [
                                16.5680056,
                                41.084329199999985
                            ],
                            [
                                16.5680411,
                                41.0839425
                            ],
                            [
                                16.5678634,
                                41.0833042
                            ],
                            [
                                16.5675681,
                                41.0826692
                            ],
                            [
                                16.5674654,
                                41.0823487
                            ],
                            [
                                16.5674675,
                                41.0812891
                            ],
                            [
                                16.5661589,
                                41.0791866
                            ],
                            [
                                16.5660615,
                                41.07884090000001
                            ],
                            [
                                16.565621,
                                41.0786635
                            ],
                            [
                                16.5652268,
                                41.0783812
                            ],
                            [
                                16.5651122,
                                41.0783371
                            ],
                            [
                                16.5650785,
                                41.0782614
                            ],
                            [
                                16.5648887,
                                41.0782707
                            ],
                            [
                                16.5626436,
                                41.0748249
                            ],
                            [
                                16.5623823,
                                41.0748104
                            ],
                            [
                                16.5593794,
                                41.0710683
                            ],
                            [
                                16.5493999,
                                41.0598378
                            ],
                            [
                                16.5443093,
                                41.0542021
                            ],
                            [
                                16.5425207,
                                41.052574300000011
                            ],
                            [
                                16.5344806,
                                41.0471695
                            ],
                            [
                                16.5336084,
                                41.0468671
                            ],
                            [
                                16.5308195,
                                41.0461372
                            ],
                            [
                                16.5295996,
                                41.0458754
                            ],
                            [
                                16.5235462,
                                41.044982
                            ],
                            [
                                16.5223556,
                                41.0448982
                            ],
                            [
                                16.5155085,
                                41.0447755
                            ],
                            [
                                16.5112842,
                                41.0405583
                            ],
                            [
                                16.5111507,
                                41.0378318
                            ],
                            [
                                16.5117686,
                                41.0294912
                            ],
                            [
                                16.5121423,
                                41.0219764
                            ],
                            [
                                16.5113458,
                                41.0183847
                            ],
                            [
                                16.5103661,
                                41.0144496
                            ],
                            [
                                16.5102224,
                                41.0139191
                            ],
                            [
                                16.502956,
                                41.0107467
                            ],
                            [
                                16.5015909,
                                41.010845
                            ],
                            [
                                16.5000967,
                                41.0109833
                            ],
                            [
                                16.4979257,
                                41.0112339
                            ],
                            [
                                16.4954822,
                                41.0114921
                            ],
                            [
                                16.476977,
                                40.9965325
                            ],
                            [
                                16.4757448,
                                40.9951463
                            ],
                            [
                                16.475268,
                                40.9945296
                            ],
                            [
                                16.4738803,
                                40.9925192
                            ],
                            [
                                16.4724859,
                                40.9892586
                            ],
                            [
                                16.4721933,
                                40.9856877
                            ],
                            [
                                16.4721794,
                                40.9845459
                            ]
                        ]
                    ]
                ]
            }
        }
    ]
}