{
  "type": "FeatureCollection",
  "name": "Melphiten",
  "features": [
    {
      "type": "Feature",
      "properties": {
                "diocese": "Melphiten",
                "province": "Baren",
                "date": 1592
            },
      "geometry": {
        "type": "MultiPolygon",
        "coordinates": [
          [
            [
              [
                16.6000414,
                41.2065443
              ],
              [
                16.6000556,
                41.2065601
              ],
              [
                16.6000759,
                41.2065715
              ],
              [
                16.6001,
                41.2065774
              ],
              [
                16.6001253,
                41.2065772
              ],
              [
                16.6001492,
                41.2065707
              ],
              [
                16.6001693,
                41.2065587
              ],
              [
                16.600183,
                41.2065423
              ],
              [
                16.6001888,
                41.2065234
              ],
              [
                16.6001861,
                41.2065042
              ],
              [
                16.6001751,
                41.2064867
              ],
              [
                16.6001574,
                41.206473
              ],
              [
                16.6001348,
                41.2064643
              ],
              [
                16.6001201,
                41.2064467
              ],
              [
                16.6005085,
                41.2062243
              ],
              [
                16.6006226,
                41.2060517
              ],
              [
                16.6006274,
                41.2060051
              ],
              [
                16.600594,
                41.2059797
              ],
              [
                16.6006475,
                41.2058108
              ],
              [
                16.6007494,
                41.205695
              ],
              [
                16.6008302,
                41.20570270000001
              ],
              [
                16.6008645,
                41.2056518
              ],
              [
                16.6008872,
                41.2055098
              ],
              [
                16.6008586,
                41.2055067
              ],
              [
                16.6008753,
                41.2053717
              ],
              [
                16.6010414,
                41.2053272
              ],
              [
                16.6009373,
                41.2051383
              ],
              [
                16.6009523,
                41.205115099999986
              ],
              [
                16.6009552,
                41.2048394
              ],
              [
                16.601055,
                41.2047308
              ],
              [
                16.6011764,
                41.2045876
              ],
              [
                16.6027011,
                41.2037004
              ],
              [
                16.602946,
                41.2037486
              ],
              [
                16.6033813,
                41.2035015
              ],
              [
                16.603382,
                41.2033492
              ],
              [
                16.6034117,
                41.2032564
              ],
              [
                16.6036069,
                41.203132
              ],
              [
                16.604521,
                41.2027477
              ],
              [
                16.6055274,
                41.2023669
              ],
              [
                16.6096727,
                41.2008979
              ],
              [
                16.6100519,
                41.2008394
              ],
              [
                16.6107887,
                41.2007186
              ],
              [
                16.6115145,
                41.2005124
              ],
              [
                16.6118623,
                41.2002435
              ],
              [
                16.6120312,
                41.2001517
              ],
              [
                16.6131232,
                41.1996769
              ],
              [
                16.614468,
                41.1991954
              ],
              [
                16.6147346,
                41.1990714
              ],
              [
                16.6151466,
                41.1989838
              ],
              [
                16.615495,
                41.198971
              ],
              [
                16.6156753,
                41.1988872
              ],
              [
                16.615704,
                41.198755
              ],
              [
                16.6156524,
                41.1986223
              ],
              [
                16.615477,
                41.1984485
              ],
              [
                16.6153194,
                41.1980145
              ],
              [
                16.6155601,
                41.1978113
              ],
              [
                16.615767,
                41.19774059999999
              ],
              [
                16.6161759,
                41.1976318
              ],
              [
                16.6162981,
                41.1977712
              ],
              [
                16.6165193,
                41.1978883
              ],
              [
                16.6168337,
                41.1979117
              ],
              [
                16.6170438,
                41.1978319
              ],
              [
                16.6171555,
                41.1977046
              ],
              [
                16.6174041,
                41.1976525
              ],
              [
                16.6176422,
                41.1976479
              ],
              [
                16.617898,
                41.19771
              ],
              [
                16.6179775,
                41.1978088
              ],
              [
                16.6181862,
                41.197865
              ],
              [
                16.6182479,
                41.1979297
              ],
              [
                16.6184462,
                41.1979562
              ],
              [
                16.6185395,
                41.1978819
              ],
              [
                16.618629,
                41.1978385
              ],
              [
                16.6186858,
                41.1977269
              ],
              [
                16.6187876,
                41.1977341
              ],
              [
                16.6188644,
                41.1976899
              ],
              [
                16.6188779,
                41.197565
              ],
              [
                16.618965,
                41.1975021
              ],
              [
                16.6194291,
                41.1974886
              ],
              [
                16.619638,
                41.1974267
              ],
              [
                16.6199835,
                41.1974392
              ],
              [
                16.6205321,
                41.197483
              ],
              [
                16.6207964,
                41.19753690000001
              ],
              [
                16.6210149,
                41.1974708
              ],
              [
                16.6211488,
                41.1974126
              ],
              [
                16.6213727,
                41.1974268
              ],
              [
                16.6214241,
                41.1974673
              ],
              [
                16.6213801,
                41.197575
              ],
              [
                16.6214408,
                41.1975965
              ],
              [
                16.6218735,
                41.1974988
              ],
              [
                16.6224242,
                41.1972148
              ],
              [
                16.6222986,
                41.1970758
              ],
              [
                16.6240655,
                41.1957235
              ],
              [
                16.6243124,
                41.1956517
              ],
              [
                16.6245305,
                41.1956334
              ],
              [
                16.6247331,
                41.1954859
              ],
              [
                16.6250635,
                41.19536
              ],
              [
                16.6255701,
                41.1951445
              ],
              [
                16.6260263,
                41.1948712
              ],
              [
                16.626145,
                41.1946672
              ],
              [
                16.6263234,
                41.1946241
              ],
              [
                16.6264316,
                41.1943909
              ],
              [
                16.6264616,
                41.1939851
              ],
              [
                16.6265481,
                41.1938517
              ],
              [
                16.6266853,
                41.1938171
              ],
              [
                16.6269342,
                41.1938688
              ],
              [
                16.626985,
                41.1939855
              ],
              [
                16.6270151,
                41.19406879999998
              ],
              [
                16.6270988,
                41.1940721
              ],
              [
                16.6272446,
                41.1940558
              ],
              [
                16.627356,
                41.1938729
              ],
              [
                16.6274492,
                41.1937461
              ],
              [
                16.627544,
                41.1937164
              ],
              [
                16.6277948,
                41.1937506
              ],
              [
                16.6278558,
                41.1938236
              ],
              [
                16.6279228,
                41.193894
              ],
              [
                16.6279556,
                41.1940108
              ],
              [
                16.6280434,
                41.194102
              ],
              [
                16.6281494,
                41.1941451
              ],
              [
                16.6282926,
                41.19417579999999
              ],
              [
                16.6284292,
                41.1942296
              ],
              [
                16.6284908,
                41.1942926
              ],
              [
                16.6285941,
                41.1942854
              ],
              [
                16.6286054,
                41.1943539
              ],
              [
                16.6287195,
                41.1944101
              ],
              [
                16.6288594,
                41.1944016
              ],
              [
                16.6288973,
                41.1943456
              ],
              [
                16.6291142,
                41.1943456
              ],
              [
                16.6291119,
                41.194391
              ],
              [
                16.6291281,
                41.1944328
              ],
              [
                16.6291979,
                41.194455
              ],
              [
                16.6294663,
                41.1944799
              ],
              [
                16.6294534,
                41.194813
              ],
              [
                16.629482,
                41.1948147
              ],
              [
                16.6295062,
                41.1944882
              ],
              [
                16.629964,
                41.1944501
              ],
              [
                16.630052,
                41.1943526
              ],
              [
                16.6302221,
                41.1942744
              ],
              [
                16.6306437,
                41.1940917
              ],
              [
                16.6311257,
                41.1938982
              ],
              [
                16.6315112,
                41.1937994
              ],
              [
                16.6316831,
                41.1937818
              ],
              [
                16.6317894,
                41.1937498
              ],
              [
                16.6318828,
                41.1937704
              ],
              [
                16.6319952,
                41.1937539
              ],
              [
                16.6320428,
                41.1937074
              ],
              [
                16.6320334,
                41.1936822
              ],
              [
                16.6321875,
                41.193633
              ],
              [
                16.6323378,
                41.1935418
              ],
              [
                16.6324912,
                41.1934232
              ],
              [
                16.6326117,
                41.1932907
              ],
              [
                16.6326603,
                41.1932204
              ],
              [
                16.632586,
                41.1931574
              ],
              [
                16.6324908,
                41.193113
              ],
              [
                16.6324693,
                41.1930161
              ],
              [
                16.632483,
                41.1929777
              ],
              [
                16.6325075,
                41.1929086
              ],
              [
                16.6325365,
                41.1928201
              ],
              [
                16.6325981,
                41.192761
              ],
              [
                16.6326973,
                41.1926922
              ],
              [
                16.632838,
                41.1926374
              ],
              [
                16.6329843,
                41.1926235
              ],
              [
                16.6331142,
                41.1926351
              ],
              [
                16.6331827,
                41.1927062
              ],
              [
                16.6333255,
                41.1928872
              ],
              [
                16.6334225,
                41.1929136
              ],
              [
                16.6335525,
                41.1929103
              ],
              [
                16.6337636,
                41.1928852
              ],
              [
                16.6345217,
                41.1931002
              ],
              [
                16.6346252,
                41.1932782
              ],
              [
                16.6347422,
                41.1933868
              ],
              [
                16.6349336,
                41.1934274
              ],
              [
                16.6352458,
                41.1934929
              ],
              [
                16.6354732,
                41.1935948
              ],
              [
                16.6359996,
                41.1937092
              ],
              [
                16.6364291,
                41.19388820000001
              ],
              [
                16.6366662,
                41.1940305
              ],
              [
                16.6367551,
                41.1941517
              ],
              [
                16.6368344,
                41.1942246
              ],
              [
                16.636982,
                41.1941981
              ],
              [
                16.6370327,
                41.1942296
              ],
              [
                16.6369908,
                41.1943175
              ],
              [
                16.6370358,
                41.1944124
              ],
              [
                16.6371957,
                41.1945313
              ],
              [
                16.6374056,
                41.1945405
              ],
              [
                16.6374115,
                41.1946191
              ],
              [
                16.637493,
                41.1946125
              ],
              [
                16.6374313,
                41.1947732
              ],
              [
                16.6375891,
                41.1949595
              ],
              [
                16.6377309,
                41.1949092
              ],
              [
                16.6378344,
                41.1948959
              ],
              [
                16.6379137,
                41.1949771
              ],
              [
                16.6379666,
                41.1949158
              ],
              [
                16.6381142,
                41.1948976
              ],
              [
                16.638123,
                41.1949871
              ],
              [
                16.6380959,
                41.1950555
              ],
              [
                16.6382265,
                41.1950401
              ],
              [
                16.6384225,
                41.19505
              ],
              [
                16.6386515,
                41.1950035
              ],
              [
                16.6386604,
                41.1949406
              ],
              [
                16.6387661,
                41.1948313
              ],
              [
                16.6390195,
                41.1947086
              ],
              [
                16.6391758,
                41.1947434
              ],
              [
                16.6392794,
                41.1947202
              ],
              [
                16.6393562,
                41.1945629
              ],
              [
                16.6394512,
                41.194523
              ],
              [
                16.6396957,
                41.1946257
              ],
              [
                16.6401891,
                41.1945031
              ],
              [
                16.6401836,
                41.1944319
              ],
              [
                16.6402521,
                41.1944113
              ],
              [
                16.6401124,
                41.1940353
              ],
              [
                16.6394649,
                41.1924008
              ],
              [
                16.6386318,
                41.1926249
              ],
              [
                16.637723,
                41.1903652
              ],
              [
                16.6386924,
                41.1882941
              ],
              [
                16.6367238,
                41.188214
              ],
              [
                16.6356245,
                41.1882469
              ],
              [
                16.6336697,
                41.1871761
              ],
              [
                16.6304926,
                41.1825269
              ],
              [
                16.6258042,
                41.1787432
              ],
              [
                16.6251273,
                41.1780174
              ],
              [
                16.6208248,
                41.1781021
              ],
              [
                16.6204218,
                41.17751290000001
              ],
              [
                16.6187263,
                41.1779562
              ],
              [
                16.614836,
                41.1623023
              ],
              [
                16.6168384,
                41.1535812
              ],
              [
                16.6157709,
                41.1479525
              ],
              [
                16.6027032,
                41.1391803
              ],
              [
                16.6023182,
                41.1389851
              ],
              [
                16.602285,
                41.1389603
              ],
              [
                16.6019284,
                41.1387728
              ],
              [
                16.5962956,
                41.1381887
              ],
              [
                16.5951836,
                41.1381323
              ],
              [
                16.5920555,
                41.139356
              ],
              [
                16.5908777,
                41.1414493
              ],
              [
                16.587596,
                41.1482258
              ],
              [
                16.5857995,
                41.1527625
              ],
              [
                16.5858651,
                41.1534824
              ],
              [
                16.5856053,
                41.1556182
              ],
              [
                16.5842777,
                41.1572585
              ],
              [
                16.5749813,
                41.1607755
              ],
              [
                16.5747213,
                41.1608691
              ],
              [
                16.5739728,
                41.1610491
              ],
              [
                16.5729776,
                41.1612454
              ],
              [
                16.5725383,
                41.1613194
              ],
              [
                16.5714091,
                41.1614886
              ],
              [
                16.5706369,
                41.1615171
              ],
              [
                16.5672815,
                41.1608257
              ],
              [
                16.5666114,
                41.160681
              ],
              [
                16.5660203,
                41.1603827
              ],
              [
                16.5656241,
                41.1597745
              ],
              [
                16.5655621,
                41.1596712
              ],
              [
                16.565292,
                41.1592207
              ],
              [
                16.565127,
                41.1588826
              ],
              [
                16.5649879,
                41.1585974
              ],
              [
                16.5645464,
                41.1585366
              ],
              [
                16.5627318,
                41.1584002
              ],
              [
                16.5617924,
                41.1585026
              ],
              [
                16.5588261,
                41.1589233
              ],
              [
                16.5582309,
                41.1590391
              ],
              [
                16.5534936,
                41.1603099
              ],
              [
                16.5394296,
                41.1619025
              ],
              [
                16.5347244,
                41.161002
              ],
              [
                16.5330605,
                41.1596449
              ],
              [
                16.5325758,
                41.1593124
              ],
              [
                16.528236488215498,
                41.1563656834352
              ],
              [
                16.52823648821548,
                41.15636568343518
              ],
              [
                16.5272244,
                41.1556784
              ],
              [
                16.5269076,
                41.1555364
              ],
              [
                16.526857,
                41.1555137
              ],
              [
                16.5258376,
                41.1554189
              ],
              [
                16.5220104,
                41.155886
              ],
              [
                16.5168188,
                41.1571581
              ],
              [
                16.5131825,
                41.1581345
              ],
              [
                16.5086286,
                41.1603543
              ],
              [
                16.5085997,
                41.1603001
              ],
              [
                16.5083554,
                41.15984129999999
              ],
              [
                16.5080928,
                41.15936820000001
              ],
              [
                16.5079693,
                41.1591738
              ],
              [
                16.5077056,
                41.1585883
              ],
              [
                16.5075313,
                41.1581588
              ],
              [
                16.5073321,
                41.1577715
              ],
              [
                16.5070426,
                41.1572461
              ],
              [
                16.5067444,
                41.1565143
              ],
              [
                16.5062204,
                41.1550865
              ],
              [
                16.5059062,
                41.1544233
              ],
              [
                16.5056068,
                41.1538626
              ],
              [
                16.5050302,
                41.15254620000001
              ],
              [
                16.5049336,
                41.152467
              ],
              [
                16.5047334,
                41.1523029
              ],
              [
                16.5047194,
                41.1522914
              ],
              [
                16.5045297,
                41.1521357
              ],
              [
                16.5044356,
                41.1520588
              ],
              [
                16.5038469,
                41.151337
              ],
              [
                16.5032509,
                41.1514076
              ],
              [
                16.5024438,
                41.1515324
              ],
              [
                16.5019235,
                41.1516925
              ],
              [
                16.5019311,
                41.1509542
              ],
              [
                16.5014797,
                41.1509883
              ],
              [
                16.5009937,
                41.1511101
              ],
              [
                16.5004497,
                41.1512717
              ],
              [
                16.4999857,
                41.1513515
              ],
              [
                16.4993655,
                41.1514191
              ],
              [
                16.4987359,
                41.1514829
              ],
              [
                16.498322,
                41.15153249999999
              ],
              [
                16.4978519,
                41.1517927
              ],
              [
                16.4974843,
                41.1519877
              ],
              [
                16.4969245,
                41.1520108
              ],
              [
                16.4964671,
                41.1522522
              ],
              [
                16.49615,
                41.1524979
              ],
              [
                16.4956739,
                41.1525246
              ],
              [
                16.4952934,
                41.152554
              ],
              [
                16.4947228,
                41.1526138
              ],
              [
                16.4939048,
                41.1528248
              ],
              [
                16.4928071,
                41.153297
              ],
              [
                16.4921785,
                41.1533696
              ],
              [
                16.4914204,
                41.1530908
              ],
              [
                16.4908287,
                41.153251
              ],
              [
                16.4900548,
                41.1531981
              ],
              [
                16.4897222,
                41.152815
              ],
              [
                16.4895464,
                41.1524486
              ],
              [
                16.4888828,
                41.1520331
              ],
              [
                16.4881845,
                41.1518088
              ],
              [
                16.4869491,
                41.1519616
              ],
              [
                16.4862213,
                41.1518697
              ],
              [
                16.4857973,
                41.151623
              ],
              [
                16.4854265,
                41.1516105
              ],
              [
                16.4848442,
                41.1515908
              ],
              [
                16.4855666,
                41.1530147
              ],
              [
                16.4838534,
                41.1536215
              ],
              [
                16.4827104,
                41.1536467
              ],
              [
                16.4822491,
                41.1528401
              ],
              [
                16.4811557,
                41.1534019
              ],
              [
                16.4807352,
                41.152822
              ],
              [
                16.4796265,
                41.1538752
              ],
              [
                16.4801236,
                41.1542926
              ],
              [
                16.4797646,
                41.1546669
              ],
              [
                16.4795221,
                41.1549932
              ],
              [
                16.4792774,
                41.1552476
              ],
              [
                16.4787795,
                41.1553701
              ],
              [
                16.4785231,
                41.1551844
              ],
              [
                16.4781713,
                41.1548925
              ],
              [
                16.4775974,
                41.1548444
              ],
              [
                16.4773586,
                41.1552289
              ],
              [
                16.4771611,
                41.1554803
              ],
              [
                16.4768217,
                41.1558174
              ],
              [
                16.4766562,
                41.1553333
              ],
              [
                16.4764329,
                41.154916
              ],
              [
                16.4761604,
                41.1545109
              ],
              [
                16.4759148,
                41.154158
              ],
              [
                16.4760605,
                41.1537661
              ],
              [
                16.4759103,
                41.153416
              ],
              [
                16.4755478,
                41.1531607
              ],
              [
                16.4749312,
                41.1527645
              ],
              [
                16.4747573,
                41.152389
              ],
              [
                16.4744223,
                41.151853
              ],
              [
                16.4739026,
                41.1515765
              ],
              [
                16.4733966,
                41.1513935
              ],
              [
                16.4730154,
                41.1508696
              ],
              [
                16.4727915,
                41.1504208
              ],
              [
                16.4724337,
                41.1498413
              ],
              [
                16.4724133,
                41.149401699999984
              ],
              [
                16.4722942,
                41.1489326
              ],
              [
                16.4719283,
                41.1485426
              ],
              [
                16.4712408,
                41.148151
              ],
              [
                16.4707484,
                41.1480347
              ],
              [
                16.4705096,
                41.1485496
              ],
              [
                16.4704587,
                41.14888590000001
              ],
              [
                16.470265,
                41.1493529
              ],
              [
                16.4700703,
                41.1496805
              ],
              [
                16.4698307,
                41.150137
              ],
              [
                16.469566,
                41.1505817
              ],
              [
                16.4692332,
                41.1511073
              ],
              [
                16.4687438,
                41.1516431
              ],
              [
                16.4684444,
                41.152045
              ],
              [
                16.4678977,
                41.1524777
              ],
              [
                16.4678931,
                41.1524813
              ],
              [
                16.4651378,
                41.1505145
              ],
              [
                16.4563961,
                41.143202
              ],
              [
                16.4514482,
                41.1387102
              ],
              [
                16.4441391,
                41.1281633
              ],
              [
                16.4423287,
                41.1286994
              ],
              [
                16.437515,
                41.1297318
              ],
              [
                16.4350731,
                41.1280593
              ],
              [
                16.4345004,
                41.1275611
              ],
              [
                16.4338675,
                41.1268869
              ],
              [
                16.4334493,
                41.1263337
              ],
              [
                16.4279433,
                41.1189798
              ],
              [
                16.4242201,
                41.113737
              ],
              [
                16.423273,
                41.1117964
              ],
              [
                16.422974,
                41.1112309
              ],
              [
                16.422581,
                41.11064910000001
              ],
              [
                16.4210606,
                41.1086871
              ],
              [
                16.4141543,
                41.1003345
              ],
              [
                16.4077181,
                41.0955996
              ],
              [
                16.3976106,
                41.0850099
              ],
              [
                16.3972571,
                41.0845602
              ],
              [
                16.3972202,
                41.0845133
              ],
              [
                16.397561,
                41.0842663
              ],
              [
                16.3980183,
                41.0840119
              ],
              [
                16.4003168,
                41.0828557
              ],
              [
                16.4009291,
                41.0826047
              ],
              [
                16.4015073,
                41.0789413
              ],
              [
                16.4014818,
                41.078412
              ],
              [
                16.4011846,
                41.0750796
              ],
              [
                16.3987787,
                41.0587882
              ],
              [
                16.3983087,
                41.0556053
              ],
              [
                16.397565,
                41.0542002
              ],
              [
                16.3972235,
                41.0537004
              ],
              [
                16.3967934,
                41.0532197
              ],
              [
                16.3963445,
                41.0528618
              ],
              [
                16.3897272,
                41.0477011
              ],
              [
                16.3890543,
                41.0471866
              ],
              [
                16.3877036,
                41.046365
              ],
              [
                16.3869334,
                41.0458972
              ],
              [
                16.3815098,
                41.0370015
              ],
              [
                16.3835663,
                41.0311645
              ],
              [
                16.3819307,
                41.0177643
              ],
              [
                16.364184,
                41.0044104
              ],
              [
                16.3628765,
                41.0034327
              ],
              [
                16.36167,
                41.0025744
              ],
              [
                16.3600133,
                41.0016865
              ],
              [
                16.3584163,
                41.0014516
              ],
              [
                16.356733,
                41.0012808
              ],
              [
                16.3492147,
                41.0010117
              ],
              [
                16.3447038,
                41.0014043
              ],
              [
                16.3404,
                40.9924482
              ],
              [
                16.3271557,
                40.9955629
              ],
              [
                16.3226426,
                40.996868
              ],
              [
                16.3210704,
                40.9974003
              ],
              [
                16.3208707,
                40.9980609
              ],
              [
                16.3212909,
                40.9988484
              ],
              [
                16.3217561,
                40.999534
              ],
              [
                16.3221561,
                40.9999538
              ],
              [
                16.3224367,
                41.0002868
              ],
              [
                16.3234038,
                41.0071084
              ],
              [
                16.3236682,
                41.0089901
              ],
              [
                16.3237396,
                41.0095119
              ],
              [
                16.3238159,
                41.0103033
              ],
              [
                16.3236505,
                41.0115916
              ],
              [
                16.3233748,
                41.0127699
              ],
              [
                16.3215629,
                41.013673
              ],
              [
                16.3151497,
                41.01699769999998
              ],
              [
                16.3129416,
                41.0182952
              ],
              [
                16.3079179,
                41.0212471
              ],
              [
                16.3069818,
                41.0219636
              ],
              [
                16.3070431,
                41.022756
              ],
              [
                16.3073407,
                41.0234164
              ],
              [
                16.3079537,
                41.0242681
              ],
              [
                16.3075765,
                41.0250165
              ],
              [
                16.3065763,
                41.0256516
              ],
              [
                16.306177,
                41.0258048
              ],
              [
                16.3053384,
                41.0261264
              ],
              [
                16.3043807,
                41.0264889
              ],
              [
                16.2987606,
                41.0286149
              ],
              [
                16.2973447,
                41.029105499999986
              ],
              [
                16.2870397,
                41.03191609999999
              ],
              [
                16.2863726,
                41.0319945
              ],
              [
                16.2776013,
                41.0328216
              ],
              [
                16.2764761,
                41.0325196
              ],
              [
                16.2675196,
                41.0288295
              ],
              [
                16.2675334,
                41.0287633
              ],
              [
                16.2676732,
                41.0280954
              ],
              [
                16.2675282,
                41.0273218
              ],
              [
                16.2672558,
                41.0262547
              ],
              [
                16.2668641,
                41.0244844
              ],
              [
                16.2666145,
                41.0238929
              ],
              [
                16.2658311,
                41.0234161
              ],
              [
                16.2648029,
                41.0229009
              ],
              [
                16.2635432,
                41.0224408
              ],
              [
                16.2624993,
                41.0221066
              ],
              [
                16.2618449,
                41.0219096
              ],
              [
                16.2613482,
                41.0215541
              ],
              [
                16.2605884,
                41.0209678
              ],
              [
                16.259778,
                41.0203533
              ],
              [
                16.2587553,
                41.0197792
              ],
              [
                16.2580035,
                41.0195074
              ],
              [
                16.2574616,
                41.0191187
              ],
              [
                16.2570292,
                41.0183498
              ],
              [
                16.2567144,
                41.0175149
              ],
              [
                16.2562314,
                41.0169336
              ],
              [
                16.254074,
                41.0148226
              ],
              [
                16.2540374,
                41.0147869
              ],
              [
                16.2540489,
                41.0147561
              ],
              [
                16.254184,
                41.0143929
              ],
              [
                16.254228,
                41.0142799
              ],
              [
                16.2544398,
                41.014019
              ],
              [
                16.2550078,
                41.0133532
              ],
              [
                16.2554024,
                41.0127838
              ],
              [
                16.2560151,
                41.0119307
              ],
              [
                16.2566456,
                41.0113194
              ],
              [
                16.2574284,
                41.0105815
              ],
              [
                16.25763941325089,
                41.01042729370801
              ],
              [
                16.225630348460204,
                41.00559648636103
              ],
              [
                16.183640791410156,
                41.034558329858584
              ],
              [
                16.1840553,
                41.0359125
              ],
              [
                16.1844893,
                41.0362407
              ],
              [
                16.1851873,
                41.0366199
              ],
              [
                16.1857342,
                41.03722
              ],
              [
                16.186573,
                41.0375814
              ],
              [
                16.1873064,
                41.0380933
              ],
              [
                16.187603,
                41.0386326
              ],
              [
                16.1877796,
                41.0392424
              ],
              [
                16.1880174,
                41.0403568
              ],
              [
                16.1880607,
                41.0406713
              ],
              [
                16.1881496,
                41.0412664
              ],
              [
                16.1881898,
                41.0422042
              ],
              [
                16.1882394,
                41.0429299
              ],
              [
                16.1885205,
                41.0433802
              ],
              [
                16.1891392,
                41.0440388
              ],
              [
                16.1897207,
                41.0445468
              ],
              [
                16.1904694,
                41.0452512
              ],
              [
                16.191014,
                41.0458019
              ],
              [
                16.1917165,
                41.0463562
              ],
              [
                16.1925469,
                41.04693850000001
              ],
              [
                16.1933689,
                41.0475528
              ],
              [
                16.1942701,
                41.04807669999999
              ],
              [
                16.1951979,
                41.0487338
              ],
              [
                16.1958149,
                41.0492395
              ],
              [
                16.1965509,
                41.0498817
              ],
              [
                16.1973867,
                41.0506211
              ],
              [
                16.1979177,
                41.0511276
              ],
              [
                16.1985528,
                41.0519606
              ],
              [
                16.199321,
                41.0530866
              ],
              [
                16.1999183,
                41.0538725
              ],
              [
                16.2006342,
                41.0546014
              ],
              [
                16.2012168,
                41.0551992
              ],
              [
                16.2017975,
                41.0556981
              ],
              [
                16.2022008,
                41.0560687
              ],
              [
                16.2025346,
                41.0563762
              ],
              [
                16.2032034,
                41.057
              ],
              [
                16.2040128,
                41.057768
              ],
              [
                16.204714,
                41.0584168
              ],
              [
                16.2053808,
                41.0591308
              ],
              [
                16.2063732,
                41.0599952
              ],
              [
                16.2074423,
                41.0610438
              ],
              [
                16.2081914,
                41.0616941
              ],
              [
                16.2089266,
                41.0623542
              ],
              [
                16.2091075,
                41.0629457
              ],
              [
                16.209039,
                41.0633235
              ],
              [
                16.2084819,
                41.0639614
              ],
              [
                16.2081088,
                41.0645158
              ],
              [
                16.2075979,
                41.0650338
              ],
              [
                16.2071048,
                41.0655237
              ],
              [
                16.2064832,
                41.0660082
              ],
              [
                16.2057916,
                41.0658807
              ],
              [
                16.2048328,
                41.0656216
              ],
              [
                16.2041332,
                41.0656116
              ],
              [
                16.2035895,
                41.0657492
              ],
              [
                16.2022528,
                41.0657027
              ],
              [
                16.2018956,
                41.0656712
              ],
              [
                16.2013116,
                41.06563139999999
              ],
              [
                16.2003507,
                41.0657322
              ],
              [
                16.1995078,
                41.0659607
              ],
              [
                16.198292,
                41.0663385
              ],
              [
                16.1970806,
                41.0664325
              ],
              [
                16.195714,
                41.0661404
              ],
              [
                16.1939296,
                41.0660769
              ],
              [
                16.1924933,
                41.0663425
              ],
              [
                16.191765,
                41.0665862
              ],
              [
                16.1914929,
                41.0666797
              ],
              [
                16.1913696,
                41.0667482
              ],
              [
                16.1901802,
                41.0674505
              ],
              [
                16.1893543,
                41.0679702
              ],
              [
                16.1885801,
                41.0685002
              ],
              [
                16.1879456,
                41.0689494
              ],
              [
                16.1872289,
                41.0694353
              ],
              [
                16.1866623,
                41.0697992
              ],
              [
                16.1859673,
                41.0702387
              ],
              [
                16.1848387,
                41.0708719
              ],
              [
                16.1843832,
                41.0713549
              ],
              [
                16.1827289,
                41.0721559
              ],
              [
                16.1822635,
                41.0727115
              ],
              [
                16.1817297,
                41.0733748
              ],
              [
                16.1813605,
                41.0741853
              ],
              [
                16.1808107,
                41.0751646
              ],
              [
                16.1800975,
                41.0760371
              ],
              [
                16.1793131,
                41.0767477
              ],
              [
                16.1787196,
                41.0775182
              ],
              [
                16.1779611,
                41.0784386
              ],
              [
                16.1772952,
                41.0790922
              ],
              [
                16.1768642,
                41.0796366
              ],
              [
                16.1764044,
                41.0805427
              ],
              [
                16.1756831,
                41.0815597
              ],
              [
                16.1750072,
                41.0818495
              ],
              [
                16.17489610422916,
                41.08189779806949
              ],
              [
                16.176376651064402,
                41.086522226176406
              ],
              [
                16.259052500264495,
                41.053367975220596
              ],
              [
                16.484212259788123,
                41.27716512141967
              ],
              [
                16.65484114005213,
                41.2348479974052
              ],
              [
                16.59985309343059,
                41.20654722517165
              ],
              [
                16.6000356,
                41.2065143
              ],
              [
                16.6000346,
                41.2065259
              ],
              [
                16.6000414,
                41.2065443
              ]
            ]
          ],
          [
            [
              [
                16.5105227,
                41.1440653
              ],
              [
                16.51036292868396,
                41.1431820762122
              ],
              [
                16.510362928683953,
                41.14318207621219
              ],
              [
                16.5105227,
                41.1440653
              ]
            ]
          ]
        ]
      }
    }
  ]
}
