{
    "type": "FeatureCollection",
    "name": "Ruben",
    "features": [
        {
            "type": "Feature",
            "properties": {
                "diocese": "Ruben",
                "province": "Baren",
                "date": 1592
            },
            "geometry": {
                "type": "MultiPolygon",
                "coordinates": [
                    [
                        [
                            [
                                16.2540374,
                                41.0147869
                            ],
                            [
                                16.2540489,
                                41.0147561
                            ],
                            [
                                16.254184,
                                41.0143929
                            ],
                            [
                                16.254228,
                                41.0142799
                            ],
                            [
                                16.2544398,
                                41.014019
                            ],
                            [
                                16.2550078,
                                41.0133532
                            ],
                            [
                                16.2554024,
                                41.0127838
                            ],
                            [
                                16.2560151,
                                41.0119307
                            ],
                            [
                                16.2566456,
                                41.0113194
                            ],
                            [
                                16.2574284,
                                41.0105815
                            ],
                            [
                                16.2579945,
                                41.0101678
                            ],
                            [
                                16.2584742,
                                41.0098584
                            ],
                            [
                                16.259148,
                                41.0096943
                            ],
                            [
                                16.2598484,
                                41.0095555
                            ],
                            [
                                16.26053,
                                41.0092469
                            ],
                            [
                                16.2610126,
                                41.0090453
                            ],
                            [
                                16.2615316,
                                41.0087155
                            ],
                            [
                                16.2618824,
                                41.0084504
                            ],
                            [
                                16.2621998,
                                41.0081783
                            ],
                            [
                                16.2627236,
                                41.0076502
                            ],
                            [
                                16.2631949,
                                41.0074539
                            ],
                            [
                                16.2641507,
                                41.0069659
                            ],
                            [
                                16.2648416,
                                41.0065532
                            ],
                            [
                                16.265443,
                                41.0061372
                            ],
                            [
                                16.2660189,
                                41.0058127
                            ],
                            [
                                16.266415,
                                41.0053572
                            ],
                            [
                                16.2664246,
                                41.0053461
                            ],
                            [
                                16.275625,
                                40.999496
                            ],
                            [
                                16.2774271,
                                40.9980194
                            ],
                            [
                                16.2801269,
                                40.995639
                            ],
                            [
                                16.2812185,
                                40.994301
                            ],
                            [
                                16.2815138,
                                40.9936299
                            ],
                            [
                                16.2818425,
                                40.9927632
                            ],
                            [
                                16.2825697,
                                40.9920958
                            ],
                            [
                                16.2854326,
                                40.990785
                            ],
                            [
                                16.2865373,
                                40.9903324
                            ],
                            [
                                16.2932904,
                                40.987860499999989
                            ],
                            [
                                16.3076994,
                                40.9814093
                            ],
                            [
                                16.3182152,
                                40.9739497
                            ],
                            [
                                16.3280374,
                                40.9667315
                            ],
                            [
                                16.3435008,
                                40.9596417
                            ],
                            [
                                16.3465663,
                                40.95846
                            ],
                            [
                                16.3483067,
                                40.9581551
                            ],
                            [
                                16.3537653,
                                40.9595417
                            ],
                            [
                                16.3545073,
                                40.959809
                            ],
                            [
                                16.3564945,
                                40.96057230000001
                            ],
                            [
                                16.3571182,
                                40.9620124
                            ],
                            [
                                16.3578023,
                                40.9623194
                            ],
                            [
                                16.3590726,
                                40.9627462
                            ],
                            [
                                16.3599788,
                                40.9629936
                            ],
                            [
                                16.3603137,
                                40.963085
                            ],
                            [
                                16.3617924,
                                40.9633454
                            ],
                            [
                                16.3684675,
                                40.9639879
                            ],
                            [
                                16.3797835,
                                40.9650771
                            ],
                            [
                                16.3811953,
                                40.9650042
                            ],
                            [
                                16.3903907,
                                40.9643353
                            ],
                            [
                                16.4068128,
                                40.9620024
                            ],
                            [
                                16.4190603,
                                40.9602748
                            ],
                            [
                                16.4415631,
                                40.9612141
                            ],
                            [
                                16.4534904,
                                40.9681848
                            ],
                            [
                                16.4583069,
                                40.9709995
                            ],
                            [
                                16.4619016,
                                40.9738741
                            ],
                            [
                                16.4695023,
                                40.9790025
                            ],
                            [
                                16.4702244,
                                40.9794683
                            ],
                            [
                                16.4723012,
                                40.9797873
                            ],
                            [
                                16.4727041,
                                40.979833
                            ],
                            [
                                16.4722394,
                                40.9823286
                            ],
                            [
                                16.4721794,
                                40.9845459
                            ],
                            [
                                16.4721933,
                                40.9856877
                            ],
                            [
                                16.4724859,
                                40.9892586
                            ],
                            [
                                16.4738803,
                                40.9925192
                            ],
                            [
                                16.475268,
                                40.9945296
                            ],
                            [
                                16.4757448,
                                40.9951463
                            ],
                            [
                                16.476977,
                                40.9965325
                            ],
                            [
                                16.4954822,
                                41.0114921
                            ],
                            [
                                16.4979257,
                                41.0112339
                            ],
                            [
                                16.5000967,
                                41.0109833
                            ],
                            [
                                16.5015909,
                                41.010845
                            ],
                            [
                                16.502956,
                                41.0107467
                            ],
                            [
                                16.5102224,
                                41.0139191
                            ],
                            [
                                16.5103661,
                                41.0144496
                            ],
                            [
                                16.5113458,
                                41.0183847
                            ],
                            [
                                16.5121423,
                                41.0219764
                            ],
                            [
                                16.5117686,
                                41.0294912
                            ],
                            [
                                16.5111507,
                                41.0378318
                            ],
                            [
                                16.5112842,
                                41.0405583
                            ],
                            [
                                16.5155085,
                                41.0447755
                            ],
                            [
                                16.5165968,
                                41.0527657
                            ],
                            [
                                16.5174514,
                                41.0542347
                            ],
                            [
                                16.5177392,
                                41.0548411
                            ],
                            [
                                16.5191068,
                                41.0584538
                            ],
                            [
                                16.519399,
                                41.0592534
                            ],
                            [
                                16.5196195,
                                41.0598964
                            ],
                            [
                                16.5201922,
                                41.0616322
                            ],
                            [
                                16.5222407,
                                41.0677532
                            ],
                            [
                                16.523224,
                                41.0708204
                            ],
                            [
                                16.5236443,
                                41.0740318
                            ],
                            [
                                16.5220867,
                                41.077220199999985
                            ],
                            [
                                16.5193206,
                                41.0831961
                            ],
                            [
                                16.5154721,
                                41.0946507
                            ],
                            [
                                16.5150382,
                                41.095942
                            ],
                            [
                                16.5148972,
                                41.0963614
                            ],
                            [
                                16.5146342,
                                41.097144299999989
                            ],
                            [
                                16.5144557,
                                41.0976755
                            ],
                            [
                                16.5144295,
                                41.0977534
                            ],
                            [
                                16.5151142,
                                41.0991991
                            ],
                            [
                                16.513423,
                                41.0996343
                            ],
                            [
                                16.513441,
                                41.0999575
                            ],
                            [
                                16.5137823,
                                41.1060992
                            ],
                            [
                                16.5100287,
                                41.1073128
                            ],
                            [
                                16.5093291,
                                41.1074314
                            ],
                            [
                                16.5084278,
                                41.1076184
                            ],
                            [
                                16.5044849,
                                41.1086576
                            ],
                            [
                                16.5066899,
                                41.1106675
                            ],
                            [
                                16.5072953,
                                41.1112404
                            ],
                            [
                                16.5088705,
                                41.1110563
                            ],
                            [
                                16.5089077,
                                41.1113309
                            ],
                            [
                                16.5089239,
                                41.1114445
                            ],
                            [
                                16.5089453,
                                41.1115954
                            ],
                            [
                                16.509973,
                                41.117296
                            ],
                            [
                                16.5100594,
                                41.1179941
                            ],
                            [
                                16.5099586,
                                41.1184768
                            ],
                            [
                                16.5100042,
                                41.1185743
                            ],
                            [
                                16.5103286,
                                41.1192675
                            ],
                            [
                                16.5101625,
                                41.1200956
                            ],
                            [
                                16.5101258,
                                41.1202321
                            ],
                            [
                                16.5098294,
                                41.1213344
                            ],
                            [
                                16.5097284,
                                41.1213668
                            ],
                            [
                                16.5091918,
                                41.1213069
                            ],
                            [
                                16.5083852,
                                41.121249
                            ],
                            [
                                16.5078426,
                                41.1211803
                            ],
                            [
                                16.5079579,
                                41.1214479
                            ],
                            [
                                16.507899,
                                41.1217736
                            ],
                            [
                                16.5070783,
                                41.1216264
                            ],
                            [
                                16.5059144,
                                41.1232184
                            ],
                            [
                                16.5058875,
                                41.1232552
                            ],
                            [
                                16.5074723,
                                41.1238386
                            ],
                            [
                                16.5074444,
                                41.123900799999987
                            ],
                            [
                                16.5051631,
                                41.1289949
                            ],
                            [
                                16.5053138,
                                41.129502
                            ],
                            [
                                16.5068264,
                                41.1345903
                            ],
                            [
                                16.5070788,
                                41.1351046
                            ],
                            [
                                16.5076421,
                                41.1357875
                            ],
                            [
                                16.5080333,
                                41.1363062
                            ],
                            [
                                16.5095423,
                                41.1386456
                            ],
                            [
                                16.5105227,
                                41.1440653
                            ],
                            [
                                16.5104355,
                                41.1495677
                            ],
                            [
                                16.506582,
                                41.1514497
                            ],
                            [
                                16.5047665,
                                41.1522701
                            ],
                            [
                                16.5047194,
                                41.1522914
                            ],
                            [
                                16.5045297,
                                41.1521357
                            ],
                            [
                                16.5044356,
                                41.1520588
                            ],
                            [
                                16.5038469,
                                41.151337
                            ],
                            [
                                16.5032509,
                                41.1514076
                            ],
                            [
                                16.5024438,
                                41.1515324
                            ],
                            [
                                16.5019235,
                                41.1516925
                            ],
                            [
                                16.5019311,
                                41.1509542
                            ],
                            [
                                16.5014797,
                                41.1509883
                            ],
                            [
                                16.5009937,
                                41.1511101
                            ],
                            [
                                16.5004497,
                                41.1512717
                            ],
                            [
                                16.4999857,
                                41.1513515
                            ],
                            [
                                16.4993655,
                                41.1514191
                            ],
                            [
                                16.4987359,
                                41.1514829
                            ],
                            [
                                16.498322,
                                41.151532499999988
                            ],
                            [
                                16.4978519,
                                41.1517927
                            ],
                            [
                                16.4974843,
                                41.1519877
                            ],
                            [
                                16.4969245,
                                41.1520108
                            ],
                            [
                                16.4964671,
                                41.1522522
                            ],
                            [
                                16.49615,
                                41.1524979
                            ],
                            [
                                16.4956739,
                                41.1525246
                            ],
                            [
                                16.4952934,
                                41.152554
                            ],
                            [
                                16.4947228,
                                41.1526138
                            ],
                            [
                                16.4939048,
                                41.1528248
                            ],
                            [
                                16.4928071,
                                41.153297
                            ],
                            [
                                16.4921785,
                                41.1533696
                            ],
                            [
                                16.4914204,
                                41.1530908
                            ],
                            [
                                16.4908287,
                                41.153251
                            ],
                            [
                                16.4900548,
                                41.1531981
                            ],
                            [
                                16.4897222,
                                41.152815
                            ],
                            [
                                16.4895464,
                                41.1524486
                            ],
                            [
                                16.4888828,
                                41.1520331
                            ],
                            [
                                16.4881845,
                                41.1518088
                            ],
                            [
                                16.4869491,
                                41.1519616
                            ],
                            [
                                16.4862213,
                                41.1518697
                            ],
                            [
                                16.4857973,
                                41.151623
                            ],
                            [
                                16.4854265,
                                41.1516105
                            ],
                            [
                                16.4848442,
                                41.1515908
                            ],
                            [
                                16.4855666,
                                41.1530147
                            ],
                            [
                                16.4838534,
                                41.1536215
                            ],
                            [
                                16.4827104,
                                41.1536467
                            ],
                            [
                                16.4822491,
                                41.1528401
                            ],
                            [
                                16.4811557,
                                41.1534019
                            ],
                            [
                                16.4807352,
                                41.152822
                            ],
                            [
                                16.4796265,
                                41.1538752
                            ],
                            [
                                16.4801236,
                                41.1542926
                            ],
                            [
                                16.4797646,
                                41.1546669
                            ],
                            [
                                16.4795221,
                                41.1549932
                            ],
                            [
                                16.4792774,
                                41.1552476
                            ],
                            [
                                16.4787795,
                                41.1553701
                            ],
                            [
                                16.4785231,
                                41.1551844
                            ],
                            [
                                16.4781713,
                                41.1548925
                            ],
                            [
                                16.4775974,
                                41.1548444
                            ],
                            [
                                16.4773586,
                                41.1552289
                            ],
                            [
                                16.4771611,
                                41.1554803
                            ],
                            [
                                16.4768217,
                                41.1558174
                            ],
                            [
                                16.4766562,
                                41.1553333
                            ],
                            [
                                16.4764329,
                                41.154916
                            ],
                            [
                                16.4761604,
                                41.1545109
                            ],
                            [
                                16.4759148,
                                41.154158
                            ],
                            [
                                16.4760605,
                                41.1537661
                            ],
                            [
                                16.4759103,
                                41.153416
                            ],
                            [
                                16.4755478,
                                41.1531607
                            ],
                            [
                                16.4749312,
                                41.1527645
                            ],
                            [
                                16.4747573,
                                41.152389
                            ],
                            [
                                16.4744223,
                                41.151853
                            ],
                            [
                                16.4739026,
                                41.1515765
                            ],
                            [
                                16.4733966,
                                41.1513935
                            ],
                            [
                                16.4730154,
                                41.1508696
                            ],
                            [
                                16.4727915,
                                41.1504208
                            ],
                            [
                                16.4724337,
                                41.1498413
                            ],
                            [
                                16.4724133,
                                41.149401699999984
                            ],
                            [
                                16.4722942,
                                41.1489326
                            ],
                            [
                                16.4719283,
                                41.1485426
                            ],
                            [
                                16.4712408,
                                41.148151
                            ],
                            [
                                16.4707484,
                                41.1480347
                            ],
                            [
                                16.4705096,
                                41.1485496
                            ],
                            [
                                16.4704587,
                                41.14888590000001
                            ],
                            [
                                16.470265,
                                41.1493529
                            ],
                            [
                                16.4700703,
                                41.1496805
                            ],
                            [
                                16.4698307,
                                41.150137
                            ],
                            [
                                16.469566,
                                41.1505817
                            ],
                            [
                                16.4692332,
                                41.1511073
                            ],
                            [
                                16.4687438,
                                41.1516431
                            ],
                            [
                                16.4684444,
                                41.152045
                            ],
                            [
                                16.4678977,
                                41.1524777
                            ],
                            [
                                16.4678931,
                                41.1524813
                            ],
                            [
                                16.4651378,
                                41.1505145
                            ],
                            [
                                16.4563961,
                                41.143202
                            ],
                            [
                                16.4514482,
                                41.1387102
                            ],
                            [
                                16.4441391,
                                41.1281633
                            ],
                            [
                                16.4423287,
                                41.1286994
                            ],
                            [
                                16.437515,
                                41.1297318
                            ],
                            [
                                16.4350731,
                                41.1280593
                            ],
                            [
                                16.4345004,
                                41.1275611
                            ],
                            [
                                16.4338675,
                                41.1268869
                            ],
                            [
                                16.4334493,
                                41.1263337
                            ],
                            [
                                16.4279433,
                                41.1189798
                            ],
                            [
                                16.4242201,
                                41.113737
                            ],
                            [
                                16.423273,
                                41.1117964
                            ],
                            [
                                16.422974,
                                41.1112309
                            ],
                            [
                                16.422581,
                                41.11064910000001
                            ],
                            [
                                16.4210606,
                                41.1086871
                            ],
                            [
                                16.4141543,
                                41.1003345
                            ],
                            [
                                16.4077181,
                                41.0955996
                            ],
                            [
                                16.3976106,
                                41.0850099
                            ],
                            [
                                16.3972571,
                                41.0845602
                            ],
                            [
                                16.3972202,
                                41.0845133
                            ],
                            [
                                16.397561,
                                41.0842663
                            ],
                            [
                                16.3980183,
                                41.0840119
                            ],
                            [
                                16.4003168,
                                41.0828557
                            ],
                            [
                                16.4009291,
                                41.0826047
                            ],
                            [
                                16.4015073,
                                41.0789413
                            ],
                            [
                                16.4014818,
                                41.078412
                            ],
                            [
                                16.4011846,
                                41.0750796
                            ],
                            [
                                16.3987787,
                                41.0587882
                            ],
                            [
                                16.3983087,
                                41.0556053
                            ],
                            [
                                16.397565,
                                41.0542002
                            ],
                            [
                                16.3972235,
                                41.0537004
                            ],
                            [
                                16.3967934,
                                41.0532197
                            ],
                            [
                                16.3963445,
                                41.0528618
                            ],
                            [
                                16.3897272,
                                41.0477011
                            ],
                            [
                                16.3890543,
                                41.0471866
                            ],
                            [
                                16.3877036,
                                41.046365
                            ],
                            [
                                16.3869334,
                                41.0458972
                            ],
                            [
                                16.3815098,
                                41.0370015
                            ],
                            [
                                16.3835663,
                                41.0311645
                            ],
                            [
                                16.3819307,
                                41.0177643
                            ],
                            [
                                16.364184,
                                41.0044104
                            ],
                            [
                                16.3628765,
                                41.0034327
                            ],
                            [
                                16.36167,
                                41.0025744
                            ],
                            [
                                16.3600133,
                                41.0016865
                            ],
                            [
                                16.3584163,
                                41.0014516
                            ],
                            [
                                16.356733,
                                41.0012808
                            ],
                            [
                                16.3492147,
                                41.0010117
                            ],
                            [
                                16.3447038,
                                41.0014043
                            ],
                            [
                                16.3404,
                                40.9924482
                            ],
                            [
                                16.3271557,
                                40.9955629
                            ],
                            [
                                16.3226426,
                                40.996868
                            ],
                            [
                                16.3210704,
                                40.9974003
                            ],
                            [
                                16.3208707,
                                40.9980609
                            ],
                            [
                                16.3212909,
                                40.9988484
                            ],
                            [
                                16.3217561,
                                40.999534
                            ],
                            [
                                16.3221561,
                                40.9999538
                            ],
                            [
                                16.3224367,
                                41.0002868
                            ],
                            [
                                16.3234038,
                                41.0071084
                            ],
                            [
                                16.3236682,
                                41.0089901
                            ],
                            [
                                16.3237396,
                                41.0095119
                            ],
                            [
                                16.3238159,
                                41.0103033
                            ],
                            [
                                16.3236505,
                                41.0115916
                            ],
                            [
                                16.3233748,
                                41.0127699
                            ],
                            [
                                16.3215629,
                                41.013673
                            ],
                            [
                                16.3151497,
                                41.016997699999983
                            ],
                            [
                                16.3129416,
                                41.0182952
                            ],
                            [
                                16.3079179,
                                41.0212471
                            ],
                            [
                                16.3069818,
                                41.0219636
                            ],
                            [
                                16.3070431,
                                41.022756
                            ],
                            [
                                16.3073407,
                                41.0234164
                            ],
                            [
                                16.3079537,
                                41.0242681
                            ],
                            [
                                16.3075765,
                                41.0250165
                            ],
                            [
                                16.3065763,
                                41.0256516
                            ],
                            [
                                16.306177,
                                41.0258048
                            ],
                            [
                                16.3053384,
                                41.0261264
                            ],
                            [
                                16.3043807,
                                41.0264889
                            ],
                            [
                                16.2987606,
                                41.0286149
                            ],
                            [
                                16.2973447,
                                41.029105499999986
                            ],
                            [
                                16.2870397,
                                41.031916099999989
                            ],
                            [
                                16.2863726,
                                41.0319945
                            ],
                            [
                                16.2776013,
                                41.0328216
                            ],
                            [
                                16.2764761,
                                41.0325196
                            ],
                            [
                                16.2675196,
                                41.0288295
                            ],
                            [
                                16.2675334,
                                41.0287633
                            ],
                            [
                                16.2676732,
                                41.0280954
                            ],
                            [
                                16.2675282,
                                41.0273218
                            ],
                            [
                                16.2672558,
                                41.0262547
                            ],
                            [
                                16.2668641,
                                41.0244844
                            ],
                            [
                                16.2666145,
                                41.0238929
                            ],
                            [
                                16.2658311,
                                41.0234161
                            ],
                            [
                                16.2648029,
                                41.0229009
                            ],
                            [
                                16.2635432,
                                41.0224408
                            ],
                            [
                                16.2624993,
                                41.0221066
                            ],
                            [
                                16.2618449,
                                41.0219096
                            ],
                            [
                                16.2613482,
                                41.0215541
                            ],
                            [
                                16.2605884,
                                41.0209678
                            ],
                            [
                                16.259778,
                                41.0203533
                            ],
                            [
                                16.2587553,
                                41.0197792
                            ],
                            [
                                16.2580035,
                                41.0195074
                            ],
                            [
                                16.2574616,
                                41.0191187
                            ],
                            [
                                16.2570292,
                                41.0183498
                            ],
                            [
                                16.2567144,
                                41.0175149
                            ],
                            [
                                16.2562314,
                                41.0169336
                            ],
                            [
                                16.254074,
                                41.0148226
                            ],
                            [
                                16.2540374,
                                41.0147869
                            ]
                        ],
                        [
                            [
                                16.5164237,
                                41.0732866
                            ],
                            [
                                16.5166211,
                                41.0735301
                            ],
                            [
                                16.5169582,
                                41.073697
                            ],
                            [
                                16.5173317,
                                41.073743
                            ],
                            [
                                16.5176,
                                41.073636299999983
                            ],
                            [
                                16.5176727,
                                41.0736058
                            ],
                            [
                                16.5178671,
                                41.0733674
                            ],
                            [
                                16.5180344,
                                41.0729335
                            ],
                            [
                                16.5181716,
                                41.0721463
                            ],
                            [
                                16.5179048,
                                41.0718803
                            ],
                            [
                                16.5169523,
                                41.0711518
                            ],
                            [
                                16.5166187,
                                41.0713304
                            ],
                            [
                                16.5164237,
                                41.0732866
                            ]
                        ]
                    ]
                ]
            }
        }
    ]
}