{"type": "FeatureCollection", "features": [{"type": "Feature", "properties": {"diocese": "Ajaccio", "province": "XXV_Pise", "source": "155_Ajaccio.txt"}, "geometry": {"type": "Polygon", "coordinates": [[[9.394694573859127, 41.7936427764425], [9.392758089693285, 41.79416680283448], [9.390821605527444, 41.79469082922647], [9.388885121361598, 41.79521485561845], [9.386948637195758, 41.79573888201043], [9.385012153029917, 41.796262908402404], [9.383075668864073, 41.79678693479439], [9.381139184698233, 41.79731096118637], [9.379202700532387, 41.797834987578355], [9.377266216366547, 41.798359013970334], [9.375329732200704, 41.79888304036232], [9.375329732200704, 41.79888304036232], [9.373335284325021, 41.799008556204015], [9.371340836449333, 41.79913407204571], [9.369346388573648, 41.799259587887406], [9.367351940697962, 41.7993851037291], [9.365357492822275, 41.799510619570796], [9.363363044946592, 41.7996361354125], [9.361368597070905, 41.799761651254194], [9.359374149195222, 41.79988716709589], [9.357379701319536, 41.80001268293758], [9.355385253443849, 41.80013819877927], [9.355385253443849, 41.80013819877927], [9.351666510373246, 41.799447204133855], [9.347947767302644, 41.798756209488424], [9.34422902423204, 41.798065214843], [9.340510281161439, 41.797374220197575], [9.336791538090836, 41.796683225552144], [9.333072795020234, 41.79599223090671], [9.329354051949633, 41.79530123626129], [9.325635308879027, 41.794610241615864], [9.321916565808426, 41.79391924697043], [9.318197822737824, 41.793228252325015], [9.318197822737824, 41.793228252325015], [9.314841327859394, 41.79291440435713], [9.31148483298097, 41.79260055638925], [9.308128338102541, 41.792286708421365], [9.304771843224113, 41.791972860453484], [9.301415348345683, 41.79165901248561], [9.298058853467257, 41.79134516451772], [9.294702358588829, 41.79103131654984], [9.291345863710399, 41.79071746858196], [9.287989368831973, 41.79040362061407], [9.284632873953544, 41.7900897726462], [9.284632873953544, 41.7900897726462], [9.282548390166124, 41.78996323884851], [9.280463906378703, 41.789836705050824], [9.278379422591284, 41.78971017125314], [9.276294938803863, 41.78958363745546], [9.274210455016442, 41.789457103657774], [9.272125971229023, 41.78933056986009], [9.270041487441604, 41.789204036062415], [9.267957003654184, 41.78907750226473], [9.265872519866763, 41.78895096846705], [9.263788036079344, 41.78882443466936], [9.263788036079344, 41.78882443466936], [9.263605693705436, 41.7888243891632], [9.263423351331527, 41.78882434365704], [9.26324100895762, 41.788824298150885], [9.26305866658371, 41.78882425264472], [9.262876324209802, 41.78882420713856], [9.262693981835895, 41.788824161632405], [9.262511639461987, 41.78882411612625], [9.26232929708808, 41.788824070620095], [9.262146954714172, 41.78882402511393], [9.261964612340261, 41.78882397960778], [9.261964612340261, 41.78882397960778], [9.258063416266785, 41.78725587612734], [9.254162220193312, 41.78568777264691], [9.25026102411984, 41.784119669166486], [9.246359828046362, 41.78255156568605], [9.242458631972887, 41.780983462205626], [9.238557435899416, 41.77941535872519], [9.234656239825938, 41.777847255244765], [9.230755043752465, 41.776279151764335], [9.226853847678992, 41.7747110482839], [9.222952651605514, 41.773142944803475], [9.222952651605514, 41.773142944803475], [9.220048817892529, 41.772014168813726], [9.21714498417954, 41.77088539282398], [9.214241150466552, 41.769756616834236], [9.211337316753566, 41.76862784084448], [9.208433483040578, 41.767499064854746], [9.205529649327588, 41.76637028886499], [9.2026258156146, 41.76524151287524], [9.199721981901614, 41.76411273688551], [9.196818148188624, 41.76298396089575], [9.193914314475636, 41.76185518490601], [9.193914314475636, 41.76185518490601], [9.191644939229608, 41.761227613456946], [9.189375563983576, 41.76060004200788], [9.187106188737546, 41.759972470558814], [9.184836813491515, 41.75934489910975], [9.182567438245485, 41.75871732766068], [9.180298062999453, 41.758089756211625], [9.178028687753425, 41.75746218476255], [9.17575931250739, 41.75683461331349], [9.173489937261364, 41.75620704186442], [9.17122056201533, 41.75557947041536], [9.17122056201533, 41.75557947041536], [9.169766709118257, 41.75401197770458], [9.168312856221183, 41.75244448499379], [9.166859003324106, 41.750876992283], [9.16540515042703, 41.74930949957222], [9.163951297529955, 41.74774200686143], [9.162497444632878, 41.746174514150646], [9.161043591735803, 41.744607021439855], [9.15958973883873, 41.74303952872908], [9.158135885941656, 41.74147203601829], [9.156682033044579, 41.73990454330751], [9.156682033044579, 41.73990454330751], [9.155681283338804, 41.73771015858125], [9.154680533633034, 41.735515773855], [9.153679783927261, 41.733321389128754], [9.152679034221487, 41.7311270044025], [9.151678284515715, 41.72893261967625], [9.150677534809944, 41.72673823495001], [9.14967678510417, 41.72454385022376], [9.148676035398397, 41.7223494654975], [9.147675285692626, 41.72015508077125], [9.146674535986852, 41.717960696045004], [9.146674535986852, 41.717960696045004], [9.145219835752043, 41.71595417923157], [9.143765135517231, 41.713947662418136], [9.142310435282418, 41.7119411456047], [9.140855735047607, 41.70993462879127], [9.139401034812797, 41.707928111977836], [9.137946334577984, 41.7059215951644], [9.136491634343173, 41.70391507835097], [9.135036934108363, 41.70190856153753], [9.133582233873554, 41.69990204472409], [9.13212753363874, 41.69789552791065], [9.13212753363874, 41.69789552791065], [9.129584380008943, 41.69551168318474], [9.127041226379147, 41.69312783845882], [9.124498072749349, 41.690743993732895], [9.121954919119553, 41.68836014900698], [9.119411765489756, 41.68597630428107], [9.116868611859958, 41.68359245955514], [9.114325458230164, 41.681208614829224], [9.111782304600368, 41.67882477010331], [9.109239150970572, 41.67644092537739], [9.106695997340774, 41.674057080651465], [9.106695997340774, 41.674057080651465], [9.104971453867595, 41.673931675856586], [9.103246910394416, 41.673806271061714], [9.101522366921236, 41.67368086626682], [9.099797823448059, 41.67355546147194], [9.098073279974878, 41.67343005667707], [9.096348736501698, 41.673304651882184], [9.094624193028519, 41.673179247087305], [9.092899649555338, 41.67305384229243], [9.09117510608216, 41.672928437497546], [9.089450562608981, 41.67280303270267], [9.089450562608981, 41.67280303270267], [9.088998557144892, 41.67317893699698], [9.088546551680809, 41.673554841291306], [9.088094546216725, 41.67393074558563], [9.08764254075264, 41.67430664987995], [9.087190535288554, 41.674682554174275], [9.086738529824467, 41.67505845846859], [9.086286524360382, 41.675434362762914], [9.085834518896299, 41.67581026705723], [9.085382513432211, 41.67618617135156], [9.084930507968128, 41.676562075645876], [9.084930507968128, 41.676562075645876], [9.084751805334642, 41.677628114726524], [9.084573102701162, 41.678694153807164], [9.084394400067678, 41.67976019288781], [9.084215697434194, 41.68082623196846], [9.084036994800712, 41.681892271049094], [9.08385829216723, 41.68295831012975], [9.083679589533746, 41.6840243492104], [9.083500886900262, 41.68509038829104], [9.08332218426678, 41.68615642737168], [9.083143481633298, 41.687222466452326], [9.083143481633298, 41.687222466452326], [9.083507864521149, 41.68866465816654], [9.083872247409, 41.69010684988075], [9.08423663029685, 41.69154904159497], [9.084601013184702, 41.69299123330918], [9.084965396072555, 41.6944334250234], [9.085329778960405, 41.69587561673762], [9.085694161848254, 41.69731780845183], [9.086058544736108, 41.69876000016605], [9.086422927623957, 41.70020219188026], [9.08678731051181, 41.70164438359447], [9.08678731051181, 41.70164438359447], [9.088063348606372, 41.704778907116534], [9.089339386700935, 41.7079134306386], [9.090615424795498, 41.711047954160655], [9.091891462890061, 41.714182477682726], [9.093167500984624, 41.71731700120478], [9.094443539079185, 41.720451524726855], [9.095719577173748, 41.72358604824891], [9.096995615268312, 41.72672057177098], [9.098271653362874, 41.72985509529304], [9.099547691457438, 41.732989618815104], [9.099547691457438, 41.732989618815104], [9.099915270054195, 41.73530881993469], [9.100282848650949, 41.737628021054284], [9.100650427247706, 41.739947222173875], [9.10101800584446, 41.74226642329346], [9.101385584441214, 41.74458562441305], [9.101753163037973, 41.74690482553264], [9.102120741634728, 41.74922402665223], [9.102488320231485, 41.75154322777181], [9.102855898828238, 41.75386242889141], [9.103223477424994, 41.75618163001099], [9.103223477424994, 41.75618163001099], [9.10395185285644, 41.75812599794176], [9.104680228287888, 41.76007036587253], [9.105408603719335, 41.7620147338033], [9.106136979150781, 41.76395910173406], [9.106865354582226, 41.765903469664835], [9.107593730013672, 41.7678478375956], [9.108322105445117, 41.76979220552637], [9.109050480876565, 41.77173657345714], [9.109778856308012, 41.77368094138791], [9.110507231739456, 41.77562530931868], [9.110507231739456, 41.77562530931868], [9.111055088150174, 41.77769460660861], [9.111602944560891, 41.77976390389856], [9.112150800971607, 41.78183320118849], [9.112698657382325, 41.783902498478426], [9.113246513793044, 41.78597179576837], [9.113794370203758, 41.7880410930583], [9.114342226614477, 41.79011039034825], [9.114890083025193, 41.79217968763818], [9.115437939435909, 41.79424898492812], [9.115985795846624, 41.79631828221805], [9.115985795846624, 41.79631828221805], [9.115262624253273, 41.79707013593775], [9.11453945265992, 41.79782198965745], [9.113816281066565, 41.79857384337714], [9.113093109473215, 41.79932569709684], [9.11236993787986, 41.80007755081654], [9.111646766286508, 41.80082940453623], [9.110923594693153, 41.80158125825593], [9.1102004230998, 41.80233311197562], [9.109477251506446, 41.80308496569533], [9.108754079913092, 41.80383681941501], [9.108754079913092, 41.80383681941501], [9.106850347276017, 41.80452537171634], [9.104946614638944, 41.80521392401766], [9.103042882001867, 41.805902476318984], [9.101139149364792, 41.80659102862031], [9.099235416727716, 41.80727958092163], [9.09733168409064, 41.80796813322296], [9.095427951453566, 41.80865668552428], [9.09352421881649, 41.8093452378256], [9.091620486179416, 41.81003379012692], [9.089716753542339, 41.81072234242825], [9.089716753542339, 41.81072234242825], [9.089719899786418, 41.81235247988676], [9.089723046030496, 41.81398261734526], [9.089726192274576, 41.81561275480377], [9.089729338518653, 41.81724289226228], [9.089732484762735, 41.81887302972079], [9.089735631006814, 41.8205031671793], [9.089738777250892, 41.82213330463781], [9.089741923494971, 41.823763442096315], [9.089745069739049, 41.82539357955483], [9.089748215983128, 41.82702371701333], [9.089748215983128, 41.82702371701333], [9.09120267490561, 41.82890520466287], [9.09265713382809, 41.830786692312394], [9.094111592750572, 41.83266817996192], [9.095566051673057, 41.834549667611455], [9.09702051059554, 41.83643115526099], [9.098474969518021, 41.838312642910516], [9.099929428440504, 41.84019413056004], [9.101383887362985, 41.84207561820958], [9.102838346285468, 41.843957105859104], [9.104292805207951, 41.84583859350864], [9.104292805207951, 41.84583859350864], [9.106744996375395, 41.847531309779356], [9.109197187542838, 41.84922402605009], [9.111649378710283, 41.85091674232082], [9.114101569877729, 41.852609458591544], [9.116553761045173, 41.85430217486227], [9.119005952212618, 41.85599489113299], [9.12145814338006, 41.857687607403726], [9.123910334547507, 41.85938032367445], [9.126362525714951, 41.86107303994517], [9.128814716882395, 41.8627657562159], [9.128814716882395, 41.8627657562159], [9.130086964114334, 41.86389516419433], [9.131359211346274, 41.865024572172764], [9.132631458578212, 41.866153980151196], [9.133903705810154, 41.86728338812962], [9.135175953042092, 41.86841279610805], [9.136448200274032, 41.86954220408649], [9.137720447505973, 41.870671612064925], [9.138992694737912, 41.87180102004335], [9.140264941969852, 41.87293042802178], [9.14153718920179, 41.874059836000214], [9.14153718920179, 41.874059836000214], [9.142448069106592, 41.87612922388788], [9.143358949011393, 41.878198611775545], [9.144269828916196, 41.88026799966321], [9.145180708820998, 41.882337387550876], [9.146091588725797, 41.88440677543854], [9.147002468630598, 41.8864761633262], [9.1479133485354, 41.888545551213866], [9.148824228440201, 41.89061493910154], [9.149735108345002, 41.892684326989205], [9.150645988249805, 41.89475371487687], [9.150645988249805, 41.89475371487687], [9.150559695530404, 41.89726083862244], [9.150473402811004, 41.89976796236802], [9.1503871100916, 41.90227508611358], [9.1503008173722, 41.90478220985915], [9.1502145246528, 41.90728933360471], [9.1501282319334, 41.90979645735029], [9.150041939213997, 41.912303581095856], [9.149955646494597, 41.91481070484143], [9.149869353775197, 41.917317828586995], [9.149783061055796, 41.91982495233257], [9.149783061055796, 41.91982495233257], [9.149696648735839, 41.92227010843041], [9.149610236415883, 41.92471526452825], [9.149523824095928, 41.927160420626095], [9.14943741177597, 41.92960557672394], [9.149350999456013, 41.932050732821786], [9.14926458713606, 41.93449588891963], [9.149178174816106, 41.93694104501747], [9.149091762496148, 41.93938620111531], [9.149005350176191, 41.941831357213154], [9.148918937856235, 41.944276513310996], [9.148918937856235, 41.944276513310996], [9.148654347920784, 41.948100718926874], [9.148389757985335, 41.95192492454276], [9.148125168049887, 41.95574913015865], [9.147860578114436, 41.95957333577453], [9.147595988178987, 41.963397541390414], [9.147331398243535, 41.9672217470063], [9.147066808308086, 41.971045952622184], [9.146802218372638, 41.97487015823807], [9.146537628437187, 41.978694363853954], [9.146273038501738, 41.98251856946983], [9.146273038501738, 41.98251856946983], [9.147546737302285, 41.98440006670148], [9.14882043610283, 41.98628156393312], [9.150094134903377, 41.98816306116476], [9.151367833703924, 41.99004455839641], [9.152641532504468, 41.99192605562805], [9.153915231305016, 41.99380755285969], [9.155188930105565, 41.99568905009133], [9.156462628906109, 41.99757054732298], [9.157736327706655, 41.999452044554616], [9.159010026507204, 42.00133354178626], [9.159010026507204, 42.00133354178626], [9.159193811267004, 42.0029006628399], [9.159377596026804, 42.004467783893546], [9.159561380786606, 42.00603490494718], [9.15974516554641, 42.007602026000825], [9.159928950306211, 42.00916914705447], [9.160112735066013, 42.01073626810811], [9.160296519825815, 42.01230338916175], [9.160480304585617, 42.01387051021539], [9.160664089345417, 42.01543763126904], [9.160847874105219, 42.017004752322684], [9.160847874105219, 42.017004752322684], [9.160578765569966, 42.01844678594001], [9.160309657034714, 42.019888819557345], [9.160040548499456, 42.021330853174675], [9.159771439964205, 42.022772886792005], [9.159502331428952, 42.024214920409335], [9.159233222893697, 42.025656954026665], [9.158964114358442, 42.02709898764399], [9.158695005823189, 42.028541021261326], [9.158425897287934, 42.02998305487865], [9.158156788752683, 42.031425088495986], [9.158156788752683, 42.031425088495986], [9.155161336875988, 42.030044207778595], [9.152165884999292, 42.028663327061196], [9.149170433122597, 42.027282446343804], [9.146174981245903, 42.025901565626405], [9.143179529369208, 42.02452068490901], [9.140184077492515, 42.023139804191615], [9.137188625615819, 42.021758923474216], [9.134193173739124, 42.020378042756825], [9.13119772186243, 42.018997162039426], [9.128202269985735, 42.01761628132203], [9.128202269985735, 42.01761628132203], [9.125843872170906, 42.0173026824436], [9.123485474356082, 42.01698908356518], [9.121127076541256, 42.01667548468676], [9.118768678726427, 42.01636188580833], [9.116410280911602, 42.016048286929916], [9.114051883096772, 42.01573468805149], [9.111693485281947, 42.01542108917307], [9.109335087467121, 42.015107490294646], [9.106976689652294, 42.01479389141622], [9.104618291837468, 42.0144802925378], [9.104618291837468, 42.0144802925378], [9.103441784923193, 42.01491902281478], [9.102265278008925, 42.01535775309177], [9.101088771094652, 42.015796483368746], [9.09991226418038, 42.01623521364573], [9.09873575726611, 42.01667394392271], [9.097559250351837, 42.0171126741997], [9.09638274343757, 42.01755140447669], [9.095206236523296, 42.01799013475367], [9.094029729609025, 42.01842886503066], [9.092853222694755, 42.01886759530763], [9.092853222694755, 42.01886759530763], [9.090586387456273, 42.01955605699148], [9.088319552217794, 42.02024451867534], [9.086052716979312, 42.0209329803592], [9.08378588174083, 42.02162144204305], [9.081519046502349, 42.0223099037269], [9.07925221126387, 42.02299836541076], [9.07698537602539, 42.02368682709461], [9.074718540786908, 42.02437528877846], [9.07245170554843, 42.02506375046231], [9.070184870309948, 42.02575221214617], [9.070184870309948, 42.02575221214617], [9.069462183241349, 42.026755108675275], [9.068739496172752, 42.02775800520438], [9.068016809104153, 42.02876090173349], [9.067294122035555, 42.02976379826261], [9.066571434966956, 42.030766694791716], [9.065848747898357, 42.031769591320824], [9.06512606082976, 42.032772487849925], [9.064403373761163, 42.033775384379034], [9.063680686692566, 42.03477828090814], [9.062957999623967, 42.03578117743726], [9.062957999623967, 42.03578117743726], [9.063323281425598, 42.03691035906944], [9.06368856322723, 42.03803954070162], [9.064053845028862, 42.0391687223338], [9.064419126830494, 42.04029790396598], [9.064784408632127, 42.04142708559815], [9.06514969043376, 42.04255626723034], [9.065514972235391, 42.04368544886252], [9.065880254037022, 42.0448146304947], [9.066245535838654, 42.04594381212688], [9.066610817640287, 42.04707299375905], [9.066610817640287, 42.04707299375905], [9.067972975271992, 42.04838942089747], [9.069335132903698, 42.0497058480359], [9.070697290535405, 42.051022275174326], [9.072059448167108, 42.052338702312746], [9.073421605798815, 42.053655129451165], [9.074783763430522, 42.05497155658959], [9.076145921062231, 42.05628798372801], [9.077508078693937, 42.05760441086644], [9.07887023632564, 42.05892083800486], [9.080232393957347, 42.06023726514328], [9.080232393957347, 42.06023726514328], [9.081685883935878, 42.06161672186741], [9.083139373914413, 42.06299617859153], [9.084592863892949, 42.064375635315656], [9.086046353871481, 42.065755092039794], [9.087499843850011, 42.06713454876392], [9.088953333828545, 42.06851400548805], [9.090406823807081, 42.06989346221217], [9.091860313785611, 42.0712729189363], [9.093313803764147, 42.072652375660425], [9.094767293742681, 42.074031832384556], [9.094767293742681, 42.074031832384556], [9.093953475040786, 42.075034706170456], [9.093139656338899, 42.07603757995636], [9.092325837637004, 42.077040453742256], [9.091512018935111, 42.07804332752816], [9.090698200233222, 42.079046201314064], [9.089884381531327, 42.080049075099964], [9.089070562829434, 42.081051948885865], [9.088256744127545, 42.082054822671765], [9.087442925425652, 42.08305769645766], [9.086629106723757, 42.08406057024356], [9.086629106723757, 42.08406057024356], [9.084725497698555, 42.084813168542674], [9.082821888673351, 42.085565766841775], [9.080918279648147, 42.08631836514088], [9.079014670622941, 42.087070963439984], [9.077111061597737, 42.08782356173909], [9.07520745257253, 42.0885761600382], [9.073303843547327, 42.08932875833731], [9.071400234522121, 42.09008135663641], [9.069496625496917, 42.09083395493552], [9.067593016471713, 42.09158655323462], [9.067593016471713, 42.09158655323462], [9.066143518069339, 42.092275218896624], [9.064694019666963, 42.09296388455862], [9.063244521264586, 42.09365255022063], [9.061795022862206, 42.09434121588263], [9.060345524459832, 42.09502988154463], [9.058896026057456, 42.09571854720663], [9.057446527655078, 42.096407212868634], [9.055997029252703, 42.09709587853063], [9.054547530850327, 42.097784544192635], [9.053098032447949, 42.09847320985464], [9.053098032447949, 42.09847320985464], [9.050651216295197, 42.09878664869742], [9.048204400142446, 42.09910008754021], [9.045757583989696, 42.09941352638298], [9.04331076783694, 42.099726965225756], [9.040863951684189, 42.100040404068544], [9.03841713553144, 42.100353842911325], [9.035970319378686, 42.1006672817541], [9.033523503225934, 42.10098072059689], [9.031076687073181, 42.10129415943967], [9.02862987092043, 42.10160759828245], [9.02862987092043, 42.10160759828245], [9.026179976548113, 42.10110490149913], [9.023730082175788, 42.10060220471582], [9.021280187803471, 42.1000995079325], [9.018830293431149, 42.099596811149176], [9.01638039905883, 42.09909411436586], [9.01393050468651, 42.09859141758255], [9.011480610314187, 42.098088720799225], [9.009030715941867, 42.09758602401591], [9.00658082156955, 42.097083327232596], [9.004130927197227, 42.096580630449274], [9.004130927197227, 42.096580630449274], [9.00322553494174, 42.09739550017899], [9.002320142686253, 42.0982103699087], [9.001414750430767, 42.09902523963842], [9.000509358175279, 42.09984010936813], [8.999603965919789, 42.10065497909785], [8.998698573664301, 42.101469848827556], [8.997793181408815, 42.10228471855728], [8.996887789153329, 42.103099588286995], [8.99598239689784, 42.1039144580167], [8.99507700464235, 42.10472932774642], [8.99507700464235, 42.10472932774642], [8.992627121352843, 42.10341262915044], [8.99017723806333, 42.10209593055445], [8.987727354773822, 42.10077923195846], [8.985277471484311, 42.099462533362484], [8.9828275881948, 42.09814583476649], [8.980377704905289, 42.096829136170506], [8.977927821615781, 42.09551243757453], [8.97547793832627, 42.09419573897854], [8.97302805503676, 42.092879040382556], [8.97057817174725, 42.09156234178657], [8.97057817174725, 42.09156234178657], [8.967312565289689, 42.09112250291639], [8.96404695883213, 42.090682664046206], [8.96078135237457, 42.09024282517603], [8.95751574591701, 42.089802986305834], [8.95425013945945, 42.089363147435655], [8.95098453300189, 42.08892330856547], [8.947718926544331, 42.08848346969529], [8.94445332008677, 42.088043630825105], [8.94118771362921, 42.087603791954926], [8.93792210717165, 42.08716395308475], [8.93792210717165, 42.08716395308475], [8.935018834979518, 42.08628512605569], [8.932115562787388, 42.08540629902666], [8.929212290595258, 42.08452747199762], [8.926309018403126, 42.08364864496858], [8.923405746210994, 42.08276981793953], [8.92050247401886, 42.08189099091049], [8.91759920182673, 42.08101216388145], [8.9146959296346, 42.080133336852406], [8.91179265744247, 42.079254509823365], [8.90888938525034, 42.078375682794324], [8.90888938525034, 42.078375682794324], [8.906073000931327, 42.07611783815796], [8.903256616612314, 42.073859993521616], [8.900440232293304, 42.07160214888526], [8.897623847974293, 42.0693443042489], [8.89480746365528, 42.067086459612554], [8.89199107933627, 42.06482861497619], [8.889174695017257, 42.062570770339846], [8.886358310698244, 42.06031292570349], [8.883541926379232, 42.05805508106714], [8.880725542060222, 42.05579723643078], [8.880725542060222, 42.05579723643078], [8.878096514216928, 42.05535859560246], [8.875467486373633, 42.05491995477414], [8.872838458530339, 42.05448131394583], [8.870209430687046, 42.054042673117515], [8.86758040284375, 42.053604032289186], [8.864951375000455, 42.053165391460865], [8.86232234715716, 42.05272675063256], [8.859693319313866, 42.05228810980423], [8.857064291470572, 42.05184946897592], [8.854435263627279, 42.051410828147596], [8.854435263627279, 42.051410828147596], [8.85180460902746, 42.05090808625297], [8.849173954427643, 42.05040534435834], [8.846543299827824, 42.04990260246372], [8.843912645228006, 42.04939986056909], [8.84128199062819, 42.048897118674454], [8.83865133602837, 42.04839437677983], [8.836020681428554, 42.0478916348852], [8.833390026828736, 42.04738889299057], [8.830759372228918, 42.04688615109594], [8.828128717629102, 42.04638340920132], [8.828128717629102, 42.04638340920132], [8.82340982190654, 42.0446271204495], [8.818690926183981, 42.042870831697684], [8.813972030461422, 42.04111454294587], [8.809253134738864, 42.039358254194056], [8.804534239016302, 42.03760196544225], [8.799815343293742, 42.035845676690435], [8.795096447571181, 42.03408938793862], [8.790377551848625, 42.03233309918681], [8.785658656126063, 42.030576810434994], [8.780939760403502, 42.02882052168318], [8.780939760403502, 42.02882052168318], [8.77830854428283, 42.028067830827844], [8.775677328162155, 42.02731513997251], [8.773046112041483, 42.026562449117186], [8.770414895920807, 42.02580975826184], [8.767783679800134, 42.025057067406514], [8.765152463679458, 42.02430437655118], [8.762521247558787, 42.02355168569584], [8.759890031438111, 42.022798994840514], [8.757258815317439, 42.02204630398518], [8.754627599196764, 42.02129361312984], [8.754627599196764, 42.02129361312984], [8.75072489807854, 42.019724470099284], [8.746822196960316, 42.01815532706872], [8.742919495842095, 42.016586184038154], [8.73901679472387, 42.015017041007596], [8.735114093605645, 42.01344789797704], [8.731211392487422, 42.01187875494647], [8.727308691369199, 42.0103096119159], [8.723405990250978, 42.00874046888534], [8.719503289132753, 42.007171325854785], [8.715600588014532, 42.00560218282422], [8.715600588014532, 42.00560218282422], [8.710161015482823, 42.00511159287188], [8.704721442951113, 42.004621002919535], [8.699281870419407, 42.004130412967186], [8.693842297887699, 42.003639823014844], [8.68840272535599, 42.0031492330625], [8.68296315282428, 42.00265864311016], [8.677523580292572, 42.00216805315782], [8.672084007760866, 42.00167746320548], [8.666644435229157, 42.001186873253125], [8.66120486269745, 42.00069628330078], [8.66120486269745, 42.00069628330078], [8.659429711024954, 41.99855753195475], [8.657882351277399, 41.9964045034122], [8.656631561697713, 41.99426793721223], [8.655746120528827, 41.992178572893934], [8.655294806013659, 41.99016714999643], [8.655346396395146, 41.98826440805881], [8.655969669916207, 41.98650108662018], [8.657233404819772, 41.984907925219666], [8.659206379348767, 41.98351566339634], [8.66195737174612, 41.98235504068933], [8.661957371746123, 41.98235504068933], [8.665616578817586, 41.98014421475879], [8.667019603589297, 41.97787852506796], [8.666571629811356, 41.97557242318953], [8.664677841233862, 41.973240360696245], [8.661743421606923, 41.97089678916081], [8.658173554680634, 41.96855616015593], [8.654373424205094, 41.96623292525433], [8.650748213930404, 41.96394153602872], [8.647703107606668, 41.96169644405183], [8.645643288983987, 41.95951210089636], [8.64564328898399, 41.95951210089636], [8.64018626962552, 41.95931061806989], [8.634743446364265, 41.959381853186045], [8.629314870021332, 41.95962917615288], [8.623900591417819, 41.959955956878446], [8.618500661374824, 41.96026556527074], [8.61311513071345, 41.96046137123783], [8.607744050254787, 41.96044674468776], [8.602387470819949, 41.960125055528536], [8.597045443230027, 41.95939967366822], [8.591718018306121, 41.95817396901485], [8.591718018306127, 41.958173969014844], [8.589908266783874, 41.955331105941056], [8.589754068916642, 41.95258969005136], [8.5909308766372, 41.94993693398034], [8.593114141878315, 41.94736005036255], [8.595979316572762, 41.94484625183256], [8.599201852653305, 41.94238275102493], [8.602457202052719, 41.93995676057424], [8.60542081670377, 41.937555493115056], [8.607768148539224, 41.93516616128191], [8.609174649491857, 41.932775977709426], [8.609174649491857, 41.93277597770942], [8.615081434372794, 41.93148976856145], [8.618682413858197, 41.929519599826094], [8.620354461508931, 41.92698932468059], [8.620474450885865, 41.92402279630216], [8.61941925554986, 41.92074386786804], [8.617565749061784, 41.91727639255544], [8.6152908049825, 41.91374422354164], [8.612971296872875, 41.91027121400383], [8.610984098293773, 41.90698121711926], [8.609706082806062, 41.903998086065165], [8.609706082806042, 41.903998086065144], [8.610549394706155, 41.899761950063564], [8.611459402352908, 41.89636379807463], [8.612514558955086, 41.893798376140225], [8.613793317721482, 41.8920604303022], [8.615374131860886, 41.891144706602425], [8.617335454582093, 41.891045951082766], [8.619755739093895, 41.89175890978509], [8.62271343860508, 41.89327832875126], [8.626287006324441, 41.895598954023136], [8.63055489546077, 41.898715531642594], [8.630554895460772, 41.89871553164259], [8.63622731928406, 41.89998559287106], [8.641998926185243, 41.90054081100499], [8.647851822106379, 41.90056071483937], [8.65376811298953, 41.9002248331692], [8.659729904776757, 41.89971269478945], [8.665719303410114, 41.89920382849516], [8.671718414831668, 41.898877763081295], [8.677709344983478, 41.898914027342855], [8.683674199807605, 41.89949215007485], [8.689595085246108, 41.900791660072265], [8.689595085246104, 41.90079166007226], [8.695711512121475, 41.900644373987426], [8.70203526825011, 41.90091277117023], [8.708385703710178, 41.90161625003922], [8.714582168579824, 41.90277420901296], [8.720444012937206, 41.90440604651001], [8.72579058686048, 41.90653116094894], [8.7304412404278, 41.909168950748295], [8.734215323717324, 41.91233881432665], [8.736932186807202, 41.91606015010256], [8.738411179775596, 41.92035235649458], [8.7384111797756, 41.92035235649458], [8.741848094125874, 41.92180349549443], [8.745652889985989, 41.92257312735631], [8.74975355560495, 41.92277007506093], [8.75407807923178, 41.92250316158902], [8.758554449115488, 41.92188120992127], [8.763110653505088, 41.92101304303841], [8.767674680649595, 41.920007483921125], [8.772174518798023, 41.91897335555015], [8.776538156199384, 41.918019480906196], [8.780693581102696, 41.91725468296995], [8.78069358110269, 41.917254682969954], [8.784193978185563, 41.91365247319441], [8.788087697738764, 41.90981636682123], [8.792049995330379, 41.90579414499679], [8.795756126528495, 41.901633588867455], [8.798881346901199, 41.897382479579576], [8.801100912016574, 41.893088598279526], [8.80209007744271, 41.888799726113675], [8.801524098747686, 41.88456364422837], [8.799078231499598, 41.880428133769996], [8.794427731266525, 41.876440975884904], [8.794427731266518, 41.876440975884904], [8.78959348421579, 41.875319857604005], [8.785693558777655, 41.873689542890254], [8.78271632632558, 41.8716386387066], [8.780650158233039, 41.86925575201597], [8.779483425873494, 41.8666294897813], [8.779204500620418, 41.86384845896554], [8.779801753847275, 41.86100126653162], [8.78126355692754, 41.85817651944249], [8.783578281234679, 41.855462824661075], [8.786734298142155, 41.85294878915032], [8.786734298142147, 41.852948789150325], [8.788990606882715, 41.84871181510716], [8.789010226270587, 41.845442671012485], [8.787174409998723, 41.84300164256659], [8.78386441176007, 41.84124901546971], [8.779461485247584, 41.84004507542214], [8.774346884154212, 41.83925010812415], [8.768901862172916, 41.83872439927599], [8.763507672996644, 41.83832823457794], [8.758545570318347, 41.83792189973028], [8.754396807830977, 41.83736568043327], [8.754396807830958, 41.83736568043328], [8.753222272297958, 41.83592229275482], [8.75373501616331, 41.83462490794928], [8.75562283251595, 41.83342160860615], [8.758573514444835, 41.832260477314954], [8.762274855038907, 41.83108959666519], [8.766414647387116, 41.82985704924637], [8.770680684578403, 41.82851091764799], [8.77476075970172, 41.826999284459575], [8.778342665846012, 41.82527023227062], [8.78111419610023, 41.82327184367064], [8.781114196100237, 41.82327184367063], [8.783805587799078, 41.82107399560174], [8.784507960593364, 41.81882164579133], [8.783593070328397, 41.81652989379049], [8.781432672849492, 41.814213839150256], [8.77839852400195, 41.8118885814217], [8.77486237963108, 41.80956922015586], [8.771195995582184, 41.80727085490382], [8.767771127700573, 41.805008585216605], [8.764959531831552, 41.8027975106453], [8.763132963820429, 41.80065273074093], [8.763132963820429, 41.80065273074093], [8.757495788239465, 41.801742925332164], [8.752321864573581, 41.80142626760732], [8.747500770067392, 41.80008062637267], [8.742922081965506, 41.7980838704345], [8.738475377512543, 41.7958138685991], [8.73405023395312, 41.793648489672755], [8.729536228531844, 41.79196560246175], [8.724822938493334, 41.791143075772375], [8.719799941082202, 41.791558778410916], [8.714356813543061, 41.79359057918364], [8.714356813543068, 41.79359057918364], [8.710664220587406, 41.79229031811645], [8.709330672794723, 41.790574213545916], [8.709862680073389, 41.78850708853473], [8.711766752331794, 41.78615376614558], [8.714549399478315, 41.78357906944117], [8.717717131421328, 41.780847821484166], [8.720776458069222, 41.778024845337306], [8.723233889330368, 41.775174964063254], [8.724595935113152, 41.7723630007247], [8.724369105325952, 41.76965377838436], [8.724369105325948, 41.76965377838435], [8.722041342294824, 41.7658860311845], [8.71912502878024, 41.76204111786292], [8.715661783252644, 41.75823059051827], [8.711693224182463, 41.754566001249216], [8.707260970040142, 41.75115890215444], [8.702406639296115, 41.7481208453326], [8.697171850420816, 41.74556338288236], [8.69159822188469, 41.74359806690239], [8.685727372158171, 41.742336449491376], [8.679600919711696, 41.74189008274796], [8.67960091971169, 41.741890082747965], [8.67442241497098, 41.744052755381304], [8.669546183110324, 41.74459274382315], [8.665236072135691, 41.74386576757404], [8.661755930053044, 41.74222754613459], [8.659369604868344, 41.740033799005346], [8.658340944587556, 41.73764024568686], [8.658933797216646, 41.735402605679745], [8.661412010761568, 41.73367659848453], [8.666039433228296, 41.7328179436018], [8.67307991262279, 41.733182360532126], [8.673079912622795, 41.733182360532126], [8.679777933345955, 41.733615183990075], [8.68534155552944, 41.733278211229475], [8.689877952372807, 41.732261736071855], [8.693494297075617, 41.730656052338766], [8.69629776283741, 41.72855145385176], [8.698395522857751, 41.726038234432366], [8.699894750336188, 41.723206687902135], [8.700902618472282, 41.72014710808262], [8.701526300465584, 41.716949788795354], [8.701872969515648, 41.713705023861884], [8.701872969515641, 41.71370502386188], [8.7079684638081, 41.71476029977311], [8.71393495141406, 41.71611882274621], [8.719805072519312, 41.71770626603836], [8.725611467309648, 41.719448302906756], [8.731386775970865, 41.72127060660862], [8.737163638688749, 41.72309885040114], [8.742974695649094, 41.72485870754154], [8.7488525870377, 41.726475851287], [8.754829953040353, 41.727875954894735], [8.760939433842848, 41.728984691621946], [8.760939433842829, 41.728984691621946], [8.766930759105124, 41.73071227706388], [8.771907391836471, 41.73112210771107], [8.775860492952498, 41.73041520912302], [8.778781223368817, 41.72879260685923], [8.780660744001048, 41.72645532647917], [8.78149021576481, 41.72360439354236], [8.781260799575723, 41.72044083360829], [8.779963656349402, 41.71716567223646], [8.777589947001474, 41.71397993498636], [8.774130832447543, 41.7110846474175], [8.774130832447542, 41.7110846474175], [8.774635336134349, 41.708779608566864], [8.775911019137615, 41.70609441117161], [8.777810078644654, 41.703275617742406], [8.780184711842779, 41.70056979078995], [8.782887115919298, 41.69822349282488], [8.78576948806153, 41.69648328635788], [8.788684025456776, 41.69559573389962], [8.791482925292357, 41.695807397960785], [8.794018384755582, 41.69736484105203], [8.796142601033758, 41.700514625684036], [8.796142601033761, 41.70051462568404], [8.802859669698302, 41.70238471430736], [8.809025242632002, 41.70283700262304], [8.814755501495119, 41.70214854277144], [8.820166627947906, 41.70059638689292], [8.825374803650615, 41.69845758712782], [8.83049621026351, 41.6960091956165], [8.835647029446836, 41.69352826449931], [8.840943442860848, 41.69129184591659], [8.846501632165806, 41.6895769920087], [8.852437779021963, 41.68866075491599], [8.852437779021956, 41.68866075491599], [8.858107854793449, 41.68960939997098], [8.863318196129498, 41.68971735076828], [8.86817072128694, 41.68918031805749], [8.872767348522599, 41.68819401258828], [8.877209996093306, 41.6869541451103], [8.881600582255894, 41.68565642637317], [8.886041025267195, 41.68449656712655], [8.890633243384036, 41.683670278120076], [8.895479154863247, 41.68337327010339], [8.900680677961663, 41.68380125382613], [8.900680677961647, 41.683801253826125], [8.905849545204996, 41.68492214003541], [8.910409080486783, 41.68486576618605], [8.91425654225821, 41.68383369883867], [8.917289188970473, 41.6820275045539], [8.919404279074778, 41.67964874989241], [8.920499071022324, 41.67689900141479], [8.92047082326431, 41.67397982568171], [8.919216794251945, 41.6710927892538], [8.916634242436421, 41.66843945869168], [8.912620426268944, 41.66622140055601], [8.912620426268935, 41.66622140055601], [8.90758190613654, 41.665587270519524], [8.902244075496704, 41.664994847165005], [8.896852910222403, 41.66432182743787], [8.891654386186634, 41.66344590828349], [8.886894479262384, 41.662244786647285], [8.882819165322644, 41.66059615947462], [8.8796744202404, 41.658377723710906], [8.87770621988864, 41.65546717630153], [8.877160540140354, 41.651742214191884], [8.878283356868529, 41.64708053432737], [8.878283356868542, 41.64708053432736], [8.877914958545484, 41.64263974498992], [8.87603405462193, 41.63952383089672], [8.87291510623616, 41.63747375495454], [8.86883257452645, 41.63623048007015], [8.864060920631083, 41.63553496915027], [8.858874605688333, 41.6351281851017], [8.853548090836485, 41.63475109083119], [8.848355837213813, 41.63414464924549], [8.843572305958595, 41.633049823251376], [8.839471958209112, 41.6312075757556], [8.839471958209106, 41.631207575755596], [8.835964694189945, 41.62901438514199], [8.832340813229727, 41.627100649773325], [8.828643730051812, 41.625515069639526], [8.824916859379554, 41.624306344730506], [8.821203615936316, 41.623523175036205], [8.817547414445446, 41.62321426054652], [8.81399166963031, 41.62342830125137], [8.810579796214263, 41.624213997140714], [8.80735520892066, 41.62562004820444], [8.80436132247286, 41.62769515443246], [8.804361322472866, 41.627695154432445], [8.79997802617127, 41.62597955873403], [8.79672225833146, 41.623768686159444], [8.794383054174142, 41.621158500504144], [8.792749448920013, 41.61824496556359], [8.791610477789776, 41.615124045133214], [8.790755176004136, 41.611891703008475], [8.789972578783791, 41.60864390298482], [8.789051721349448, 41.6054766088577], [8.787781638921803, 41.60248578442256], [8.785951366721557, 41.59976739347485], [8.785951366721564, 41.59976739347485], [8.789748965074226, 41.59673283366666], [8.790900488229434, 41.59375325636594], [8.790091164212221, 41.59086757519531], [8.788006221047613, 41.588114703777386], [8.78533088676064, 41.585533555734784], [8.78275038937633, 41.58316304469013], [8.780949956919711, 41.581042084266045], [8.780614817415813, 41.57920958808513], [8.782430198889667, 41.57770446977002], [8.787081329366298, 41.57656564294333], [8.787081329366297, 41.57656564294332], [8.791225420159556, 41.574261563268784], [8.794044002660039, 41.571869300980055], [8.795695206396003, 41.569397260348644], [8.796337160895702, 41.56685384564605], [8.796127995687394, 41.56424746114379], [8.795225840299338, 41.561586511113376], [8.793788824259785, 41.55887939982632], [8.791975077096994, 41.55613453155409], [8.789942728339222, 41.553360310568245], [8.787849907514723, 41.55056514114027], [8.78784990751472, 41.55056514114027], [8.790484549886038, 41.548345909104995], [8.793552720780337, 41.546509521992434], [8.796941871139413, 41.54494697293471], [8.800539451905061, 41.54354925506393], [8.804232914019073, 41.54220736151226], [8.807909708423251, 41.54081228541181], [8.811457286059385, 41.539255019894696], [8.814763097869276, 41.537426558093074], [8.817714594794715, 41.53521789313907], [8.820199227777497, 41.5325200181648], [8.820199227777493, 41.5325200181648], [8.8239462859499, 41.53371896455719], [8.828364356511255, 41.534076389703905], [8.833104756475558, 41.53370037809121], [8.8378188028568, 41.53269901420536], [8.842157812668976, 41.53118038253264], [8.845773102926081, 41.52925256755929], [8.848315990642114, 41.52702365377156], [8.849437792831068, 41.52460172565572], [8.848789826506932, 41.52209486769804], [8.84602340868371, 41.51961116438479], [8.846023408683706, 41.51961116438478], [8.84283280554886, 41.51567354293582], [8.841987662864486, 41.51278310872094], [8.843101446177183, 41.510810109109926], [8.84578762103354, 41.50962479147253], [8.849659652980142, 41.509097403178544], [8.854331007563582, 41.509098191597744], [8.859415150330456, 41.5094974040999], [8.864525546827347, 41.51016528805482], [8.86927566260085, 41.51097209083223], [8.873278963197553, 41.51178805980195], [8.87327896319754, 41.51178805980196], [8.876783033804363, 41.509437895997216], [8.879162128271174, 41.50692574056789], [8.880798378667567, 41.50439483900021], [8.88207391706315, 41.50198843678046], [8.88337087552752, 41.499849779394864], [8.885071386130278, 41.49812211232969], [8.887557580941033, 41.4969486810712], [8.891211592029375, 41.49647273110561], [8.896415551464914, 41.49683750791921], [8.903551591317248, 41.49818625699824], [8.90355159131724, 41.49818625699824], [8.908249886587546, 41.49720084707368], [8.911623728240142, 41.49540474081425], [8.914019386835296, 41.49303350596014], [8.915783132933276, 41.49032271025155], [8.917261237094351, 41.48750792142869], [8.918799969878789, 41.48482470723176], [8.920745601846859, 41.48250863540096], [8.92344440355883, 41.48079527367649], [8.927242645574971, 41.47992018979856], [8.93248659845555, 41.48011895150737], [8.932486598455545, 41.48011895150737], [8.936848641732897, 41.481052479388936], [8.941022235178087, 41.48146604919147], [8.945026233461753, 41.481395034745866], [8.948879491254537, 41.480874809883026], [8.952600863227083, 41.479940748433854], [8.956209204050037, 41.47862822422925], [8.959723368394041, 41.4769726111001], [8.963162210929733, 41.47500928287732], [8.966544586327759, 41.4727736133918], [8.969889349258763, 41.47030097647444], [8.96988934925876, 41.47030097647444], [8.97334797819025, 41.4690877567103], [8.97681258432754, 41.46867453436841], [8.98029831144374, 41.4688315090792], [8.983820303311976, 41.46932888047315], [8.987393703705362, 41.46993684818072], [8.991033656397013, 41.47042561183237], [8.99475530516005, 41.47056537105855], [8.998573793767589, 41.47012632548973], [9.002504265992748, 41.46887867475637], [9.00656186560864, 41.46659261848891], [9.006561865608639, 41.46659261848891], [9.008494722357105, 41.46363623092577], [9.011034810646692, 41.46177465588396], [9.014031013577828, 41.460769430728064], [9.017332214250938, 41.460382092822705], [9.02078729576645, 41.460374179532515], [9.024245141224798, 41.46050722822209], [9.027554633726401, 41.46054277625605], [9.03056465637169, 41.460242360999004], [9.033124092261094, 41.459367519815586], [9.035081824495041, 41.457679790070394], [9.03508182449505, 41.457679790070394], [9.03464386755438, 41.45426553575914], [9.035922932471081, 41.45213903389074], [9.03853703946694, 41.45114495287024], [9.042104208763751, 41.45112796110269], [9.046242460583308, 41.451932726993164], [9.050569815147401, 41.45340391894675], [9.054704292677817, 41.455386205368484], [9.058263913396358, 41.45772425466344], [9.060866697524805, 41.4602627352367], [9.062130665284956, 41.4628463154933], [9.062130665284956, 41.46284631549331], [9.067028690333949, 41.46595865685172], [9.070901584248622, 41.46747473437982], [9.073774206906975, 41.46763453796555], [9.075671418186998, 41.46667805749684], [9.076618077966687, 41.4648452828616], [9.07663904612404, 41.462376203947755], [9.075759182537046, 41.45951081064323], [9.074003347083702, 41.45648909283594], [9.071396399642, 41.45355104041383], [9.067963200089936, 41.45093664326481], [9.067963200089943, 41.45093664326481], [9.066525727708434, 41.44682741524084], [9.066517181716288, 41.443319303746755], [9.067743021278035, 41.44042531773349], [9.07000870555822, 41.43815846615202], [9.073119693721374, 41.43653175795327], [9.076881444932045, 41.43555820208818], [9.08109941835476, 41.43525080750772], [9.085579073154069, 41.435622583162804], [9.090125868494503, 41.436686538004395], [9.094545263540606, 41.438455680983445], [9.094545263540606, 41.43845568098344], [9.097798438727429, 41.43688040638856], [9.101906524604697, 41.43538949859603], [9.106418136643008, 41.433929696101686], [9.110881890312957, 41.432447737401354], [9.114846401085144, 41.430890360990865], [9.117860284430161, 41.42920430536603], [9.11947215581861, 41.4273363090227], [9.119230630721088, 41.425233110456695], [9.116684324608187, 41.42284144816385], [9.111381852950508, 41.42010806063998], [9.111381852950501, 41.42010806063998], [9.11035346321515, 41.4169865738365], [9.109025255454478, 41.414088958695274], [9.107451484254407, 41.41136256886062], [9.10568640420085, 41.4087547579768], [9.103784269879716, 41.406212879688134], [9.101799335876935, 41.40368428763891], [9.099785856778409, 41.40111633547341], [9.09779808717006, 41.39845637683596], [9.095890281637802, 41.395651765370836], [9.094116694767553, 41.392649854722336], [9.09411669476755, 41.39264985472233], [9.093985162798154, 41.387801327801654], [9.095306777109936, 41.3849599889415], [9.097840256514907, 41.38372456248643], [9.101344319825065, 41.38369377278097], [9.105577685852426, 41.38446634416969], [9.110299073408996, 41.38564100099711], [9.115267201306784, 41.38681646760778], [9.120240788357794, 41.38759146834626], [9.124978553374037, 41.38756472755708], [9.129239215167523, 41.3863349695848], [9.129239215167535, 41.3863349695848], [9.132368299699767, 41.38319367395079], [9.136313732123677, 41.38077226400796], [9.140853360503742, 41.378891370921856], [9.14576503290443, 41.37737162585799], [9.150826597390216, 41.3760336599819], [9.155815902025571, 41.374698104459114], [9.160510794874963, 41.37318559045517], [9.164689124002868, 41.371316749135595], [9.168128737473753, 41.368912211665915], [9.170607483352091, 41.36579260921167], [9.17060748335209, 41.36579260921165], [9.172084503366177, 41.36134920337439], [9.174925297919872, 41.358123012352266], [9.178894226093844, 41.35594962477602], [9.18375564696877, 41.354664629276414], [9.189273919625325, 41.3541036144842], [9.19521340314418, 41.35410216903012], [9.201338456606022, 41.354495881544956], [9.20741343909151, 41.35512034065944], [9.213202709681333, 41.35581113500433], [9.218470627456153, 41.356403853210374], [9.218470627456151, 41.356403853210374], [9.221855020550672, 41.360839909485], [9.225015773384062, 41.365407525229436], [9.228023014840437, 41.370072415341134], [9.230946873803912, 41.374800294717545], [9.23385747915861, 41.37955687825611], [9.23682495978864, 41.384307880854294], [9.23991944457812, 41.38901901740954], [9.243211062411174, 41.3936560028193], [9.246769942171907, 41.39818455198102], [9.250666212744443, 41.40257037979216], [9.250666212744443, 41.40257037979216], [9.2531179126446, 41.40723466253807], [9.253839437857154, 41.410645387151575], [9.253117985353585, 41.41289823811427], [9.25124075210537, 41.414088899907775], [9.248494935083968, 41.41431305701368], [9.245167731260858, 41.413666393913594], [9.24154633760752, 41.41224459508912], [9.237917951095412, 41.41014334502187], [9.234569768696018, 41.40745832819346], [9.231788987380805, 41.40428522908548], [9.231788987380812, 41.404285229085495], [9.230119444503684, 41.40063147787861], [9.227231266123226, 41.39800462031138], [9.223615237450957, 41.396320464620594], [9.219762143698407, 41.39549481904306], [9.216162770077105, 41.39544349181558], [9.213307901798574, 41.39608229117498], [9.211688324074343, 41.39732702535804], [9.211794822115941, 41.399093502601595], [9.214118181134891, 41.40129753114243], [9.219149186342722, 41.403854919217366], [9.219149186342717, 41.403854919217366], [9.222955012199277, 41.407106336383514], [9.224778359453227, 41.41032769482526], [9.224977481408207, 41.41350267921265], [9.223910631367838, 41.416614974215655], [9.22193606263576, 41.41964826450428], [9.219412028515602, 41.42258623474855], [9.216696782310995, 41.42541256961847], [9.21414857732557, 41.42811095378403], [9.212125666862965, 41.43066507191526], [9.210986304226802, 41.43305860868213], [9.210986304226793, 41.43305860868213], [9.216178816836669, 41.4334496163265], [9.221187935200433, 41.4342555009014], [9.226002544297417, 41.435439961813636], [9.230611529106937, 41.43696669846997], [9.235003774608323, 41.43879941027718], [9.23916816578089, 41.44090179664204], [9.243093587603965, 41.44323755697132], [9.246768925056873, 41.445770390671804], [9.250183063118932, 41.44846399715025], [9.25332488676947, 41.45128207581345], [9.253324886769462, 41.45128207581345], [9.2594750992963, 41.452259744512546], [9.263380620285561, 41.45329302750998], [9.26554087678968, 41.45439536619305], [9.26645529586109, 41.45558020194906], [9.26662330455222, 41.456860976165295], [9.266544329915499, 41.45825113022907], [9.266717799003354, 41.45976410552767], [9.267643138868221, 41.46141334344839], [9.269819776562528, 41.463212285378546], [9.2737471391387, 41.46517437270541], [9.273747139138706, 41.46517437270541], [9.275396324458969, 41.46880840405017], [9.276817375563411, 41.47243429587068], [9.277881850826903, 41.47597915466394], [9.278461308624331, 41.47937008692698], [9.278427307330572, 41.4825341991568], [9.277651405320505, 41.48539859785045], [9.27600516096901, 41.4878903895049], [9.273360132650968, 41.4899366806172], [9.269587878741254, 41.49146457768436], [9.264559957614754, 41.492401187203384], [9.26455995761477, 41.49240118720339], [9.269132182928947, 41.494885834516296], [9.271826185548452, 41.49754721641377], [9.272984600429174, 41.500316042019996], [9.272950062526993, 41.503123020459086], [9.2720652067978, 41.50589886085521], [9.270672668197475, 41.50857427233253], [9.269115081681909, 41.51107996401518], [9.267735082206984, 41.51334664502731], [9.266875304728584, 41.51530502449305], [9.266878384202595, 41.51688581153659], [9.266878384202602, 41.51688581153659], [9.273095320018937, 41.51594049129783], [9.278231740017958, 41.51637043156396], [9.28249649513995, 41.51792632851258], [9.286098436325199, 41.520358878321275], [9.289246414513984, 41.52341877716765], [9.29214928064659, 41.52685672122931], [9.29501588566331, 41.53042340668383], [9.298055080504417, 41.53386952970883], [9.301475716110204, 41.5369457864819], [9.305486643420949, 41.53940287318064], [9.305486643420947, 41.539402873180634], [9.308576626271856, 41.542470452367354], [9.312523531082489, 41.54479546424246], [9.317079361088755, 41.54657209488685], [9.32199611952657, 41.54799453038136], [9.327025809631854, 41.54925695680688], [9.331920434640514, 41.55055356024428], [9.336431997788472, 41.55207852677444], [9.340312502311637, 41.554026042478206], [9.343313951445928, 41.55659029343648], [9.34518834842726, 41.5599654657301], [9.345188348427254, 41.55996546573011], [9.345435971033295, 41.562752288968504], [9.34684835063571, 41.565967202601165], [9.348958423551647, 41.569425739410576], [9.351299126098251, 41.57294343217924], [9.353403394592672, 41.57633581368964], [9.354804165352055, 41.5794184167243], [9.355034374693556, 41.58200677406569], [9.353626958934326, 41.58391641849633], [9.350114854391501, 41.58496288279871], [9.344030997382243, 41.584961699755326], [9.344030997382232, 41.58496169975533], [9.340421801221046, 41.58564743195685], [9.336529955870954, 41.58689937372916], [9.332446646547597, 41.58845020213281], [9.328263058466613, 41.59003259422837], [9.324070376843643, 41.59137922707637], [9.319959786894323, 41.59222277773737], [9.316022473834296, 41.59229592327193], [9.3123496228792, 41.59133134074059], [9.309032419244671, 41.58906170720391], [9.306162048146357, 41.585219699722444], [9.306162048146364, 41.58521969972244], [9.304128034349027, 41.581493843308785], [9.30067465512727, 41.57885229460337], [9.29625860586797, 41.57723989881038], [9.291336581958003, 41.57660150113399], [9.286365278784237, 41.57688194677838], [9.281801391733556, 41.578026080947744], [9.278101616192826, 41.57997874884624], [9.27572264754893, 41.582684795678055], [9.275121181188737, 41.586089066647375], [9.276753912499121, 41.59013640695837], [9.276753912499117, 41.59013640695837], [9.278534664356751, 41.593180659193784], [9.281105061135323, 41.59586544472311], [9.284187884618124, 41.59829518062665], [9.287505916588431, 41.60057428398466], [9.29078193882954, 41.602807171877444], [9.293738733124725, 41.605098261385294], [9.296099081257278, 41.60755196958848], [9.297585765010474, 41.61027271356729], [9.29792156616761, 41.61336491040202], [9.29682926651196, 41.61693297717294], [9.296829266511953, 41.61693297717294], [9.300998375549355, 41.61560509608922], [9.305268126709091, 41.61464049397003], [9.309615158974774, 41.61394621027687], [9.314016111330018, 41.613429284471245], [9.31844762275844, 41.61299675601465], [9.32288633224365, 41.61255566436861], [9.327308878769268, 41.61201304899459], [9.331691901318909, 41.61127594935411], [9.336012038876182, 41.61025140490867], [9.34024593042471, 41.60884645511977], [9.340245930424702, 41.60884645511976], [9.345401437720733, 41.6089679129869], [9.347770718322352, 41.61030332176778], [9.348072472869482, 41.61257473834167], [9.347025402002043, 41.61550421958783], [9.345348206359956, 41.618813822385505], [9.343759586583154, 41.622225603613956], [9.34297824331155, 41.62546162015243], [9.343722877185069, 41.628243928880195], [9.346712188843638, 41.630294586676506], [9.35266487892717, 41.63133565042062], [9.35266487892717, 41.631335650420624], [9.357216499152782, 41.62958959103446], [9.361303508192844, 41.629079769763486], [9.364964561661324, 41.629617152906334], [9.368238315172189, 41.63101270676162], [9.371163424339407, 41.63307739762795], [9.373778544776949, 41.63562219180396], [9.376122332098785, 41.63845805558826], [9.378233441918878, 41.64139595527948], [9.380150529851202, 41.64424685717622], [9.381912251509723, 41.64682172757712], [9.381912251509723, 41.64682172757711], [9.380789482436203, 41.650408001832616], [9.379874895501713, 41.65337877793399], [9.379069227356098, 41.655846603244406], [9.37827321464923, 41.657924025127016], [9.377387594030964, 41.65972359094501], [9.376313102151162, 41.661357848061556], [9.374950475659688, 41.66293934383982], [9.373200451206396, 41.66458062564298], [9.37096376544115, 41.666394240834194], [9.368141155013813, 41.668492736776635], [9.368141155013813, 41.668492736776635], [9.369756213800127, 41.67145803712281], [9.372086080263152, 41.674049025800365], [9.374984411353736, 41.676331633086285], [9.378304864022727, 41.67837178925756], [9.381901095220975, 41.6802354245912], [9.385626761899326, 41.68198846936419], [9.389335521008627, 41.68369685385355], [9.392881029499728, 41.68542650833625], [9.396116944323476, 41.68724336308931], [9.398896922430719, 41.689213348389714], [9.398896922430714, 41.68921334838971], [9.398886998381933, 41.69624509209081], [9.398915412657908, 41.703223433976824], [9.398989283679898, 41.710150193832725], [9.399115729869163, 41.71702719144351], [9.399301869646951, 41.72385624659419], [9.399554821434531, 41.73063917906973], [9.399881703653154, 41.73737780865515], [9.400289634724084, 41.74407395513543], [9.40078573306857, 41.750729438295544], [9.401377117107877, 41.75734607792053], [9.40137711710789, 41.75734607792053], [9.397755397472883, 41.76039800137954], [9.395358658392208, 41.76366691812867], [9.393973654267167, 41.76711960121688], [9.39338713949906, 41.770722823693134], [9.393385868489197, 41.774443358606426], [9.393756595638878, 41.778247979005734], [9.39428607534941, 41.78210345794001], [9.394761062022091, 41.78597656845825], [9.394968310058232, 41.78983408360941], [9.39469457385913, 41.7936427764425], [9.394694573859127, 41.7936427764425]]]}}]}