{"type": "FeatureCollection", "features": [{"type": "Feature", "properties": {"diocese": "Toulouse", "province": "XVI_Toulouse", "source": "106_Toulouse.txt"}, "geometry": {"type": "Polygon", "coordinates": [[[1.6678961516567377, 43.73353292000201], [1.6568162298957105, 43.73739927508136], [1.6457363081346847, 43.741265630160704], [1.6346563863736576, 43.74513198524005], [1.6235764646126318, 43.748998340319396], [1.6124965428516052, 43.75286469539875], [1.601416621090579, 43.75673105047809], [1.5903366993295522, 43.760597405557434], [1.5792567775685273, 43.76446376063678], [1.5681768558075002, 43.768330115716125], [1.5570969340464744, 43.772196470795464], [1.5570969340464744, 43.772196470795464], [1.5515916696372671, 43.776894244091146], [1.546086405228063, 43.78159201738683], [1.540581140818857, 43.7862897906825], [1.535075876409652, 43.79098756397819], [1.5295706120004446, 43.795685337273866], [1.5240653475912405, 43.80038311056955], [1.518560083182034, 43.80508088386522], [1.513054818772829, 43.809778657160905], [1.5075495543636221, 43.81447643045659], [1.502044289954418, 43.81917420375226], [1.502044289954418, 43.81917420375226], [1.5017948243081345, 43.82280933807201], [1.5015453586618523, 43.82644447239176], [1.5012958930155693, 43.83007960671152], [1.5010464273692872, 43.83371474103128], [1.500796961723005, 43.83734987535103], [1.5005474960767216, 43.84098500967078], [1.5002980304304399, 43.84462014399054], [1.5000485647841573, 43.84825527831029], [1.4997990991378742, 43.85189041263004], [1.499549633491592, 43.85552554694979], [1.499549633491592, 43.85552554694979], [1.496985508312075, 43.8558795390164], [1.4944213831325555, 43.85623353108299], [1.4918572579530385, 43.85658752314959], [1.4892931327735206, 43.85694151521619], [1.4867290075940023, 43.857295507282785], [1.4841648824144844, 43.85764949934939], [1.4816007572349652, 43.85800349141598], [1.4790366320554478, 43.858357483482585], [1.4764725068759295, 43.858711475549185], [1.4739083816964116, 43.859065467615785], [1.4739083816964116, 43.859065467615785], [1.4692855734118013, 43.85587246201957], [1.4646627651271906, 43.852679456423346], [1.4600399568425813, 43.84948645082713], [1.4554171485579697, 43.846293445230906], [1.4507943402733603, 43.843100439634696], [1.4461715319887505, 43.83990743403847], [1.441548723704139, 43.83671442844226], [1.4369259154195295, 43.83352142284603], [1.432303107134918, 43.830328417249824], [1.427680298850309, 43.8271354116536], [1.427680298850309, 43.8271354116536], [1.423964914928629, 43.82899641171253], [1.42024953100695, 43.830857411771454], [1.416534147085272, 43.832718411830385], [1.4128187631635911, 43.83457941188931], [1.4091033792419125, 43.83644041194823], [1.4053879953202335, 43.83830141200716], [1.4016726113985545, 43.840162412066086], [1.397957227476875, 43.842023412125016], [1.394241843555195, 43.84388441218394], [1.390526459633517, 43.84574541224287], [1.390526459633517, 43.84574541224287], [1.3870644875673364, 43.84521254559331], [1.3836025155011558, 43.844679678943756], [1.3801405434349747, 43.8441468122942], [1.3766785713687941, 43.84361394564464], [1.373216599302614, 43.843081078995084], [1.3697546272364338, 43.84254821234553], [1.3662926551702528, 43.84201534569596], [1.3628306831040726, 43.84148247904641], [1.359368711037892, 43.84094961239685], [1.355906738971711, 43.8404167457473], [1.355906738971711, 43.8404167457473], [1.3551306278439053, 43.83695872616396], [1.3543545167161009, 43.83350070658062], [1.3535784055882956, 43.83004268699728], [1.3528022944604898, 43.82658466741394], [1.3520261833326854, 43.8231266478306], [1.3512500722048792, 43.81966862824726], [1.3504739610770735, 43.81621060866393], [1.3496978499492682, 43.81275258908059], [1.3489217388214638, 43.80929456949725], [1.348145627693658, 43.805836549913906], [1.348145627693658, 43.805836549913906], [1.341347687019486, 43.80521419273025], [1.334549746345314, 43.80459183554659], [1.327751805671141, 43.80396947836293], [1.320953864996968, 43.80334712117927], [1.314155924322797, 43.80272476399561], [1.3073579836486249, 43.802102406811954], [1.3005600429744515, 43.801480049628296], [1.2937621023002794, 43.80085769244463], [1.2869641616261074, 43.80023533526097], [1.2801662209519344, 43.79961297807731], [1.2801662209519344, 43.79961297807731], [1.2761945343005419, 43.801562572167434], [1.272222847649148, 43.80351216625755], [1.2682511609977554, 43.80546176034766], [1.2642794743463606, 43.80741135443778], [1.2603077876949693, 43.8093609485279], [1.2563361010435754, 43.81131054261801], [1.2523644143921815, 43.813260136708124], [1.248392727740789, 43.815209730798244], [1.2444210410893946, 43.81715932488836], [1.2404493544380029, 43.81910891897847], [1.2404493544380029, 43.81910891897847], [1.2363487424520447, 43.82070384891255], [1.2322481304660875, 43.82229877884663], [1.2281475184801298, 43.82389370878071], [1.2240469064941717, 43.82548863871478], [1.2199462945082153, 43.82708356864887], [1.2158456825222577, 43.828678498582946], [1.2117450705363004, 43.83027342851702], [1.2076444585503427, 43.831868358451096], [1.2035438465643855, 43.833463288385175], [1.1994432345784278, 43.835058218319254], [1.1994432345784278, 43.835058218319254], [1.1916204015873597, 43.834967608023696], [1.1837975685962916, 43.83487699772814], [1.1759747356052244, 43.83478638743258], [1.1681519026141554, 43.83469577713702], [1.1603290696230872, 43.834605166841456], [1.1525062366320187, 43.834514556545905], [1.144683403640951, 43.83442394625034], [1.1368605706498838, 43.83433333595478], [1.1290377376588143, 43.83424272565922], [1.1212149046677458, 43.83415211536366], [1.1212149046677458, 43.83415211536366], [1.1147991198056588, 43.83219992893082], [1.1083833349435732, 43.830247742497974], [1.101967550081485, 43.82829555606514], [1.095551765219399, 43.8263433696323], [1.089135980357312, 43.82439118319945], [1.0827201954952246, 43.822438996766614], [1.076304410633138, 43.820486810333776], [1.0698886257710511, 43.81853462390094], [1.0634728409089642, 43.81658243746809], [1.0570570560468777, 43.81463025103525], [1.0570570560468777, 43.81463025103525], [1.0543545936130392, 43.80975305869961], [1.051652131179202, 43.80487586636397], [1.0489496687453643, 43.79999867402832], [1.0462472063115262, 43.79512148169268], [1.0435447438776886, 43.79024428935704], [1.0408422814438505, 43.7853670970214], [1.0381398190100137, 43.78048990468576], [1.0354373565761752, 43.77561271235012], [1.032734894142337, 43.770735520014476], [1.0300324317085003, 43.765858327678835], [1.0300324317085003, 43.765858327678835], [1.0275956918348643, 43.76576906156018], [1.0251589519612287, 43.76567979544153], [1.0227222120875918, 43.76559052932288], [1.0202854722139563, 43.765501263204214], [1.017848732340321, 43.765411997085565], [1.0154119924666847, 43.765322730966915], [1.012975252593049, 43.76523346484826], [1.0105385127194129, 43.765144198729594], [1.0081017728457766, 43.765054932610944], [1.005665032972141, 43.76496566649229], [1.005665032972141, 43.76496566649229], [1.003419124475916, 43.763680029956774], [1.0011732159796911, 43.76239439342127], [0.998927307483465, 43.76110875688577], [0.996681398987241, 43.75982312035026], [0.9944354904910162, 43.758537483814756], [0.9921895819947901, 43.75725184727924], [0.989943673498566, 43.755966210743736], [0.98769776500234, 43.75468057420823], [0.985451856506115, 43.753394937672724], [0.9832059480098909, 43.75210930113722], [0.9832059480098909, 43.75210930113722], [0.9860884405958077, 43.75100122128377], [0.9889709331817262, 43.74989314143032], [0.9918534257676428, 43.748785061576875], [0.9947359183535616, 43.74767698172344], [0.9976184109394794, 43.74656890186999], [1.0005009035253978, 43.74546082201654], [1.0033833961113154, 43.7443527421631], [1.006265888697232, 43.74324466230965], [1.0091483812831505, 43.74213658245621], [1.0120308738690675, 43.74102850260277], [1.0120308738690675, 43.74102850260277], [1.0160070097033307, 43.74138412688544], [1.0199831455375947, 43.74173975116812], [1.0239592813718574, 43.7420953754508], [1.027935417206121, 43.74245099973349], [1.0319115530403833, 43.74280662401617], [1.0358876888746464, 43.74316224829884], [1.03986382470891, 43.74351787258153], [1.0438399605431727, 43.74387349686421], [1.0478160963774368, 43.74422912114689], [1.051792232211699, 43.74458474542957], [1.051792232211699, 43.74458474542957], [1.0530696783540954, 43.74201381829312], [1.0543471244964917, 43.73944289115666], [1.055624570638888, 43.73687196402022], [1.0569020167812844, 43.734301036883764], [1.0581794629236794, 43.7317301097473], [1.0594569090660766, 43.72915918261085], [1.0607343552084738, 43.726588255474404], [1.0620118013508688, 43.72401732833795], [1.0632892474932656, 43.72144640120149], [1.0645666936356606, 43.718875474065044], [1.0645666936356606, 43.718875474065044], [1.0636626759483483, 43.71559473855122], [1.062758658261035, 43.7123140030374], [1.061854640573721, 43.70903326752357], [1.0609506228864078, 43.70575253200975], [1.0600466051990947, 43.70247179649592], [1.0591425875117806, 43.6991910609821], [1.0582385698244665, 43.695910325468276], [1.0573345521371538, 43.69262958995445], [1.0564305344498401, 43.68934885444063], [1.055526516762526, 43.686068118926805], [1.055526516762526, 43.686068118926805], [1.0575735713727212, 43.683586041852415], [1.059620625982916, 43.68110396477803], [1.0616676805931111, 43.67862188770365], [1.0637147352033058, 43.67613981062926], [1.0657617898135006, 43.67365773355487], [1.0678088444236953, 43.67117565648048], [1.06985589903389, 43.6686935794061], [1.0719029536440856, 43.666211502331706], [1.0739500082542803, 43.66372942525732], [1.075997062864475, 43.66124734818293], [1.075997062864475, 43.66124734818293], [1.075604810781003, 43.65734607972766], [1.0752125586975305, 43.65344481127237], [1.074820306614058, 43.649543542817085], [1.0744280545305869, 43.6456422743618], [1.0740358024471144, 43.641741005906525], [1.073643550363642, 43.63783973745124], [1.0732512982801716, 43.63393846899595], [1.0728590461966991, 43.63003720054068], [1.0724667941132267, 43.6261359320854], [1.0720745420297546, 43.6222346636301], [1.0720745420297546, 43.6222346636301], [1.0698920593194279, 43.620992852333764], [1.0677095766091007, 43.61975104103741], [1.0655270938987753, 43.61850922974107], [1.0633446111884477, 43.61726741844472], [1.0611621284781205, 43.61602560714837], [1.0589796457677947, 43.61478379585203], [1.0567971630574684, 43.61354198455568], [1.0546146803471408, 43.612300173259335], [1.0524321976368136, 43.61105836196298], [1.0502497149264882, 43.609816550666636], [1.0502497149264882, 43.609816550666636], [1.0452442374868984, 43.60768740020584], [1.0402387600473073, 43.605558249745044], [1.0352332826077197, 43.60342909928424], [1.0302278051681286, 43.60129994882344], [1.0252223277285388, 43.59917079836264], [1.0202168502889495, 43.59704164790184], [1.01521137284936, 43.59491249744104], [1.0102058954097701, 43.59278334698024], [1.0052004179701801, 43.59065419651944], [1.0001949405305903, 43.58852504605864], [1.0001949405305903, 43.58852504605864], [0.9994217325463377, 43.58657530698644], [0.998648524562086, 43.58462556791424], [0.9978753165778342, 43.582675828842035], [0.9971021085935816, 43.58072608976983], [0.9963289006093281, 43.57877635069763], [0.9955556926250755, 43.57682661162543], [0.9947824846408237, 43.574876872553226], [0.9940092766565711, 43.57292713348102], [0.9932360686723181, 43.570977394408814], [0.9924628606880657, 43.56902765533662], [0.9924628606880657, 43.56902765533662], [0.9965636438938825, 43.56752143813389], [1.0006644270996983, 43.56601522093115], [1.004765210305515, 43.56450900372842], [1.0088659935113315, 43.563002786525686], [1.012966776717147, 43.56149656932295], [1.017067559922964, 43.55999035212021], [1.0211683431287808, 43.55848413491748], [1.0252691263345963, 43.55697791771475], [1.0293699095404132, 43.55547170051201], [1.03347069274623, 43.55396548330928], [1.03347069274623, 43.55396548330928], [1.0387199966543172, 43.54953362012063], [1.043969300562404, 43.54510175693198], [1.0492186044704908, 43.540669893743335], [1.0544679083785797, 43.53623803055469], [1.059717212286667, 43.531806167366035], [1.0649665161947541, 43.52737430417739], [1.0702158201028413, 43.52294244098874], [1.0754651240109285, 43.51851057780009], [1.080714427919018, 43.51407871461145], [1.0859637318271043, 43.5096468514228], [1.0859637318271043, 43.5096468514228], [1.0871019772329586, 43.50140144969253], [1.0882402226388126, 43.49315604796226], [1.0893784680446674, 43.48491064623199], [1.0905167134505223, 43.47666524450171], [1.091654958856377, 43.468419842771446], [1.092793204262232, 43.46017444104117], [1.0939314496680859, 43.45192903931089], [1.0950696950739407, 43.44368363758062], [1.0962079404797946, 43.43543823585035], [1.0973461858856495, 43.42719283412008], [1.0973461858856495, 43.42719283412008], [1.0986239664514703, 43.42479927775092], [1.0999017470172912, 43.42240572138176], [1.101179527583112, 43.42001216501259], [1.1024573081489333, 43.41761860864343], [1.103735088714756, 43.415225052274266], [1.1050128692805767, 43.41283149590511], [1.1062906498463976, 43.410437939535946], [1.1075684304122184, 43.40804438316678], [1.1088462109780393, 43.405650826797626], [1.110123991543861, 43.40325727042846], [1.110123991543861, 43.40325727042846], [1.1170474350555155, 43.40246102162289], [1.1239708785671696, 43.40166477281731], [1.1308943220788241, 43.40086852401175], [1.1378177655904795, 43.40007227520618], [1.144741209102135, 43.3992760264006], [1.1516646526137886, 43.39847977759502], [1.1585880961254431, 43.39768352878946], [1.1655115396370976, 43.396887279983886], [1.1724349831487513, 43.396091031178315], [1.1793584266604067, 43.39529478237273], [1.1793584266604067, 43.39529478237273], [1.1799943261873467, 43.39254637913868], [1.1806302257142858, 43.38979797590462], [1.1812661252412258, 43.38704957267056], [1.1819020247681649, 43.3843011694365], [1.1825379242951057, 43.38155276620244], [1.1831738238220457, 43.378804362968374], [1.1838097233489857, 43.376055959734316], [1.1844456228759248, 43.37330755650025], [1.185081522402864, 43.3705591532662], [1.185717421929804, 43.36781075003214], [1.185717421929804, 43.36781075003214], [1.1889164119341809, 43.36417635180856], [1.1921154019385583, 43.36054195358497], [1.1953143919429348, 43.35690755536139], [1.1985133819473108, 43.35327315713781], [1.2017123719516882, 43.34963875891422], [1.2049113619560647, 43.34600436069065], [1.2081103519604421, 43.34236996246707], [1.2113093419648182, 43.33873556424348], [1.2145083319691947, 43.335101166019896], [1.2177073219735721, 43.331466767796314], [1.2177073219735721, 43.331466767796314], [1.2223239777375037, 43.33146791994908], [1.2269406335014357, 43.33146907210184], [1.2315572892653663, 43.3314702242546], [1.2361739450292988, 43.33147137640736], [1.24079060079323, 43.33147252856012], [1.2454072565571614, 43.331473680712875], [1.2500239123210934, 43.331474832865645], [1.254640568085024, 43.3314759850184], [1.259257223848957, 43.33147713717116], [1.263873879612888, 43.33147828932392], [1.263873879612888, 43.33147828932392], [1.270930518722508, 43.33325331970071], [1.2779871578321265, 43.3350283500775], [1.2850437969417468, 43.33680338045429], [1.2921004360513662, 43.33857841083109], [1.2991570751609847, 43.34035344120787], [1.306213714270605, 43.34212847158466], [1.3132703533802244, 43.34390350196145], [1.3203269924898442, 43.34567853233824], [1.3273836315994627, 43.347453562715025], [1.334440270709082, 43.349228593091816], [1.334440270709082, 43.349228593091816], [1.339434288309564, 43.34621530350307], [1.344428305910046, 43.34320201391433], [1.3494223235105296, 43.340188724325586], [1.354416341111011, 43.337175434736835], [1.359410358711493, 43.33416214514809], [1.3644043763119749, 43.33114885555935], [1.3693983939124568, 43.328135565970605], [1.37439241151294, 43.325122276381855], [1.379386429113421, 43.32210898679311], [1.3843804467139038, 43.31909569720437], [1.3843804467139038, 43.31909569720437], [1.392454114371199, 43.316260492176966], [1.4005277820284951, 43.31342528714956], [1.4086014496857904, 43.310590082122154], [1.4166751173430856, 43.30775487709476], [1.4247487850003813, 43.304919672067356], [1.432822452657677, 43.30208446703996], [1.4408961203149726, 43.29924926201255], [1.4489697879722678, 43.29641405698515], [1.4570434556295644, 43.293578851957754], [1.46511712328686, 43.290743646930345], [1.46511712328686, 43.290743646930345], [1.4714063785201161, 43.29358243643147], [1.47769563375337, 43.29642122593258], [1.483984888986627, 43.29926001543372], [1.4902741442198821, 43.30209880493484], [1.4965633994531382, 43.30493759443596], [1.5028526546863938, 43.30777638393708], [1.50914190991965, 43.3106151734382], [1.515431165152905, 43.313453962939334], [1.5217204203861603, 43.31629275244045], [1.5280096756194168, 43.31913154194157], [1.5280096756194168, 43.31913154194157], [1.5323698496286036, 43.319132630085626], [1.536730023637792, 43.31913371822968], [1.5410901976469789, 43.31913480637374], [1.545450371656166, 43.31913589451779], [1.5498105456653537, 43.319136982661846], [1.5541707196745405, 43.319138070805906], [1.558530893683729, 43.31913915894996], [1.5628910676929153, 43.31914024709401], [1.5672512417021038, 43.319141335238065], [1.5716114157112906, 43.31914242338212], [1.5716114157112906, 43.31914242338212], [1.5758416296838331, 43.31825684444721], [1.5800718436563757, 43.317371265512314], [1.5843020576289182, 43.316485686577394], [1.5885322716014607, 43.315600107642496], [1.5927624855740032, 43.31471452870759], [1.5969926995465449, 43.31382894977267], [1.6012229135190874, 43.31294337083778], [1.605453127491629, 43.31205779190286], [1.6096833414641725, 43.31117221296795], [1.613913555436714, 43.310286634033055], [1.613913555436714, 43.310286634033055], [1.6175051476638909, 43.31073082034256], [1.6210967398910685, 43.31117500665208], [1.6246883321182453, 43.3116191929616], [1.628279924345422, 43.312063379271116], [1.6318715165725997, 43.31250756558064], [1.6354631087997755, 43.31295175189015], [1.6390547010269532, 43.31339593819967], [1.64264629325413, 43.313840124509184], [1.6462378854813076, 43.3142843108187], [1.6498294777084834, 43.31472849712822], [1.6498294777084834, 43.31472849712822], [1.654577446707541, 43.31632563535279], [1.6593254157065984, 43.31792277357735], [1.6640733847056564, 43.31951991180192], [1.6688213537047134, 43.32111705002649], [1.6735693227037713, 43.32271418825105], [1.6783172917028288, 43.32431132647562], [1.683065260701886, 43.325908464700184], [1.6878132297009434, 43.32750560292475], [1.6925611987000013, 43.32910274114932], [1.6973091676990593, 43.33069987937389], [1.6973091676990593, 43.33069987937389], [1.7042334668877648, 43.33034697545134], [1.7111577660764694, 43.329994071528795], [1.7180820652651754, 43.329641167606255], [1.725006364453881, 43.32928826368371], [1.7319306636425864, 43.32893535976117], [1.738854962831291, 43.32858245583862], [1.7457792620199966, 43.32822955191608], [1.752703561208703, 43.32787664799354], [1.7596278603974076, 43.327523744070994], [1.766552159586114, 43.32717084014845], [1.766552159586114, 43.32717084014845], [1.7674539526819921, 43.329298966475875], [1.7683557457778707, 43.3314270928033], [1.7692575388737493, 43.33355521913072], [1.7701593319696283, 43.33568334545815], [1.7710611250655073, 43.33781147178558], [1.7719629181613858, 43.339939598113006], [1.772864711257264, 43.342067724440426], [1.773766504353142, 43.34419585076786], [1.774668297449021, 43.346323977095274], [1.7755700905449001, 43.3484521034227], [1.7755700905449001, 43.3484521034227], [1.7825044780942592, 43.353330297202646], [1.789438865643619, 43.358208490982605], [1.7963732531929795, 43.36308668476254], [1.8033076407423398, 43.36796487854249], [1.8102420282916993, 43.37284307232244], [1.8171764158410602, 43.37772126610238], [1.8241108033904205, 43.38259945988233], [1.8310451909397814, 43.38747765366227], [1.8379795784891404, 43.39235584744222], [1.8449139660385012, 43.39723404122217], [1.8449139660385012, 43.39723404122217], [1.8505548296621361, 43.39634881433515], [1.8561956932857724, 43.39546358744813], [1.8618365569094064, 43.394578360561106], [1.8674774205330427, 43.39369313367408], [1.873118284156678, 43.39280790678705], [1.8787591477803134, 43.39192267990003], [1.8844000114039487, 43.391037453013006], [1.890040875027584, 43.39015222612598], [1.8956817386512204, 43.389266999238956], [1.9013226022748553, 43.388381772351934], [1.9013226022748553, 43.388381772351934], [1.9049162376099287, 43.39068788645769], [1.9085098729450025, 43.39299400056345], [1.9121035082800764, 43.395300114669205], [1.9156971436151498, 43.39760622877496], [1.9192907789502223, 43.39991234288072], [1.922884414285296, 43.402218456986475], [1.9264780496203708, 43.40452457109223], [1.9300716849554442, 43.40683068519799], [1.933665320290518, 43.409136799303745], [1.9372589556255906, 43.4114429134095], [1.9372589556255906, 43.4114429134095], [1.941233893659768, 43.411177931426735], [1.9452088316939462, 43.41091294944397], [1.9491837697281222, 43.410647967461195], [1.9531587077623005, 43.41038298547843], [1.957133645796477, 43.41011800349567], [1.961108583830654, 43.4098530215129], [1.9650835218648304, 43.40958803953012], [1.9690584598990077, 43.40932305754736], [1.9730333979331856, 43.40905807556459], [1.9770083359673625, 43.40879309358182], [1.9770083359673625, 43.40879309358182], [1.9757308977356982, 43.41136402072024], [1.9744534595040348, 43.41393494785868], [1.9731760212723697, 43.41650587499711], [1.9718985830407059, 43.41907680213553], [1.970621144809042, 43.42164772927395], [1.969343706577377, 43.424218656412386], [1.968066268345713, 43.42678958355081], [1.9667888301140484, 43.429360510689236], [1.9655113918823846, 43.43193143782766], [1.9642339536507207, 43.43450236496609], [1.9642339536507207, 43.43450236496609], [1.9618055987999306, 43.438757561479264], [1.95937724394914, 43.443012757992435], [1.9569488890983493, 43.44726795450561], [1.9545205342475604, 43.4515231510188], [1.9520921793967685, 43.45577834753196], [1.9496638245459788, 43.46003354404514], [1.947235469695189, 43.46428874055832], [1.9448071148443988, 43.46854393707149], [1.9423787599936073, 43.47279913358466], [1.9399504051428185, 43.47705433009784], [1.9399504051428185, 43.47705433009784], [1.9355933217713566, 43.477851219375445], [1.931236238399895, 43.47864810865306], [1.926879155028434, 43.47944499793066], [1.922522071656973, 43.48024188720827], [1.9181649882855116, 43.48103877648588], [1.9138079049140493, 43.4818356657635], [1.9094508215425883, 43.4826325550411], [1.9050937381711273, 43.483429444318716], [1.9007366547996662, 43.48422633359632], [1.8963795714282052, 43.485023222873934], [1.8963795714282052, 43.485023222873934], [1.892406686976726, 43.4863522106986], [1.8884338025252463, 43.48768119852326], [1.8844609180737666, 43.48901018634794], [1.8804880336222878, 43.490339174172604], [1.876515149170808, 43.49166816199727], [1.8725422647193302, 43.49299714982194], [1.8685693802678496, 43.4943261376466], [1.8645964958163703, 43.49565512547127], [1.860623611364891, 43.496984113295944], [1.8566507269134118, 43.49831310112061], [1.8566507269134118, 43.49831310112061], [1.8551176545877621, 43.50132725443796], [1.853584582262111, 43.50434140775531], [1.85205150993646, 43.507355561072664], [1.85051843761081, 43.510369714390016], [1.8489853652851598, 43.513383867707375], [1.8474522929595092, 43.51639802102473], [1.8459192206338582, 43.51941217434207], [1.8443861483082071, 43.52242632765942], [1.842853075982557, 43.52544048097677], [1.8413200036569068, 43.52845463429412], [1.8413200036569068, 43.52845463429412], [1.8318368920593366, 43.531910093541065], [1.8223537804617655, 43.53536555278801], [1.812870668864194, 43.53882101203496], [1.8033875572666238, 43.542276471281895], [1.7939044456690532, 43.54573193052884], [1.784421334071483, 43.549187389775774], [1.7749382224739123, 43.55264284902272], [1.765455110876342, 43.556098308269654], [1.7559719992787706, 43.559553767516604], [1.7464888876812004, 43.56300922676354], [1.7464888876812004, 43.56300922676354], [1.7468806244161201, 43.56664348193003], [1.74727236115104, 43.570277737096525], [1.747664097885961, 43.573911992263014], [1.7480558346208799, 43.5775462474295], [1.7484475713557996, 43.581180502596006], [1.7488393080907199, 43.58481475776249], [1.7492310448256392, 43.588449012928976], [1.7496227815605603, 43.59208326809547], [1.75001451829548, 43.59571752326196], [1.7504062550303998, 43.59935177842845], [1.7504062550303998, 43.59935177842845], [1.7460460810212122, 43.599350690284396], [1.7416859070120245, 43.59934960214034], [1.7373257330028373, 43.59934851399629], [1.7329655589936497, 43.59934742585223], [1.728605384984462, 43.59934633770818], [1.7242452109752757, 43.599345249564124], [1.7198850369660872, 43.59934416142007], [1.7155248629569004, 43.59934307327601], [1.711164688947712, 43.59934198513196], [1.7068045149385256, 43.599340896987904], [1.7068045149385256, 43.599340896987904], [1.706551113346706, 43.6009367323552], [1.7062977117548868, 43.6025325677225], [1.7060443101630676, 43.604128403089796], [1.705790908571248, 43.60572423845709], [1.7055375069794287, 43.6073200738244], [1.705284105387609, 43.608915909191694], [1.7050307037957908, 43.61051174455899], [1.7047773022039716, 43.61210757992629], [1.704523900612152, 43.613703415293585], [1.7042704990203328, 43.61529925066088], [1.7042704990203328, 43.61529925066088], [1.7088909196155027, 43.617251043728174], [1.7135113402106739, 43.61920283679548], [1.7181317608058437, 43.62115462986277], [1.7227521814010145, 43.62310642293007], [1.7273726019961853, 43.62505821599736], [1.7319930225913551, 43.62701000906466], [1.7366134431865268, 43.628961802131954], [1.7412338637816962, 43.63091359519925], [1.745854284376867, 43.63286538826654], [1.7504747049720377, 43.63481718133384], [1.7504747049720377, 43.63481718133384], [1.7507342668897068, 43.63641314471855], [1.7509938288073759, 43.63800910810326], [1.751253390725045, 43.63960507148797], [1.7515129526427131, 43.64120103487268], [1.7517725145603822, 43.64279699825739], [1.7520320764780526, 43.6443929616421], [1.7522916383957217, 43.64598892502681], [1.7525512003133907, 43.64758488841152], [1.7528107622310598, 43.64918085179624], [1.7530703241487289, 43.65077681518095], [1.7530703241487289, 43.65077681518095], [1.7480709992298187, 43.6518395181636], [1.7430716743109067, 43.65290222114626], [1.7380723493919947, 43.653964924128914], [1.7330730244730845, 43.655027627111565], [1.7280736995541743, 43.65609033009423], [1.7230743746352624, 43.65715303307688], [1.7180750497163508, 43.658215736059546], [1.7130757247974406, 43.6592784390422], [1.70807639987853, 43.660341142024855], [1.703077074959619, 43.66140384500752], [1.703077074959619, 43.66140384500752], [1.702567020604318, 43.662911013021606], [1.7020569662490166, 43.66441818103571], [1.701546911893717, 43.66592534904979], [1.7010368575384165, 43.66743251706389], [1.700526803183116, 43.66893968507798], [1.7000167488278142, 43.67044685309207], [1.6995066944725141, 43.67195402110617], [1.6989966401172136, 43.67346118912027], [1.6984865857619131, 43.674968357134354], [1.6979765314066122, 43.67647552514845], [1.6979765314066122, 43.67647552514845], [1.7006731755320739, 43.67833812542108], [1.7033698196575373, 43.68020072569371], [1.7060664637829985, 43.68206332596634], [1.7087631079084602, 43.68392592623897], [1.7114597520339223, 43.6857885265116], [1.7141563961593853, 43.68765112678424], [1.7168530402848465, 43.689513727056855], [1.7195496844103082, 43.69137632732949], [1.7222463285357716, 43.69323892760212], [1.7249429726612329, 43.695101527874755], [1.7249429726612329, 43.695101527874755], [1.7192382905607824, 43.698944667087474], [1.713533608460334, 43.70278780630021], [1.7078289263598845, 43.70663094551293], [1.702124244259434, 43.71047408472566], [1.6964195621589861, 43.71431722393838], [1.6907148800585352, 43.71816036315111], [1.6850101979580856, 43.72200350236384], [1.6793055158576355, 43.72584664157656], [1.6736008337571873, 43.72968978078929], [1.6678961516567377, 43.73353292000201]]]}}]}