{"type": "FeatureCollection", "features": [{"type": "Feature", "properties": {"diocese": "Lavaur", "province": "XVI_Toulouse", "source": "107_Lavaur.txt"}, "geometry": {"type": "Polygon", "coordinates": [[[1.6678961516567377, 43.73353292000201], [1.6736008337571873, 43.72968978078929], [1.6793055158576355, 43.72584664157656], [1.6850101979580856, 43.72200350236384], [1.6907148800585352, 43.71816036315111], [1.6964195621589861, 43.71431722393838], [1.702124244259434, 43.71047408472566], [1.7078289263598845, 43.70663094551293], [1.713533608460334, 43.70278780630021], [1.7192382905607824, 43.698944667087474], [1.7249429726612329, 43.695101527874755], [1.7249429726612329, 43.695101527874755], [1.7222463285357716, 43.69323892760212], [1.7195496844103082, 43.69137632732949], [1.7168530402848465, 43.689513727056855], [1.7141563961593853, 43.68765112678424], [1.7114597520339223, 43.6857885265116], [1.7087631079084602, 43.68392592623897], [1.7060664637829985, 43.68206332596634], [1.7033698196575373, 43.68020072569371], [1.7006731755320739, 43.67833812542108], [1.6979765314066122, 43.67647552514845], [1.6979765314066122, 43.67647552514845], [1.6984865857619131, 43.674968357134354], [1.6989966401172136, 43.67346118912027], [1.6995066944725141, 43.67195402110617], [1.7000167488278142, 43.67044685309207], [1.700526803183116, 43.66893968507798], [1.7010368575384165, 43.66743251706389], [1.701546911893717, 43.66592534904979], [1.7020569662490166, 43.66441818103571], [1.702567020604318, 43.662911013021606], [1.703077074959619, 43.66140384500752], [1.703077074959619, 43.66140384500752], [1.70807639987853, 43.660341142024855], [1.7130757247974406, 43.6592784390422], [1.7180750497163508, 43.658215736059546], [1.7230743746352624, 43.65715303307688], [1.7280736995541743, 43.65609033009423], [1.7330730244730845, 43.655027627111565], [1.7380723493919947, 43.653964924128914], [1.7430716743109067, 43.65290222114626], [1.7480709992298187, 43.6518395181636], [1.7530703241487289, 43.65077681518095], [1.7530703241487289, 43.65077681518095], [1.7528107622310598, 43.64918085179624], [1.7525512003133907, 43.64758488841152], [1.7522916383957217, 43.64598892502681], [1.7520320764780526, 43.6443929616421], [1.7517725145603822, 43.64279699825739], [1.7515129526427131, 43.64120103487268], [1.751253390725045, 43.63960507148797], [1.7509938288073759, 43.63800910810326], [1.7507342668897068, 43.63641314471855], [1.7504747049720377, 43.63481718133384], [1.7504747049720377, 43.63481718133384], [1.745854284376867, 43.63286538826654], [1.7412338637816962, 43.63091359519925], [1.7366134431865268, 43.628961802131954], [1.7319930225913551, 43.62701000906466], [1.7273726019961853, 43.62505821599736], [1.7227521814010145, 43.62310642293007], [1.7181317608058437, 43.62115462986277], [1.7135113402106739, 43.61920283679548], [1.7088909196155027, 43.617251043728174], [1.7042704990203328, 43.61529925066088], [1.7042704990203328, 43.61529925066088], [1.704523900612152, 43.613703415293585], [1.7047773022039716, 43.61210757992629], [1.7050307037957908, 43.61051174455899], [1.705284105387609, 43.608915909191694], [1.7055375069794287, 43.6073200738244], [1.705790908571248, 43.60572423845709], [1.7060443101630676, 43.604128403089796], [1.7062977117548868, 43.6025325677225], [1.706551113346706, 43.6009367323552], [1.7068045149385256, 43.599340896987904], [1.7068045149385256, 43.599340896987904], [1.711164688947712, 43.59934198513196], [1.7155248629569004, 43.59934307327601], [1.7198850369660872, 43.59934416142007], [1.7242452109752757, 43.599345249564124], [1.728605384984462, 43.59934633770818], [1.7329655589936497, 43.59934742585223], [1.7373257330028373, 43.59934851399629], [1.7416859070120245, 43.59934960214034], [1.7460460810212122, 43.599350690284396], [1.7504062550303998, 43.59935177842845], [1.7504062550303998, 43.59935177842845], [1.75001451829548, 43.59571752326196], [1.7496227815605603, 43.59208326809547], [1.7492310448256392, 43.588449012928976], [1.7488393080907199, 43.58481475776249], [1.7484475713557996, 43.581180502596006], [1.7480558346208799, 43.5775462474295], [1.747664097885961, 43.573911992263014], [1.74727236115104, 43.570277737096525], [1.7468806244161201, 43.56664348193003], [1.7464888876812004, 43.56300922676354], [1.7464888876812004, 43.56300922676354], [1.7559719992787706, 43.559553767516604], [1.765455110876342, 43.556098308269654], [1.7749382224739123, 43.55264284902272], [1.784421334071483, 43.549187389775774], [1.7939044456690532, 43.54573193052884], [1.8033875572666238, 43.542276471281895], [1.812870668864194, 43.53882101203496], [1.8223537804617655, 43.53536555278801], [1.8318368920593366, 43.531910093541065], [1.8413200036569068, 43.52845463429412], [1.8413200036569068, 43.52845463429412], [1.842853075982557, 43.52544048097677], [1.8443861483082071, 43.52242632765942], [1.8459192206338582, 43.51941217434207], [1.8474522929595092, 43.51639802102473], [1.8489853652851598, 43.513383867707375], [1.85051843761081, 43.510369714390016], [1.85205150993646, 43.507355561072664], [1.853584582262111, 43.50434140775531], [1.8551176545877621, 43.50132725443796], [1.8566507269134118, 43.49831310112061], [1.8566507269134118, 43.49831310112061], [1.860623611364891, 43.496984113295944], [1.8645964958163703, 43.49565512547127], [1.8685693802678496, 43.4943261376466], [1.8725422647193302, 43.49299714982194], [1.876515149170808, 43.49166816199727], [1.8804880336222878, 43.490339174172604], [1.8844609180737666, 43.48901018634794], [1.8884338025252463, 43.48768119852326], [1.892406686976726, 43.4863522106986], [1.8963795714282052, 43.485023222873934], [1.8963795714282052, 43.485023222873934], [1.9007366547996662, 43.48422633359632], [1.9050937381711273, 43.483429444318716], [1.9094508215425883, 43.4826325550411], [1.9138079049140493, 43.4818356657635], [1.9181649882855116, 43.48103877648588], [1.922522071656973, 43.48024188720827], [1.926879155028434, 43.47944499793066], [1.931236238399895, 43.47864810865306], [1.9355933217713566, 43.477851219375445], [1.9399504051428185, 43.47705433009784], [1.9399504051428185, 43.47705433009784], [1.9423787599936073, 43.47279913358466], [1.9448071148443988, 43.46854393707149], [1.947235469695189, 43.46428874055832], [1.9496638245459788, 43.46003354404514], [1.9520921793967685, 43.45577834753196], [1.9545205342475604, 43.4515231510188], [1.9569488890983493, 43.44726795450561], [1.95937724394914, 43.443012757992435], [1.9618055987999306, 43.438757561479264], [1.9642339536507207, 43.43450236496609], [1.9642339536507207, 43.43450236496609], [1.9655113918823846, 43.43193143782766], [1.9667888301140484, 43.429360510689236], [1.968066268345713, 43.42678958355081], [1.969343706577377, 43.424218656412386], [1.970621144809042, 43.42164772927395], [1.9718985830407059, 43.41907680213553], [1.9731760212723697, 43.41650587499711], [1.9744534595040348, 43.41393494785868], [1.9757308977356982, 43.41136402072024], [1.9770083359673625, 43.40879309358182], [1.9770083359673625, 43.40879309358182], [1.9790581286174467, 43.40772965450102], [1.9811079212675313, 43.406666215420216], [1.9831577139176177, 43.40560277633942], [1.9852075065677015, 43.404539337258605], [1.9872572992177862, 43.40347589817781], [1.9893070918678704, 43.402412459097], [1.9913568845179555, 43.401349020016205], [1.99340667716804, 43.4002855809354], [1.9954564698181243, 43.399222141854594], [1.9975062624682094, 43.39815870277379], [1.9975062624682094, 43.39815870277379], [1.9998144192358773, 43.398070620812256], [2.0021225760035444, 43.39798253885072], [2.0044307327712128, 43.39789445688917], [2.006738889538881, 43.397806374927626], [2.009047046306548, 43.3977182929661], [2.0113552030742157, 43.39763021100455], [2.013663359841884, 43.39754212904301], [2.015971516609553, 43.39745404708147], [2.018279673377219, 43.397365965119924], [2.0205878301448883, 43.39727788315839], [2.0205878301448883, 43.39727788315839], [2.0236608117740578, 43.39479606211882], [2.0267337934032312, 43.39231424107926], [2.029806775032402, 43.389832420039696], [2.0328797566615737, 43.387350599000136], [2.0359527382907454, 43.38486877796058], [2.039025719919918, 43.38238695692101], [2.042098701549089, 43.379905135881444], [2.0451716831782605, 43.377423314841884], [2.0482446648074326, 43.37494149380232], [2.0513176464366043, 43.37245967276276], [2.0513176464366043, 43.37245967276276], [2.058421694390973, 43.36995966035165], [2.065525742345343, 43.36745964794052], [2.072629790299711, 43.3649596355294], [2.0797338382540795, 43.362459623118276], [2.0868378862084493, 43.359959610707165], [2.093941934162818, 43.35745959829605], [2.101045982117188, 43.35495958588492], [2.1081500300715557, 43.3524595734738], [2.1152540780259264, 43.34995956106268], [2.1223581259802944, 43.34745954865157], [2.1223581259802944, 43.34745954865157], [2.1239947966988812, 43.350093170665616], [2.125631467417468, 43.35272679267967], [2.1272681381360528, 43.35536041469373], [2.128904808854639, 43.35799403670778], [2.130541479573226, 43.36062765872183], [2.132178150291811, 43.363261280735884], [2.1338148210103993, 43.36589490274993], [2.135451491728984, 43.36852852476399], [2.137088162447571, 43.37116214677805], [2.1387248331661577, 43.37379576879209], [2.1387248331661577, 43.37379576879209], [2.140906092339606, 43.3768054891214], [2.1430873515130577, 43.379815209450705], [2.145268610686508, 43.382824929780014], [2.1474498698599582, 43.38583465010932], [2.1496311290334082, 43.38884437043862], [2.1518123882068587, 43.39185409076793], [2.1539936473803083, 43.39486381109724], [2.1561749065537588, 43.39787353142654], [2.158356165727209, 43.40088325175584], [2.160537424900659, 43.40389297208515], [2.160537424900659, 43.40389297208515], [2.164167143502368, 43.40489695481962], [2.167796862104079, 43.40590093755408], [2.171426580705788, 43.40690492028854], [2.175056299307497, 43.407908903023], [2.178686017909208, 43.408912885757466], [2.182315736510917, 43.40991686849193], [2.185945455112626, 43.410920851226386], [2.1895751737143354, 43.41192483396085], [2.193204892316046, 43.41292881669532], [2.1968346109177532, 43.41393279942978], [2.1968346109177532, 43.41393279942978], [2.2002827919844, 43.41531275395772], [2.203730973051044, 43.41669270848567], [2.2071791541176884, 43.418072663013604], [2.2106273351843346, 43.419452617541545], [2.2140755162509773, 43.42083257206948], [2.217523697317623, 43.42221252659742], [2.2209718783842676, 43.42359248112536], [2.2244200594509143, 43.42497243565331], [2.2278682405175587, 43.42635239018125], [2.2313164215842027, 43.42773234470919], [2.2313164215842027, 43.42773234470919], [2.2371169937943973, 43.42635469834048], [2.24291756600459, 43.42497705197177], [2.2487181382147825, 43.423599405603056], [2.2545187104249753, 43.422221759234354], [2.2603192826351695, 43.420844112865645], [2.2661198548453623, 43.419466466496935], [2.2719204270555546, 43.418088820128226], [2.2777209992657492, 43.41671117375952], [2.283521571475942, 43.41533352739081], [2.2893221436861344, 43.4139558810221], [2.2893221436861344, 43.4139558810221], [2.2916750984617598, 43.4114493229546], [2.2940280532373825, 43.40894276488711], [2.2963810080130087, 43.40643620681961], [2.298733962788632, 43.403929648752126], [2.3010869175642528, 43.40142309068463], [2.3034398723398795, 43.39891653261713], [2.305792827115504, 43.396409974549634], [2.308145781891127, 43.39390341648214], [2.3104987366667498, 43.39139685841465], [2.312851691442373, 43.38889030034716], [2.312851691442373, 43.38889030034716], [2.3155737167710355, 43.389516945587026], [2.3182957420996946, 43.390143590826895], [2.321017767428356, 43.390770236066764], [2.3237397927570163, 43.39139688130663], [2.3264618180856775, 43.39202352654649], [2.3291838434143366, 43.39265017178636], [2.3319058687429957, 43.393276817026226], [2.33462789407166, 43.393903462266096], [2.3373499194003196, 43.394530107505965], [2.340071944728978, 43.395156752745834], [2.340071944728978, 43.395156752745834], [2.3473235885163684, 43.39390553679109], [2.3545752323037568, 43.39265432083634], [2.3618268760911483, 43.3914031048816], [2.3690785198785385, 43.39015188892685], [2.3763301636659264, 43.388900672972106], [2.3835818074533166, 43.38764945701736], [2.3908334512407063, 43.38639824106262], [2.3980850950280965, 43.38514702510787], [2.4053367388154863, 43.383895809153124], [2.4125883826028747, 43.382644593198386], [2.4125883826028747, 43.382644593198386], [2.4169452217696406, 43.38490178310284], [2.421302060936406, 43.38715897300731], [2.425658900103173, 43.389416162911765], [2.4300157392699386, 43.39167335281623], [2.434372578436706, 43.39393054272069], [2.43872941760347, 43.39618773262515], [2.443086256770237, 43.39844492252961], [2.4474430959370026, 43.40070211243407], [2.4517999351037703, 43.40295930233853], [2.4561567742705357, 43.40521649224299], [2.4561567742705357, 43.40521649224299], [2.4545320753258033, 43.409605450593524], [2.452907376381069, 43.41399440894406], [2.4512826774363368, 43.4183833672946], [2.449657978491602, 43.42277232564514], [2.44803327954687, 43.42716128399567], [2.4464085806021374, 43.43155024234621], [2.4447838816574055, 43.435939200696744], [2.4431591827126726, 43.44032815904728], [2.441534483767937, 43.44471711739782], [2.4399097848232043, 43.44910607574836], [2.4399097848232043, 43.44910607574836], [2.4346548987950936, 43.45060883271117], [2.4294000127669833, 43.452111589674], [2.4241451267388703, 43.453614346636805], [2.418890240710758, 43.455117103599626], [2.413635354682646, 43.45661986056245], [2.4083804686545354, 43.45812261752527], [2.4031255826264233, 43.459625374488084], [2.3978706965983103, 43.461128131450906], [2.392615810570202, 43.46263088841372], [2.3873609245420897, 43.46413364537654], [2.3873609245420897, 43.46413364537654], [2.386274521775184, 43.46563853651216], [2.3851881190082787, 43.46714342764778], [2.3841017162413753, 43.468648318783394], [2.38301531347447, 43.470153209919005], [2.3819289107075643, 43.47165810105462], [2.380842507940657, 43.47316299219024], [2.3797561051737532, 43.474667883325864], [2.37866970240685, 43.47617277446148], [2.3775832996399444, 43.47767766559709], [2.3764968968730393, 43.47918255673272], [2.3764968968730393, 43.47918255673272], [2.3737758879474966, 43.47830377519008], [2.3710548790219517, 43.47742499364746], [2.3683338700964094, 43.47654621210483], [2.3656128611708644, 43.47566743056221], [2.3628918522453217, 43.47478864901958], [2.360170843319779, 43.473909867476955], [2.3574498343942345, 43.47303108593433], [2.3547288254686918, 43.472152304391706], [2.3520078165431486, 43.471273522849074], [2.349286807617606, 43.47039474130645], [2.349286807617606, 43.47039474130645], [2.346385392305955, 43.470518991626875], [2.343483976994302, 43.470643241947286], [2.3405825616826528, 43.470767492267704], [2.337681146371002, 43.47089174258812], [2.3347797310593488, 43.47101599290854], [2.331878315747702, 43.47114024322896], [2.3289769004360505, 43.47126449354937], [2.326075485124398, 43.47138874386979], [2.3231740698127483, 43.471512994190206], [2.3202726545010974, 43.47163724451062], [2.3202726545010974, 43.47163724451062], [2.3124829062778223, 43.4766506302039], [2.304693158054544, 43.481664015897174], [2.296903409831269, 43.486677401590455], [2.2891136616079937, 43.49169078728373], [2.2813239133847176, 43.49670417297702], [2.2735341651614425, 43.50171755867029], [2.265744416938166, 43.50673094436357], [2.257954668714891, 43.51174433005685], [2.250164920491614, 43.516757715750124], [2.242375172268339, 43.5217711014434], [2.242375172268339, 43.5217711014434], [2.238028979978868, 43.52503029013533], [2.2336827876893968, 43.52828947882724], [2.229336595399927, 43.53154866751916], [2.224990403110456, 43.53480785621108], [2.220644210820987, 43.538067044903], [2.2162980185315155, 43.54132623359492], [2.211951826242044, 43.544585422286836], [2.207605633952575, 43.54784461097876], [2.203259441663104, 43.55110379967069], [2.1989132493736325, 43.554362988362605], [2.1989132493736325, 43.554362988362605], [2.195289631518139, 43.55574117802154], [2.191666013662645, 43.55711936768048], [2.1880423958071513, 43.558497557339415], [2.184418777951657, 43.55987574699836], [2.1807951600961633, 43.561253936657295], [2.177171542240669, 43.56263212631623], [2.173547924385175, 43.56401031597517], [2.169924306529681, 43.56538850563411], [2.1663006886741876, 43.566766695293055], [2.1626770708186918, 43.56814488495199], [2.1626770708186918, 43.56814488495199], [2.1601373066454013, 43.56751719133008], [2.157597542472109, 43.56688949770818], [2.155057778298818, 43.56626180408628], [2.152518014125526, 43.56563411046438], [2.1499782499522353, 43.56500641684248], [2.147438485778943, 43.56437872322057], [2.1448987216056508, 43.56375102959867], [2.1423589574323594, 43.56312333597677], [2.1398191932590693, 43.562495642354875], [2.1372794290857766, 43.561867948732974], [2.1372794290857766, 43.561867948732974], [2.1341979297077645, 43.56312124458168], [2.1311164303297536, 43.56437454043039], [2.1280349309517432, 43.5656278362791], [2.124953431573731, 43.56688113212781], [2.1218719321957185, 43.568134427976524], [2.1187904328177063, 43.56938772382524], [2.1157089334396955, 43.57064101967395], [2.112627434061683, 43.571894315522655], [2.109545934683673, 43.57314761137137], [2.1064644353056603, 43.57440090722008], [2.1064644353056603, 43.57440090722008], [2.0990312839382743, 43.575277154646145], [2.0915981325708866, 43.576153402072215], [2.084164981203501, 43.57702964949828], [2.0767318298361133, 43.57790589692436], [2.0692986784687277, 43.57878214435042], [2.0618655271013404, 43.579658391776476], [2.054432375733954, 43.58053463920255], [2.046999224366567, 43.58141088662862], [2.0395660729991794, 43.58228713405469], [2.032132921631794, 43.58316338148075], [2.032132921631794, 43.58316338148075], [2.030143561893062, 43.58592107297711], [2.028154202154331, 43.58867876447346], [2.026164842415598, 43.5914364559698], [2.024175482676866, 43.594194147466155], [2.0221861229381357, 43.596951838962504], [2.020196763199403, 43.59970953045886], [2.018207403460672, 43.60246722195521], [2.0162180437219397, 43.605224913451565], [2.0142286839832084, 43.607982604947914], [2.0122393242444767, 43.61074029644426], [2.0122393242444767, 43.61074029644426], [2.010426868579104, 43.61149187831747], [2.008614412913731, 43.61224346019068], [2.006801957248359, 43.612995042063886], [2.0049895015829864, 43.613746623937104], [2.003177045917614, 43.614498205810314], [2.0013645902522406, 43.61524978768352], [1.9995521345868688, 43.616001369556734], [1.9977396789214965, 43.61675295142994], [1.995927223256123, 43.61750453330315], [1.9941147675907511, 43.618256115176365], [1.9941147675907511, 43.618256115176365], [1.990305218257395, 43.617754172939534], [1.9864956689240372, 43.61725223070272], [1.9826861195906806, 43.616750288465894], [1.9788765702573228, 43.61624834622908], [1.9750670209239662, 43.615746403992254], [1.9712574715906106, 43.615244461755445], [1.967447922257254, 43.614742519518614], [1.963638372923897, 43.6142405772818], [1.9598288235905397, 43.61373863504498], [1.9560192742571827, 43.61323669280816], [1.9560192742571827, 43.61323669280816], [1.9531203031902837, 43.61461506331311], [1.9502213321233852, 43.61599343381807], [1.9473223610564871, 43.61737180432302], [1.9444233899895877, 43.61875017482798], [1.9415244189226888, 43.62012854533293], [1.9386254478557907, 43.62150691583788], [1.9357264767888918, 43.622885286342836], [1.9328275057219924, 43.62426365684779], [1.9299285346550934, 43.62564202735274], [1.9270295635881953, 43.6270203978577], [1.9270295635881953, 43.6270203978577], [1.923769441623596, 43.62940170042491], [1.9205093196589962, 43.631783002992115], [1.9172491976943955, 43.63416430555933], [1.9139890757297957, 43.63654560812653], [1.910728953765196, 43.638926910693755], [1.9074688318005952, 43.64130821326096], [1.9042087098359954, 43.643689515828164], [1.900948587871396, 43.64607081839538], [1.8976884659067963, 43.648452120962595], [1.8944283439421965, 43.650833423529804], [1.8944283439421965, 43.650833423529804], [1.8904387442914015, 43.65070745345762], [1.886449144640606, 43.65058148338543], [1.8824595449898127, 43.65045551331325], [1.8784699453390163, 43.65032954324106], [1.8744803456882209, 43.65020357316888], [1.8704907460374258, 43.65007760309669], [1.8665011463866326, 43.64995163302451], [1.8625115467358362, 43.64982566295232], [1.8585219470850411, 43.649699692880134], [1.8545323474342466, 43.64957372280795], [1.8545323474342466, 43.64957372280795], [1.8525417774392374, 43.65170435421499], [1.8505512074442279, 43.65383498562204], [1.8485606374492178, 43.65596561702909], [1.8465700674542078, 43.65809624843613], [1.8445794974591978, 43.66022687984317], [1.8425889274641887, 43.662357511250214], [1.8405983574691787, 43.66448814265726], [1.8386077874741686, 43.666618774064304], [1.83661721747916, 43.66874940547135], [1.83462664748415, 43.670880036878394], [1.83462664748415, 43.670880036878394], [1.829367495969326, 43.6710047926598], [1.8241083444545017, 43.67112954844119], [1.8188491929396782, 43.67125430422261], [1.8135900414248534, 43.67137906000401], [1.8083308899100299, 43.671503815785414], [1.803071738395205, 43.67162857156682], [1.7978125868803807, 43.67175332734822], [1.7925534353655568, 43.67187808312963], [1.7872942838507333, 43.67200283891103], [1.7820351323359076, 43.672127594692434], [1.7820351323359076, 43.672127594692434], [1.7818591039655742, 43.67538667554734], [1.78168307559524, 43.67864575640225], [1.7815070472249053, 43.68190483725715], [1.7813310188545706, 43.68516391811207], [1.7811549904842363, 43.68842299896697], [1.780978962113903, 43.69168207982188], [1.7808029337435682, 43.694941160676784], [1.7806269053732335, 43.69820024153169], [1.7804508770028993, 43.7014593223866], [1.7802748486325646, 43.70471840324151], [1.7802748486325646, 43.70471840324151], [1.7741153644227952, 43.70747614789131], [1.767955880213027, 43.710233892541126], [1.7617963960032594, 43.712991637190946], [1.755636911793491, 43.71574938184076], [1.7494774275837224, 43.71850712649057], [1.7433179433739525, 43.72126487114038], [1.7371584591641844, 43.72402261579018], [1.730998974954416, 43.72678036044], [1.7248394907446474, 43.729538105089816], [1.7186800065348788, 43.732295849739636], [1.7186800065348788, 43.732295849739636], [1.713601621047065, 43.73241955676586], [1.70852323555925, 43.73254326379211], [1.703444850071436, 43.73266697081835], [1.6983664645836227, 43.73279067784458], [1.693288079095808, 43.732914384870824], [1.6882096936079933, 43.733038091897065], [1.68313130812018, 43.7331617989233], [1.6780529226323666, 43.73328550594954], [1.672974537144551, 43.733409212975786], [1.6678961516567377, 43.73353292000201]]]}}]}