{
    "type": "FeatureCollection",
    "features": [
        {
            "type": "Feature",
            "properties": {
                "diocese": "Almerien",
                "province": "Granaten",
                "date": 1592
            },
            "geometry": {
                "coordinates": [
                    [
                        [
                            [
                                -3.1128919849999765,
                                36.750723641000036
                            ],
                            [
                                -2.9798575529999307,
                                36.738851529000044
                            ],
                            [
                                -2.923625999999956,
                                36.75151500000003
                            ],
                            [
                                -2.848880999999949,
                                36.69523700000008
                            ],
                            [
                                -2.814387999999951,
                                36.70603300000004
                            ],
                            [
                                -2.7713249999999334,
                                36.68074400000007
                            ],
                            [
                                -2.700545503999933,
                                36.682783891000035
                            ],
                            [
                                -2.620171999999968,
                                36.72660700000006
                            ],
                            [
                                -2.5619463539999283,
                                36.815969334000044
                            ],
                            [
                                -2.4819509999999805,
                                36.83590600000008
                            ],
                            [
                                -2.4250721869999556,
                                36.81108121600004
                            ],
                            [
                                -2.3597585719999756,
                                36.84160444000002
                            ],
                            [
                                -2.289645046999965,
                                36.81807578200005
                            ],
                            [
                                -2.19321199999996,
                                36.72120200000007
                            ],
                            [
                                -2.1242941769999675,
                                36.73190203300004
                            ],
                            [
                                -2.1060379999999554,
                                36.76271300000007
                            ],
                            [
                                -2.0608793239999272,
                                36.778007838000065
                            ],
                            [
                                -2.05981799999995,
                                36.80988900000005
                            ],
                            [
                                -2.0032058839999536,
                                36.83651633200002
                            ],
                            [
                                -1.9919459999999278,
                                36.89386700000006
                            ],
                            [
                                -1.9670948089999456,
                                36.89900170900006
                            ],
                            [
                                -1.9401416459999725,
                                36.936513046000066
                            ],
                            [
                                -1.9036411889999272,
                                36.93721153000006
                            ],
                            [
                                -1.9002903239999682,
                                36.988206741000056
                            ],
                            [
                                -1.8495992339999245,
                                37.06832347300008
                            ],
                            [
                                -1.8030559999999696,
                                37.22106900000006
                            ],
                            [
                                -1.7075129999999492,
                                37.30424900000003
                            ],
                            [
                                -1.6769859999999428,
                                37.35287100000006
                            ],
                            [
                                -1.630657729999939,
                                37.375082331000044
                            ],
                            [
                                -1.7369899999999348,
                                37.442676000000056
                            ],
                            [
                                -1.8116699999999355,
                                37.45159900000004
                            ],
                            [
                                -1.8088589999999272,
                                37.43351700000006
                            ],
                            [
                                -1.845173999999929,
                                37.45486900000002
                            ],
                            [
                                -1.9767209999999407,
                                37.61876800000004
                            ],
                            [
                                -2.0117269999999507,
                                37.67228800000004
                            ],
                            [
                                -2.0055711044024154,
                                37.69516001515383
                            ],
                            [
                                -1.99574599999994,
                                37.728087000000066
                            ],
                            [
                                -2.008748999999966,
                                37.77499200000005
                            ],
                            [
                                -1.9955559999999652,
                                37.840277000000064
                            ],
                            [
                                -1.9744129999999702,
                                37.86851100000007
                            ],
                            [
                                -1.9945331063791358,
                                37.88043489426233
                            ],
                            [
                                -2.021594435577441,
                                37.86855689045839
                            ],
                            [
                                -2.070326727999941,
                                37.88452989100005
                            ],
                            [
                                -2.084474999999941,
                                37.87236600000005
                            ],
                            [
                                -2.1231049999999527,
                                37.90049100000004
                            ],
                            [
                                -2.171949091999977,
                                37.88877507800003
                            ],
                            [
                                -2.2122680149254537,
                                37.912978263115406
                            ],
                            [
                                -2.2652819999999565,
                                37.88098800000006
                            ],
                            [
                                -2.288415999999927,
                                37.88517700000005
                            ],
                            [
                                -2.301672999999937,
                                37.808322000000025
                            ],
                            [
                                -2.2766849999999295,
                                37.776257000000044
                            ],
                            [
                                -2.323242999999934,
                                37.693911000000064
                            ],
                            [
                                -2.3097685399999364,
                                37.63208505300002
                            ],
                            [
                                -2.3594719999999256,
                                37.62130500000007
                            ],
                            [
                                -2.3911765999999375,
                                37.63252300000004
                            ],
                            [
                                -2.367801999999926,
                                37.59161500000005
                            ],
                            [
                                -2.3742059999999583,
                                37.55738900000005
                            ],
                            [
                                -2.355635999999947,
                                37.54703200000005
                            ],
                            [
                                -2.358417999999972,
                                37.52233300000006
                            ],
                            [
                                -2.456229999999948,
                                37.509466000000025
                            ],
                            [
                                -2.4574279999999367,
                                37.49086800000003
                            ],
                            [
                                -2.514059999999972,
                                37.47956800000003
                            ],
                            [
                                -2.6355269999999678,
                                37.394250000000056
                            ],
                            [
                                -2.6371959999999603,
                                37.34337200000004
                            ],
                            [
                                -2.6545039999999744,
                                37.340648000000044
                            ],
                            [
                                -2.6655529999999317,
                                37.285371000000055
                            ],
                            [
                                -2.6600159999999278,
                                37.212036000000055
                            ],
                            [
                                -2.7329239999999686,
                                37.237363000000066
                            ],
                            [
                                -2.7589329999999563,
                                37.22675500000002
                            ],
                            [
                                -2.7789039999999545,
                                37.26269700000006
                            ],
                            [
                                -2.8512983958615488,
                                37.27601943911759
                            ],
                            [
                                -2.8805818338022373,
                                37.18728825799636
                            ],
                            [
                                -2.928529969984327,
                                37.152540750544546
                            ],
                            [
                                -3.0213831609999597,
                                37.14712269000005
                            ],
                            [
                                -3.001774582999929,
                                37.12438508700005
                            ],
                            [
                                -2.9910789949999526,
                                37.05186338700001
                            ],
                            [
                                -2.9643400259999453,
                                37.01913482300005
                            ],
                            [
                                -2.9589922319999573,
                                36.98069634000007
                            ],
                            [
                                -3.0445569339999565,
                                36.92656482000008
                            ],
                            [
                                -3.001774582999929,
                                36.86811662300005
                            ],
                            [
                                -3.0962522749999266,
                                36.81533227500005
                            ],
                            [
                                -3.1128919849999765,
                                36.750723641000036
                            ]
                        ]
                    ]
                ],
                "type": "MultiPolygon"
            }
        }
    ]
}