{
    "type": "FeatureCollection",
    "name": "Caprien",
    "features": [
        {
            "type": "Feature",
            "properties": {
                "diocese": "Caprien",
                "province": "Amalphitan",
                "date": 1592
            },
            "geometry": {
                "type": "Polygon",
                "coordinates": [
                    [
                        [
                            14.143756407264799,
                            40.529736666123505
                        ],
                        [
                            14.143756407264799,
                            40.504010539756514
                        ],
                        [
                            14.209322585896452,
                            40.507226845391607
                        ],
                        [
                            14.22412785203908,
                            40.531344221247409
                        ],
                        [
                            14.143756407264799,
                            40.529736666123505
                        ]
                    ]
                ]
            }
        }
    ]
}