{
    "type": "FeatureCollection",
    "name": "Litteren",
    "features": [
        {
            "type": "Feature",
            "properties": {
                "diocese": "Litteren",
                "province": "Amalphitan",
                "date": 1592
            },
            "geometry": {
                "type": "MultiPolygon",
                "coordinates": [
                    [
                        [
                            [
                                14.5175369,
                                40.7063261
                            ],
                            [
                                14.5179423,
                                40.70616
                            ],
                            [
                                14.5183278,
                                40.7062137
                            ],
                            [
                                14.51915,
                                40.7062191
                            ],
                            [
                                14.519486,
                                40.706065
                            ],
                            [
                                14.5195499,
                                40.7060296
                            ],
                            [
                                14.5200899,
                                40.7058649
                            ],
                            [
                                14.5213798,
                                40.7053057
                            ],
                            [
                                14.5235396,
                                40.7051671
                            ],
                            [
                                14.524817,
                                40.7049334
                            ],
                            [
                                14.5262325,
                                40.7050251
                            ],
                            [
                                14.5273677,
                                40.7053222
                            ],
                            [
                                14.5280238,
                                40.7054238
                            ],
                            [
                                14.5280068,
                                40.7050802
                            ],
                            [
                                14.528357,
                                40.7047386
                            ],
                            [
                                14.5286069,
                                40.7044416
                            ],
                            [
                                14.5288175,
                                40.7040263
                            ],
                            [
                                14.5289308,
                                40.7035951
                            ],
                            [
                                14.5291418,
                                40.7027289
                            ],
                            [
                                14.5291642,
                                40.702453
                            ],
                            [
                                14.5293592,
                                40.7021733
                            ],
                            [
                                14.5296447,
                                40.7015611
                            ],
                            [
                                14.5299754,
                                40.7012918
                            ],
                            [
                                14.5302187,
                                40.7008634
                            ],
                            [
                                14.5304547,
                                40.7004207
                            ],
                            [
                                14.5304491,
                                40.6996824
                            ],
                            [
                                14.5302921,
                                40.6991106
                            ],
                            [
                                14.5301858,
                                40.6987694
                            ],
                            [
                                14.5301674,
                                40.698669
                            ],
                            [
                                14.5301303,
                                40.6982909
                            ],
                            [
                                14.5315544,
                                40.6979989
                            ],
                            [
                                14.5319146,
                                40.6979556
                            ],
                            [
                                14.5322792,
                                40.6979715
                            ],
                            [
                                14.5329373,
                                40.6979843
                            ],
                            [
                                14.5332685,
                                40.698174
                            ],
                            [
                                14.533474,
                                40.6983571
                            ],
                            [
                                14.5335206,
                                40.6983987
                            ],
                            [
                                14.5336726,
                                40.6985737
                            ],
                            [
                                14.5336197,
                                40.6987346
                            ],
                            [
                                14.5337093,
                                40.6988603
                            ],
                            [
                                14.5339536,
                                40.6988189
                            ],
                            [
                                14.5341805,
                                40.6988914
                            ],
                            [
                                14.5343486,
                                40.698870499999984
                            ],
                            [
                                14.5345583,
                                40.6989228
                            ],
                            [
                                14.5350588,
                                40.6986849
                            ],
                            [
                                14.5356475,
                                40.6988129
                            ],
                            [
                                14.5360841,
                                40.6987864
                            ],
                            [
                                14.5365697,
                                40.6997704
                            ],
                            [
                                14.5368573,
                                40.699794
                            ],
                            [
                                14.5375132,
                                40.699837100000011
                            ],
                            [
                                14.5382572,
                                40.6994317
                            ],
                            [
                                14.5389654,
                                40.6997309
                            ],
                            [
                                14.5408102,
                                40.7005863
                            ],
                            [
                                14.5409362,
                                40.7004903
                            ],
                            [
                                14.5405572,
                                40.7000382
                            ],
                            [
                                14.5403922,
                                40.6996702
                            ],
                            [
                                14.540447,
                                40.6993518
                            ],
                            [
                                14.5404824,
                                40.6976969
                            ],
                            [
                                14.5408971,
                                40.6977186
                            ],
                            [
                                14.5411614,
                                40.6976772
                            ],
                            [
                                14.5412471,
                                40.6976129
                            ],
                            [
                                14.5423306,
                                40.69769
                            ],
                            [
                                14.542399,
                                40.6976687
                            ],
                            [
                                14.5429704,
                                40.6974912
                            ],
                            [
                                14.5472693,
                                40.6971089
                            ],
                            [
                                14.5513442,
                                40.6943347
                            ],
                            [
                                14.5530045,
                                40.693479
                            ],
                            [
                                14.5561186,
                                40.6922279
                            ],
                            [
                                14.5590625,
                                40.6916262
                            ],
                            [
                                14.561182,
                                40.6900585
                            ],
                            [
                                14.5616745,
                                40.689929
                            ],
                            [
                                14.5621952,
                                40.6895753
                            ],
                            [
                                14.5618226,
                                40.6890061
                            ],
                            [
                                14.5636599,
                                40.6885617
                            ],
                            [
                                14.5686586,
                                40.6876312
                            ],
                            [
                                14.5694051,
                                40.6874923
                            ],
                            [
                                14.5767638,
                                40.6861225
                            ],
                            [
                                14.5772967,
                                40.6860337
                            ],
                            [
                                14.5788846,
                                40.6857902
                            ],
                            [
                                14.5798192,
                                40.6858484
                            ],
                            [
                                14.5806571,
                                40.6861544
                            ],
                            [
                                14.5804931,
                                40.6855898
                            ],
                            [
                                14.5807601,
                                40.6857989
                            ],
                            [
                                14.5815316,
                                40.6855409
                            ],
                            [
                                14.5823602,
                                40.6853477
                            ],
                            [
                                14.5836359,
                                40.6857089
                            ],
                            [
                                14.5849107,
                                40.6862457
                            ],
                            [
                                14.5854766,
                                40.6867539
                            ],
                            [
                                14.5861835,
                                40.6872867
                            ],
                            [
                                14.5873866,
                                40.6878314
                            ],
                            [
                                14.5883896,
                                40.6884218
                            ],
                            [
                                14.5889184,
                                40.6889544
                            ],
                            [
                                14.5893073,
                                40.689318099999987
                            ],
                            [
                                14.589648,
                                40.6896526
                            ],
                            [
                                14.5899766,
                                40.6900012
                            ],
                            [
                                14.5902588,
                                40.6903294
                            ],
                            [
                                14.5902813,
                                40.6905624
                            ],
                            [
                                14.5903142,
                                40.6910604
                            ],
                            [
                                14.5904983,
                                40.6919877
                            ],
                            [
                                14.5906223,
                                40.6927783
                            ],
                            [
                                14.5906183,
                                40.6934267
                            ],
                            [
                                14.5906152,
                                40.694016499999989
                            ],
                            [
                                14.5893093,
                                40.694566
                            ],
                            [
                                14.5887409,
                                40.6945666
                            ],
                            [
                                14.5882447,
                                40.6945727
                            ],
                            [
                                14.5877939,
                                40.6946801
                            ],
                            [
                                14.5874372,
                                40.6949495
                            ],
                            [
                                14.5868902,
                                40.6953812
                            ],
                            [
                                14.5861892,
                                40.6958203
                            ],
                            [
                                14.58544,
                                40.6962573
                            ],
                            [
                                14.585214,
                                40.69649780000001
                            ],
                            [
                                14.5847368,
                                40.6970926
                            ],
                            [
                                14.5841658,
                                40.6975659
                            ],
                            [
                                14.5833954,
                                40.6978824
                            ],
                            [
                                14.5822325,
                                40.6982089
                            ],
                            [
                                14.581438,
                                40.698423
                            ],
                            [
                                14.5806777,
                                40.6988424
                            ],
                            [
                                14.5798339,
                                40.699527
                            ],
                            [
                                14.5791576,
                                40.6998208
                            ],
                            [
                                14.5786114,
                                40.7001426
                            ],
                            [
                                14.5783249,
                                40.7003113
                            ],
                            [
                                14.5775038,
                                40.7010038
                            ],
                            [
                                14.577259,
                                40.701201
                            ],
                            [
                                14.5770044,
                                40.7014061
                            ],
                            [
                                14.5769559,
                                40.7016588
                            ],
                            [
                                14.5768711,
                                40.7021012
                            ],
                            [
                                14.5769814,
                                40.7031626
                            ],
                            [
                                14.5770349,
                                40.7041728
                            ],
                            [
                                14.5771553,
                                40.7046666
                            ],
                            [
                                14.577299,
                                40.7052538
                            ],
                            [
                                14.5777932,
                                40.70577
                            ],
                            [
                                14.5784992,
                                40.7065549
                            ],
                            [
                                14.5790116,
                                40.7078354
                            ],
                            [
                                14.5793016,
                                40.7087036
                            ],
                            [
                                14.5798881,
                                40.7095799
                            ],
                            [
                                14.5792706,
                                40.7100194
                            ],
                            [
                                14.578761,
                                40.7100621
                            ],
                            [
                                14.5780259,
                                40.7102103
                            ],
                            [
                                14.5778045,
                                40.7102576
                            ],
                            [
                                14.5771543,
                                40.71039660000001
                            ],
                            [
                                14.5767093,
                                40.7105217
                            ],
                            [
                                14.5754434,
                                40.7103895
                            ],
                            [
                                14.5743888,
                                40.7100824
                            ],
                            [
                                14.5731467,
                                40.7105907
                            ],
                            [
                                14.5724826,
                                40.7106769
                            ],
                            [
                                14.5716391,
                                40.7105355
                            ],
                            [
                                14.5714016,
                                40.7112784
                            ],
                            [
                                14.5710535,
                                40.7119884
                            ],
                            [
                                14.5711538,
                                40.712739
                            ],
                            [
                                14.5711664,
                                40.7128337
                            ],
                            [
                                14.570869,
                                40.7135167
                            ],
                            [
                                14.57077,
                                40.7137441
                            ],
                            [
                                14.5703725,
                                40.7146771
                            ],
                            [
                                14.5705428,
                                40.7160147
                            ],
                            [
                                14.5708782,
                                40.7171867
                            ],
                            [
                                14.5704821,
                                40.7180476
                            ],
                            [
                                14.5697803,
                                40.7186487
                            ],
                            [
                                14.5691487,
                                40.7191969
                            ],
                            [
                                14.5686361,
                                40.7197258
                            ],
                            [
                                14.5679783,
                                40.7210608
                            ],
                            [
                                14.5674439,
                                40.7222859
                            ],
                            [
                                14.5669249,
                                40.7224302
                            ],
                            [
                                14.5663014,
                                40.7224188
                            ],
                            [
                                14.5660188,
                                40.7224136
                            ],
                            [
                                14.5651257,
                                40.7223983
                            ],
                            [
                                14.5602735,
                                40.7205935
                            ],
                            [
                                14.5600558,
                                40.7205125
                            ],
                            [
                                14.5546876,
                                40.7185157
                            ],
                            [
                                14.553907,
                                40.718186
                            ],
                            [
                                14.5531999,
                                40.717799
                            ],
                            [
                                14.5519035,
                                40.7176149
                            ],
                            [
                                14.5508094,
                                40.7173587
                            ],
                            [
                                14.5503075,
                                40.7172375
                            ],
                            [
                                14.5499201,
                                40.7170629
                            ],
                            [
                                14.5494715,
                                40.7167712
                            ],
                            [
                                14.5488969,
                                40.7163779
                            ],
                            [
                                14.5488098,
                                40.7162939
                            ],
                            [
                                14.5481117,
                                40.7157264
                            ],
                            [
                                14.5473618,
                                40.7159929
                            ],
                            [
                                14.5463542,
                                40.7166541
                            ],
                            [
                                14.5450721,
                                40.7185043
                            ],
                            [
                                14.543957,
                                40.7179145
                            ],
                            [
                                14.5426211,
                                40.7173526
                            ],
                            [
                                14.5418756,
                                40.7165971
                            ],
                            [
                                14.5417362,
                                40.7162461
                            ],
                            [
                                14.5417243,
                                40.716216
                            ],
                            [
                                14.5415537,
                                40.7157135
                            ],
                            [
                                14.5415132,
                                40.7151043
                            ],
                            [
                                14.5411151,
                                40.714682
                            ],
                            [
                                14.5394469,
                                40.7134776
                            ],
                            [
                                14.5371591,
                                40.7125914
                            ],
                            [
                                14.5369691,
                                40.7124035
                            ],
                            [
                                14.5369384,
                                40.7120988
                            ],
                            [
                                14.5378527,
                                40.7104656
                            ],
                            [
                                14.5346514,
                                40.7102759
                            ],
                            [
                                14.5344124,
                                40.7102617
                            ],
                            [
                                14.5325012,
                                40.7095159
                            ],
                            [
                                14.5305672,
                                40.7089157
                            ],
                            [
                                14.5296548,
                                40.7080252
                            ],
                            [
                                14.5297723,
                                40.7072424
                            ],
                            [
                                14.5299113,
                                40.7055282
                            ],
                            [
                                14.5282711,
                                40.7065625
                            ],
                            [
                                14.5272456,
                                40.7072905
                            ],
                            [
                                14.5258871,
                                40.7079051
                            ],
                            [
                                14.5261916,
                                40.7087737
                            ],
                            [
                                14.5249253,
                                40.7107805
                            ],
                            [
                                14.5247342,
                                40.7107297
                            ],
                            [
                                14.5245029,
                                40.7105753
                            ],
                            [
                                14.523819,
                                40.7100606
                            ],
                            [
                                14.5234039,
                                40.7097374
                            ],
                            [
                                14.5231067,
                                40.7094966
                            ],
                            [
                                14.5228395,
                                40.7093135
                            ],
                            [
                                14.5220348,
                                40.7088849
                            ],
                            [
                                14.5214669,
                                40.7086589
                            ],
                            [
                                14.5198091,
                                40.7080011
                            ],
                            [
                                14.5188574,
                                40.7076354
                            ],
                            [
                                14.518674,
                                40.7075569
                            ],
                            [
                                14.5184414,
                                40.7074767
                            ],
                            [
                                14.5181554,
                                40.7073609
                            ],
                            [
                                14.518174,
                                40.707322
                            ],
                            [
                                14.5181855,
                                40.7071686
                            ],
                            [
                                14.5181704,
                                40.7071245
                            ],
                            [
                                14.5180899,
                                40.7069981
                            ],
                            [
                                14.5178947,
                                40.706692
                            ],
                            [
                                14.5175369,
                                40.7063261
                            ]
                        ]
                    ]
                ]
            }
        }
    ]
}