{
    "type": "FeatureCollection",
    "name": "Ravellen et Scalen_1602",
    "features": [
        {
            "type": "Feature",
            "properties": {
                "diocese": "Ravellen et Scalen",
                "province": "Amalphitan",
                "date": 1602
            },
            "geometry": {
                "type": "MultiPolygon",
                "coordinates": [
                    [
                        [
                            [
                                14.6066328,
                                40.6385948
                            ],
                            [
                                14.6064832,
                                40.6387432
                            ],
                            [
                                14.6064124,
                                40.638847
                            ],
                            [
                                14.6061771,
                                40.6389748
                            ],
                            [
                                14.6060943,
                                40.638946
                            ],
                            [
                                14.6060642,
                                40.6387967
                            ],
                            [
                                14.6059796,
                                40.6387038
                            ],
                            [
                                14.6057111,
                                40.6385778
                            ],
                            [
                                14.6057075,
                                40.638406
                            ],
                            [
                                14.6059176,
                                40.6379309
                            ],
                            [
                                14.6060056,
                                40.6378817
                            ],
                            [
                                14.6059363,
                                40.6378163
                            ],
                            [
                                14.6059863,
                                40.6377535
                            ],
                            [
                                14.6059996,
                                40.6377215
                            ],
                            [
                                14.6060245,
                                40.6376865
                            ],
                            [
                                14.6060099,
                                40.6376645
                            ],
                            [
                                14.6059868,
                                40.6376714
                            ],
                            [
                                14.6059172,
                                40.6375108
                            ],
                            [
                                14.6057424,
                                40.6374701
                            ],
                            [
                                14.6054817,
                                40.6373372
                            ],
                            [
                                14.6054273,
                                40.6372562
                            ],
                            [
                                14.6054072,
                                40.6371665
                            ],
                            [
                                14.6054469,
                                40.6370283
                            ],
                            [
                                14.6055871,
                                40.6367029
                            ],
                            [
                                14.6057726,
                                40.6365738
                            ],
                            [
                                14.605837,
                                40.636555799999989
                            ],
                            [
                                14.6058492,
                                40.6365481
                            ],
                            [
                                14.6058722,
                                40.6365243
                            ],
                            [
                                14.605898,
                                40.6364547
                            ],
                            [
                                14.6057595,
                                40.6364006
                            ],
                            [
                                14.6057315,
                                40.636304
                            ],
                            [
                                14.6057571,
                                40.6362792
                            ],
                            [
                                14.6057194,
                                40.6362711
                            ],
                            [
                                14.605691,
                                40.6361826
                            ],
                            [
                                14.6056821,
                                40.636151
                            ],
                            [
                                14.605737,
                                40.6361197
                            ],
                            [
                                14.6057377,
                                40.6360557
                            ],
                            [
                                14.6056942,
                                40.6360188
                            ],
                            [
                                14.6056941,
                                40.6359913
                            ],
                            [
                                14.6057042,
                                40.6359788
                            ],
                            [
                                14.6057598,
                                40.6359573
                            ],
                            [
                                14.6057959,
                                40.6359414
                            ],
                            [
                                14.6058874,
                                40.6359252
                            ],
                            [
                                14.6059544,
                                40.6359369
                            ],
                            [
                                14.6060365,
                                40.6359371
                            ],
                            [
                                14.6060708,
                                40.6359351
                            ],
                            [
                                14.6061188,
                                40.6359242
                            ],
                            [
                                14.6061485,
                                40.6359091
                            ],
                            [
                                14.6062192,
                                40.6358574
                            ],
                            [
                                14.6062538,
                                40.6358351
                            ],
                            [
                                14.6063024,
                                40.6358077
                            ],
                            [
                                14.6063312,
                                40.6357546
                            ],
                            [
                                14.6062636,
                                40.6357525
                            ],
                            [
                                14.6061755,
                                40.6357504
                            ],
                            [
                                14.6061878,
                                40.6357867
                            ],
                            [
                                14.6061943,
                                40.6358226
                            ],
                            [
                                14.6061631,
                                40.6358612
                            ],
                            [
                                14.606132,
                                40.6358823
                            ],
                            [
                                14.6060901,
                                40.6358993
                            ],
                            [
                                14.6060513,
                                40.6359114
                            ],
                            [
                                14.6060174,
                                40.6359137
                            ],
                            [
                                14.6059876,
                                40.6359137
                            ],
                            [
                                14.6059576,
                                40.6359133
                            ],
                            [
                                14.6059155,
                                40.6359095
                            ],
                            [
                                14.6058811,
                                40.6359039
                            ],
                            [
                                14.6058484,
                                40.6358864
                            ],
                            [
                                14.6058166,
                                40.6358511
                            ],
                            [
                                14.6057657,
                                40.6358373
                            ],
                            [
                                14.6055147,
                                40.6357839
                            ],
                            [
                                14.6054867,
                                40.6358519
                            ],
                            [
                                14.605517,
                                40.6358598
                            ],
                            [
                                14.6055051,
                                40.6359009
                            ],
                            [
                                14.605549,
                                40.6359295
                            ],
                            [
                                14.6055238,
                                40.6359639
                            ],
                            [
                                14.6054648,
                                40.6359627
                            ],
                            [
                                14.6054406,
                                40.6359966
                            ],
                            [
                                14.6054104,
                                40.6359924
                            ],
                            [
                                14.605384,
                                40.636024
                            ],
                            [
                                14.6054165,
                                40.6360411
                            ],
                            [
                                14.6054135,
                                40.6360619
                            ],
                            [
                                14.6054825,
                                40.6361089
                            ],
                            [
                                14.6054614,
                                40.6361791
                            ],
                            [
                                14.6052985,
                                40.6362977
                            ],
                            [
                                14.6052708,
                                40.636283
                            ],
                            [
                                14.6051812,
                                40.6364006
                            ],
                            [
                                14.6052057,
                                40.6364465
                            ],
                            [
                                14.605141,
                                40.6365034
                            ],
                            [
                                14.6051242,
                                40.6365599
                            ],
                            [
                                14.6051422,
                                40.6365817
                            ],
                            [
                                14.6051022,
                                40.6367166
                            ],
                            [
                                14.6050418,
                                40.636757
                            ],
                            [
                                14.6049543,
                                40.6367222
                            ],
                            [
                                14.6048876,
                                40.6366829
                            ],
                            [
                                14.6048115,
                                40.6367287
                            ],
                            [
                                14.6047552,
                                40.6367442
                            ],
                            [
                                14.6046819,
                                40.6369306
                            ],
                            [
                                14.6045498,
                                40.6369192
                            ],
                            [
                                14.6044186,
                                40.6369401
                            ],
                            [
                                14.604262,
                                40.636949
                            ],
                            [
                                14.6043175,
                                40.6370519
                            ],
                            [
                                14.6043769,
                                40.6370895
                            ],
                            [
                                14.6037616,
                                40.6376284
                            ],
                            [
                                14.6037033,
                                40.6375543
                            ],
                            [
                                14.60352,
                                40.6377134
                            ],
                            [
                                14.6035332,
                                40.6377699
                            ],
                            [
                                14.6034242,
                                40.6379255
                            ],
                            [
                                14.6032805,
                                40.6379231
                            ],
                            [
                                14.6030751,
                                40.6379669
                            ],
                            [
                                14.6029549,
                                40.6380378
                            ],
                            [
                                14.6029157,
                                40.6380852
                            ],
                            [
                                14.6028593,
                                40.6380797
                            ],
                            [
                                14.6027277,
                                40.6380505
                            ],
                            [
                                14.6025973,
                                40.6381382
                            ],
                            [
                                14.6024911,
                                40.6383039
                            ],
                            [
                                14.6024653,
                                40.6383806
                            ],
                            [
                                14.6024329,
                                40.6383802
                            ],
                            [
                                14.6024335,
                                40.6384482
                            ],
                            [
                                14.602398,
                                40.6385295
                            ],
                            [
                                14.6023046,
                                40.6386957
                            ],
                            [
                                14.6027016,
                                40.6388941
                            ],
                            [
                                14.6027342,
                                40.6389196
                            ],
                            [
                                14.6027646,
                                40.6389939
                            ],
                            [
                                14.6028062,
                                40.6389876
                            ],
                            [
                                14.6028659,
                                40.6390017
                            ],
                            [
                                14.6029155,
                                40.6390732
                            ],
                            [
                                14.6029478,
                                40.63912
                            ],
                            [
                                14.6031044,
                                40.6392195
                            ],
                            [
                                14.603104,
                                40.6392457
                            ],
                            [
                                14.6031755,
                                40.63929
                            ],
                            [
                                14.602814,
                                40.6396492
                            ],
                            [
                                14.6026568,
                                40.6397407
                            ],
                            [
                                14.6025632,
                                40.6398009
                            ],
                            [
                                14.6024487,
                                40.6400003
                            ],
                            [
                                14.602143,
                                40.6400798
                            ],
                            [
                                14.6018913,
                                40.64023310000001
                            ],
                            [
                                14.6017915,
                                40.6402615
                            ],
                            [
                                14.6017421,
                                40.6403333
                            ],
                            [
                                14.6017812,
                                40.6404162
                            ],
                            [
                                14.6018015,
                                40.640559
                            ],
                            [
                                14.601829,
                                40.6406145
                            ],
                            [
                                14.6019223,
                                40.6407346
                            ],
                            [
                                14.601688,
                                40.6408366
                            ],
                            [
                                14.6015685,
                                40.6408868
                            ],
                            [
                                14.6015526,
                                40.6409513
                            ],
                            [
                                14.6013466,
                                40.6409624
                            ],
                            [
                                14.6013133,
                                40.6411704
                            ],
                            [
                                14.6013562,
                                40.6412645
                            ],
                            [
                                14.6008479,
                                40.6412645
                            ],
                            [
                                14.6005174,
                                40.6411578
                            ],
                            [
                                14.6005831,
                                40.6412779
                            ],
                            [
                                14.6005579,
                                40.6413673
                            ],
                            [
                                14.6006259,
                                40.6415206
                            ],
                            [
                                14.6007622,
                                40.6418445
                            ],
                            [
                                14.6005501,
                                40.641951299999988
                            ],
                            [
                                14.6004448,
                                40.641951299999988
                            ],
                            [
                                14.60035,
                                40.6420458
                            ],
                            [
                                14.6003128,
                                40.6423208
                            ],
                            [
                                14.5999874,
                                40.6426528
                            ],
                            [
                                14.5998695,
                                40.6426284
                            ],
                            [
                                14.5998503,
                                40.6427422
                            ],
                            [
                                14.599837,
                                40.6431794
                            ],
                            [
                                14.5995024,
                                40.6429892
                            ],
                            [
                                14.599166,
                                40.6429058
                            ],
                            [
                                14.5988502,
                                40.6429138
                            ],
                            [
                                14.5981538,
                                40.6430455
                            ],
                            [
                                14.5977326,
                                40.6430244
                            ],
                            [
                                14.5976359,
                                40.6428322
                            ],
                            [
                                14.5973481,
                                40.6429505
                            ],
                            [
                                14.5969313,
                                40.6430315
                            ],
                            [
                                14.5967055,
                                40.6431046
                            ],
                            [
                                14.5965367,
                                40.6432959
                            ],
                            [
                                14.5965225,
                                40.6436224
                            ],
                            [
                                14.5964508,
                                40.6439638
                            ],
                            [
                                14.5960201,
                                40.6441012
                            ],
                            [
                                14.5957974,
                                40.6442697
                            ],
                            [
                                14.5956135,
                                40.64426730000001
                            ],
                            [
                                14.5955013,
                                40.6441167
                            ],
                            [
                                14.5955213,
                                40.6438351
                            ],
                            [
                                14.5948339,
                                40.6436492
                            ],
                            [
                                14.5946006,
                                40.6434821
                            ],
                            [
                                14.594395,
                                40.6433847
                            ],
                            [
                                14.5935036,
                                40.6432606
                            ],
                            [
                                14.5925238,
                                40.6431597
                            ],
                            [
                                14.5918236,
                                40.6431367
                            ],
                            [
                                14.5915291,
                                40.643127
                            ],
                            [
                                14.5910184,
                                40.6434849
                            ],
                            [
                                14.590318,
                                40.643951
                            ],
                            [
                                14.5896515,
                                40.644645
                            ],
                            [
                                14.5899051,
                                40.6456276
                            ],
                            [
                                14.5901968,
                                40.646527
                            ],
                            [
                                14.5895173,
                                40.6471722
                            ],
                            [
                                14.5882144,
                                40.647492
                            ],
                            [
                                14.5872327,
                                40.6475982
                            ],
                            [
                                14.5864853,
                                40.647873
                            ],
                            [
                                14.5854324,
                                40.6478881
                            ],
                            [
                                14.5842618,
                                40.6480754
                            ],
                            [
                                14.5828635,
                                40.6483503
                            ],
                            [
                                14.5819048,
                                40.6483608
                            ],
                            [
                                14.5806758,
                                40.6482133
                            ],
                            [
                                14.5798708,
                                40.6483649
                            ],
                            [
                                14.5793053,
                                40.64812220000001
                            ],
                            [
                                14.5787395,
                                40.6478841
                            ],
                            [
                                14.5778768,
                                40.6475928
                            ],
                            [
                                14.5771569,
                                40.6476232
                            ],
                            [
                                14.5761309,
                                40.6468627
                            ],
                            [
                                14.5757297,
                                40.6467201
                            ],
                            [
                                14.5752335,
                                40.646492
                            ],
                            [
                                14.5746095,
                                40.6462027
                            ],
                            [
                                14.5741375,
                                40.6459645
                            ],
                            [
                                14.5733127,
                                40.6456129
                            ],
                            [
                                14.5728871,
                                40.645692
                            ],
                            [
                                14.5725293,
                                40.6460063
                            ],
                            [
                                14.5723202,
                                40.6465355
                            ],
                            [
                                14.5722748,
                                40.6469333
                            ],
                            [
                                14.5723794,
                                40.6472208
                            ],
                            [
                                14.5724966,
                                40.6476578
                            ],
                            [
                                14.5723409,
                                40.6478261
                            ],
                            [
                                14.5725032,
                                40.6484211
                            ],
                            [
                                14.5721688,
                                40.6487164
                            ],
                            [
                                14.5716703,
                                40.6489745
                            ],
                            [
                                14.5713731,
                                40.6492815
                            ],
                            [
                                14.5710279,
                                40.6497484
                            ],
                            [
                                14.5708297,
                                40.6499606
                            ],
                            [
                                14.5706539,
                                40.650149
                            ],
                            [
                                14.5705261,
                                40.6502858
                            ],
                            [
                                14.5700993,
                                40.6505179
                            ],
                            [
                                14.5693424,
                                40.650478
                            ],
                            [
                                14.5684891,
                                40.6506364
                            ],
                            [
                                14.5679989,
                                40.6513667
                            ],
                            [
                                14.567286,
                                40.6519864
                            ],
                            [
                                14.5665652,
                                40.6519447
                            ],
                            [
                                14.565844,
                                40.6518896
                            ],
                            [
                                14.5653792,
                                40.6523577
                            ],
                            [
                                14.5648888,
                                40.6531826
                            ],
                            [
                                14.5643419,
                                40.6536681
                            ],
                            [
                                14.5635239,
                                40.6541804
                            ],
                            [
                                14.5630456,
                                40.6547616
                            ],
                            [
                                14.5629697,
                                40.6555259
                            ],
                            [
                                14.5627873,
                                40.6562189
                            ],
                            [
                                14.5624875,
                                40.656886
                            ],
                            [
                                14.5623906,
                                40.6571039
                            ],
                            [
                                14.5623869,
                                40.6571121
                            ],
                            [
                                14.5622175,
                                40.6574932
                            ],
                            [
                                14.5621632,
                                40.6576129
                            ],
                            [
                                14.5619233,
                                40.6581916
                            ],
                            [
                                14.5613735,
                                40.659006
                            ],
                            [
                                14.5606609,
                                40.6594724
                            ],
                            [
                                14.5595589,
                                40.6597417
                            ],
                            [
                                14.558603,
                                40.6597436
                            ],
                            [
                                14.5579455,
                                40.6604543
                            ],
                            [
                                14.5579999,
                                40.6613294
                            ],
                            [
                                14.5582555,
                                40.6618617
                            ],
                            [
                                14.5578383,
                                40.6622464
                            ],
                            [
                                14.5569831,
                                40.662855
                            ],
                            [
                                14.5563513,
                                40.6634931
                            ],
                            [
                                14.5562043,
                                40.6642383
                            ],
                            [
                                14.5553324,
                                40.6650002
                            ],
                            [
                                14.5552173,
                                40.665100700000011
                            ],
                            [
                                14.5555069,
                                40.6660769
                            ],
                            [
                                14.5553617,
                                40.666516
                            ],
                            [
                                14.5553234,
                                40.66712110000001
                            ],
                            [
                                14.555285,
                                40.6673436
                            ],
                            [
                                14.5551839,
                                40.6679227
                            ],
                            [
                                14.5552468,
                                40.6681635
                            ],
                            [
                                14.5555616,
                                40.668482
                            ],
                            [
                                14.5558787,
                                40.6687503
                            ],
                            [
                                14.5563619,
                                40.669042
                            ],
                            [
                                14.5566431,
                                40.66942
                            ],
                            [
                                14.5569004,
                                40.6700333
                            ],
                            [
                                14.5571708,
                                40.670299300000011
                            ],
                            [
                                14.5578934,
                                40.6701744
                            ],
                            [
                                14.5585571,
                                40.66995330000001
                            ],
                            [
                                14.5594225,
                                40.6698485
                            ],
                            [
                                14.561365,
                                40.6693675
                            ],
                            [
                                14.5622754,
                                40.6693325
                            ],
                            [
                                14.5633995,
                                40.6694403
                            ],
                            [
                                14.5641449,
                                40.6693412
                            ],
                            [
                                14.5652598,
                                40.6689317
                            ],
                            [
                                14.5660417,
                                40.6688624
                            ],
                            [
                                14.5666796,
                                40.6689711
                            ],
                            [
                                14.5674347,
                                40.6692361
                            ],
                            [
                                14.5683687,
                                40.6694475
                            ],
                            [
                                14.5693266,
                                40.6694777
                            ],
                            [
                                14.5700719,
                                40.6695091
                            ],
                            [
                                14.5704378,
                                40.66960850000001
                            ],
                            [
                                14.570993,
                                40.6697616
                            ],
                            [
                                14.5717494,
                                40.6698736
                            ],
                            [
                                14.5722804,
                                40.6700909
                            ],
                            [
                                14.5727155,
                                40.670718
                            ],
                            [
                                14.5729467,
                                40.6712829
                            ],
                            [
                                14.5730629,
                                40.6717364
                            ],
                            [
                                14.5733319,
                                40.672205
                            ],
                            [
                                14.5740742,
                                40.6727407
                            ],
                            [
                                14.5750528,
                                40.673238
                            ],
                            [
                                14.5755355,
                                40.6736467
                            ],
                            [
                                14.5748688,
                                40.6742461
                            ],
                            [
                                14.5740368,
                                40.6748851
                            ],
                            [
                                14.5737966,
                                40.6754683
                            ],
                            [
                                14.5741961,
                                40.6760567
                            ],
                            [
                                14.5742886,
                                40.6762547
                            ],
                            [
                                14.5744984,
                                40.6767037
                            ],
                            [
                                14.5745417,
                                40.67731830000001
                            ],
                            [
                                14.5750024,
                                40.6774985
                            ],
                            [
                                14.5754388,
                                40.6777339
                            ],
                            [
                                14.5771573,
                                40.6784608
                            ],
                            [
                                14.5773618,
                                40.6786085
                            ],
                            [
                                14.577574,
                                40.6787782
                            ],
                            [
                                14.5777866,
                                40.6789525
                            ],
                            [
                                14.5779025,
                                40.6791947
                            ],
                            [
                                14.577983,
                                40.6795733
                            ],
                            [
                                14.5778626,
                                40.68008780000001
                            ],
                            [
                                14.5776333,
                                40.6805446
                            ],
                            [
                                14.5771579,
                                40.6808963
                            ],
                            [
                                14.5761798,
                                40.6820329
                            ],
                            [
                                14.5771574,
                                40.6825077
                            ],
                            [
                                14.5780827,
                                40.6827194
                            ],
                            [
                                14.5789648,
                                40.6833247
                            ],
                            [
                                14.5795782,
                                40.6836956
                            ],
                            [
                                14.5802855,
                                40.6840484
                            ],
                            [
                                14.5806508,
                                40.6844042
                            ],
                            [
                                14.5808147,
                                40.68468450000001
                            ],
                            [
                                14.5804931,
                                40.6855898
                            ],
                            [
                                14.5807601,
                                40.6857989
                            ],
                            [
                                14.5815316,
                                40.6855409
                            ],
                            [
                                14.5823602,
                                40.6853477
                            ],
                            [
                                14.5836359,
                                40.6857089
                            ],
                            [
                                14.5849107,
                                40.6862457
                            ],
                            [
                                14.5854766,
                                40.6867539
                            ],
                            [
                                14.5861835,
                                40.6872867
                            ],
                            [
                                14.5873866,
                                40.6878314
                            ],
                            [
                                14.5883896,
                                40.6884218
                            ],
                            [
                                14.5889184,
                                40.6889544
                            ],
                            [
                                14.5893073,
                                40.689318099999987
                            ],
                            [
                                14.589648,
                                40.6896526
                            ],
                            [
                                14.5899766,
                                40.6900012
                            ],
                            [
                                14.5902588,
                                40.6903294
                            ],
                            [
                                14.5905556,
                                40.6901574
                            ],
                            [
                                14.59168,
                                40.6900983
                            ],
                            [
                                14.5933945,
                                40.6903661
                            ],
                            [
                                14.5941156,
                                40.689960899999988
                            ],
                            [
                                14.5942038,
                                40.6899114
                            ],
                            [
                                14.5943679,
                                40.6898192
                            ],
                            [
                                14.5952598,
                                40.6894382
                            ],
                            [
                                14.5962684,
                                40.6887725
                            ],
                            [
                                14.5970385,
                                40.6886225
                            ],
                            [
                                14.5979381,
                                40.6885968
                            ],
                            [
                                14.5984435,
                                40.6883864
                            ],
                            [
                                14.5987094,
                                40.6882757
                            ],
                            [
                                14.5995288,
                                40.6878577
                            ],
                            [
                                14.6006192,
                                40.6875076
                            ],
                            [
                                14.601545,
                                40.687152
                            ],
                            [
                                14.6020914,
                                40.6868373
                            ],
                            [
                                14.6026005,
                                40.6866865
                            ],
                            [
                                14.6036862,
                                40.6871782
                            ],
                            [
                                14.6047129,
                                40.6877764
                            ],
                            [
                                14.606096,
                                40.6880691
                            ],
                            [
                                14.6071505,
                                40.6878107
                            ],
                            [
                                14.6084066,
                                40.687709
                            ],
                            [
                                14.6096245,
                                40.6878117
                            ],
                            [
                                14.6111375,
                                40.6880665
                            ],
                            [
                                14.6127597,
                                40.6880819
                            ],
                            [
                                14.6135047,
                                40.6880726
                            ],
                            [
                                14.6142493,
                                40.6880588
                            ],
                            [
                                14.6150568,
                                40.6876773
                            ],
                            [
                                14.615912,
                                40.6870279
                            ],
                            [
                                14.6166955,
                                40.6865801
                            ],
                            [
                                14.6176082,
                                40.686351
                            ],
                            [
                                14.6181063,
                                40.6862728
                            ],
                            [
                                14.6183088,
                                40.6862447
                            ],
                            [
                                14.6186894,
                                40.68619
                            ],
                            [
                                14.6193501,
                                40.6860949
                            ],
                            [
                                14.6207228,
                                40.6859648
                            ],
                            [
                                14.6212568,
                                40.6857407
                            ],
                            [
                                14.6213079,
                                40.6850495
                            ],
                            [
                                14.6213245,
                                40.6842738
                            ],
                            [
                                14.6211873,
                                40.683435
                            ],
                            [
                                14.6207786,
                                40.6824873
                            ],
                            [
                                14.6201454,
                                40.6814019
                            ],
                            [
                                14.6200216,
                                40.6804555
                            ],
                            [
                                14.6203458,
                                40.6794297
                            ],
                            [
                                14.6208475,
                                40.678604
                            ],
                            [
                                14.6215624,
                                40.6776779
                            ],
                            [
                                14.622654,
                                40.6771879
                            ],
                            [
                                14.6234839,
                                40.6768638
                            ],
                            [
                                14.6241499,
                                40.6764712
                            ],
                            [
                                14.6242966,
                                40.6755638
                            ],
                            [
                                14.6249036,
                                40.6749445
                            ],
                            [
                                14.6255314,
                                40.6748013
                            ],
                            [
                                14.6255234,
                                40.6741445
                            ],
                            [
                                14.6254785,
                                40.6736381
                            ],
                            [
                                14.6254733,
                                40.6732422
                            ],
                            [
                                14.6243115,
                                40.6727679
                            ],
                            [
                                14.6231664,
                                40.6723422
                            ],
                            [
                                14.6220679,
                                40.6719863
                            ],
                            [
                                14.6213271,
                                40.6714824
                            ],
                            [
                                14.6205126,
                                40.670919
                            ],
                            [
                                14.6192364,
                                40.6707428
                            ],
                            [
                                14.6185268,
                                40.6706694
                            ],
                            [
                                14.6176174,
                                40.6703132
                            ],
                            [
                                14.6164343,
                                40.670312399999986
                            ],
                            [
                                14.615239,
                                40.6702897
                            ],
                            [
                                14.6148048,
                                40.6697573
                            ],
                            [
                                14.6153749,
                                40.6692793
                            ],
                            [
                                14.6159457,
                                40.6689049
                            ],
                            [
                                14.6161599,
                                40.6685884
                            ],
                            [
                                14.616138,
                                40.6683194
                            ],
                            [
                                14.6165771,
                                40.6680144
                            ],
                            [
                                14.6166386,
                                40.6676918
                            ],
                            [
                                14.6166757,
                                40.6674469
                            ],
                            [
                                14.6167435,
                                40.66734910000001
                            ],
                            [
                                14.6168782,
                                40.667149
                            ],
                            [
                                14.6171661,
                                40.6665318
                            ],
                            [
                                14.61729,
                                40.665441
                            ],
                            [
                                14.6179587,
                                40.6644046
                            ],
                            [
                                14.6185404,
                                40.6640656
                            ],
                            [
                                14.6188156,
                                40.6635166
                            ],
                            [
                                14.619197,
                                40.6630613
                            ],
                            [
                                14.6196131,
                                40.6625549
                            ],
                            [
                                14.6198438,
                                40.661855
                            ],
                            [
                                14.619904,
                                40.6614289
                            ],
                            [
                                14.6195054,
                                40.6608543
                            ],
                            [
                                14.61907,
                                40.6604119
                            ],
                            [
                                14.619108,
                                40.6599509
                            ],
                            [
                                14.6191923,
                                40.6596273
                            ],
                            [
                                14.6192772,
                                40.6592585
                            ],
                            [
                                14.6194711,
                                40.6587269
                            ],
                            [
                                14.6191289,
                                40.6583475
                            ],
                            [
                                14.6189335,
                                40.6574749
                            ],
                            [
                                14.6190078,
                                40.6567691
                            ],
                            [
                                14.6194266,
                                40.6559339
                            ],
                            [
                                14.619714,
                                40.6552672
                            ],
                            [
                                14.6198823,
                                40.6548089
                            ],
                            [
                                14.6197799,
                                40.6542243
                            ],
                            [
                                14.619546,
                                40.6537361
                            ],
                            [
                                14.619406,
                                40.6533018
                            ],
                            [
                                14.6197992,
                                40.652882
                            ],
                            [
                                14.6205207,
                                40.6526956
                            ],
                            [
                                14.6205937,
                                40.6526767
                            ],
                            [
                                14.6206068,
                                40.6522619
                            ],
                            [
                                14.6204325,
                                40.6516043
                            ],
                            [
                                14.6207786,
                                40.6513623
                            ],
                            [
                                14.6210853,
                                40.6513114
                            ],
                            [
                                14.6215469,
                                40.6512573
                            ],
                            [
                                14.6220546,
                                40.6512595
                            ],
                            [
                                14.6219385,
                                40.6510041
                            ],
                            [
                                14.6215737,
                                40.6507249
                            ],
                            [
                                14.6215526,
                                40.6504738
                            ],
                            [
                                14.621672,
                                40.6500584
                            ],
                            [
                                14.6217229,
                                40.6496013
                            ],
                            [
                                14.6221954,
                                40.6494927
                            ],
                            [
                                14.6231294,
                                40.6494966
                            ],
                            [
                                14.6235029,
                                40.6494092
                            ],
                            [
                                14.6238762,
                                40.6493296
                            ],
                            [
                                14.6242555,
                                40.649149
                            ],
                            [
                                14.6243177,
                                40.6488354
                            ],
                            [
                                14.6241165,
                                40.6485841
                            ],
                            [
                                14.6244244,
                                40.6481252
                            ],
                            [
                                14.6245094,
                                40.6480705
                            ],
                            [
                                14.6247087,
                                40.6479421
                            ],
                            [
                                14.6250982,
                                40.647745
                            ],
                            [
                                14.6249652,
                                40.647543
                            ],
                            [
                                14.6243471,
                                40.6474079
                            ],
                            [
                                14.6242653,
                                40.6474398
                            ],
                            [
                                14.6242633,
                                40.6475399
                            ],
                            [
                                14.6242937,
                                40.6476011
                            ],
                            [
                                14.624246,
                                40.647648599999989
                            ],
                            [
                                14.624058,
                                40.6475362
                            ],
                            [
                                14.6238326,
                                40.6474866
                            ],
                            [
                                14.6237893,
                                40.6475444
                            ],
                            [
                                14.6237922,
                                40.6476175
                            ],
                            [
                                14.6237141,
                                40.6476468
                            ],
                            [
                                14.623691,
                                40.6476792
                            ],
                            [
                                14.623653,
                                40.6476892
                            ],
                            [
                                14.6236178,
                                40.6476587
                            ],
                            [
                                14.6235252,
                                40.6475948
                            ],
                            [
                                14.62304,
                                40.6474645
                            ],
                            [
                                14.622681,
                                40.6472932
                            ],
                            [
                                14.6221679,
                                40.6468814
                            ],
                            [
                                14.6218922,
                                40.6465489
                            ],
                            [
                                14.6217057,
                                40.6462572
                            ],
                            [
                                14.6209239,
                                40.645962
                            ],
                            [
                                14.6208379,
                                40.6459586
                            ],
                            [
                                14.6207223,
                                40.6459805
                            ],
                            [
                                14.6204949,
                                40.6460411
                            ],
                            [
                                14.6202447,
                                40.6460888
                            ],
                            [
                                14.6201016,
                                40.6460524
                            ],
                            [
                                14.6200408,
                                40.646044
                            ],
                            [
                                14.6199747,
                                40.64606520000001
                            ],
                            [
                                14.6199272,
                                40.6460948
                            ],
                            [
                                14.6198763,
                                40.6461091
                            ],
                            [
                                14.619856,
                                40.6460649
                            ],
                            [
                                14.619878,
                                40.6460186
                            ],
                            [
                                14.6199037,
                                40.6459651
                            ],
                            [
                                14.6198332,
                                40.6459142
                            ],
                            [
                                14.6196587,
                                40.645699
                            ],
                            [
                                14.6194551,
                                40.645539
                            ],
                            [
                                14.6193462,
                                40.6453717
                            ],
                            [
                                14.619368,
                                40.6451478
                            ],
                            [
                                14.618988,
                                40.6448259
                            ],
                            [
                                14.6190854,
                                40.6445512
                            ],
                            [
                                14.6189607,
                                40.6437854
                            ],
                            [
                                14.6188454,
                                40.6436924
                            ],
                            [
                                14.6186776,
                                40.6436398
                            ],
                            [
                                14.6187242,
                                40.6435053
                            ],
                            [
                                14.6187007,
                                40.6433691
                            ],
                            [
                                14.6185313,
                                40.6432908
                            ],
                            [
                                14.6184265,
                                40.6432113
                            ],
                            [
                                14.618636,
                                40.6429067
                            ],
                            [
                                14.6186331,
                                40.6427008
                            ],
                            [
                                14.6185429,
                                40.6425933
                            ],
                            [
                                14.6185603,
                                40.6424035
                            ],
                            [
                                14.6185022,
                                40.6422093
                            ],
                            [
                                14.6185538,
                                40.641925
                            ],
                            [
                                14.6183823,
                                40.641765
                            ],
                            [
                                14.6178829,
                                40.641775
                            ],
                            [
                                14.617554,
                                40.6416267
                            ],
                            [
                                14.6174318,
                                40.6416002
                            ],
                            [
                                14.6171177,
                                40.6414986
                            ],
                            [
                                14.6169273,
                                40.6414949
                            ],
                            [
                                14.6165534,
                                40.6413221
                            ],
                            [
                                14.6164545,
                                40.6411764
                            ],
                            [
                                14.6162451,
                                40.6411058
                            ],
                            [
                                14.6156694,
                                40.640714
                            ],
                            [
                                14.6157444,
                                40.6403536
                            ],
                            [
                                14.615533,
                                40.6400941
                            ],
                            [
                                14.6151733,
                                40.6399687
                            ],
                            [
                                14.6148411,
                                40.63960130000001
                            ],
                            [
                                14.6144707,
                                40.6395514
                            ],
                            [
                                14.614054,
                                40.6392658
                            ],
                            [
                                14.6138141,
                                40.6393652
                            ],
                            [
                                14.613702,
                                40.6391309
                            ],
                            [
                                14.6136341,
                                40.6391653
                            ],
                            [
                                14.613582,
                                40.6391666
                            ],
                            [
                                14.6135053,
                                40.6390984
                            ],
                            [
                                14.6134584,
                                40.638888
                            ],
                            [
                                14.6133923,
                                40.638888
                            ],
                            [
                                14.6133888,
                                40.6388035
                            ],
                            [
                                14.6134219,
                                40.638790299999989
                            ],
                            [
                                14.6134149,
                                40.6386913
                            ],
                            [
                                14.6133488,
                                40.63869
                            ],
                            [
                                14.6132879,
                                40.6387177
                            ],
                            [
                                14.6132549,
                                40.6386174
                            ],
                            [
                                14.6133001,
                                40.6385553
                            ],
                            [
                                14.6133028,
                                40.6384795
                            ],
                            [
                                14.6132584,
                                40.6383203
                            ],
                            [
                                14.6131418,
                                40.6380695
                            ],
                            [
                                14.6131855,
                                40.638003500000011
                            ],
                            [
                                14.613154,
                                40.6378781
                            ],
                            [
                                14.6132009,
                                40.6378556
                            ],
                            [
                                14.6131992,
                                40.6379071
                            ],
                            [
                                14.6132636,
                                40.6378913
                            ],
                            [
                                14.6133436,
                                40.6378041
                            ],
                            [
                                14.6132736,
                                40.6377374
                            ],
                            [
                                14.613314,
                                40.6377315
                            ],
                            [
                                14.6133088,
                                40.6376866
                            ],
                            [
                                14.6132792,
                                40.6376404
                            ],
                            [
                                14.6132723,
                                40.6375348
                            ],
                            [
                                14.6131279,
                                40.6374754
                            ],
                            [
                                14.61306,
                                40.6374213
                            ],
                            [
                                14.6130896,
                                40.6373804
                            ],
                            [
                                14.6130757,
                                40.6373434
                            ],
                            [
                                14.6130081,
                                40.6373391
                            ],
                            [
                                14.6129765,
                                40.637284
                            ],
                            [
                                14.6129678,
                                40.6372193
                            ],
                            [
                                14.6129121,
                                40.6372193
                            ],
                            [
                                14.6129469,
                                40.6373526
                            ],
                            [
                                14.6129139,
                                40.6373916
                            ],
                            [
                                14.6125668,
                                40.6374248
                            ],
                            [
                                14.6123736,
                                40.6374199
                            ],
                            [
                                14.612241,
                                40.637331
                            ],
                            [
                                14.6122207,
                                40.6372626
                            ],
                            [
                                14.6121493,
                                40.6371053
                            ],
                            [
                                14.6119572,
                                40.6369481
                            ],
                            [
                                14.611779,
                                40.6368913
                            ],
                            [
                                14.6117042,
                                40.6368346
                            ],
                            [
                                14.6115647,
                                40.636849
                            ],
                            [
                                14.6114188,
                                40.6368965
                            ],
                            [
                                14.6112643,
                                40.6368844
                            ],
                            [
                                14.6107222,
                                40.6367134
                            ],
                            [
                                14.6104742,
                                40.6365975
                            ],
                            [
                                14.6103348,
                                40.6364892
                            ],
                            [
                                14.6102979,
                                40.6365279
                            ],
                            [
                                14.6102574,
                                40.6365329
                            ],
                            [
                                14.6102024,
                                40.6366028
                            ],
                            [
                                14.6101882,
                                40.636623
                            ],
                            [
                                14.6100861,
                                40.6366325
                            ],
                            [
                                14.6100643,
                                40.6366146
                            ],
                            [
                                14.6099108,
                                40.6365184
                            ],
                            [
                                14.6096073,
                                40.6366684
                            ],
                            [
                                14.6094994,
                                40.6367323
                            ],
                            [
                                14.6094624,
                                40.6367987
                            ],
                            [
                                14.609402,
                                40.6369076
                            ],
                            [
                                14.6094519,
                                40.6370232
                            ],
                            [
                                14.6093164,
                                40.6370657
                            ],
                            [
                                14.6092187,
                                40.6371324
                            ],
                            [
                                14.6091327,
                                40.6372345
                            ],
                            [
                                14.6089526,
                                40.6374736
                            ],
                            [
                                14.6088074,
                                40.6375383
                            ],
                            [
                                14.6086851,
                                40.6375342
                            ],
                            [
                                14.6085825,
                                40.6377315
                            ],
                            [
                                14.6084145,
                                40.6378531
                            ],
                            [
                                14.6082547,
                                40.6378112
                            ],
                            [
                                14.6080721,
                                40.6378475
                            ],
                            [
                                14.6078551,
                                40.6380618
                            ],
                            [
                                14.6077473,
                                40.6381574
                            ],
                            [
                                14.6076856,
                                40.6382276
                            ],
                            [
                                14.607626,
                                40.6383296
                            ],
                            [
                                14.6075617,
                                40.6384397
                            ],
                            [
                                14.6075561,
                                40.638506
                            ],
                            [
                                14.6074506,
                                40.6385202
                            ],
                            [
                                14.6074164,
                                40.6384902
                            ],
                            [
                                14.6075086,
                                40.6384258
                            ],
                            [
                                14.6074703,
                                40.6384184
                            ],
                            [
                                14.6074178,
                                40.6384277
                            ],
                            [
                                14.6074013,
                                40.6383954
                            ],
                            [
                                14.6073815,
                                40.6384203
                            ],
                            [
                                14.607324,
                                40.638417
                            ],
                            [
                                14.6072721,
                                40.6384163
                            ],
                            [
                                14.6072812,
                                40.638393
                            ],
                            [
                                14.6071783,
                                40.6383379
                            ],
                            [
                                14.6072226,
                                40.6382869
                            ],
                            [
                                14.607158,
                                40.6382756
                            ],
                            [
                                14.6070564,
                                40.6383884
                            ],
                            [
                                14.6070509,
                                40.638409
                            ],
                            [
                                14.6070544,
                                40.6384397
                            ],
                            [
                                14.6069333,
                                40.6385081
                            ],
                            [
                                14.6068965,
                                40.6385683
                            ],
                            [
                                14.6068508,
                                40.63851
                            ],
                            [
                                14.6066328,
                                40.6385948
                            ]
                        ]
                    ]
                ]
            }
        }
    ]
}