{
    "type": "FeatureCollection",
    "name": "Scalen",
    "features": [
        {
            "type": "Feature",
            "properties": {
                "diocese": "Scalen",
                "province": "Amalphitan",
                "date": 1592
            },
            "geometry": {
                "type": "MultiPolygon",
                "coordinates": [
                    [
                        [
                            [
                                14.5551839,
                                40.6679227
                            ],
                            [
                                14.555285,
                                40.6673436
                            ],
                            [
                                14.5553234,
                                40.66712110000001
                            ],
                            [
                                14.5553617,
                                40.666516
                            ],
                            [
                                14.5555069,
                                40.6660769
                            ],
                            [
                                14.5552173,
                                40.665100700000011
                            ],
                            [
                                14.5553324,
                                40.6650002
                            ],
                            [
                                14.5562043,
                                40.6642383
                            ],
                            [
                                14.5563513,
                                40.6634931
                            ],
                            [
                                14.5569831,
                                40.662855
                            ],
                            [
                                14.5578383,
                                40.6622464
                            ],
                            [
                                14.5582555,
                                40.6618617
                            ],
                            [
                                14.5579999,
                                40.6613294
                            ],
                            [
                                14.5579455,
                                40.6604543
                            ],
                            [
                                14.558603,
                                40.6597436
                            ],
                            [
                                14.5595589,
                                40.6597417
                            ],
                            [
                                14.5606609,
                                40.6594724
                            ],
                            [
                                14.5613735,
                                40.659006
                            ],
                            [
                                14.5619233,
                                40.6581916
                            ],
                            [
                                14.5621632,
                                40.6576129
                            ],
                            [
                                14.5622175,
                                40.6574932
                            ],
                            [
                                14.5623869,
                                40.6571121
                            ],
                            [
                                14.5623906,
                                40.6571039
                            ],
                            [
                                14.5624875,
                                40.656886
                            ],
                            [
                                14.5627873,
                                40.6562189
                            ],
                            [
                                14.5629697,
                                40.6555259
                            ],
                            [
                                14.5630456,
                                40.6547616
                            ],
                            [
                                14.5635239,
                                40.6541804
                            ],
                            [
                                14.5643419,
                                40.6536681
                            ],
                            [
                                14.5648888,
                                40.6531826
                            ],
                            [
                                14.5653792,
                                40.6523577
                            ],
                            [
                                14.565844,
                                40.6518896
                            ],
                            [
                                14.5665652,
                                40.6519447
                            ],
                            [
                                14.567286,
                                40.6519864
                            ],
                            [
                                14.5679989,
                                40.6513667
                            ],
                            [
                                14.5684891,
                                40.6506364
                            ],
                            [
                                14.5693424,
                                40.650478
                            ],
                            [
                                14.5700993,
                                40.6505179
                            ],
                            [
                                14.5705261,
                                40.6502858
                            ],
                            [
                                14.5706539,
                                40.650149
                            ],
                            [
                                14.5708297,
                                40.6499606
                            ],
                            [
                                14.5710279,
                                40.6497484
                            ],
                            [
                                14.5713731,
                                40.6492815
                            ],
                            [
                                14.5716703,
                                40.6489745
                            ],
                            [
                                14.5721688,
                                40.6487164
                            ],
                            [
                                14.5725032,
                                40.6484211
                            ],
                            [
                                14.5723409,
                                40.6478261
                            ],
                            [
                                14.5724966,
                                40.6476578
                            ],
                            [
                                14.5723794,
                                40.6472208
                            ],
                            [
                                14.5722748,
                                40.6469333
                            ],
                            [
                                14.5723202,
                                40.6465355
                            ],
                            [
                                14.5725293,
                                40.6460063
                            ],
                            [
                                14.5728871,
                                40.645692
                            ],
                            [
                                14.5733127,
                                40.6456129
                            ],
                            [
                                14.5741375,
                                40.6459645
                            ],
                            [
                                14.5746095,
                                40.6462027
                            ],
                            [
                                14.5752335,
                                40.646492
                            ],
                            [
                                14.5757297,
                                40.6467201
                            ],
                            [
                                14.5761309,
                                40.6468627
                            ],
                            [
                                14.5771569,
                                40.6476232
                            ],
                            [
                                14.5778768,
                                40.6475928
                            ],
                            [
                                14.5787395,
                                40.6478841
                            ],
                            [
                                14.5793053,
                                40.64812220000001
                            ],
                            [
                                14.5798708,
                                40.6483649
                            ],
                            [
                                14.5806758,
                                40.6482133
                            ],
                            [
                                14.5819048,
                                40.6483608
                            ],
                            [
                                14.5828635,
                                40.6483503
                            ],
                            [
                                14.5842618,
                                40.6480754
                            ],
                            [
                                14.5854324,
                                40.6478881
                            ],
                            [
                                14.5864853,
                                40.647873
                            ],
                            [
                                14.5872327,
                                40.6475982
                            ],
                            [
                                14.5882144,
                                40.647492
                            ],
                            [
                                14.5895173,
                                40.6471722
                            ],
                            [
                                14.5901968,
                                40.646527
                            ],
                            [
                                14.5899051,
                                40.6456276
                            ],
                            [
                                14.5896515,
                                40.644645
                            ],
                            [
                                14.590318,
                                40.643951
                            ],
                            [
                                14.5910184,
                                40.6434849
                            ],
                            [
                                14.5915291,
                                40.643127
                            ],
                            [
                                14.5918236,
                                40.6431367
                            ],
                            [
                                14.5925238,
                                40.6431597
                            ],
                            [
                                14.5935036,
                                40.6432606
                            ],
                            [
                                14.594395,
                                40.6433847
                            ],
                            [
                                14.5946006,
                                40.6434821
                            ],
                            [
                                14.5948339,
                                40.6436492
                            ],
                            [
                                14.5955213,
                                40.6438351
                            ],
                            [
                                14.5955013,
                                40.6441167
                            ],
                            [
                                14.5956135,
                                40.64426730000001
                            ],
                            [
                                14.5957974,
                                40.6442697
                            ],
                            [
                                14.5960201,
                                40.6441012
                            ],
                            [
                                14.5964508,
                                40.6439638
                            ],
                            [
                                14.5965225,
                                40.6436224
                            ],
                            [
                                14.5965367,
                                40.6432959
                            ],
                            [
                                14.5967055,
                                40.6431046
                            ],
                            [
                                14.5969313,
                                40.6430315
                            ],
                            [
                                14.5973481,
                                40.6429505
                            ],
                            [
                                14.5976359,
                                40.6428322
                            ],
                            [
                                14.5977326,
                                40.6430244
                            ],
                            [
                                14.5981538,
                                40.6430455
                            ],
                            [
                                14.5988502,
                                40.6429138
                            ],
                            [
                                14.599166,
                                40.6429058
                            ],
                            [
                                14.5995024,
                                40.6429892
                            ],
                            [
                                14.599837,
                                40.6431794
                            ],
                            [
                                14.5998503,
                                40.6427422
                            ],
                            [
                                14.5998695,
                                40.6426284
                            ],
                            [
                                14.5999874,
                                40.6426528
                            ],
                            [
                                14.6003128,
                                40.6423208
                            ],
                            [
                                14.60035,
                                40.6420458
                            ],
                            [
                                14.6004448,
                                40.641951299999988
                            ],
                            [
                                14.6005501,
                                40.641951299999988
                            ],
                            [
                                14.6007622,
                                40.6418445
                            ],
                            [
                                14.6006259,
                                40.6415206
                            ],
                            [
                                14.6005579,
                                40.6413673
                            ],
                            [
                                14.6005831,
                                40.6412779
                            ],
                            [
                                14.6005174,
                                40.6411578
                            ],
                            [
                                14.6008479,
                                40.6412645
                            ],
                            [
                                14.6013562,
                                40.6412645
                            ],
                            [
                                14.6013133,
                                40.6411704
                            ],
                            [
                                14.6013466,
                                40.6409624
                            ],
                            [
                                14.6015526,
                                40.6409513
                            ],
                            [
                                14.6015685,
                                40.6408868
                            ],
                            [
                                14.601688,
                                40.6408366
                            ],
                            [
                                14.6019223,
                                40.6407346
                            ],
                            [
                                14.601829,
                                40.6406145
                            ],
                            [
                                14.6018015,
                                40.640559
                            ],
                            [
                                14.6017812,
                                40.6404162
                            ],
                            [
                                14.6017421,
                                40.6403333
                            ],
                            [
                                14.6017915,
                                40.6402615
                            ],
                            [
                                14.6018913,
                                40.64023310000001
                            ],
                            [
                                14.602143,
                                40.6400798
                            ],
                            [
                                14.6024487,
                                40.6400003
                            ],
                            [
                                14.6025632,
                                40.6398009
                            ],
                            [
                                14.6026568,
                                40.6397407
                            ],
                            [
                                14.602814,
                                40.6396492
                            ],
                            [
                                14.6031755,
                                40.63929
                            ],
                            [
                                14.603104,
                                40.6392457
                            ],
                            [
                                14.6031044,
                                40.6392195
                            ],
                            [
                                14.6029478,
                                40.63912
                            ],
                            [
                                14.6029155,
                                40.6390732
                            ],
                            [
                                14.6028659,
                                40.6390017
                            ],
                            [
                                14.6028062,
                                40.6389876
                            ],
                            [
                                14.6027646,
                                40.6389939
                            ],
                            [
                                14.6027342,
                                40.6389196
                            ],
                            [
                                14.6027016,
                                40.6388941
                            ],
                            [
                                14.6023046,
                                40.6386957
                            ],
                            [
                                14.602398,
                                40.6385295
                            ],
                            [
                                14.6024335,
                                40.6384482
                            ],
                            [
                                14.6024329,
                                40.6383802
                            ],
                            [
                                14.6024653,
                                40.6383806
                            ],
                            [
                                14.6024911,
                                40.6383039
                            ],
                            [
                                14.6025973,
                                40.6381382
                            ],
                            [
                                14.6027277,
                                40.6380505
                            ],
                            [
                                14.6028593,
                                40.6380797
                            ],
                            [
                                14.6029157,
                                40.6380852
                            ],
                            [
                                14.6029549,
                                40.6380378
                            ],
                            [
                                14.6030751,
                                40.6379669
                            ],
                            [
                                14.6032805,
                                40.6379231
                            ],
                            [
                                14.6034242,
                                40.6379255
                            ],
                            [
                                14.6035332,
                                40.6377699
                            ],
                            [
                                14.60352,
                                40.6377134
                            ],
                            [
                                14.6037033,
                                40.6375543
                            ],
                            [
                                14.6037616,
                                40.6376284
                            ],
                            [
                                14.6043769,
                                40.6370895
                            ],
                            [
                                14.6043175,
                                40.6370519
                            ],
                            [
                                14.604262,
                                40.636949
                            ],
                            [
                                14.6044186,
                                40.6369401
                            ],
                            [
                                14.6045498,
                                40.6369192
                            ],
                            [
                                14.6046819,
                                40.6369306
                            ],
                            [
                                14.6047552,
                                40.6367442
                            ],
                            [
                                14.6048115,
                                40.6367287
                            ],
                            [
                                14.6048876,
                                40.6366829
                            ],
                            [
                                14.6049543,
                                40.6367222
                            ],
                            [
                                14.6050418,
                                40.636757
                            ],
                            [
                                14.6051022,
                                40.6367166
                            ],
                            [
                                14.6051422,
                                40.6365817
                            ],
                            [
                                14.6051242,
                                40.6365599
                            ],
                            [
                                14.605141,
                                40.6365034
                            ],
                            [
                                14.6052057,
                                40.6364465
                            ],
                            [
                                14.6051812,
                                40.6364006
                            ],
                            [
                                14.6052708,
                                40.636283
                            ],
                            [
                                14.6052985,
                                40.6362977
                            ],
                            [
                                14.6054614,
                                40.6361791
                            ],
                            [
                                14.6054825,
                                40.6361089
                            ],
                            [
                                14.6054135,
                                40.6360619
                            ],
                            [
                                14.6054165,
                                40.6360411
                            ],
                            [
                                14.605384,
                                40.636024
                            ],
                            [
                                14.6054104,
                                40.6359924
                            ],
                            [
                                14.6054406,
                                40.6359966
                            ],
                            [
                                14.6054648,
                                40.6359627
                            ],
                            [
                                14.6055238,
                                40.6359639
                            ],
                            [
                                14.605549,
                                40.6359295
                            ],
                            [
                                14.6055051,
                                40.6359009
                            ],
                            [
                                14.605517,
                                40.6358598
                            ],
                            [
                                14.6054867,
                                40.6358519
                            ],
                            [
                                14.6055147,
                                40.6357839
                            ],
                            [
                                14.6057657,
                                40.6358373
                            ],
                            [
                                14.6058166,
                                40.6358511
                            ],
                            [
                                14.6058484,
                                40.6358864
                            ],
                            [
                                14.6058811,
                                40.6359039
                            ],
                            [
                                14.6059155,
                                40.6359095
                            ],
                            [
                                14.6059576,
                                40.6359133
                            ],
                            [
                                14.6059876,
                                40.6359137
                            ],
                            [
                                14.6060174,
                                40.6359137
                            ],
                            [
                                14.6060513,
                                40.6359114
                            ],
                            [
                                14.6060901,
                                40.6358993
                            ],
                            [
                                14.606132,
                                40.6358823
                            ],
                            [
                                14.6061631,
                                40.6358612
                            ],
                            [
                                14.6061943,
                                40.6358226
                            ],
                            [
                                14.6061878,
                                40.6357867
                            ],
                            [
                                14.6061755,
                                40.6357504
                            ],
                            [
                                14.6062636,
                                40.6357525
                            ],
                            [
                                14.6063312,
                                40.6357546
                            ],
                            [
                                14.6063024,
                                40.6358077
                            ],
                            [
                                14.6062538,
                                40.6358351
                            ],
                            [
                                14.6062192,
                                40.6358574
                            ],
                            [
                                14.6061485,
                                40.6359091
                            ],
                            [
                                14.6061188,
                                40.6359242
                            ],
                            [
                                14.6060708,
                                40.6359351
                            ],
                            [
                                14.6060365,
                                40.6359371
                            ],
                            [
                                14.6059544,
                                40.6359369
                            ],
                            [
                                14.6058874,
                                40.6359252
                            ],
                            [
                                14.6057959,
                                40.6359414
                            ],
                            [
                                14.6057598,
                                40.6359573
                            ],
                            [
                                14.6057042,
                                40.6359788
                            ],
                            [
                                14.6056941,
                                40.6359913
                            ],
                            [
                                14.6056942,
                                40.6360188
                            ],
                            [
                                14.6057377,
                                40.6360557
                            ],
                            [
                                14.605737,
                                40.6361197
                            ],
                            [
                                14.6056821,
                                40.636151
                            ],
                            [
                                14.605691,
                                40.6361826
                            ],
                            [
                                14.6057194,
                                40.6362711
                            ],
                            [
                                14.6057571,
                                40.6362792
                            ],
                            [
                                14.6057315,
                                40.636304
                            ],
                            [
                                14.6057595,
                                40.6364006
                            ],
                            [
                                14.605898,
                                40.6364547
                            ],
                            [
                                14.6058722,
                                40.6365243
                            ],
                            [
                                14.6058492,
                                40.6365481
                            ],
                            [
                                14.605837,
                                40.636555799999989
                            ],
                            [
                                14.6057726,
                                40.6365738
                            ],
                            [
                                14.6055871,
                                40.6367029
                            ],
                            [
                                14.6054469,
                                40.6370283
                            ],
                            [
                                14.6054072,
                                40.6371665
                            ],
                            [
                                14.6054273,
                                40.6372562
                            ],
                            [
                                14.6054817,
                                40.6373372
                            ],
                            [
                                14.6057424,
                                40.6374701
                            ],
                            [
                                14.6059172,
                                40.6375108
                            ],
                            [
                                14.6059868,
                                40.6376714
                            ],
                            [
                                14.6060099,
                                40.6376645
                            ],
                            [
                                14.6060245,
                                40.6376865
                            ],
                            [
                                14.6059996,
                                40.6377215
                            ],
                            [
                                14.6059863,
                                40.6377535
                            ],
                            [
                                14.6059363,
                                40.6378163
                            ],
                            [
                                14.6060056,
                                40.6378817
                            ],
                            [
                                14.6059176,
                                40.6379309
                            ],
                            [
                                14.6057075,
                                40.638406
                            ],
                            [
                                14.6057111,
                                40.6385778
                            ],
                            [
                                14.6059796,
                                40.6387038
                            ],
                            [
                                14.6060642,
                                40.6387967
                            ],
                            [
                                14.6060943,
                                40.638946
                            ],
                            [
                                14.6061771,
                                40.6389748
                            ],
                            [
                                14.6064124,
                                40.638847
                            ],
                            [
                                14.6064832,
                                40.6387432
                            ],
                            [
                                14.6066328,
                                40.6385948
                            ],
                            [
                                14.6068508,
                                40.63851
                            ],
                            [
                                14.6068264,
                                40.6386306
                            ],
                            [
                                14.6066226,
                                40.6389317
                            ],
                            [
                                14.6067079,
                                40.6392206
                            ],
                            [
                                14.6067965,
                                40.639337
                            ],
                            [
                                14.6068784,
                                40.6395663
                            ],
                            [
                                14.6068193,
                                40.6396437
                            ],
                            [
                                14.6068945,
                                40.6399612
                            ],
                            [
                                14.6068784,
                                40.6401077
                            ],
                            [
                                14.606814,
                                40.6403153
                            ],
                            [
                                14.6065617,
                                40.6411991
                            ],
                            [
                                14.6064631,
                                40.6417395
                            ],
                            [
                                14.6068943,
                                40.6428123
                            ],
                            [
                                14.6071841,
                                40.6437299
                            ],
                            [
                                14.6076292,
                                40.6445004
                            ],
                            [
                                14.6077553,
                                40.6452099
                            ],
                            [
                                14.607787,
                                40.645825
                            ],
                            [
                                14.6077239,
                                40.6465078
                            ],
                            [
                                14.6076151,
                                40.6471207
                            ],
                            [
                                14.6074044,
                                40.648001
                            ],
                            [
                                14.6074778,
                                40.6484234
                            ],
                            [
                                14.6076394,
                                40.6486949
                            ],
                            [
                                14.6083605,
                                40.6495617
                            ],
                            [
                                14.608521,
                                40.6497547
                            ],
                            [
                                14.6085691,
                                40.6497922
                            ],
                            [
                                14.6092863,
                                40.6503521
                            ],
                            [
                                14.6100165,
                                40.6508656
                            ],
                            [
                                14.6103912,
                                40.651536
                            ],
                            [
                                14.61093,
                                40.652392
                            ],
                            [
                                14.6111077,
                                40.6526528
                            ],
                            [
                                14.6114347,
                                40.6531326
                            ],
                            [
                                14.6114059,
                                40.6538091
                            ],
                            [
                                14.6109068,
                                40.6544366
                            ],
                            [
                                14.6109273,
                                40.6549712
                            ],
                            [
                                14.6112911,
                                40.6554756
                            ],
                            [
                                14.611454,
                                40.6558587
                            ],
                            [
                                14.611548,
                                40.6560798
                            ],
                            [
                                14.6118062,
                                40.6565848
                            ],
                            [
                                14.6117429,
                                40.6571415
                            ],
                            [
                                14.6113512,
                                40.6573433
                            ],
                            [
                                14.6112217,
                                40.65741
                            ],
                            [
                                14.6103318,
                                40.6576514
                            ],
                            [
                                14.6094789,
                                40.657972
                            ],
                            [
                                14.6088496,
                                40.6585023
                            ],
                            [
                                14.6081209,
                                40.6595281
                            ],
                            [
                                14.6079674,
                                40.6601786
                            ],
                            [
                                14.6078899,
                                40.6605071
                            ],
                            [
                                14.6072365,
                                40.6612553
                            ],
                            [
                                14.6068496,
                                40.6616887
                            ],
                            [
                                14.6065566,
                                40.6621604
                            ],
                            [
                                14.6061484,
                                40.6630045
                            ],
                            [
                                14.6060197,
                                40.6640412
                            ],
                            [
                                14.6060118,
                                40.6641049
                            ],
                            [
                                14.6063852,
                                40.6651985
                            ],
                            [
                                14.6066163,
                                40.6659884
                            ],
                            [
                                14.6061296,
                                40.6664217
                            ],
                            [
                                14.6052276,
                                40.6667492
                            ],
                            [
                                14.6050782,
                                40.6673462
                            ],
                            [
                                14.6053252,
                                40.6681938
                            ],
                            [
                                14.6049365,
                                40.6678932
                            ],
                            [
                                14.6043816,
                                40.6679292
                            ],
                            [
                                14.603858,
                                40.6681438
                            ],
                            [
                                14.603359,
                                40.6685462
                            ],
                            [
                                14.60318,
                                40.6689358
                            ],
                            [
                                14.6031073,
                                40.669094
                            ],
                            [
                                14.6030013,
                                40.6701513
                            ],
                            [
                                14.6029581,
                                40.6705821
                            ],
                            [
                                14.6029436,
                                40.6707269
                            ],
                            [
                                14.6028039,
                                40.6709818
                            ],
                            [
                                14.6026091,
                                40.6713373
                            ],
                            [
                                14.6024906,
                                40.671588
                            ],
                            [
                                14.6023456,
                                40.6718948
                            ],
                            [
                                14.6023115,
                                40.672081
                            ],
                            [
                                14.6022486,
                                40.6724252
                            ],
                            [
                                14.6021744,
                                40.6728304
                            ],
                            [
                                14.6020875,
                                40.6730438
                            ],
                            [
                                14.601922,
                                40.6734503
                            ],
                            [
                                14.6018518,
                                40.6737741
                            ],
                            [
                                14.6017888,
                                40.6740644
                            ],
                            [
                                14.601795,
                                40.6750093
                            ],
                            [
                                14.6015414,
                                40.6757734
                            ],
                            [
                                14.6012178,
                                40.6765228
                            ],
                            [
                                14.6010368,
                                40.6769441
                            ],
                            [
                                14.6009056,
                                40.6772492
                            ],
                            [
                                14.6005931,
                                40.6780611
                            ],
                            [
                                14.6003498,
                                40.6791847
                            ],
                            [
                                14.6001087,
                                40.6799841
                            ],
                            [
                                14.5997122,
                                40.6809216
                            ],
                            [
                                14.5993641,
                                40.6817488
                            ],
                            [
                                14.5987791,
                                40.6825109
                            ],
                            [
                                14.5982088,
                                40.6829887
                            ],
                            [
                                14.5977784,
                                40.6837524
                            ],
                            [
                                14.5970984,
                                40.6846766
                            ],
                            [
                                14.5961114,
                                40.6853863
                            ],
                            [
                                14.5949355,
                                40.6860826
                            ],
                            [
                                14.5939856,
                                40.6865474
                            ],
                            [
                                14.59293,
                                40.6870488
                            ],
                            [
                                14.5915077,
                                40.687469
                            ],
                            [
                                14.5904388,
                                40.6879261
                            ],
                            [
                                14.5892781,
                                40.6881085
                            ],
                            [
                                14.5890555,
                                40.6877727
                            ],
                            [
                                14.588895,
                                40.68689830000001
                            ],
                            [
                                14.588674,
                                40.6863239
                            ],
                            [
                                14.5886998,
                                40.6859535
                            ],
                            [
                                14.5890694,
                                40.6855305
                            ],
                            [
                                14.5892383,
                                40.6848651
                            ],
                            [
                                14.5890182,
                                40.6841781
                            ],
                            [
                                14.5887048,
                                40.6832526
                            ],
                            [
                                14.5884158,
                                40.682096399999985
                            ],
                            [
                                14.5881502,
                                40.6810695
                            ],
                            [
                                14.5884044,
                                40.6801164
                            ],
                            [
                                14.5888245,
                                40.6791058
                            ],
                            [
                                14.589306,
                                40.6778491
                            ],
                            [
                                14.5897746,
                                40.6766335
                            ],
                            [
                                14.5893981,
                                40.6763638
                            ],
                            [
                                14.588711,
                                40.6766402
                            ],
                            [
                                14.5879619,
                                40.6769691
                            ],
                            [
                                14.587331,
                                40.6776164
                            ],
                            [
                                14.5867571,
                                40.678468
                            ],
                            [
                                14.5862579,
                                40.6790458
                            ],
                            [
                                14.5859233,
                                40.6796742
                            ],
                            [
                                14.5857881,
                                40.6802659
                            ],
                            [
                                14.5850654,
                                40.680364
                            ],
                            [
                                14.584073,
                                40.680110599999985
                            ],
                            [
                                14.5826101,
                                40.679682
                            ],
                            [
                                14.5816524,
                                40.6792243
                            ],
                            [
                                14.5806156,
                                40.6785184
                            ],
                            [
                                14.5792799,
                                40.6784976
                            ],
                            [
                                14.5782253,
                                40.6786568
                            ],
                            [
                                14.5777866,
                                40.6789525
                            ],
                            [
                                14.577574,
                                40.6787782
                            ],
                            [
                                14.5773618,
                                40.6786085
                            ],
                            [
                                14.5771573,
                                40.6784608
                            ],
                            [
                                14.5754388,
                                40.6777339
                            ],
                            [
                                14.5750024,
                                40.6774985
                            ],
                            [
                                14.5745417,
                                40.67731830000001
                            ],
                            [
                                14.5744984,
                                40.6767037
                            ],
                            [
                                14.5742886,
                                40.6762547
                            ],
                            [
                                14.5741961,
                                40.6760567
                            ],
                            [
                                14.5737966,
                                40.6754683
                            ],
                            [
                                14.5740368,
                                40.6748851
                            ],
                            [
                                14.5748688,
                                40.6742461
                            ],
                            [
                                14.5755355,
                                40.6736467
                            ],
                            [
                                14.5750528,
                                40.673238
                            ],
                            [
                                14.5740742,
                                40.6727407
                            ],
                            [
                                14.5733319,
                                40.672205
                            ],
                            [
                                14.5730629,
                                40.6717364
                            ],
                            [
                                14.5729467,
                                40.6712829
                            ],
                            [
                                14.5727155,
                                40.670718
                            ],
                            [
                                14.5722804,
                                40.6700909
                            ],
                            [
                                14.5717494,
                                40.6698736
                            ],
                            [
                                14.570993,
                                40.6697616
                            ],
                            [
                                14.5704378,
                                40.66960850000001
                            ],
                            [
                                14.5700719,
                                40.6695091
                            ],
                            [
                                14.5693266,
                                40.6694777
                            ],
                            [
                                14.5683687,
                                40.6694475
                            ],
                            [
                                14.5674347,
                                40.6692361
                            ],
                            [
                                14.5666796,
                                40.6689711
                            ],
                            [
                                14.5660417,
                                40.6688624
                            ],
                            [
                                14.5652598,
                                40.6689317
                            ],
                            [
                                14.5641449,
                                40.6693412
                            ],
                            [
                                14.5633995,
                                40.6694403
                            ],
                            [
                                14.5622754,
                                40.6693325
                            ],
                            [
                                14.561365,
                                40.6693675
                            ],
                            [
                                14.5594225,
                                40.6698485
                            ],
                            [
                                14.5585571,
                                40.66995330000001
                            ],
                            [
                                14.5578934,
                                40.6701744
                            ],
                            [
                                14.5571708,
                                40.670299300000011
                            ],
                            [
                                14.5569004,
                                40.6700333
                            ],
                            [
                                14.5566431,
                                40.66942
                            ],
                            [
                                14.5563619,
                                40.669042
                            ],
                            [
                                14.5558787,
                                40.6687503
                            ],
                            [
                                14.5555616,
                                40.668482
                            ],
                            [
                                14.5552468,
                                40.6681635
                            ],
                            [
                                14.5551839,
                                40.6679227
                            ]
                        ]
                    ]
                ]
            }
        }
    ]
}