{
    "type": "FeatureCollection",
    "features": [
        {
            "type": "Feature",
            "properties": {
                "diocese": "Burgen",
                "province": "Burgen",
                "date": 1592
            },
            "geometry": {
                "coordinates": [
                    [
                        [
                            -3.0018228749999594,
                            43.31747591700008
                        ],
                        [
                            -3.0435079999999743,
                            43.33920100000006
                        ],
                        [
                            -3.03172399999994,
                            43.34659300000004
                        ],
                        [
                            -3.047057999999936,
                            43.338655000000074
                        ],
                        [
                            -3.10354099999995,
                            43.36381200000005
                        ],
                        [
                            -3.089414999999974,
                            43.375035000000025
                        ],
                        [
                            -3.1092649999999367,
                            43.36465300000003
                        ],
                        [
                            -3.120653999999945,
                            43.34675500000003
                        ],
                        [
                            -3.161694999999952,
                            43.35108500000007
                        ],
                        [
                            -3.2230689999999527,
                            43.39456300000006
                        ],
                        [
                            -3.3210829999999305,
                            43.40337000000005
                        ],
                        [
                            -3.32373599999994,
                            43.41923700000007
                        ],
                        [
                            -3.424900999999977,
                            43.413197000000025
                        ],
                        [
                            -3.450909999999965,
                            43.43601400000006
                        ],
                        [
                            -3.4646639999999707,
                            43.40388500000006
                        ],
                        [
                            -3.45976799999994,
                            43.430990000000065
                        ],
                        [
                            -3.4915919999999687,
                            43.42447400000003
                        ],
                        [
                            -3.4649879999999484,
                            43.44465500000007
                        ],
                        [
                            -3.4289119999999684,
                            43.44166400000006
                        ],
                        [
                            -3.4309829999999693,
                            43.46191700000003
                        ],
                        [
                            -3.4987189999999373,
                            43.47240800000003
                        ],
                        [
                            -3.546353999999951,
                            43.50790100000006
                        ],
                        [
                            -3.590823999999941,
                            43.51381200000003
                        ],
                        [
                            -3.72279199999997,
                            43.47401200000007
                        ],
                        [
                            -3.7326159999999504,
                            43.459227000000055
                        ],
                        [
                            -3.772068999999931,
                            43.45896800000003
                        ],
                        [
                            -3.7472249999999576,
                            43.45304600000003
                        ],
                        [
                            -3.742747999999949,
                            43.43164500000006
                        ],
                        [
                            -3.7624609999999734,
                            43.434127000000046
                        ],
                        [
                            -3.7555759999999623,
                            43.44776000000007
                        ],
                        [
                            -3.7755979999999454,
                            43.44883200000004
                        ],
                        [
                            -3.791211999999973,
                            43.43213900000006
                        ],
                        [
                            -3.778904999999952,
                            43.421437000000026
                        ],
                        [
                            -3.814395999999931,
                            43.40209100000004
                        ],
                        [
                            -3.821705999999949,
                            43.413943000000074
                        ],
                        [
                            -3.8045399999999745,
                            43.424393000000066
                        ],
                        [
                            -3.832390999999973,
                            43.443733000000066
                        ],
                        [
                            -3.7631469999999467,
                            43.467189000000076
                        ],
                        [
                            -3.78408799999994,
                            43.47465200000005
                        ],
                        [
                            -3.7852009999999723,
                            43.49181500000003
                        ],
                        [
                            -3.946504999999945,
                            43.470020000000034
                        ],
                        [
                            -3.9816209999999614,
                            43.441261000000054
                        ],
                        [
                            -4.081818999999939,
                            43.43815100000006
                        ],
                        [
                            -4.1745299999999474,
                            43.40103000000005
                        ],
                        [
                            -4.280895999999927,
                            43.38718300000005
                        ],
                        [
                            -4.331256999999937,
                            43.39113700000007
                        ],
                        [
                            -4.340746999999965,
                            43.40607200000005
                        ],
                        [
                            -4.379358999999965,
                            43.39053100000007
                        ],
                        [
                            -4.495368998999936,
                            43.39755500000007
                        ],
                        [
                            -4.534367999999972,
                            43.36829600000004
                        ],
                        [
                            -4.522104790999947,
                            43.27994563100003
                        ],
                        [
                            -4.589177989999939,
                            43.250204143000076
                        ],
                        [
                            -4.55637818699995,
                            43.23981615200006
                        ],
                        [
                            -4.507178483999951,
                            43.18109072200008
                        ],
                        [
                            -4.485434749999968,
                            43.073198123000054
                        ],
                        [
                            -4.4501393099999405,
                            43.05652826700003
                        ],
                        [
                            -4.444950209999945,
                            43.030866708000076
                        ],
                        [
                            -4.347026161999963,
                            43.01800855700003
                        ],
                        [
                            -4.317553875999977,
                            42.95124193500004
                        ],
                        [
                            -4.4069214529999385,
                            42.90181581000007
                        ],
                        [
                            -4.374121650999939,
                            42.878481263000026
                        ],
                        [
                            -4.3551072729999305,
                            42.807029691000025
                        ],
                        [
                            -4.295687340999962,
                            42.790287627000055
                        ],
                        [
                            -4.323258188999944,
                            42.65758642900005
                        ],
                        [
                            -4.2828526349999265,
                            42.58447979500005
                        ],
                        [
                            -4.321356750999939,
                            42.51899584300003
                        ],
                        [
                            -4.330388580999966,
                            42.45905466200003
                        ],
                        [
                            -4.312324921999959,
                            42.36324005700004
                        ],
                        [
                            -4.25338034899994,
                            42.32494352600003
                        ],
                        [
                            -4.228186297999969,
                            42.23701934700006
                        ],
                        [
                            -4.251478910999936,
                            42.17892218600008
                        ],
                        [
                            -4.242922440999962,
                            42.159896966000076
                        ],
                        [
                            -4.267641132999927,
                            42.05233228600008
                        ],
                        [
                            -4.231038454999975,
                            42.02620711700007
                        ],
                        [
                            -4.0580076129999725,
                            41.98629255600008
                        ],
                        [
                            -4.084152382999946,
                            41.813984936000054
                        ],
                        [
                            -4.048762746999955,
                            41.80002512400006
                        ],
                        [
                            -3.946392517999925,
                            41.827622802000064
                        ],
                        [
                            -3.8747098329999403,
                            41.81763482500003
                        ],
                        [
                            -3.762366801999974,
                            41.82919380300007
                        ],
                        [
                            -3.7061952869999573,
                            41.866101221000065
                        ],
                        [
                            -3.614784803999953,
                            41.874960319000024
                        ],
                        [
                            -3.5312052039999458,
                            41.84108727200004
                        ],
                        [
                            -3.476840814999946,
                            41.88606049200007
                        ],
                        [
                            -3.44069828399995,
                            41.88706950300008
                        ],
                        [
                            -3.242832008999926,
                            41.98913635500003
                        ],
                        [
                            -3.1797874609999326,
                            41.98922468500007
                        ],
                        [
                            -3.1220312879999597,
                            41.96696158700007
                        ],
                        [
                            -3.05286648699996,
                            41.97862418100004
                        ],
                        [
                            -2.96765830399994,
                            41.94522105600004
                        ],
                        [
                            -2.9321019999999294,
                            42.01797000000005
                        ],
                        [
                            -2.883756999999946,
                            42.009483000000046
                        ],
                        [
                            -2.8246240419999253,
                            42.040745308000055
                        ],
                        [
                            -2.75714684899998,
                            42.03286445900005
                        ],
                        [
                            -2.708358999999973,
                            42.08628500000003
                        ],
                        [
                            -2.7460695849999297,
                            42.16890547300005
                        ],
                        [
                            -2.7845737009999425,
                            42.178945845000044
                        ],
                        [
                            -2.8273560519999705,
                            42.21750718200008
                        ],
                        [
                            -2.9029382049999413,
                            42.22595583800006
                        ],
                        [
                            -2.9050773229999436,
                            42.34517232800005
                        ],
                        [
                            -2.92432938099995,
                            42.38152532500004
                        ],
                        [
                            -2.99349418099996,
                            42.40680195900006
                        ],
                        [
                            -3.029146139999966,
                            42.391531876000045
                        ],
                        [
                            -3.0491112379999663,
                            42.34411830400006
                        ],
                        [
                            -3.0871708839999314,
                            42.35264539700006
                        ],
                        [
                            -3.0797719219999635,
                            42.45574646700004
                        ],
                        [
                            -3.02130270899994,
                            42.521471881000025
                        ],
                        [
                            -2.9649726139999757,
                            42.53933724600006
                        ],
                        [
                            -2.955703104999941,
                            42.57190211000005
                        ],
                        [
                            -2.985650749999934,
                            42.59080294200004
                        ],
                        [
                            -2.98619199999996,
                            42.60704000000004
                        ],
                        [
                            -2.9357380079999302,
                            42.65428874200006
                        ],
                        [
                            -2.954990064999947,
                            42.68889007300004
                        ],
                        [
                            -3.016267999999968,
                            42.73387400000007
                        ],
                        [
                            -3.016895730999977,
                            42.75346113100005
                        ],
                        [
                            -2.962823592999939,
                            42.781814764000046
                        ],
                        [
                            -2.959258396999928,
                            42.80448832600007
                        ],
                        [
                            -3.048982493999972,
                            42.85285986700006
                        ],
                        [
                            -3.062054878999959,
                            42.87376556600003
                        ],
                        [
                            -3.044430747999968,
                            42.90427150100004
                        ],
                        [
                            -3.018857999999966,
                            42.90849500000007
                        ],
                        [
                            -2.9847689999999716,
                            42.944210000000055
                        ],
                        [
                            -3.040958565999972,
                            42.96983867000006
                        ],
                        [
                            -3.060209999999927,
                            43.00349300000005
                        ],
                        [
                            -3.1777529999999388,
                            43.02196600000008
                        ],
                        [
                            -3.141811999999959,
                            43.02979600000003
                        ],
                        [
                            -3.140263999999945,
                            43.06713300000007
                        ],
                        [
                            -3.158139999999946,
                            43.073998000000074
                        ],
                        [
                            -3.1475549999999544,
                            43.08571000000006
                        ],
                        [
                            -3.0959242409999774,
                            43.10759916400008
                        ],
                        [
                            -3.110666999999978,
                            43.143035000000054
                        ],
                        [
                            -3.026726999999937,
                            43.160807000000034
                        ],
                        [
                            -3.0157479999999737,
                            43.20160100000004
                        ],
                        [
                            -3.0339475719999314,
                            43.21647815400007
                        ],
                        [
                            -3.006486999999936,
                            43.196109000000035
                        ],
                        [
                            -2.979257999999959,
                            43.20214900000008
                        ],
                        [
                            -2.9317667749999714,
                            43.161555547000034
                        ],
                        [
                            -2.870683084999939,
                            43.22601521800004
                        ],
                        [
                            -2.8880337059999306,
                            43.23069109200003
                        ],
                        [
                            -2.8803091139999424,
                            43.24447850300004
                        ],
                        [
                            -2.9009575409999684,
                            43.241773213000045
                        ],
                        [
                            -2.8904105029999414,
                            43.25226906700004
                        ],
                        [
                            -2.920417567999948,
                            43.24231428100006
                        ],
                        [
                            -2.9290334589999247,
                            43.26817170700008
                        ],
                        [
                            -2.9600803729999257,
                            43.26709002600006
                        ],
                        [
                            -2.97924330099994,
                            43.30720750300003
                        ],
                        [
                            -3.0018228749999594,
                            43.31747591700008
                        ]
                    ],
                    [
                        [
                            -4.151729680999949,
                            42.094406734000074
                        ],
                        [
                            -4.164802065999936,
                            42.11093909400006
                        ],
                        [
                            -4.122465364999925,
                            42.128238348000025
                        ],
                        [
                            -4.063788181999939,
                            42.09727265200007
                        ],
                        [
                            -4.079385913999943,
                            42.08360326300004
                        ],
                        [
                            -4.151729680999949,
                            42.094406734000074
                        ]
                    ]
                ],
                "type": "Polygon"
            }
        }
    ]
}