{
    "type": "FeatureCollection",
    "features": [
        {
            "type": "Feature",
            "properties": {
                "diocese": "Pampilonen",
                "province": "Burgen",
                "date": 1592
            },
            "geometry": {
                "coordinates": [
                    [
                        [
                            -1.057835094999973,
                            42.996285500000056
                        ],
                        [
                            -1.111645019999969,
                            43.02418899000003
                        ],
                        [
                            -1.1419710199999713,
                            43.00973700600008
                        ],
                        [
                            -1.1634800099999438,
                            43.03463799000008
                        ],
                        [
                            -1.2292139699999325,
                            43.05583999600003
                        ],
                        [
                            -1.2635150069999668,
                            43.04413199500004
                        ],
                        [
                            -1.3088300069999264,
                            43.06892100500005
                        ],
                        [
                            -1.3442010299999652,
                            43.07318399300004
                        ],
                        [
                            -1.3523429799999462,
                            43.02805899400005
                        ],
                        [
                            -1.56006264399997,
                            43.087081828000066
                        ],
                        [
                            -1.6926879319999557,
                            43.087081828000066
                        ],
                        [
                            -1.8214723149999372,
                            43.28450651300005
                        ],
                        [
                            -1.931812999999977,
                            43.322043000000065
                        ],
                        [
                            -1.930913999999973,
                            43.33559500000007
                        ],
                        [
                            -2.127548999999931,
                            43.29040900000007
                        ],
                        [
                            -2.189884999999947,
                            43.29234000000008
                        ],
                        [
                            -2.200743999999929,
                            43.31156000000004
                        ],
                        [
                            -2.2857139999999276,
                            43.29456400000004
                        ],
                        [
                            -2.3453669999999534,
                            43.30343000000005
                        ],
                        [
                            -2.368082448999928,
                            43.292177655000046
                        ],
                        [
                            -2.403192201999957,
                            43.23453085400007
                        ],
                        [
                            -2.3856233709999515,
                            43.21503514900007
                        ],
                        [
                            -2.4067174469999486,
                            43.19023823200007
                        ],
                        [
                            -2.3450692669999285,
                            43.14939340500007
                        ],
                        [
                            -2.3498228619999395,
                            43.12565402800004
                        ],
                        [
                            -2.312536854999962,
                            43.09442109200006
                        ],
                        [
                            -2.341949720999935,
                            43.03244444100005
                        ],
                        [
                            -2.3211527449999494,
                            42.983018343000026
                        ],
                        [
                            -2.2088490729999535,
                            42.82284435200006
                        ],
                        [
                            -2.2082548739999766,
                            42.77706623500006
                        ],
                        [
                            -2.289386960999934,
                            42.74005972600003
                        ],
                        [
                            -2.2890339999999583,
                            42.65688000000006
                        ],
                        [
                            -2.312979999999925,
                            42.651162000000056
                        ],
                        [
                            -2.299880408999968,
                            42.628512528000044
                        ],
                        [
                            -2.2414111959999445,
                            42.616707328000075
                        ],
                        [
                            -2.2157417849999774,
                            42.53322011900008
                        ],
                        [
                            -2.2601600319999307,
                            42.44878044400008
                        ],
                        [
                            -2.2350439999999594,
                            42.42660900000004
                        ],
                        [
                            -2.1757389999999646,
                            42.40786900000006
                        ],
                        [
                            -2.1364249999999743,
                            42.42140800000004
                        ],
                        [
                            -2.070281791999946,
                            42.41672933900003
                        ],
                        [
                            -2.053525370999978,
                            42.35906126300006
                        ],
                        [
                            -2.0133776319999583,
                            42.36855064900004
                        ],
                        [
                            -1.9701197949999596,
                            42.35256273500005
                        ],
                        [
                            -1.965127999999936,
                            42.333942000000036
                        ],
                        [
                            -1.9164811529999497,
                            42.326310557000056
                        ],
                        [
                            -1.9151446199999782,
                            42.30063479700004
                        ],
                        [
                            -1.8675839999999653,
                            42.28365900000006
                        ],
                        [
                            -1.8723819999999591,
                            42.25267900000006
                        ],
                        [
                            -1.8502749999999537,
                            42.25911200000007
                        ],
                        [
                            -1.8191699999999287,
                            42.248642000000075
                        ],
                        [
                            -1.8168149999999628,
                            42.22822200000007
                        ],
                        [
                            -1.707352999999955,
                            42.20870600000006
                        ],
                        [
                            -1.7031749999999306,
                            42.19091800000007
                        ],
                        [
                            -1.679687999999942,
                            42.18883500000004
                        ],
                        [
                            -1.697074999999927,
                            42.18037900000007
                        ],
                        [
                            -1.6417452429999457,
                            42.16874195400004
                        ],
                        [
                            -1.5549921429999358,
                            42.113006410000025
                        ],
                        [
                            -1.4313986839999302,
                            42.10374912100008
                        ],
                        [
                            -1.3609860649999632,
                            42.073984393000046
                        ],
                        [
                            -1.3108189999999809,
                            42.072438000000034
                        ],
                        [
                            -1.1390526189999264,
                            42.18239298200007
                        ],
                        [
                            -1.0374445359999527,
                            42.15200441600007
                        ],
                        [
                            -0.9245466649999798,
                            42.18327359300008
                        ],
                        [
                            -0.8490833519999796,
                            42.09515185600003
                        ],
                        [
                            -0.8281319999999255,
                            42.082561000000055
                        ],
                        [
                            -0.8047429999999736,
                            42.096453000000054
                        ],
                        [
                            -0.7879709999999704,
                            42.05227300000007
                        ],
                        [
                            -0.7548769999999649,
                            42.090607000000034
                        ],
                        [
                            -0.7608219999999619,
                            42.12986200000006
                        ],
                        [
                            -0.747351999999978,
                            42.155931000000066
                        ],
                        [
                            -0.7620959999999286,
                            42.23066000000006
                        ],
                        [
                            -0.7593399999999519,
                            42.263656000000026
                        ],
                        [
                            -0.7290511149999475,
                            42.29704703700003
                        ],
                        [
                            -0.7445509999999445,
                            42.33868700000005
                        ],
                        [
                            -0.7363909999999692,
                            42.36988300000007
                        ],
                        [
                            -0.7979822099999296,
                            42.396898201000056
                        ],
                        [
                            -0.8353969999999435,
                            42.395534000000055
                        ],
                        [
                            -0.9043739999999616,
                            42.43476500000003
                        ],
                        [
                            -0.9037209999999618,
                            42.453250000000025
                        ],
                        [
                            -0.8772099999999341,
                            42.46662100000003
                        ],
                        [
                            -0.8969829999999774,
                            42.479089000000045
                        ],
                        [
                            -0.8929569999999671,
                            42.509858000000065
                        ],
                        [
                            -0.9333879999999795,
                            42.505885000000035
                        ],
                        [
                            -0.8950119999999515,
                            42.549068000000034
                        ],
                        [
                            -0.9341319999999769,
                            42.57265400000006
                        ],
                        [
                            -0.9046769999999356,
                            42.599053000000026
                        ],
                        [
                            -0.9276089999999613,
                            42.656247000000064
                        ],
                        [
                            -0.893058999999937,
                            42.66235300000005
                        ],
                        [
                            -0.8799199999999701,
                            42.688143000000025
                        ],
                        [
                            -0.922476999999958,
                            42.70077400000008
                        ],
                        [
                            -0.904316999999935,
                            42.712195000000065
                        ],
                        [
                            -0.9005029999999579,
                            42.76047200000005
                        ],
                        [
                            -0.8732769999999732,
                            42.758988000000045
                        ],
                        [
                            -0.8474999999999682,
                            42.785926000000075
                        ],
                        [
                            -0.8599749999999631,
                            42.79856900000004
                        ],
                        [
                            -0.8568009999999617,
                            42.846892000000025
                        ],
                        [
                            -0.8185019999999668,
                            42.86937300000005
                        ],
                        [
                            -0.8190639999999689,
                            42.900675000000035
                        ],
                        [
                            -0.7898229999999558,
                            42.91862800000007
                        ],
                        [
                            -0.7279934859999457,
                            42.919166905000054
                        ],
                        [
                            -0.7300630199999318,
                            42.945591990000025
                        ],
                        [
                            -0.7606839919999402,
                            42.97039900400006
                        ],
                        [
                            -0.860960026999976,
                            42.95089700300008
                        ],
                        [
                            -0.944290012999943,
                            42.95340099900005
                        ],
                        [
                            -1.0107519729999694,
                            42.99220800000006
                        ],
                        [
                            -1.057835094999973,
                            42.996285500000056
                        ]
                    ]
                ],
                "type": "Polygon"
            }
        }
    ]
}