{
    "type": "FeatureCollection",
    "name": "Santanderien_1754",
    "features": [
        {
            "type": "Feature",
            "properties": {
                "diocese": "Santanderien",
                "province": "Burgen",
                "date": 1592
            },
            "geometry": {
                "type": "MultiPolygon",
                "coordinates": [
                    [
                        [
                            [
                                -4.38671061241753,
                                42.887437344865418
                            ],
                            [
                                -4.406921452999939,
                                42.901815810000073
                            ],
                            [
                                -4.317553875999977,
                                42.951241935000041
                            ],
                            [
                                -4.347026161999963,
                                43.01800855700003
                            ],
                            [
                                -4.444950209999945,
                                43.030866708000076
                            ],
                            [
                                -4.44728715399998,
                                43.049233780000066
                            ],
                            [
                                -4.448864661387387,
                                43.05022477109992
                            ],
                            [
                                -4.45013930999994,
                                43.056528267000033
                            ],
                            [
                                -4.485434749999968,
                                43.073198123000054
                            ],
                            [
                                -4.500761130999933,
                                43.167570675000036
                            ],
                            [
                                -4.505763253301282,
                                43.17406833484872
                            ],
                            [
                                -4.507178483999951,
                                43.181090722000079
                            ],
                            [
                                -4.55637818699995,
                                43.23981615200006
                            ],
                            [
                                -4.589177989999939,
                                43.250204143000076
                            ],
                            [
                                -4.523065148999933,
                                43.278635807000057
                            ],
                            [
                                -4.523052809837057,
                                43.279525262040629
                            ],
                            [
                                -4.522104790999947,
                                43.279945631000032
                            ],
                            [
                                -4.522961366753139,
                                43.28611683658503
                            ],
                            [
                                -4.522273,
                                43.335737
                            ],
                            [
                                -4.531399344506889,
                                43.346908302192134
                            ],
                            [
                                -4.533640494008521,
                                43.363054678352974
                            ],
                            [
                                -4.52484694231805,
                                43.375439173403777
                            ],
                            [
                                -4.495368998999936,
                                43.397555
                            ],
                            [
                                -4.379359,
                                43.390531
                            ],
                            [
                                -4.340747,
                                43.406072
                            ],
                            [
                                -4.331257,
                                43.391137
                            ],
                            [
                                -4.280896,
                                43.387183
                            ],
                            [
                                -4.17453,
                                43.40103
                            ],
                            [
                                -4.081819,
                                43.438151
                            ],
                            [
                                -3.981621,
                                43.441261
                            ],
                            [
                                -3.946505,
                                43.47002
                            ],
                            [
                                -3.785201,
                                43.491815
                            ],
                            [
                                -3.784088,
                                43.474652
                            ],
                            [
                                -3.763147,
                                43.467189
                            ],
                            [
                                -3.832391,
                                43.443733
                            ],
                            [
                                -3.80454,
                                43.424393
                            ],
                            [
                                -3.821706,
                                43.413943
                            ],
                            [
                                -3.814396,
                                43.402091
                            ],
                            [
                                -3.778905,
                                43.421437
                            ],
                            [
                                -3.791212,
                                43.432139
                            ],
                            [
                                -3.775598,
                                43.448832
                            ],
                            [
                                -3.755576,
                                43.44776
                            ],
                            [
                                -3.762461,
                                43.434127
                            ],
                            [
                                -3.742748,
                                43.431645
                            ],
                            [
                                -3.747225,
                                43.453046
                            ],
                            [
                                -3.772069,
                                43.458968
                            ],
                            [
                                -3.732616,
                                43.459227
                            ],
                            [
                                -3.722792,
                                43.474012
                            ],
                            [
                                -3.590824,
                                43.513812
                            ],
                            [
                                -3.546354,
                                43.507901
                            ],
                            [
                                -3.498719,
                                43.472408
                            ],
                            [
                                -3.430983,
                                43.461917
                            ],
                            [
                                -3.428912,
                                43.441664
                            ],
                            [
                                -3.464988,
                                43.444655
                            ],
                            [
                                -3.491592,
                                43.424474
                            ],
                            [
                                -3.459768,
                                43.43099
                            ],
                            [
                                -3.464664,
                                43.403885
                            ],
                            [
                                -3.45091,
                                43.436014
                            ],
                            [
                                -3.424901,
                                43.413197
                            ],
                            [
                                -3.323736,
                                43.419237
                            ],
                            [
                                -3.321083,
                                43.40337
                            ],
                            [
                                -3.223069,
                                43.394563
                            ],
                            [
                                -3.161695,
                                43.351085
                            ],
                            [
                                -3.120654,
                                43.346755
                            ],
                            [
                                -3.109265,
                                43.364653
                            ],
                            [
                                -3.103541,
                                43.363812
                            ],
                            [
                                -3.151960422184513,
                                43.189243450724589
                            ],
                            [
                                -3.300035657798333,
                                43.188234458934126
                            ],
                            [
                                -3.438423728465454,
                                43.117563587900769
                            ],
                            [
                                -3.369229693131893,
                                43.062990225034241
                            ],
                            [
                                -3.258519236598196,
                                43.100388329263346
                            ],
                            [
                                -3.147555,
                                43.08571
                            ],
                            [
                                -3.15814,
                                43.073998
                            ],
                            [
                                -3.140264,
                                43.067133
                            ],
                            [
                                -3.141812,
                                43.029796
                            ],
                            [
                                -3.177753,
                                43.021966
                            ],
                            [
                                -3.131202211584445,
                                42.923304076554338
                            ],
                            [
                                -3.264243931572132,
                                42.926318753180063
                            ],
                            [
                                -3.618820853176242,
                                43.078999321289672
                            ],
                            [
                                -3.721077825151657,
                                42.985963853012557
                            ],
                            [
                                -3.795050953814723,
                                42.982780660081183
                            ],
                            [
                                -3.938645850631263,
                                42.891193380539676
                            ],
                            [
                                -3.950612092032642,
                                42.830591382025474
                            ],
                            [
                                -3.805929355088703,
                                42.874454038816602
                            ],
                            [
                                -3.790699593305131,
                                42.728390419306777
                            ],
                            [
                                -3.922328248720294,
                                42.693219881106131
                            ],
                            [
                                -4.125754352543725,
                                42.719599653155797
                            ],
                            [
                                -4.115963791397143,
                                42.789092586133229
                            ],
                            [
                                -4.188141093168839,
                                42.770418986551988
                            ],
                            [
                                -4.212130306841417,
                                42.882914000608082
                            ],
                            [
                                -4.38671061241753,
                                42.887437344865418
                            ]
                        ]
                    ]
                ]
            }
        }
    ]
}