{"type": "FeatureCollection", "features": [{"type": "Feature", "properties": {"diocese": "Clermont", "province": "VII_Bourges", "source": "46_Clermont.txt"}, "geometry": {"type": "Polygon", "coordinates": [[[3.2410631674504233, 46.54236726521538], [3.240286505378941, 46.53864428333673], [3.23950984330746, 46.53492130145807], [3.2387331812359776, 46.53119831957942], [3.2379565191644955, 46.52747533770076], [3.2371798570930133, 46.5237523558221], [3.2364031950215293, 46.520029373943444], [3.235626532950048, 46.516306392064784], [3.2348498708785676, 46.51258341018613], [3.2340732088070854, 46.50886042830747], [3.2332965467356023, 46.50513744642881], [3.2332965467356023, 46.50513744642881], [3.2253481950328076, 46.506465414771824], [3.217399843330012, 46.50779338311484], [3.209451491627218, 46.50912135145785], [3.2015031399244216, 46.510449319800856], [3.1935547882216277, 46.511777288143875], [3.185606436518834, 46.51310525648689], [3.1776580848160383, 46.514433224829894], [3.1697097331132436, 46.51576119317291], [3.161761381410447, 46.517089161515926], [3.1538130297076523, 46.51841712985894], [3.1538130297076523, 46.51841712985894], [3.152272614876964, 46.51761877424528], [3.1507322000462774, 46.51682041863162], [3.149191785215589, 46.51602206301796], [3.1476513703849016, 46.5152237074043], [3.1461109555542115, 46.51442535179064], [3.144570540723523, 46.51362699617698], [3.143030125892835, 46.51282864056332], [3.1414897110621482, 46.51203028494967], [3.13994929623146, 46.511231929336006], [3.1384088814007716, 46.510433573722345], [3.1384088814007716, 46.510433573722345], [3.140324149028831, 46.50608955834963], [3.142239416656889, 46.50174554297691], [3.144154684284953, 46.497401527604204], [3.1460699519130118, 46.49305751223148], [3.1479852195410696, 46.488713496858765], [3.149900487169131, 46.48436948148605], [3.151815754797189, 46.48002546611333], [3.15373102242525, 46.475681450740616], [3.155646290053308, 46.4713374353679], [3.1575615576813694, 46.466993419995184], [3.1575615576813694, 46.466993419995184], [3.1557594640961253, 46.46353511154714], [3.153957370510882, 46.460076803099106], [3.152155276925639, 46.456618494651075], [3.1503531833403957, 46.45316018620304], [3.1485510897551534, 46.449701877755], [3.146748996169911, 46.446243569306965], [3.144946902584667, 46.442785260858926], [3.143144808999423, 46.43932695241089], [3.141342715414179, 46.43586864396285], [3.1395406218289366, 46.43241033551482], [3.1395406218289366, 46.43241033551482], [3.1435141987433455, 46.43143602906789], [3.1474877756577535, 46.430461722620954], [3.1514613525721624, 46.429487416174034], [3.1554349294865696, 46.4285131097271], [3.1594085064009785, 46.42753880328017], [3.1633820833153856, 46.42656449683325], [3.1673556602297936, 46.42559019038632], [3.1713292371442017, 46.42461588393939], [3.175302814058609, 46.42364157749247], [3.1792763909730177, 46.42266727104554], [3.1792763909730177, 46.42266727104554], [3.1788814246240764, 46.41734738647996], [3.1784864582751333, 46.41202750191439], [3.178091491926194, 46.40670761734881], [3.1776965255772507, 46.401387732783235], [3.177301559228311, 46.39606784821766], [3.176906592879369, 46.39074796365208], [3.1765116265304303, 46.38542807908651], [3.176116660181488, 46.380108194520936], [3.1757216938325468, 46.37478830995535], [3.1753267274836054, 46.36946842538978], [3.1753267274836054, 46.36946842538978], [3.1719925121363226, 46.36946759328845], [3.1686582967890398, 46.36946676118711], [3.1653240814417587, 46.369465929085784], [3.161989866094476, 46.36946509698445], [3.1586556507471912, 46.369464264883106], [3.15532143539991, 46.36946343278178], [3.1519872200526273, 46.36946260068044], [3.1486530047053463, 46.369461768579114], [3.1453187893580634, 46.36946093647777], [3.1419845740107806, 46.369460104376444], [3.1419845740107806, 46.369460104376444], [3.1386379586194626, 46.36307552707911], [3.135291343228149, 46.35669094978177], [3.1319447278368293, 46.35030637248444], [3.1285981124455113, 46.34392179518711], [3.125251497054196, 46.337537217889775], [3.12190488166288, 46.331152640592435], [3.118558266271562, 46.3247680632951], [3.115211650880243, 46.31838348599778], [3.111865035488927, 46.311998908700446], [3.1085184200976106, 46.3056143314031], [3.1085184200976106, 46.3056143314031], [3.119031589358402, 46.3042870086165], [3.1295447586191956, 46.30295968582988], [3.1400579278799907, 46.301632363043275], [3.1505710971407823, 46.30030504025666], [3.161084266401575, 46.29897771747006], [3.17159743566237, 46.29765039468345], [3.1821106049231616, 46.296323071896836], [3.192623774183954, 46.294995749110235], [3.2031369434447456, 46.29366842632363], [3.213650112705541, 46.29234110353701], [3.213650112705541, 46.29234110353701], [3.2117025025961765, 46.2799277761997], [3.2097548924868087, 46.26751444886238], [3.2078072823774426, 46.25510112152507], [3.2058596722680783, 46.24268779418775], [3.2039120621587105, 46.23027446685044], [3.2019644520493444, 46.217861139513126], [3.2000168419399784, 46.20544781217581], [3.1980692318306123, 46.1930344848385], [3.1961216217212463, 46.18062115750118], [3.19417401161188, 46.16820783016387], [3.19417401161188, 46.16820783016387], [3.186991714329722, 46.16776272586497], [3.17980941704756, 46.16731762156607], [3.172627119765401, 46.16687251726717], [3.1654448224832428, 46.16642741296827], [3.1582625252010827, 46.16598230866937], [3.151080227918921, 46.16553720437047], [3.1438979306367636, 46.16509210007157], [3.136715633354602, 46.16464699577268], [3.1295333360724418, 46.16420189147377], [3.1223510387902818, 46.16375678717487], [3.1223510387902818, 46.16375678717487], [3.1196547389729674, 46.16207258043851], [3.116958439155652, 46.16038837370215], [3.1142621393383334, 46.15870416696578], [3.111565839521021, 46.15701996022943], [3.1088695397037065, 46.155335753493056], [3.1061732398863913, 46.153651546756684], [3.1034769400690743, 46.15196734002033], [3.100780640251758, 46.15028313328396], [3.098084340434443, 46.14859892654759], [3.095388040617127, 46.146914719811235], [3.095388040617127, 46.146914719811235], [3.087826518340272, 46.14930566880786], [3.080264996063415, 46.15169661780449], [3.0727034737865613, 46.15408756680112], [3.065141951509704, 46.156478515797744], [3.0575804292328495, 46.15886946479438], [3.050018906955993, 46.161260413791], [3.0424573846791367, 46.16365136278763], [3.034895862402282, 46.16604231178426], [3.027334340125426, 46.168433260780894], [3.019772817848571, 46.170824209777514], [3.019772817848571, 46.170824209777514], [3.0172033820096176, 46.168430732454766], [3.0146339461706657, 46.16603725513202], [3.0120645103317143, 46.16364377780927], [3.009495074492763, 46.161250300486515], [3.006925638653812, 46.15885682316377], [3.0043562028148574, 46.15646334584102], [3.0017867669759064, 46.15406986851826], [2.9992173311369554, 46.151676391195515], [2.9966478952980027, 46.14928291387277], [2.994078459459049, 46.14688943655001], [2.994078459459049, 46.14688943655001], [2.977158420029006, 46.15007602117527], [2.9602383805989607, 46.15326260580052], [2.9433183411689154, 46.15644919042578], [2.926398301738868, 46.159635775051036], [2.9094782623088213, 46.1628223596763], [2.8925582228787774, 46.16600894430155], [2.8756381834487303, 46.169195528926814], [2.8587181440186833, 46.17238211355206], [2.8417981045886394, 46.175568698177315], [2.824878065158594, 46.17875528280258], [2.824878065158594, 46.17875528280258], [2.814101413866615, 46.176447348725304], [2.803324762574636, 46.17413941464804], [2.7925481112826573, 46.17183148057078], [2.781771459990678, 46.16952354649351], [2.7709948086987004, 46.167215612416236], [2.760218157406722, 46.16490767833898], [2.749441506114741, 46.16259974426171], [2.7386648548227637, 46.16029181018444], [2.7278882035307848, 46.15798387610718], [2.7171115522388054, 46.155675942029916], [2.7171115522388054, 46.155675942029916], [2.7098063268393706, 46.15797936351512], [2.7025011014399345, 46.16028278500032], [2.695195876040501, 46.16258620648553], [2.6878906506410636, 46.16488962797073], [2.680585425241628, 46.167193049455925], [2.6732801998421927, 46.16949647094115], [2.6659749744427588, 46.17179989242635], [2.6586697490433235, 46.17410331391155], [2.651364523643886, 46.176406735396746], [2.644059298244452, 46.17871015688196], [2.644059298244452, 46.17871015688196], [2.6361335687162346, 46.17495441251122], [2.628207839188018, 46.17119866814049], [2.6202821096598057, 46.16744292376976], [2.6123563801315877, 46.16368717939903], [2.6044306506033714, 46.1599314350283], [2.5965049210751556, 46.15617569065756], [2.588579191546937, 46.152419946286834], [2.580653462018723, 46.1486642019161], [2.5727277324905073, 46.14490845754537], [2.5648020029622893, 46.14115271317464], [2.5648020029622893, 46.14115271317464], [2.5647923231077354, 46.13613737008337], [2.5647826432531793, 46.1311220269921], [2.564772963398623, 46.12610668390084], [2.564763283544067, 46.12109134080957], [2.564753603689511, 46.1160759977183], [2.5647439238349548, 46.11106065462703], [2.5647342439803986, 46.10604531153576], [2.5647245641258434, 46.1010299684445], [2.5647148842712872, 46.096014625353234], [2.564705204416733, 46.09099928226196], [2.564705204416733, 46.09099928226196], [2.5645140365447165, 46.08560681025775], [2.564322868672702, 46.08021433825353], [2.5641317008006914, 46.07482186624932], [2.563940532928675, 46.06942939424511], [2.563749365056661, 46.0640369222409], [2.5635581971846464, 46.05864445023669], [2.5633670293126305, 46.053251978232474], [2.5631758614406177, 46.047859506228264], [2.562984693568603, 46.04246703422405], [2.5627935256965872, 46.037074562219836], [2.5627935256965872, 46.037074562219836], [2.5700417799219113, 46.034067140467656], [2.5772900341472376, 46.031059718715476], [2.5845382883725594, 46.02805229696328], [2.5917865425978834, 46.025044875211094], [2.5990347968232075, 46.022037453458914], [2.606283051048532, 46.019030031706734], [2.6135313052738556, 46.01602260995454], [2.620779559499178, 46.01301518820236], [2.628027813724504, 46.01000776645017], [2.6352760679498277, 46.00700034469799], [2.6352760679498277, 46.00700034469799], [2.6330937902620417, 46.00424166680299], [2.6309115125742553, 46.001482988907995], [2.6287292348864706, 45.998724311013], [2.6265469571986824, 45.995965633118], [2.6243646795108964, 45.993206955223], [2.6221824018231117, 45.990448277328], [2.620000124135324, 45.987689599433004], [2.617817846447539, 45.98493092153801], [2.615635568759753, 45.98217224364301], [2.613453291071968, 45.97941356574801], [2.613453291071968, 45.97941356574801], [2.601661870695747, 45.9772794948473], [2.5898704503195247, 45.97514542394659], [2.5780790299433036, 45.97301135304589], [2.566287609567081, 45.97087728214517], [2.5544961891908606, 45.968743211244465], [2.542704768814638, 45.96660914034375], [2.530913348438415, 45.96447506944304], [2.5191219280621944, 45.96234099854233], [2.5073305076859715, 45.96020692764162], [2.495539087309751, 45.95807285674091], [2.495539087309751, 45.95807285674091], [2.489368799695907, 45.95606516308491], [2.483198512082062, 45.95405746942891], [2.4770282244682167, 45.952049775772906], [2.470857936854373, 45.95004208211691], [2.464687649240528, 45.94803438846091], [2.4585173616266807, 45.94602669480491], [2.4523470740128395, 45.94401900114891], [2.446176786398994, 45.9420113074929], [2.440006498785148, 45.9400036138369], [2.433836211171303, 45.9379959201809], [2.433836211171303, 45.9379959201809], [2.428217255603495, 45.93899759477588], [2.422598300035687, 45.93999926937085], [2.4169793444678818, 45.941000943965825], [2.4113603889000736, 45.9420026185608], [2.4057414333322638, 45.943004293155774], [2.4001224777644565, 45.94400596775075], [2.3945035221966484, 45.94500764234572], [2.3888845666288403, 45.946009316940696], [2.383265611061034, 45.94701099153567], [2.377646655493225, 45.94801266613064], [2.377646655493225, 45.94801266613064], [2.3770973385423075, 45.94600637526861], [2.376548021591396, 45.944000084406575], [2.375998704640479, 45.94199379354455], [2.3754493876895633, 45.93998750268251], [2.374900070738648, 45.93798121182048], [2.374350753787733, 45.93597492095845], [2.3738014368368177, 45.93396863009642], [2.3732521198859025, 45.93196233923439], [2.3727028029349886, 45.92995604837236], [2.3721534859840716, 45.927949757510326], [2.3721534859840716, 45.927949757510326], [2.374870267086967, 45.925818268165166], [2.3775870481898607, 45.92368677882001], [2.3803038292927536, 45.92155528947485], [2.383020610395649, 45.91942380012969], [2.3857373914985422, 45.91729231078453], [2.3884541726014374, 45.91516082143938], [2.391170953704329, 45.91302933209422], [2.3938877348072256, 45.91089784274906], [2.3966045159101195, 45.908766353403905], [2.399321297013013, 45.906634864058745], [2.399321297013013, 45.906634864058745], [2.394049020727554, 45.8999880818763], [2.388776744442096, 45.89334129969386], [2.3835044681566386, 45.88669451751143], [2.3782321918711804, 45.880047735328986], [2.372959915585724, 45.87340095314655], [2.367687639300264, 45.8667541709641], [2.3624153630148057, 45.86010738878167], [2.3571430867293475, 45.85346060659923], [2.351870810443892, 45.84681382441679], [2.346598534158432, 45.840167042234356], [2.346598534158432, 45.840167042234356], [2.3560151110618412, 45.83264691725838], [2.3654316879652515, 45.82512679228241], [2.374848264868661, 45.81760666730644], [2.38426484177207, 45.81008654233047], [2.393681418675483, 45.8025664173545], [2.4030979955788925, 45.79504629237853], [2.4125145724823036, 45.787526167402554], [2.421931149385713, 45.78000604242659], [2.4313477262891223, 45.77248591745063], [2.4407643031925335, 45.764965792474655], [2.4407643031925335, 45.764965792474655], [2.443481438136816, 45.763837380103844], [2.4461985730810984, 45.76270896773304], [2.448915708025383, 45.76158055536224], [2.451632842969666, 45.76045214299143], [2.4543499779139504, 45.75932373062063], [2.457067112858233, 45.758195318249825], [2.4597842478025176, 45.757066905879014], [2.4625013827468005, 45.75593849350821], [2.4652185176910835, 45.75481008113741], [2.4679356526353677, 45.7536816687666], [2.4679356526353677, 45.7536816687666], [2.47336623470784, 45.74791560541858], [2.4787968167803145, 45.74214954207055], [2.4842273988527865, 45.73638347872251], [2.4896579809252573, 45.73061741537448], [2.4950885629977315, 45.724851352026455], [2.500519145070204, 45.71908528867842], [2.5059497271426765, 45.7133192253304], [2.511380309215149, 45.70755316198237], [2.5168108912876233, 45.701787098634334], [2.5222414733600957, 45.69602103528631], [2.5222414733600957, 45.69602103528631], [2.523497133167874, 45.689375882244086], [2.524752792975652, 45.68273072920187], [2.526008452783429, 45.67608557615966], [2.5272641125912108, 45.669440423117436], [2.528519772398989, 45.66279527007522], [2.5297754322067667, 45.656150117033], [2.5310310920145436, 45.649504963990786], [2.5322867518223258, 45.642859810948565], [2.5335424116301035, 45.63621465790634], [2.5347980714378804, 45.62956950486412], [2.5347980714378804, 45.62956950486412], [2.529355278496006, 45.62818910724553], [2.523912485554132, 45.62680870962695], [2.518469692612258, 45.62542831200836], [2.5130268996703817, 45.62404791438977], [2.507584106728508, 45.62266751677119], [2.5021413137866317, 45.62128711915259], [2.496698520844756, 45.619906721534], [2.4912557279028813, 45.61852632391541], [2.485812934961008, 45.61714592629682], [2.4803701420191318, 45.61576552867823], [2.4803701420191318, 45.61576552867823], [2.47999881094177, 45.61150208577454], [2.479627479864406, 45.60723864287086], [2.4792561487870404, 45.60297519996717], [2.4788848177096763, 45.598711757063484], [2.478513486632313, 45.59444831415979], [2.4781421555549508, 45.59018487125611], [2.477770824477586, 45.58592142835242], [2.47739949340022, 45.581657985448736], [2.4770281623228576, 45.577394542545036], [2.4766568312454926, 45.57313109964136], [2.4766568312454926, 45.57313109964136], [2.479914977668631, 45.569746719695075], [2.483173124091771, 45.5663623397488], [2.486431270514909, 45.5629779598025], [2.489689416938048, 45.55959357985623], [2.492947563361186, 45.55620919990994], [2.496205709784325, 45.55282481996366], [2.499463856207465, 45.54944044001738], [2.502722002630603, 45.546056060071095], [2.5059801490537406, 45.54267168012481], [2.5092382954768806, 45.53928730017853], [2.5092382954768806, 45.53928730017853], [2.512320471016029, 45.539163094969425], [2.515402646555174, 45.53903888976031], [2.5184848220943246, 45.538914684551216], [2.521566997633473, 45.538790479342104], [2.524649173172618, 45.538666274133], [2.5277313487117667, 45.538542068923896], [2.5308135242509153, 45.53841786371479], [2.5338956997900643, 45.53829365850569], [2.5369778753292107, 45.538169453296575], [2.5400600508683597, 45.53804524808747], [2.5400600508683597, 45.53804524808747], [2.536958031137569, 45.527887746182], [2.53385601140678, 45.51773024427653], [2.530753991675988, 45.50757274237105], [2.5276519719451986, 45.49741524046558], [2.5245499522144077, 45.4872577385601], [2.521447932483619, 45.477100236654636], [2.51834591275283, 45.46694273474915], [2.515243893022037, 45.45678523284368], [2.5121418732912484, 45.44662773093821], [2.5090398535604574, 45.436470229032736], [2.5090398535604574, 45.436470229032736], [2.507937850362086, 45.42907245340429], [2.5068358471637118, 45.42167467777585], [2.505733843965341, 45.41427690214741], [2.5046318407669697, 45.406879126518966], [2.503529837568595, 45.39948135089052], [2.502427834370222, 45.392083575262085], [2.501325831171849, 45.384685799633644], [2.500223827973478, 45.377288024005196], [2.499121824775105, 45.369890248376755], [2.49801982157673, 45.362492472748315], [2.49801982157673, 45.362492472748315], [2.4916751452253076, 45.36374495422433], [2.4853304688738835, 45.36499743570036], [2.4789857925224594, 45.36624991717638], [2.4726411161710367, 45.36750239865241], [2.466296439819611, 45.36875488012843], [2.459951763468185, 45.37000736160446], [2.4536070871167603, 45.37125984308047], [2.4472624107653385, 45.37251232455651], [2.440917734413914, 45.37376480603254], [2.4345730580624902, 45.375017287508555], [2.4345730580624902, 45.375017287508555], [2.4318522408788894, 45.375016608489545], [2.4291314236952863, 45.375015929470536], [2.426410606511686, 45.375015250451526], [2.423689789328085, 45.37501457143251], [2.4209689721444847, 45.3750138924135], [2.4182481549608803, 45.37501321339449], [2.4155273377772795, 45.37501253437548], [2.412806520593679, 45.37501185535647], [2.410085703410077, 45.375011176337466], [2.407364886226476, 45.37501049731844], [2.407364886226476, 45.37501049731844], [2.4059174454181154, 45.3767652471724], [2.4044700046097516, 45.378519997026366], [2.403022563801389, 45.38027474688032], [2.4015751229930267, 45.382029496734276], [2.4001276821846647, 45.383784246588235], [2.3986802413763004, 45.385538996442186], [2.3972328005679384, 45.387293746296145], [2.3957853597595755, 45.3890484961501], [2.3943379189512153, 45.39080324600407], [2.3928904781428515, 45.39255799585802], [2.3928904781428515, 45.39255799585802], [2.3907110241682736, 45.391303332369425], [2.3885315701936984, 45.390048668880844], [2.3863521162191232, 45.388794005392256], [2.3841726622445494, 45.387539341903675], [2.381993208269972, 45.38628467841509], [2.3798137542953963, 45.38503001492651], [2.377634300320819, 45.38377535143791], [2.3754548463462473, 45.38252068794933], [2.37327539237167, 45.38126602446074], [2.371095938397094, 45.380011360972155], [2.371095938397094, 45.380011360972155], [2.3710845638881772, 45.37411798061427], [2.371073189379262, 45.3682246002564], [2.371061814870347, 45.36233121989852], [2.371050440361431, 45.35643783954063], [2.3710390658525156, 45.35054445918275], [2.3710276913436004, 45.34465107882487], [2.371016316834685, 45.33875769846699], [2.371004942325768, 45.33286431810912], [2.3709935678168526, 45.32697093775123], [2.3709821933079374, 45.32107755739335], [2.3709821933079374, 45.32107755739335], [2.3659003256673397, 45.31856914385913], [2.360818458026738, 45.31606073032491], [2.3557365903861385, 45.31355231679068], [2.3506547227455408, 45.31104390325645], [2.345572855104941, 45.30853548972223], [2.340490987464339, 45.306027076188], [2.33540911982374, 45.30351866265378], [2.33032725218314, 45.30101024911956], [2.325245384542542, 45.29850183558533], [2.3201635169019403, 45.295993422051104], [2.3201635169019403, 45.295993422051104], [2.3172536319075627, 45.291729345614826], [2.314343746913187, 45.28746526917854], [2.311433861918807, 45.28320119274226], [2.3085239769244317, 45.27893711630598], [2.3056140919300554, 45.274673039869704], [2.302704206935679, 45.27040896343342], [2.2997943219412997, 45.26614488699714], [2.296884436946922, 45.261880810560854], [2.293974551952546, 45.257616734124575], [2.2910646669581665, 45.25335265768829], [2.2910646669581665, 45.25335265768829], [2.2832565775823404, 45.248084336642094], [2.275448488206512, 45.2428160155959], [2.2676403988306846, 45.237547694549704], [2.259832309454858, 45.2322793735035], [2.25202422007903, 45.22701105245731], [2.244216130703202, 45.221742731411105], [2.2364080413273757, 45.21647441036492], [2.22859995195155, 45.21120608931872], [2.22079186257572, 45.20593776827252], [2.2129837731998934, 45.200669447226325], [2.2129837731998934, 45.200669447226325], [2.2120734204243013, 45.19891416364451], [2.211163067648708, 45.197158880062695], [2.2102527148731146, 45.19540359648087], [2.2093423620975225, 45.19364831289906], [2.208432009321929, 45.191893029317235], [2.2075216565463354, 45.19013774573543], [2.2066113037707416, 45.188382462153605], [2.205700950995148, 45.18662717857178], [2.2047905982195544, 45.18487189498997], [2.2038802454439623, 45.18311661140815], [2.2038802454439623, 45.18311661140815], [2.204596157610866, 45.178603491021065], [2.20531206977777, 45.17409037063398], [2.206027981944675, 45.169577250246896], [2.2067438941115807, 45.16506412985979], [2.2074598062784845, 45.16055100947271], [2.208175718445388, 45.156037889085624], [2.2088916306122917, 45.151524768698536], [2.2096075427791972, 45.14701164831145], [2.210323454946101, 45.14249852792437], [2.211039367113005, 45.13798540753727], [2.211039367113005, 45.13798540753727], [2.207407762093883, 45.135225274073896], [2.203776157074759, 45.13246514061052], [2.2001445520556353, 45.129705007147145], [2.1965129470365117, 45.126944873683776], [2.192881342017388, 45.1241847402204], [2.189249736998264, 45.121424606757024], [2.1856181319791403, 45.11866447329365], [2.1819865269600167, 45.115904339830266], [2.178354921940893, 45.1131442063669], [2.174723316921769, 45.11038407290352], [2.174723316921769, 45.11038407290352], [2.1747158162885536, 45.106497831765644], [2.174708315655336, 45.102611590627774], [2.1747008150221183, 45.098725349489904], [2.1746933143889025, 45.094839108352026], [2.1746858137556853, 45.090952867214156], [2.1746783131224694, 45.087066626076286], [2.1746708124892518, 45.08318038493841], [2.174663311856036, 45.07929414380054], [2.1746558112228183, 45.07540790266266], [2.174648310589603, 45.07152166152479], [2.174648310589603, 45.07152166152479], [2.1851635012348796, 45.06964316107325], [2.195678691880158, 45.0677646606217], [2.2061938825254344, 45.06588616017016], [2.216709073170713, 45.06400765971861], [2.2272242638159905, 45.062129159267066], [2.2377394544612685, 45.06025065881551], [2.2482546451065453, 45.05837215836397], [2.2587698357518238, 45.056493657912426], [2.2692850263971005, 45.05461515746088], [2.279800217042379, 45.05273665700933], [2.279800217042379, 45.05273665700933], [2.3044659960092173, 45.053745834901434], [2.329131774976056, 45.054755012793535], [2.3537975539428944, 45.055764190685636], [2.378463332909733, 45.05677336857774], [2.4031291118765714, 45.05778254646983], [2.42779489084341, 45.05879172436193], [2.452460669810249, 45.05980090225403], [2.4771264487770854, 45.060810080146126], [2.5017922277439237, 45.06181925803823], [2.5264580067107647, 45.06282843593033], [2.5264580067107647, 45.06282843593033], [2.5366175973935103, 45.064837125174215], [2.5467771880762577, 45.0668458144181], [2.556936778759007, 45.06885450366198], [2.5670963694417526, 45.07086319290587], [2.5772559601245004, 45.072871882149755], [2.5874155508072483, 45.07488057139364], [2.597575141489994, 45.07688926063752], [2.607734732172743, 45.078897949881416], [2.6178943228554905, 45.08090663912529], [2.6280539135382366, 45.08291532836918], [2.6280539135382366, 45.08291532836918], [2.6315074180435287, 45.087053472195315], [2.6349609225488235, 45.09119161602144], [2.6384144270541157, 45.09532975984757], [2.6418679315594065, 45.099467903673705], [2.645321436064699, 45.10360604749984], [2.6487749405699934, 45.10774419132596], [2.6522284450752838, 45.1118823351521], [2.6556819495805764, 45.116020478978236], [2.6591354540858707, 45.12015862280436], [2.6625889585911633, 45.12429676663049], [2.6625889585911633, 45.12429676663049], [2.666397501432568, 45.12429771710707], [2.670206044273974, 45.124298667583645], [2.6740145871153804, 45.12429961806021], [2.6778231299567854, 45.12430056853679], [2.681631672798192, 45.124301519013365], [2.685440215639598, 45.12430246948993], [2.689248758481003, 45.12430341996651], [2.6930573013224093, 45.12430437044308], [2.696865844163814, 45.124305320919646], [2.7006743870052206, 45.12430627139622], [2.7006743870052206, 45.12430627139622], [2.7093855698357543, 45.12756866405027], [2.718096752666286, 45.13083105670432], [2.726807935496816, 45.13409344935836], [2.7355191183273497, 45.137355842012404], [2.744230301157884, 45.14061823466645], [2.752941483988415, 45.1438806273205], [2.761652666818947, 45.147143019974536], [2.770363849649481, 45.15040541262858], [2.779075032480013, 45.15366780528262], [2.787786215310547, 45.156930197936674], [2.787786215310547, 45.156930197936674], [2.789788409037534, 45.16081797605339], [2.791790602764519, 45.1647057541701], [2.793792796491505, 45.16859353228681], [2.795794990218492, 45.17248131040353], [2.7977971839454776, 45.17636908852025], [2.7997993776724646, 45.18025686663696], [2.80180157139945, 45.18414464475367], [2.8038037651264376, 45.18803242287039], [2.8058059588534228, 45.191920200987106], [2.80780815258041, 45.19580797910382], [2.80780815258041, 45.19580797910382], [2.8056418966790493, 45.20057178022528], [2.8034756407776937, 45.20533558134676], [2.801309384876333, 45.210099382468215], [2.799143128974975, 45.214863183589685], [2.796976873073616, 45.219626984711155], [2.7948106171722573, 45.224390785832625], [2.7926443612708978, 45.229154586954095], [2.7904781053695387, 45.233918388075566], [2.788311849468181, 45.23868218919703], [2.786145593566822, 45.24344599031849], [2.786145593566822, 45.24344599031849], [2.789956748557165, 45.24557910880388], [2.7937679035475065, 45.247712227289256], [2.7975790585378477, 45.24984534577464], [2.801390213528192, 45.25197846426001], [2.805201368518535, 45.254111582745395], [2.8090125235088785, 45.25624470123078], [2.8128236784992193, 45.25837781971615], [2.8166348334895623, 45.260510938201534], [2.8204459884799054, 45.262644056686916], [2.8242571434702484, 45.26477717517229], [2.8242571434702484, 45.26477717517229], [2.8282489956238526, 45.2652791629054], [2.8322408477774585, 45.26578115063851], [2.836232699931061, 45.26628313837162], [2.840224552084667, 45.26678512610472], [2.844216404238271, 45.26728711383783], [2.8482082563918776, 45.26778910157093], [2.852200108545482, 45.26829108930405], [2.856191960699086, 45.26879307703715], [2.8601838128526884, 45.269295064770255], [2.8641756650062944, 45.26979705250336], [2.8641756650062944, 45.26979705250336], [2.86688844556144, 45.266412536453196], [2.8696012261165875, 45.26302802040303], [2.8723140066717314, 45.25964350435285], [2.875026787226879, 45.25625898830269], [2.8777395677820246, 45.252874472252515], [2.8804523483371685, 45.24948995620235], [2.8831651288923155, 45.24610544015217], [2.8858779094474616, 45.24272092410201], [2.888590690002609, 45.23933640805184], [2.891303470557753, 45.23595189200167], [2.891303470557753, 45.23595189200167], [2.896013249973383, 45.23294383673664], [2.900723029389015, 45.229935781471596], [2.9054328088046453, 45.22692772620656], [2.9101425882202747, 45.22391967094152], [2.914852367635905, 45.22091161567649], [2.919562147051539, 45.21790356041145], [2.9242719264671693, 45.214895505146416], [2.928981705882799, 45.21188744988138], [2.9336914852984295, 45.20887939461633], [2.938401264714061, 45.205871339351305], [2.938401264714061, 45.205871339351305], [2.9507380509582752, 45.20800554635589], [2.9630748372024907, 45.210139753360494], [2.975411623446704, 45.21227396036508], [2.9877484096909197, 45.21440816736969], [3.000085195935131, 45.216542374374285], [3.0124219821793465, 45.21867658137888], [3.02475876842356, 45.220810788383474], [3.037095554667775, 45.22294499538807], [3.0494323409119892, 45.22507920239266], [3.061769127156205, 45.22721340939727], [3.061769127156205, 45.22721340939727], [3.067949741227696, 45.234612452466], [3.0741303552991863, 45.24201149553473], [3.0803109693706765, 45.24941053860348], [3.0864915834421685, 45.25680958167221], [3.0926721975136604, 45.26420862474094], [3.0988528115851506, 45.271607667809675], [3.1050334256566408, 45.27900671087841], [3.111214039728132, 45.28640575394716], [3.1173946537996238, 45.29380479701589], [3.123575267871112, 45.30120384008463], [3.123575267871112, 45.30120384008463], [3.1322855628706745, 45.30396524100804], [3.1409958578702377, 45.30672664193145], [3.1497061528697983, 45.30948804285486], [3.1584164478693606, 45.31224944377826], [3.167126742868924, 45.31501084470169], [3.175837037868487, 45.31777224562509], [3.1845473328680494, 45.320533646548505], [3.1932576278676117, 45.323295047471916], [3.201967922867175, 45.32605644839533], [3.210678217866738, 45.328817849318746], [3.210678217866738, 45.328817849318746], [3.212676458505141, 45.330698433502285], [3.2146746991435484, 45.332579017685816], [3.216672939781953, 45.33445960186936], [3.2186711804203587, 45.3363401860529], [3.220669421058766, 45.338220770236454], [3.2226676616971734, 45.34010135441999], [3.224665902335578, 45.34198193860353], [3.226664142973982, 45.34386252278708], [3.2286623836123884, 45.345743106970616], [3.230660624250796, 45.34762369115416], [3.230660624250796, 45.34762369115416], [3.2308472715490164, 45.35063296839281], [3.231033918847237, 45.35364224563147], [3.231220566145455, 45.35665152287012], [3.2314072134436755, 45.35966080010879], [3.231593860741896, 45.36267007734744], [3.2317805080401167, 45.3656793545861], [3.2319671553383373, 45.36868863182476], [3.2321538026365553, 45.37169790906342], [3.232340449934776, 45.37470718630207], [3.2325270972329965, 45.37771646354073], [3.2325270972329965, 45.37771646354073], [3.2403373658090513, 45.384113875601635], [3.2481476343851052, 45.39051128766254], [3.25595790296116, 45.39690869972345], [3.263768171537213, 45.40330611178436], [3.271578440113269, 45.409703523845266], [3.2793887086893236, 45.41610093590617], [3.2871989772653767, 45.422498347967064], [3.2950092458414315, 45.42889576002798], [3.3028195144174854, 45.43529317208888], [3.3106297829935403, 45.44169058414979], [3.3106297829935403, 45.44169058414979], [3.3195196775347102, 45.443071896735496], [3.3284095720758757, 45.444453209321196], [3.337299466617043, 45.4458345219069], [3.346189361158213, 45.44721583449262], [3.3550792556993785, 45.448597147078324], [3.3639691502405484, 45.449978459664024], [3.3728590447817175, 45.451359772249724], [3.3817489393228874, 45.45274108483543], [3.390638833864053, 45.45412239742113], [3.399528728405222, 45.455503710006845], [3.399528728405222, 45.455503710006845], [3.4142173696921847, 45.45538130749006], [3.4289060109791465, 45.45525890497327], [3.44359465226611, 45.45513650245648], [3.4582832935530727, 45.45501409993971], [3.472971934840038, 45.45489169742292], [3.4876605761270008, 45.45476929490614], [3.5023492174139625, 45.45464689238936], [3.517037858700926, 45.454524489872576], [3.531726499987889, 45.45440208735579], [3.5464151412748506, 45.45427968483901], [3.5464151412748506, 45.45427968483901], [3.5474968178680464, 45.4511458044119], [3.5485784944612413, 45.4480119239848], [3.5496601710544335, 45.44487804355771], [3.5507418476476293, 45.44174416313061], [3.5518235242408243, 45.43861028270351], [3.5529052008340183, 45.43547640227641], [3.553986877427214, 45.43234252184931], [3.5550685540204054, 45.429208641422214], [3.5561502306135995, 45.426074760995114], [3.5572319072067953, 45.42294088056801], [3.5572319072067953, 45.42294088056801], [3.5630198945462337, 45.41504273905869], [3.5688078818856748, 45.407144597549376], [3.5745958692251114, 45.39924645604005], [3.5803838565645516, 45.39134831453074], [3.58617184390399, 45.38345017302141], [3.59195983124343, 45.37555203151209], [3.5977478185828686, 45.36765389000277], [3.6035358059223053, 45.359755748493455], [3.6093237932617437, 45.35185760698413], [3.6151117806011848, 45.343959465474825], [3.6151117806011848, 45.343959465474825], [3.62000825889108, 45.34320865326375], [3.6249047371809753, 45.34245784105269], [3.6298012154708714, 45.34170702884163], [3.6346976937607667, 45.340956216630566], [3.639594172050663, 45.34020540441951], [3.644490650340558, 45.33945459220843], [3.6493871286304533, 45.33870377999738], [3.6542836069203495, 45.337952967786315], [3.6591800852102456, 45.337202155575255], [3.664076563500141, 45.33645134336419], [3.664076563500141, 45.33645134336419], [3.6674448523317262, 45.333284889395934], [3.6708131411633125, 45.33011843542767], [3.6741814299948987, 45.32695198145941], [3.677549718826484, 45.323785527491154], [3.680918007658071, 45.3206190735229], [3.6842862964896574, 45.317452619554636], [3.687654585321242, 45.314286165586374], [3.691022874152829, 45.31111971161812], [3.6943911629844135, 45.30795325764986], [3.6977594518160006, 45.3047868036816], [3.6977594518160006, 45.3047868036816], [3.7050691264510855, 45.304788627915904], [3.712378801086173, 45.30479045215021], [3.719688475721257, 45.30479227638451], [3.7269981503563447, 45.304794100618814], [3.7343078249914297, 45.304795924853124], [3.7416174996265155, 45.30479774908743], [3.7489271742616013, 45.30479957332172], [3.756236848896686, 45.304801397556034], [3.763546523531773, 45.30480322179033], [3.770856198166857, 45.30480504602464], [3.770856198166857, 45.30480504602464], [3.7735528422923186, 45.30666764629727], [3.7762494864177802, 45.308530246569894], [3.778946130543242, 45.310392846842525], [3.7816427746687054, 45.312255447115156], [3.784339418794166, 45.31411804738779], [3.7870360629196296, 45.31598064766042], [3.7897327070450912, 45.31784324793305], [3.792429351170553, 45.31970584820568], [3.7951259952960146, 45.32156844847831], [3.7978226394214762, 45.32343104875093], [3.7978226394214762, 45.32343104875093], [3.7982119586185648, 45.32582502116879], [3.7986012778156524, 45.328218993586646], [3.79899059701274, 45.330612966004495], [3.7993799162098285, 45.33300693842235], [3.799769235406917, 45.335400910840214], [3.8001585546040038, 45.33779488325806], [3.8005478738010914, 45.34018885567592], [3.800937192998179, 45.34258282809377], [3.8013265121952675, 45.344976800511624], [3.801715831392356, 45.34737077292948], [3.801715831392356, 45.34737077292948], [3.8000543709127945, 45.3502962909039], [3.7983929104332295, 45.353221808878324], [3.796731449953667, 45.35614732685275], [3.795069989474103, 45.35907284482718], [3.7934085289945396, 45.36199836280159], [3.7917470685149754, 45.364923880776026], [3.790085608035412, 45.367849398750444], [3.788424147555848, 45.370774916724876], [3.7867626870762847, 45.373700434699295], [3.7851012265967197, 45.37662595267371], [3.7851012265967197, 45.37662595267371], [3.788957007049371, 45.381058994299025], [3.7928127875020174, 45.385492035924344], [3.796668567954669, 45.38992507754966], [3.800524348407316, 45.394358119174974], [3.804380128859965, 45.398791160800286], [3.808235909312614, 45.4032242024256], [3.812091689765261, 45.40765724405092], [3.8159474702179126, 45.41209028567622], [3.8198032506705615, 45.41652332730154], [3.8236590311232104, 45.42095636892685], [3.8236590311232104, 45.42095636892685], [3.8262238486706504, 45.42095700901391], [3.828788666218093, 45.42095764910097], [3.8313534837655374, 45.420958289188036], [3.8339183013129783, 45.420958929275095], [3.836483118860421, 45.42095956936216], [3.839047936407862, 45.42096020944922], [3.8416127539553044, 45.42096084953628], [3.844177571502749, 45.42096148962334], [3.846742389050189, 45.4209621297104], [3.8493072065976315, 45.420962769797455], [3.8493072065976315, 45.420962769797455], [3.8535377648044267, 45.42025554611343], [3.8577683230112236, 45.419548322429385], [3.8619988812180206, 45.418841098745354], [3.8662294394248176, 45.418133875061315], [3.8704599976316136, 45.417426651377276], [3.8746905558384106, 45.416719427693245], [3.878921114045206, 45.4160122040092], [3.883151672252002, 45.41530498032517], [3.887382230458799, 45.41459775664113], [3.891612788665594, 45.4138905329571], [3.891612788665594, 45.4138905329571], [3.893412576483089, 45.41619516020791], [3.8952123643005803, 45.41849978745872], [3.8970121521180734, 45.420804414709536], [3.8988119399355665, 45.42310904196035], [3.9006117277530605, 45.42541366921117], [3.9024115155705537, 45.42771829646198], [3.904211303388047, 45.43002292371279], [3.906011091205538, 45.432327550963606], [3.907810879023033, 45.43463217821442], [3.9096106668405244, 45.43693680546523], [3.9096106668405244, 45.43693680546523], [3.9124350305897333, 45.43853346362648], [3.9152593943389413, 45.440130121787725], [3.9180837580881493, 45.44172677994897], [3.9209081218373583, 45.44332343811022], [3.9237324855865663, 45.44492009627147], [3.9265568493357743, 45.446516754432714], [3.9293812130849823, 45.448113412593955], [3.9322055768341904, 45.4497100707552], [3.9350299405833993, 45.45130672891644], [3.9378543043326073, 45.45290338707769], [3.9378543043326073, 45.45290338707769], [3.940298418364764, 45.45680516760459], [3.9427425323969225, 45.460706948131495], [3.94518664642908, 45.464608728658405], [3.947630760461237, 45.468510509185315], [3.9500748744933953, 45.47241228971222], [3.952518988525553, 45.47631407023912], [3.9549631025577097, 45.48021585076603], [3.957407216589868, 45.48411763129293], [3.959851330622025, 45.488019411819835], [3.9622954446541816, 45.491921192346744], [3.9622954446541816, 45.491921192346744], [3.960118998725362, 45.493782576469755], [3.9579425527965397, 45.49564396059276], [3.9557661068677192, 45.49750534471577], [3.953589660938897, 45.49936672883878], [3.9514132150100765, 45.50122811296178], [3.9492367690812524, 45.503089497084794], [3.947060323152433, 45.50495088120781], [3.9448838772236106, 45.50681226533081], [3.94270743129479, 45.50867364945382], [3.9405309853659696, 45.51053503357683], [3.9405309853659696, 45.51053503357683], [3.9407937829505193, 45.51381566375836], [3.941056580535069, 45.5170962939399], [3.9413193781196196, 45.52037692412143], [3.9415821757041694, 45.52365755430296], [3.9418449732887173, 45.52693818448449], [3.942107770873266, 45.53021881466603], [3.942370568457815, 45.53349944484756], [3.9426333660423656, 45.53678007502909], [3.942896163626916, 45.54006070521063], [3.943158961211465, 45.54334133539216], [3.943158961211465, 45.54334133539216], [3.9421384943452424, 45.54617830064713], [3.9411180274790216, 45.549015265902106], [3.940097560612799, 45.55185223115707], [3.9390770937465773, 45.55468919641205], [3.9380566268803556, 45.55752616166703], [3.937036160014134, 45.560363126922006], [3.936015693147913, 45.56320009217697], [3.934995226281688, 45.56603705743195], [3.933974759415467, 45.56887402268692], [3.9329542925492444, 45.57171098794189], [3.9329542925492444, 45.57171098794189], [3.928219965968562, 45.577206875593134], [3.9234856393878776, 45.58270276324438], [3.9187513128071942, 45.58819865089562], [3.9140169862265117, 45.593694538546856], [3.9092826596458283, 45.599190426198106], [3.904548333065146, 45.60468631384935], [3.8998140064844597, 45.6101822015006], [3.8950796799037772, 45.615678089151835], [3.890345353323094, 45.62117397680308], [3.8856110267424113, 45.62666986445432], [3.8856110267424113, 45.62666986445432], [3.880358542648129, 45.62941711555339], [3.8751060585538455, 45.632164366652454], [3.8698535744595612, 45.63491161775152], [3.864601090365277, 45.637658868850586], [3.8593486062709963, 45.64040611994965], [3.8540961221767147, 45.643153371048726], [3.8488436380824305, 45.645900622147785], [3.843591153988146, 45.64864787324685], [3.8383386698938637, 45.65139512434593], [3.833086185799582, 45.654142375445], [3.833086185799582, 45.654142375445], [3.823612478211033, 45.66247435493616], [3.814138770622487, 45.670806334427326], [3.804665063033941, 45.67913831391851], [3.7951913554453918, 45.68747029340967], [3.785717647856844, 45.69580227290084], [3.7762439402682983, 45.70413425239201], [3.7667702326797508, 45.71246623188317], [3.757296525091203, 45.720798211374344], [3.7478228175026556, 45.72913019086552], [3.7383491099141097, 45.737462170356686], [3.7383491099141097, 45.737462170356686], [3.737584082295379, 45.73976725138889], [3.736819054676649, 45.74207233242109], [3.73605402705792, 45.7443774134533], [3.7352889994391902, 45.746682494485505], [3.7345239718204595, 45.7489875755177], [3.7337589442017296, 45.75129265654991], [3.732993916582999, 45.753597737582105], [3.732228888964269, 45.75590281861432], [3.73146386134554, 45.75820789964652], [3.730698833726811, 45.760512980678726], [3.730698833726811, 45.760512980678726], [3.7289053754493673, 45.76148782573623], [3.7271119171719254, 45.76246267079374], [3.7253184588944825, 45.76343751585126], [3.7235250006170406, 45.76441236090877], [3.721731542339598, 45.76538720596627], [3.719938084062154, 45.76636205102378], [3.718144625784713, 45.7673368960813], [3.716351167507272, 45.7683117411388], [3.7145577092298283, 45.769286586196316], [3.7127642509523864, 45.77026143125383], [3.7127642509523864, 45.77026143125383], [3.71225534482156, 45.77238811165307], [3.7117464386907346, 45.774514792052315], [3.71123753255991, 45.776641472451566], [3.710728626429083, 45.77876815285081], [3.7102197202982565, 45.78089483325005], [3.7097108141674293, 45.7830215136493], [3.7092019080366048, 45.78514819404855], [3.7086930019057776, 45.787274874447796], [3.708184095774953, 45.789401554847046], [3.7076751896441285, 45.79152823524629], [3.7076751896441285, 45.79152823524629], [3.7111430219252903, 45.794277662625575], [3.714610854206455, 45.79702709000484], [3.7180786864876185, 45.799776517384124], [3.721546518768783, 45.80252594476341], [3.7250143510499467, 45.80527537214269], [3.7284821833311086, 45.808024799521974], [3.731950015612273, 45.810774226901245], [3.735417847893437, 45.81352365428052], [3.7388856801746013, 45.8162730816598], [3.742353512455763, 45.81902250903909], [3.742353512455763, 45.81902250903909], [3.740561080969672, 45.82052935701754], [3.738768649483577, 45.82203620499601], [3.7369762179974857, 45.823543052974465], [3.735183786511391, 45.825049900952926], [3.7333913550252986, 45.82655674893138], [3.7315989235392046, 45.82806359690985], [3.7298064920531133, 45.829570444888304], [3.7280140605670176, 45.831077292866766], [3.7262216290809245, 45.83258414084522], [3.7244291975948305, 45.83409098882369], [3.7244291975948305, 45.83409098882369], [3.7234087307286097, 45.83692795407866], [3.722388263862387, 45.83976491933364], [3.7213677969961663, 45.84260188458861], [3.7203473301299455, 45.84543884984359], [3.719326863263723, 45.84827581509855], [3.7183063963974976, 45.85111278035353], [3.717285929531275, 45.8539497456085], [3.716265462665054, 45.85678671086348], [3.7152449957988307, 45.859623676118446], [3.71422452893261, 45.862460641373424], [3.71422452893261, 45.862460641373424], [3.718716171469755, 45.86414637362326], [3.7232078140069027, 45.86583210587309], [3.727699456544053, 45.86751783812293], [3.7321910990812, 45.869203570372754], [3.736682741618346, 45.87088930262259], [3.7411743841554927, 45.872575034872426], [3.7456660266926396, 45.87426076712226], [3.750157669229788, 45.87594649937209], [3.754649311766935, 45.877632231621924], [3.759140954304083, 45.879317963871756], [3.759140954304083, 45.879317963871756], [3.7588879107623243, 45.881091115318846], [3.758634867220565, 45.88286426676593], [3.758381823678804, 45.884637418213025], [3.7581287801370444, 45.88641056966012], [3.7578757365952877, 45.888183721107204], [3.7576226930535266, 45.88995687255429], [3.757369649511768, 45.89173002400138], [3.7571166059700087, 45.89350317544847], [3.7568635624282485, 45.89527632689556], [3.756610518886491, 45.897049478342645], [3.756610518886491, 45.897049478342645], [3.7512292093753525, 45.89953072330584], [3.745847899864215, 45.902011968269015], [3.7404665903530767, 45.90449321323219], [3.735085280841942, 45.90697445819537], [3.729703971330801, 45.909455703158564], [3.7243226618196643, 45.91193694812175], [3.718941352308527, 45.91441819308493], [3.7135600427973903, 45.91689943804811], [3.708178733286252, 45.91938068301129], [3.7027974237751153, 45.921861927974476], [3.7027974237751153, 45.921861927974476], [3.7020323040438456, 45.92407829629508], [3.701267184312577, 45.926294664615675], [3.70050206458131, 45.928511032936285], [3.699736944850041, 45.93072740125688], [3.698971825118774, 45.932943769577484], [3.698206705387505, 45.935160137898094], [3.697441585656238, 45.93737650621869], [3.6966764659249685, 45.939592874539294], [3.6959113461937005, 45.941809242859904], [3.695146226462431, 45.9440256111805], [3.695146226462431, 45.9440256111805], [3.700664154068615, 45.94588891554495], [3.706182081674801, 45.9477522199094], [3.7117000092809858, 45.94961552427385], [3.717217936887167, 45.951478828638294], [3.7227358644933513, 45.95334213300274], [3.7282537920995362, 45.9552054373672], [3.7337717197057203, 45.95706874173164], [3.7392896473119053, 45.95893204609609], [3.7448075749180885, 45.960795350460536], [3.7503255025242725, 45.96265865482498], [3.7503255025242725, 45.96265865482498], [3.7519953482378052, 45.96407770886924], [3.7536651939513344, 45.96549676291348], [3.755335039664866, 45.96691581695774], [3.757004885378397, 45.96833487100199], [3.758674731091928, 45.969753925046234], [3.7603445768054606, 45.97117297909049], [3.7620144225189898, 45.972592033134745], [3.7636842682325207, 45.97401108717899], [3.7653541139460525, 45.97543014122325], [3.7670239596595834, 45.9768491952675], [3.7670239596595834, 45.9768491952675], [3.7722809720440567, 45.97640716256097], [3.777537984428531, 45.975965129854444], [3.782794996813004, 45.975523097147914], [3.7880520091974756, 45.97508106444138], [3.79330902158195, 45.97463903173485], [3.798566033966423, 45.97419699902832], [3.8038230463508964, 45.9737549663218], [3.809080058735369, 45.97331293361527], [3.814337071119844, 45.972870900908745], [3.819594083504317, 45.972428868202215], [3.819594083504317, 45.972428868202215], [3.820752629492508, 45.97473442928984], [3.8219111754807, 45.97703999037747], [3.8230697214688916, 45.9793455514651], [3.8242282674570833, 45.981651112552726], [3.8253868134452724, 45.98395667364036], [3.8265453594334624, 45.98626223472798], [3.827703905421654, 45.98856779581561], [3.828862451409846, 45.990873356903236], [3.830020997398037, 45.99317891799087], [3.8311795433862295, 45.9954844790785], [3.8311795433862295, 45.9954844790785], [3.8363086651382186, 45.99521978513885], [3.8414377868902094, 45.99495509119921], [3.8465669086422003, 45.994690397259575], [3.8516960303941894, 45.994425703319926], [3.8568251521461794, 45.994161009380285], [3.861954273898172, 45.993896315440644], [3.867083395650161, 45.993631621501], [3.8722125174021493, 45.993366927561354], [3.87734163915414, 45.99310223362172], [3.882470760906131, 45.99283753968208], [3.882470760906131, 45.99283753968208], [3.8828576843974862, 45.99399024487561], [3.8832446078888423, 45.995142950069145], [3.8836315313801975, 45.99629565526268], [3.8840184548715526, 45.99744836045622], [3.884405378362907, 45.99860106564976], [3.884792301854262, 45.999753770843284], [3.885179225345617, 46.00090647603682], [3.8855661488369733, 46.00205918123035], [3.8859530723283267, 46.00321188642389], [3.886339995819682, 46.004364591617424], [3.886339995819682, 46.004364591617424], [3.8855733359541706, 46.00578298290331], [3.8848066760886604, 46.0072013741892], [3.8840400162231483, 46.00861976547509], [3.883273356357638, 46.01003815676098], [3.882506696492125, 46.01145654804687], [3.881740036626614, 46.01287493933276], [3.8809733767611028, 46.01429333061865], [3.8802067168955916, 46.01571172190454], [3.8794400570300804, 46.017130113190426], [3.8786733971645675, 46.018548504476314], [3.8786733971645675, 46.018548504476314], [3.8752100141718357, 46.018104350163256], [3.871746631179103, 46.0176601958502], [3.868283248186367, 46.017216041537125], [3.864819865193637, 46.016771887224074], [3.8613564822009026, 46.016327732911016], [3.85789309920817, 46.01588357859795], [3.8544297162154364, 46.015439424284885], [3.8509663332227038, 46.014995269971834], [3.847502950229972, 46.01455111565877], [3.8440395672372376, 46.0141069613457], [3.8440395672372376, 46.0141069613457], [3.840322535352873, 46.01508132634779], [3.8366055034685105, 46.01605569134988], [3.832888471584147, 46.01703005635197], [3.8291714396997842, 46.01800442135406], [3.82545440781542, 46.018978786356136], [3.8217373759310562, 46.019953151358216], [3.8180203440466935, 46.02092751636031], [3.814303312162329, 46.021901881362396], [3.8105862802779673, 46.02287624636448], [3.806869248393602, 46.02385061136656], [3.806869248393602, 46.02385061136656], [3.806488748476047, 46.026067086613246], [3.806108248558489, 46.028283561859936], [3.805727748640932, 46.030500037106606], [3.805347248723376, 46.03271651235329], [3.804966748805817, 46.03493298759997], [3.804586248888261, 46.037149462846656], [3.804205748970706, 46.03936593809333], [3.803825249053148, 46.041582413340016], [3.803444749135593, 46.04379888858669], [3.803064249218035, 46.046015363833384], [3.803064249218035, 46.046015363833384], [3.8047328049978284, 46.046725087961896], [3.8064013607776235, 46.04743481209041], [3.8080699165574203, 46.04814453621893], [3.8097384723372127, 46.04885426034745], [3.8114070281170087, 46.04956398447597], [3.813075583896801, 46.050273708604486], [3.814744139676596, 46.05098343273299], [3.816412695456393, 46.05169315686151], [3.8180812512361864, 46.05240288099003], [3.8197498070159814, 46.05311260511855], [3.8197498070159814, 46.05311260511855], [3.821676974223726, 46.05497500788782], [3.82360414143147, 46.056837410657096], [3.8255313086392158, 46.058699813426365], [3.8274584758469614, 46.060562216195635], [3.829385643054706, 46.06242461896491], [3.83131281026245, 46.06428702173418], [3.833239977470195, 46.06614942450346], [3.8351671446779414, 46.068011827272734], [3.837094311885686, 46.069874230042], [3.83902147909343, 46.07173663281127], [3.83902147909343, 46.07173663281127], [3.840695945114684, 46.07554956873559], [3.84237041113594, 46.0793625046599], [3.8440448771571956, 46.08317544058421], [3.8457193431784513, 46.08698837650852], [3.8473938091997053, 46.09080131243284], [3.849068275220961, 46.09461424835714], [3.850742741242217, 46.09842718428145], [3.8524172072634726, 46.102240120205764], [3.8540916732847266, 46.10605305613008], [3.8557661393059814, 46.10986599205439], [3.8557661393059814, 46.10986599205439], [3.8603848960219973, 46.110931100836815], [3.865003652738016, 46.111996209619235], [3.8696224094540326, 46.11306131840166], [3.87424116617005, 46.11412642718409], [3.878859922886067, 46.11519153596652], [3.8834786796020837, 46.11625664474894], [3.8880974363181005, 46.117321753531364], [3.8927161930341154, 46.11838686231379], [3.8973349497501357, 46.11945197109622], [3.9019537064661507, 46.120517079878645], [3.9019537064661507, 46.120517079878645], [3.906831074620674, 46.12273487277117], [3.911708442775199, 46.12495266566369], [3.9165858109297216, 46.127170458556215], [3.921463179084245, 46.12938825144874], [3.92634054723877, 46.13160604434126], [3.9312179153932933, 46.13382383723379], [3.9360952835478185, 46.136041630126314], [3.940972651702341, 46.13825942301884], [3.9458500198568616, 46.14047721591136], [3.9507273880113867, 46.142695008803884], [3.9507273880113867, 46.142695008803884], [3.950993605960688, 46.14774780432355], [3.951259823909989, 46.15280059984322], [3.9515260418592875, 46.157853395362885], [3.9517922598085904, 46.16290619088255], [3.9520584777578898, 46.16795898640222], [3.95232469570719, 46.17301178192188], [3.952590913656491, 46.178064577441546], [3.9528571316057923, 46.18311737296121], [3.953123349555091, 46.18817016848088], [3.9533895675043937, 46.19322296400055], [3.9533895675043937, 46.19322296400055], [3.946850054275884, 46.19357598582932], [3.9403105410473747, 46.19392900765808], [3.933771027818866, 46.19428202948684], [3.927231514590359, 46.194635051315615], [3.9206920013618514, 46.19498807314437], [3.914152488133342, 46.195341094973145], [3.907612974904835, 46.19569411680191], [3.9010734616763254, 46.19604713863067], [3.894533948447816, 46.19640016045944], [3.8879944352193108, 46.1967531822882], [3.8879944352193108, 46.1967531822882], [3.8847972721920923, 46.201362868139185], [3.881600109164873, 46.20597255399016], [3.8784029461376535, 46.21058223984114], [3.875205783110435, 46.21519192569211], [3.8720086200832182, 46.21980161154308], [3.8688114570560006, 46.22441129739406], [3.865614294028781, 46.22902098324504], [3.8624171310015627, 46.233630669096016], [3.859219967974346, 46.23824035494699], [3.8560228049471266, 46.24285004079797], [3.8560228049471266, 46.24285004079797], [3.8525642924942907, 46.24488843189197], [3.8491057800414574, 46.24692682298598], [3.8456472675886215, 46.24896521407999], [3.8421887551357865, 46.251003605173985], [3.8387302426829533, 46.253041996267996], [3.835271730230119, 46.255080387362], [3.831813217777285, 46.25711877845601], [3.828354705324448, 46.25915716955001], [3.824896192871615, 46.26119556064402], [3.821437680418781, 46.26323395173802], [3.821437680418781, 46.26323395173802], [3.814639397526569, 46.26243428394786], [3.8078411146343565, 46.2616346161577], [3.801042831742143, 46.26083494836754], [3.7942445488499312, 46.260035280577384], [3.7874462659577204, 46.25923561278722], [3.780647983065507, 46.25843594499706], [3.7738497001732942, 46.25763627720691], [3.7670514172810843, 46.25683660941675], [3.7602531343888708, 46.25603694162658], [3.753454851496658, 46.25523727383643], [3.753454851496658, 46.25523727383643], [3.7498695670829947, 46.25807359900434], [3.7462842826693312, 46.26090992417226], [3.742698998255666, 46.263746249340166], [3.7391137138420025, 46.26658257450807], [3.7355284294283373, 46.26941889967598], [3.731943145014674, 46.272255224843896], [3.7283578606010104, 46.275091550011815], [3.7247725761873443, 46.27792787517973], [3.7211872917736817, 46.28076420034764], [3.7176020073600173, 46.28360052551555], [3.7176020073600173, 46.28360052551555], [3.7186346240486547, 46.28705864739892], [3.719667240737295, 46.290516769282284], [3.7206998574259313, 46.29397489116564], [3.7217324741145696, 46.29743301304901], [3.7227650908032097, 46.30089113493237], [3.723797707491848, 46.30434925681573], [3.7248303241804863, 46.3078073786991], [3.7258629408691246, 46.311265500582465], [3.726895557557763, 46.31472362246583], [3.727928174246401, 46.31818174434919], [3.727928174246401, 46.31818174434919], [3.7333180400002424, 46.32013367474919], [3.7387079057540835, 46.32208560514918], [3.744097771507929, 46.32403753554916], [3.7494876372617694, 46.32598946594915], [3.7548775030156123, 46.327941396349146], [3.7602673687694526, 46.329893326749136], [3.7656572345232946, 46.331845257149126], [3.7710471002771375, 46.333797187549116], [3.7764369660309804, 46.335749117949106], [3.7818268317848216, 46.337701048349096], [3.7818268317848216, 46.337701048349096], [3.782985799077261, 46.34018390912429], [3.784144766369701, 46.34266676989947], [3.7853037336621393, 46.345149630674655], [3.7864627009545777, 46.34763249144984], [3.7876216682470205, 46.35011535222503], [3.788780635539459, 46.35259821300021], [3.789939602831899, 46.3550810737754], [3.791098570124339, 46.35756393455058], [3.7922575374167775, 46.36004679532578], [3.793416504709216, 46.36252965610097], [3.793416504709216, 46.36252965610097], [3.791241519786204, 46.365189006300255], [3.789066534863195, 46.36784835649956], [3.7868915499401834, 46.370507706698845], [3.7847165650171726, 46.37316705689815], [3.782541580094159, 46.375826407097435], [3.7803665951711483, 46.37848575729674], [3.7781916102481383, 46.38114510749603], [3.7760166253251266, 46.38380445769532], [3.773841640402114, 46.38646380789462], [3.771666655479104, 46.38912315809391], [3.771666655479104, 46.38912315809391], [3.7623109133870627, 46.392135370090344], [3.752955171295022, 46.395147582086764], [3.7435994292029835, 46.398159794083185], [3.7342436871109412, 46.40117200607961], [3.724887945018899, 46.40418421807603], [3.715532202926863, 46.40719643007246], [3.7061764608348216, 46.41020864206888], [3.69682071874278, 46.41322085406531], [3.6874649766507397, 46.416233066061736], [3.678109234558699, 46.41924527805816], [3.678109234558699, 46.41924527805816], [3.673620843404336, 46.41924415791567], [3.6691324522499724, 46.419243037773185], [3.664644061095609, 46.4192419176307], [3.6601556699412456, 46.419240797488214], [3.6556672787868822, 46.419239677345736], [3.651178887632519, 46.41923855720324], [3.6466904964781555, 46.41923743706076], [3.642202105323792, 46.41923631691828], [3.6377137141694287, 46.419235196775794], [3.6332253230150644, 46.41923407663331], [3.6332253230150644, 46.41923407663331], [3.6232338920534874, 46.42508334444225], [3.613242461091908, 46.43093261225117], [3.6032510301303318, 46.43678188006011], [3.593259599168752, 46.44263114786905], [3.583268168207175, 46.44848041567797], [3.5732767372455965, 46.45432968348691], [3.5632853062840195, 46.460178951295845], [3.5532938753224417, 46.466028219104786], [3.543302444360862, 46.47187748691372], [3.533311013399285, 46.47772675472265], [3.533311013399285, 46.47772675472265], [3.5201037298012445, 46.47772345865532], [3.506896446203204, 46.47772016258798], [3.4936891626051643, 46.477716866520645], [3.4804818790071264, 46.47771357045331], [3.467274595409086, 46.47771027438598], [3.4540673118110443, 46.47770697831864], [3.4408600282130055, 46.4777036822513], [3.427652744614966, 46.47770038618397], [3.414445461016927, 46.47769709011663], [3.4012381774188856, 46.4776937940493], [3.4012381774188856, 46.4776937940493], [3.3940593026232535, 46.47902195442633], [3.386880427827618, 46.48035011480336], [3.379701553031984, 46.48167827518038], [3.37252267823635, 46.48300643555741], [3.3653438034407164, 46.484334595934435], [3.3581649286450816, 46.48566275631146], [3.350986053849448, 46.48699091668849], [3.343807179053814, 46.48831907706552], [3.3366283042581792, 46.48964723744255], [3.329449429462547, 46.49097539781957], [3.329449429462547, 46.49097539781957], [3.3275318451938483, 46.494078124110345], [3.325614260925152, 46.49718085040111], [3.3236966766564566, 46.500283576691885], [3.3217790923877604, 46.50338630298265], [3.319861508119063, 46.506489029273425], [3.317943923850367, 46.50959175556419], [3.3160263395816716, 46.51269448185496], [3.3141087553129727, 46.51579720814573], [3.3121911710442764, 46.518899934436504], [3.310273586775582, 46.52200266072728], [3.310273586775582, 46.52200266072728], [3.3082240947736623, 46.52324236576034], [3.3061746027717436, 46.52448207079339], [3.304125110769824, 46.52572177582646], [3.302075618767906, 46.52696148085952], [3.3000261267659856, 46.52820118589258], [3.297976634764066, 46.52944089092564], [3.2959271427621464, 46.5306805959587], [3.2938776507602285, 46.53192030099177], [3.2918281587583107, 46.53316000602483], [3.28977866675639, 46.53439971105788], [3.28977866675639, 46.53439971105788], [3.2878595423745627, 46.53670447125263], [3.285940417992735, 46.53900923144737], [3.2840212936109094, 46.54131399164211], [3.282102169229082, 46.54361875183685], [3.2801830448472544, 46.54592351203159], [3.278263920465427, 46.54822827222634], [3.276344796083601, 46.55053303242108], [3.274425671701772, 46.55283779261582], [3.272506547319946, 46.55514255281056], [3.2705874229381187, 46.5574473130053], [3.2705874229381187, 46.5574473130053], [3.2676349973893477, 46.555939308226314], [3.264682571840581, 46.554431303447316], [3.261730146291811, 46.55292329866833], [3.258777720743042, 46.551415293889335], [3.25582529519427, 46.549907289110344], [3.252872869645499, 46.54839928433135], [3.2499204440967326, 46.54689127955236], [3.2469680185479626, 46.54538327477337], [3.2440155929991925, 46.54387526999438], [3.2410631674504233, 46.54236726521538]]]}}]}