{
    "type": "FeatureCollection",
    "features": [
        {
            "type": "Feature",
            "properties": {
                "diocese": "Sedunen",
                "province": "Tarentasien",
                "date": 1592
            },
            "geometry": {
                "type": "Polygon",
                "coordinates": [
                    [
                        [
                            6.821302130441943,
                            46.42286334927952
                        ],
                        [
                            6.807627953526771,
                            46.37636227351725
                        ],
                        [
                            6.773772726102991,
                            46.35403128425452
                        ],
                        [
                            6.782981554926405,
                            46.336371427257724
                        ],
                        [
                            6.817558302998896,
                            46.31073605140858
                        ],
                        [
                            6.827896093215502,
                            46.29768987187687
                        ],
                        [
                            6.845599468152035,
                            46.28144555639243
                        ],
                        [
                            6.850249429266869,
                            46.266347998146
                        ],
                        [
                            6.836447417233208,
                            46.24944371846973
                        ],
                        [
                            6.811066975055906,
                            46.22776970591885
                        ],
                        [
                            6.805004547323487,
                            46.22065258743189
                        ],
                        [
                            6.8011740920228565,
                            46.21319788774537
                        ],
                        [
                            6.799717985507346,
                            46.20565547016697
                        ],
                        [
                            6.803121402866012,
                            46.19238707593859
                        ],
                        [
                            6.802418760822219,
                            46.18680464577675
                        ],
                        [
                            6.797734612329579,
                            46.17684793240602
                        ],
                        [
                            6.790869226968796,
                            46.167547879674174
                        ],
                        [
                            6.787461877095377,
                            46.15969656993275
                        ],
                        [
                            6.787190910353748,
                            46.15479871178063
                        ],
                        [
                            6.788727658396691,
                            46.14973769991435
                        ],
                        [
                            6.790687497608471,
                            46.13951393688298
                        ],
                        [
                            6.79897051048766,
                            46.1360096224203
                        ],
                        [
                            6.8122673754604,
                            46.13303806795773
                        ],
                        [
                            6.836663284514527,
                            46.13301523195003
                        ],
                        [
                            6.841525559959354,
                            46.12994468763339
                        ],
                        [
                            6.850483302147283,
                            46.126537639123306
                        ],
                        [
                            6.877425058746958,
                            46.1235573224812
                        ],
                        [
                            6.887312519552066,
                            46.12060411076399
                        ],
                        [
                            6.891373593305798,
                            46.11816281882982
                        ],
                        [
                            6.891738421677946,
                            46.11128473111555
                        ],
                        [
                            6.8854305015666535,
                            46.100617853316564
                        ],
                        [
                            6.874991444856774,
                            46.093347651375396
                        ],
                        [
                            6.8711777474407345,
                            46.08701144923973
                        ],
                        [
                            6.877425047351361,
                            46.08397139629188
                        ],
                        [
                            6.880849203918365,
                            46.07991612762508
                        ],
                        [
                            6.880790233189566,
                            46.077084053368694
                        ],
                        [
                            6.8794412295892124,
                            46.073910028901494
                        ],
                        [
                            6.869103207008305,
                            46.05770562991269
                        ],
                        [
                            6.870949053381633,
                            46.04868375705664
                        ],
                        [
                            6.881161644653005,
                            46.04547698393399
                        ],
                        [
                            6.892976642950493,
                            46.0465401792215
                        ],
                        [
                            6.920655866182412,
                            46.05994205497944
                        ],
                        [
                            6.933969343802919,
                            46.060229734348496
                        ],
                        [
                            6.942913775374951,
                            46.04513556676244
                        ],
                        [
                            6.9677617423085385,
                            46.027735822768825
                        ],
                        [
                            6.985274919718873,
                            46.010888077132485
                        ],
                        [
                            7.011210611257367,
                            45.99349041940824
                        ],
                        [
                            7.01567534932319,
                            45.9875356884082
                        ],
                        [
                            7.01675223156792,
                            45.977876856622956
                        ],
                        [
                            7.011800706793944,
                            45.97275590384661
                        ],
                        [
                            7.01398535163966,
                            45.96786940853298
                        ],
                        [
                            7.030310711637354,
                            45.96111675219597
                        ],
                        [
                            7.036301535453428,
                            45.956825934238175
                        ],
                        [
                            7.036827935305835,
                            45.95295130709895
                        ],
                        [
                            7.0342740361219915,
                            45.94809522101931
                        ],
                        [
                            7.034195447399867,
                            45.94121198040585
                        ],
                        [
                            7.038668413166389,
                            45.928495231491986
                        ],
                        [
                            7.035102553743899,
                            45.92301973362181
                        ],
                        [
                            7.021592244320293,
                            45.91747663663292
                        ],
                        [
                            7.005458235408756,
                            45.88635801214168
                        ],
                        [
                            7.076212405638404,
                            45.852120084401705
                        ],
                        [
                            7.133927939645132,
                            45.86975540988828
                        ],
                        [
                            7.159579288098665,
                            45.84891366158481
                        ],
                        [
                            7.271803937562316,
                            45.91624854076134
                        ],
                        [
                            7.271803937562316,
                            45.91624854076134
                        ],
                        [
                            7.374409331339936,
                            45.89220036961475
                        ],
                        [
                            7.481824352969693,
                            45.95312240321779
                        ],
                        [
                            7.532800064206384,
                            45.957433628521464
                        ],
                        [
                            7.526949073441615,
                            45.98481206672993
                        ],
                        [
                            7.560321201657991,
                            45.9806405451441
                        ],
                        [
                            7.627065458090743,
                            45.96604021960451
                        ],
                        [
                            7.654180312275685,
                            45.97646902355854
                        ],
                        [
                            7.697981230550608,
                            45.92223924303859
                        ],
                        [
                            7.760553970974566,
                            45.93683956856017
                        ],
                        [
                            7.7939260991909425,
                            45.91389619989387
                        ],
                        [
                            7.860670355623745,
                            45.9118104391071
                        ],
                        [
                            7.883409821396935,
                            45.97454008332532
                        ],
                        [
                            7.909285765199003,
                            45.99649545881679
                        ],
                        [
                            7.990834194168642,
                            45.99727957937131
                        ],
                        [
                            8.033176647686194,
                            46.045110933176765
                        ],
                        [
                            8.021414855050553,
                            46.06863454981409
                        ],
                        [
                            8.032392528169833,
                            46.09921525147326
                        ],
                        [
                            8.10217916450383,
                            46.11097705980323
                        ],
                        [
                            8.150010454581048,
                            46.14234188204298
                        ],
                        [
                            8.165692844761903,
                            46.18154790986854
                        ],
                        [
                            8.139816900959808,
                            46.223890419965514
                        ],
                        [
                            8.084928535308574,
                            46.26701705065388
                        ],
                        [
                            8.137464542429022,
                            46.303086596365894
                        ],
                        [
                            8.209886797224433,
                            46.30885870059028
                        ],
                        [
                            8.263540025665165,
                            46.36558571007116
                        ],
                        [
                            8.317351083805123,
                            46.38414127222648
                        ],
                        [
                            8.29508443905249,
                            46.41011905927402
                        ],
                        [
                            8.304362207705502,
                            46.42403573089731
                        ],
                        [
                            8.443528737390958,
                            46.46485796771862
                        ],
                        [
                            8.440200850809482,
                            46.47379273465039
                        ],
                        [
                            8.445999098584947,
                            46.48886819909795
                        ],
                        [
                            8.488906132105082,
                            46.51264104690099
                        ],
                        [
                            8.422189869509086,
                            46.54650244145831
                        ],
                        [
                            8.415695431450192,
                            46.609591353100335
                        ],
                        [
                            8.428684307549762,
                            46.623508024789146
                        ],
                        [
                            8.421262092638324,
                            46.6504135900779
                        ],
                        [
                            8.37394547253907,
                            46.63928025272166
                        ],
                        [
                            8.351678827804756,
                            46.57062467237097
                        ],
                        [
                            8.251478926418113,
                            46.54557466334657
                        ],
                        [
                            8.144784587009038,
                            46.54650244145831
                        ],
                        [
                            8.130867934038655,
                            46.55763577881051
                        ],
                        [
                            8.115095727326723,
                            46.54650244145831
                        ],
                        [
                            7.995412511799809,
                            46.55856355691706
                        ],
                        [
                            7.9610847678183925,
                            46.5372246603461
                        ],
                        [
                            7.967579205877337,
                            46.512174651343656
                        ],
                        [
                            7.898923717896287,
                            46.482485751811055
                        ],
                        [
                            7.843257106014732,
                            46.47784686125911
                        ],
                        [
                            7.710585014388245,
                            46.41475794981135
                        ],
                        [
                            7.691101700229756,
                            46.423107952790836
                        ],
                        [
                            7.652135071930968,
                            46.41475794981135
                        ],
                        [
                            7.6094573361490845,
                            46.435169068217625
                        ],
                        [
                            7.596468460049463,
                            46.41197461548441
                        ],
                        [
                            7.532927787175463,
                            46.40722759997418
                        ],
                        [
                            7.553425220458234,
                            46.38888776666275
                        ],
                        [
                            7.542277493588027,
                            46.3777400248405
                        ],
                        [
                            7.487617671500647,
                            46.370547933350124
                        ],
                        [
                            7.484381234673271,
                            46.38708974378333
                        ],
                        [
                            7.43367705760723,
                            46.38457251176802
                        ],
                        [
                            7.335145536214767,
                            46.34717363601187
                        ],
                        [
                            7.306017604713421,
                            46.37486318825256
                        ],
                        [
                            7.265741946341919,
                            46.359400191543315
                        ],
                        [
                            7.254953823559546,
                            46.33207024388494
                        ],
                        [
                            7.214351811830209,
                            46.32382084299061
                        ],
                        [
                            7.205336339395962,
                            46.343855253030654
                        ],
                        [
                            7.192313990312184,
                            46.37340600785449
                        ],
                        [
                            7.137720296084661,
                            46.38041805136758
                        ],
                        [
                            7.104162704221914,
                            46.419485151005446
                        ],
                        [
                            7.068100814448542,
                            46.42599633428154
                        ],
                        [
                            6.93537302571822,
                            46.402956762690394
                        ],
                        [
                            6.821302130441943,
                            46.42286334927952
                        ]
                    ]
                ]
            }
        }
    ]
}