{
    "type": "FeatureCollection",
    "name": "Basileen",
    "features": [
        {
            "type": "Feature",
            "properties": {
                "diocese": "Basileen",
                "province": "Bisuntin",
                "date": 1592
            },
            "geometry": {
                "type": "Polygon",
                "coordinates": [
                    [
                        [
                            7.425638794611481,
                            47.2372307905852
                        ],
                        [
                            7.164287294922438,
                            47.223706678426154
                        ],
                        [
                            7.012329173927229,
                            47.297864165460695
                        ],
                        [
                            7.021864743849949,
                            47.305803359209435
                        ],
                        [
                            7.023789334655486,
                            47.3218024725225
                        ],
                        [
                            7.0392970431306505,
                            47.32587710301505
                        ],
                        [
                            7.048234321235014,
                            47.329715478881994
                        ],
                        [
                            7.254000982009083,
                            47.418010866132164
                        ],
                        [
                            7.251137093379244,
                            47.419077805033474
                        ],
                        [
                            7.247992431354322,
                            47.42474942761414
                        ],
                        [
                            7.245858605829392,
                            47.429033633185405
                        ],
                        [
                            7.243818503240206,
                            47.43239656308715
                        ],
                        [
                            7.240825424198595,
                            47.435006407671594
                        ],
                        [
                            7.236429538829764,
                            47.43637349354101
                        ],
                        [
                            7.230181017258928,
                            47.436008147297706
                        ],
                        [
                            7.225266981451311,
                            47.435671747054094
                        ],
                        [
                            7.219399096363336,
                            47.43558343658139
                        ],
                        [
                            7.212994593916134,
                            47.435807740184956
                        ],
                        [
                            7.206470706030835,
                            47.43640918217016
                        ],
                        [
                            7.200244664628565,
                            47.43745228684239
                        ],
                        [
                            7.194733701630456,
                            47.43900157850699
                        ],
                        [
                            7.190355048957638,
                            47.44112158146934
                        ],
                        [
                            7.187525938531241,
                            47.44387682003481
                        ],
                        [
                            7.186663602272388,
                            47.44733181850878
                        ],
                        [
                            7.188185272102213,
                            47.4515511011966
                        ],
                        [
                            7.18818527210221,
                            47.4515511011966
                        ],
                        [
                            7.188040997847668,
                            47.455824849829696
                        ],
                        [
                            7.188398882214159,
                            47.45995587557153
                        ],
                        [
                            7.189237753131232,
                            47.46395494008028
                        ],
                        [
                            7.19053643852844,
                            47.46783280501413
                        ],
                        [
                            7.192273766335326,
                            47.47160023203126
                        ],
                        [
                            7.19442856448144,
                            47.47526798278983
                        ],
                        [
                            7.196979660896329,
                            47.47884681894804
                        ],
                        [
                            7.199905883509542,
                            47.48234750216407
                        ],
                        [
                            7.203186060250628,
                            47.48578079409608
                        ],
                        [
                            7.206799019049139,
                            47.48915745640227
                        ],
                        [
                            7.206799019049136,
                            47.48915745640227
                        ],
                        [
                            7.203418307991017,
                            47.49138980685154
                        ],
                        [
                            7.199316110079133,
                            47.492338459312094
                        ],
                        [
                            7.194645129000898,
                            47.492338552206114
                        ],
                        [
                            7.189558068443723,
                            47.49172522395574
                        ],
                        [
                            7.184207632095021,
                            47.49083361298315
                        ],
                        [
                            7.178746523642207,
                            47.489998857710525
                        ],
                        [
                            7.17332744677269,
                            47.48955609656002
                        ],
                        [
                            7.168103105173888,
                            47.489840467953805
                        ],
                        [
                            7.163226202533206,
                            47.49118711031406
                        ],
                        [
                            7.158849442538065,
                            47.49393116206294
                        ],
                        [
                            7.158849442538068,
                            47.49393116206295
                        ],
                        [
                            7.151389390388696,
                            47.49787348049173
                        ],
                        [
                            7.143770346211156,
                            47.499747258389
                        ],
                        [
                            7.136019356686816,
                            47.4999811708576
                        ],
                        [
                            7.128163468497043,
                            47.499003893000356
                        ],
                        [
                            7.120229728323203,
                            47.49724409992008
                        ],
                        [
                            7.11224518284666,
                            47.4951304667196
                        ],
                        [
                            7.104236878748781,
                            47.49309166850174
                        ],
                        [
                            7.096231862710933,
                            47.491556380369325
                        ],
                        [
                            7.088257181414479,
                            47.49095327742518
                        ],
                        [
                            7.080339881540787,
                            47.49171103477212
                        ],
                        [
                            7.07808799345395,
                            47.4969469388574
                        ],
                        [
                            7.075836105367113,
                            47.50218284294268
                        ],
                        [
                            7.073584217280276,
                            47.50741874702797
                        ],
                        [
                            7.071332329193439,
                            47.512654651113245
                        ],
                        [
                            7.069080441106601,
                            47.51789055519853
                        ],
                        [
                            7.066828553019763,
                            47.52312645928381
                        ],
                        [
                            7.064576664932925,
                            47.528362363369084
                        ],
                        [
                            7.062324776846086,
                            47.533598267454366
                        ],
                        [
                            7.060072888759247,
                            47.538834171539655
                        ],
                        [
                            7.057821000672412,
                            47.54407007562493
                        ],
                        [
                            7.052381112620061,
                            47.54419476442358
                        ],
                        [
                            7.046941224567712,
                            47.54431945322223
                        ],
                        [
                            7.041501336515365,
                            47.54444414202087
                        ],
                        [
                            7.036061448463014,
                            47.544568830819514
                        ],
                        [
                            7.030621560410664,
                            47.544693519618164
                        ],
                        [
                            7.025181672358316,
                            47.544818208416814
                        ],
                        [
                            7.019741784305968,
                            47.544942897215456
                        ],
                        [
                            7.014301896253617,
                            47.54506758601409
                        ],
                        [
                            7.00886200820127,
                            47.54519227481275
                        ],
                        [
                            7.003422120148921,
                            47.54531696361139
                        ],
                        [
                            7.001974194815803,
                            47.54682067065594
                        ],
                        [
                            7.000526269482684,
                            47.54832437770048
                        ],
                        [
                            6.999078344149565,
                            47.54982808474503
                        ],
                        [
                            6.997630418816449,
                            47.55133179178958
                        ],
                        [
                            6.996182493483332,
                            47.55283549883411
                        ],
                        [
                            6.994734568150214,
                            47.55433920587866
                        ],
                        [
                            6.993286642817099,
                            47.5558429129232
                        ],
                        [
                            6.991838717483981,
                            47.557346619967745
                        ],
                        [
                            6.99039079215086,
                            47.558850327012294
                        ],
                        [
                            6.988942866817744,
                            47.560354034056836
                        ],
                        [
                            6.984590945661637,
                            47.560603985191555
                        ],
                        [
                            6.980239024505526,
                            47.560853936326275
                        ],
                        [
                            6.975887103349418,
                            47.56110388746099
                        ],
                        [
                            6.971535182193309,
                            47.5613538385957
                        ],
                        [
                            6.967183261037203,
                            47.56160378973041
                        ],
                        [
                            6.96283133988109,
                            47.56185374086513
                        ],
                        [
                            6.958479418724984,
                            47.56210369199985
                        ],
                        [
                            6.954127497568875,
                            47.562353643134564
                        ],
                        [
                            6.949775576412764,
                            47.562603594269284
                        ],
                        [
                            6.945423655256656,
                            47.562853545403996
                        ],
                        [
                            6.941803052909096,
                            47.56661387933968
                        ],
                        [
                            6.938182450561532,
                            47.57037421327535
                        ],
                        [
                            6.934561848213974,
                            47.57413454721103
                        ],
                        [
                            6.930941245866412,
                            47.577894881146705
                        ],
                        [
                            6.927320643518851,
                            47.581655215082385
                        ],
                        [
                            6.923700041171291,
                            47.58541554901806
                        ],
                        [
                            6.920079438823731,
                            47.58917588295373
                        ],
                        [
                            6.916458836476169,
                            47.59293621688941
                        ],
                        [
                            6.912838234128607,
                            47.59669655082509
                        ],
                        [
                            6.909217631781045,
                            47.60045688476077
                        ],
                        [
                            6.905412719655695,
                            47.6023370872054
                        ],
                        [
                            6.901607807530342,
                            47.60421728965004
                        ],
                        [
                            6.897802895404988,
                            47.606097492094676
                        ],
                        [
                            6.893997983279638,
                            47.607977694539315
                        ],
                        [
                            6.890193071154284,
                            47.60985789698395
                        ],
                        [
                            6.886388159028932,
                            47.611738099428585
                        ],
                        [
                            6.882583246903579,
                            47.61361830187322
                        ],
                        [
                            6.878778334778227,
                            47.615498504317856
                        ],
                        [
                            6.874973422652877,
                            47.617378706762494
                        ],
                        [
                            6.871168510527522,
                            47.619258909207126
                        ],
                        [
                            6.871912786096958,
                            47.62866272745424
                        ],
                        [
                            6.872657061666395,
                            47.638066545701356
                        ],
                        [
                            6.87340133723583,
                            47.647470363948464
                        ],
                        [
                            6.874145612805265,
                            47.65687418219557
                        ],
                        [
                            6.874889888374701,
                            47.66627800044268
                        ],
                        [
                            6.875634163944138,
                            47.67568181868979
                        ],
                        [
                            6.876378439513573,
                            47.685085636936904
                        ],
                        [
                            6.877122715083008,
                            47.69448945518402
                        ],
                        [
                            6.877866990652445,
                            47.70389327343112
                        ],
                        [
                            6.878611266221881,
                            47.713297091678236
                        ],
                        [
                            6.877167776454217,
                            47.71705797441297
                        ],
                        [
                            6.87572428668655,
                            47.7208188571477
                        ],
                        [
                            6.874280796918887,
                            47.72457973988244
                        ],
                        [
                            6.872837307151221,
                            47.72834062261717
                        ],
                        [
                            6.871393817383558,
                            47.7321015053519
                        ],
                        [
                            6.869950327615893,
                            47.73586238808663
                        ],
                        [
                            6.868506837848228,
                            47.73962327082136
                        ],
                        [
                            6.867063348080563,
                            47.74338415355609
                        ],
                        [
                            6.865619858312899,
                            47.74714503629083
                        ],
                        [
                            6.864176368545234,
                            47.75090591902556
                        ],
                        [
                            6.867083753866956,
                            47.75391584791678
                        ],
                        [
                            6.869991139188677,
                            47.75692577680799
                        ],
                        [
                            6.872898524510399,
                            47.759935705699206
                        ],
                        [
                            6.875805909832119,
                            47.76294563459042
                        ],
                        [
                            6.878713295153839,
                            47.76595556348163
                        ],
                        [
                            6.881620680475558,
                            47.76896549237285
                        ],
                        [
                            6.884528065797278,
                            47.77197542126406
                        ],
                        [
                            6.887435451118998,
                            47.774985350155276
                        ],
                        [
                            6.890342836440722,
                            47.777995279046486
                        ],
                        [
                            6.893250221762441,
                            47.7810052079377
                        ],
                        [
                            6.893434128202349,
                            47.7826353740995
                        ],
                        [
                            6.893618034642255,
                            47.78426554026129
                        ],
                        [
                            6.893801941082163,
                            47.785895706423084
                        ],
                        [
                            6.893985847522071,
                            47.78752587258488
                        ],
                        [
                            6.894169753961977,
                            47.78915603874666
                        ],
                        [
                            6.894353660401885,
                            47.790786204908464
                        ],
                        [
                            6.894537566841795,
                            47.79241637107026
                        ],
                        [
                            6.894721473281702,
                            47.79404653723204
                        ],
                        [
                            6.894905379721608,
                            47.795676703393845
                        ],
                        [
                            6.895089286161516,
                            47.79730686955563
                        ],
                        [
                            6.891824364921133,
                            47.797181069398675
                        ],
                        [
                            6.88855944368075,
                            47.79705526924172
                        ],
                        [
                            6.885294522440365,
                            47.79692946908476
                        ],
                        [
                            6.88202960119998,
                            47.7968036689278
                        ],
                        [
                            6.878764679959598,
                            47.79667786877085
                        ],
                        [
                            6.875499758719215,
                            47.79655206861388
                        ],
                        [
                            6.872234837478832,
                            47.796426268456926
                        ],
                        [
                            6.868969916238445,
                            47.79630046829997
                        ],
                        [
                            6.865704994998062,
                            47.79617466814302
                        ],
                        [
                            6.862440073757679,
                            47.79604886798605
                        ],
                        [
                            6.859179317265156,
                            47.79730215738395
                        ],
                        [
                            6.855918560772629,
                            47.79855544678186
                        ],
                        [
                            6.852657804280105,
                            47.799808736179756
                        ],
                        [
                            6.849397047787578,
                            47.80106202557766
                        ],
                        [
                            6.846136291295053,
                            47.80231531497556
                        ],
                        [
                            6.842875534802531,
                            47.80356860437346
                        ],
                        [
                            6.839614778310004,
                            47.80482189377136
                        ],
                        [
                            6.836354021817478,
                            47.80607518316926
                        ],
                        [
                            6.833093265324953,
                            47.80732847256716
                        ],
                        [
                            6.829832508832428,
                            47.80858176196506
                        ],
                        [
                            6.828929172059736,
                            47.81046162201828
                        ],
                        [
                            6.828025835287043,
                            47.8123414820715
                        ],
                        [
                            6.827122498514353,
                            47.814221342124725
                        ],
                        [
                            6.826219161741657,
                            47.81610120217793
                        ],
                        [
                            6.825315824968966,
                            47.817981062231155
                        ],
                        [
                            6.824412488196272,
                            47.81986092228438
                        ],
                        [
                            6.823509151423581,
                            47.8217407823376
                        ],
                        [
                            6.822605814650888,
                            47.823620642390814
                        ],
                        [
                            6.821702477878196,
                            47.82550050244404
                        ],
                        [
                            6.820799141105503,
                            47.82738036249725
                        ],
                        [
                            6.825696942244075,
                            47.828134691002
                        ],
                        [
                            6.830594743382646,
                            47.828889019506754
                        ],
                        [
                            6.835492544521216,
                            47.8296433480115
                        ],
                        [
                            6.840390345659785,
                            47.83039767651624
                        ],
                        [
                            6.845288146798357,
                            47.83115200502099
                        ],
                        [
                            6.850185947936929,
                            47.831906333525744
                        ],
                        [
                            6.855083749075501,
                            47.832660662030484
                        ],
                        [
                            6.859981550214069,
                            47.83341499053524
                        ],
                        [
                            6.864879351352641,
                            47.83416931903999
                        ],
                        [
                            6.869777152491213,
                            47.83492364754473
                        ],
                        [
                            6.873225254429425,
                            47.83630359111425
                        ],
                        [
                            6.876673356367638,
                            47.83768353468376
                        ],
                        [
                            6.880121458305851,
                            47.83906347825327
                        ],
                        [
                            6.883569560244059,
                            47.84044342182278
                        ],
                        [
                            6.887017662182274,
                            47.8418233653923
                        ],
                        [
                            6.890465764120485,
                            47.84320330896181
                        ],
                        [
                            6.893913866058698,
                            47.84458325253133
                        ],
                        [
                            6.897361967996909,
                            47.84596319610085
                        ],
                        [
                            6.900810069935124,
                            47.84734313967036
                        ],
                        [
                            6.904258171873334,
                            47.84872308323987
                        ],
                        [
                            6.903536695029347,
                            47.85035302345026
                        ],
                        [
                            6.902815218185356,
                            47.851982963660646
                        ],
                        [
                            6.902093741341369,
                            47.85361290387104
                        ],
                        [
                            6.901372264497379,
                            47.85524284408143
                        ],
                        [
                            6.900650787653392,
                            47.85687278429182
                        ],
                        [
                            6.899929310809403,
                            47.8585027245022
                        ],
                        [
                            6.899207833965415,
                            47.860132664712594
                        ],
                        [
                            6.898486357121426,
                            47.86176260492298
                        ],
                        [
                            6.897764880277437,
                            47.863392545133365
                        ],
                        [
                            6.897043403433448,
                            47.86502248534376
                        ],
                        [
                            6.897590169188442,
                            47.86652669019211
                        ],
                        [
                            6.898136934943437,
                            47.86803089504048
                        ],
                        [
                            6.898683700698429,
                            47.869535099888836
                        ],
                        [
                            6.899230466453425,
                            47.87103930473719
                        ],
                        [
                            6.899777232208418,
                            47.87254350958555
                        ],
                        [
                            6.900323997963412,
                            47.8740477144339
                        ],
                        [
                            6.900870763718405,
                            47.875551919282266
                        ],
                        [
                            6.901417529473401,
                            47.877056124130625
                        ],
                        [
                            6.901964295228396,
                            47.87856032897898
                        ],
                        [
                            6.90251106098339,
                            47.88006453382733
                        ],
                        [
                            6.906139276524895,
                            47.88106850524801
                        ],
                        [
                            6.909767492066401,
                            47.88207247666868
                        ],
                        [
                            6.913395707607908,
                            47.883076448089355
                        ],
                        [
                            6.917023923149415,
                            47.88408041951003
                        ],
                        [
                            6.920652138690924,
                            47.88508439093071
                        ],
                        [
                            6.92428035423243,
                            47.88608836235137
                        ],
                        [
                            6.927908569773935,
                            47.887092333772046
                        ],
                        [
                            6.931536785315442,
                            47.888096305192725
                        ],
                        [
                            6.935165000856948,
                            47.8891002766134
                        ],
                        [
                            6.938793216398453,
                            47.89010424803406
                        ],
                        [
                            6.941877861914985,
                            47.89048103495044
                        ],
                        [
                            6.944962507431514,
                            47.890857821866824
                        ],
                        [
                            6.948047152948044,
                            47.89123460878319
                        ],
                        [
                            6.951131798464573,
                            47.89161139569957
                        ],
                        [
                            6.954216443981103,
                            47.891988182615954
                        ],
                        [
                            6.957301089497632,
                            47.892364969532316
                        ],
                        [
                            6.960385735014162,
                            47.89274175644869
                        ],
                        [
                            6.963470380530692,
                            47.89311854336506
                        ],
                        [
                            6.966555026047221,
                            47.893495330281446
                        ],
                        [
                            6.969639671563751,
                            47.89387211719782
                        ],
                        [
                            6.970007079047244,
                            47.89688141767042
                        ],
                        [
                            6.970374486530735,
                            47.89989071814301
                        ],
                        [
                            6.97074189401423,
                            47.90290001861562
                        ],
                        [
                            6.971109301497721,
                            47.90590931908821
                        ],
                        [
                            6.971476708981216,
                            47.908918619560815
                        ],
                        [
                            6.971844116464709,
                            47.91192792003341
                        ],
                        [
                            6.9722115239482,
                            47.91493722050601
                        ],
                        [
                            6.972578931431693,
                            47.91794652097862
                        ],
                        [
                            6.972946338915186,
                            47.92095582145121
                        ],
                        [
                            6.973313746398679,
                            47.923965121923814
                        ],
                        [
                            6.976415574429753,
                            47.933244543183044
                        ],
                        [
                            6.979517402460822,
                            47.942523964442266
                        ],
                        [
                            6.982619230491895,
                            47.951803385701496
                        ],
                        [
                            6.985721058522966,
                            47.961082806960725
                        ],
                        [
                            6.988822886554042,
                            47.970362228219955
                        ],
                        [
                            6.991924714585112,
                            47.97964164947918
                        ],
                        [
                            6.995026542616184,
                            47.98892107073841
                        ],
                        [
                            6.998128370647256,
                            47.998200491997636
                        ],
                        [
                            7.001230198678329,
                            48.007479913256866
                        ],
                        [
                            7.004332026709399,
                            48.01675933451609
                        ],
                        [
                            7.007054002552122,
                            48.01813909687041
                        ],
                        [
                            7.009775978394845,
                            48.01951885922472
                        ],
                        [
                            7.012497954237567,
                            48.02089862157904
                        ],
                        [
                            7.015219930080288,
                            48.02227838393336
                        ],
                        [
                            7.017941905923012,
                            48.02365814628767
                        ],
                        [
                            7.020663881765733,
                            48.02503790864199
                        ],
                        [
                            7.023385857608456,
                            48.02641767099631
                        ],
                        [
                            7.026107833451178,
                            48.02779743335063
                        ],
                        [
                            7.028829809293899,
                            48.029177195704946
                        ],
                        [
                            7.031551785136623,
                            48.030556958059265
                        ],
                        [
                            7.029925278839572,
                            48.03318974382326
                        ],
                        [
                            7.028298772542522,
                            48.03582252958725
                        ],
                        [
                            7.02667226624547,
                            48.03845531535125
                        ],
                        [
                            7.025045759948419,
                            48.04108810111525
                        ],
                        [
                            7.023419253651369,
                            48.04372088687924
                        ],
                        [
                            7.021792747354318,
                            48.046353672643235
                        ],
                        [
                            7.020166241057268,
                            48.048986458407235
                        ],
                        [
                            7.018539734760214,
                            48.05161924417123
                        ],
                        [
                            7.016913228463165,
                            48.05425202993523
                        ],
                        [
                            7.015286722166111,
                            48.056884815699235
                        ],
                        [
                            7.021642288533366,
                            48.0612746881797
                        ],
                        [
                            7.027997854900619,
                            48.06566456066016
                        ],
                        [
                            7.034353421267873,
                            48.07005443314063
                        ],
                        [
                            7.040708987635126,
                            48.07444430562111
                        ],
                        [
                            7.047064554002379,
                            48.07883417810157
                        ],
                        [
                            7.05342012036963,
                            48.08322405058205
                        ],
                        [
                            7.059775686736886,
                            48.08761392306252
                        ],
                        [
                            7.066131253104139,
                            48.09200379554299
                        ],
                        [
                            7.072486819471393,
                            48.09639366802346
                        ],
                        [
                            7.078842385838646,
                            48.100783540503926
                        ],
                        [
                            7.079942937573971,
                            48.107429281572585
                        ],
                        [
                            7.0810434893093,
                            48.11407502264123
                        ],
                        [
                            7.082144041044623,
                            48.1207207637099
                        ],
                        [
                            7.083244592779952,
                            48.12736650477855
                        ],
                        [
                            7.084345144515281,
                            48.1340122458472
                        ],
                        [
                            7.085445696250606,
                            48.140657986915855
                        ],
                        [
                            7.086546247985934,
                            48.14730372798451
                        ],
                        [
                            7.087646799721258,
                            48.15394946905316
                        ],
                        [
                            7.088747351456586,
                            48.16059521012181
                        ],
                        [
                            7.089847903191913,
                            48.167240951190465
                        ],
                        [
                            7.093746092707931,
                            48.165611803774354
                        ],
                        [
                            7.097644282223953,
                            48.16398265635824
                        ],
                        [
                            7.101542471739977,
                            48.16235350894214
                        ],
                        [
                            7.105440661255997,
                            48.16072436152602
                        ],
                        [
                            7.109338850772017,
                            48.15909521410991
                        ],
                        [
                            7.113237040288038,
                            48.15746606669381
                        ],
                        [
                            7.117135229804058,
                            48.15583691927769
                        ],
                        [
                            7.12103341932008,
                            48.15420777186158
                        ],
                        [
                            7.124931608836102,
                            48.15257862444548
                        ],
                        [
                            7.12882979835212,
                            48.150949477029364
                        ],
                        [
                            7.132095084506147,
                            48.15126434687866
                        ],
                        [
                            7.135360370660175,
                            48.15157921672797
                        ],
                        [
                            7.138625656814204,
                            48.15189408657727
                        ],
                        [
                            7.141890942968232,
                            48.15220895642657
                        ],
                        [
                            7.145156229122259,
                            48.152523826275875
                        ],
                        [
                            7.148421515276286,
                            48.15283869612518
                        ],
                        [
                            7.151686801430316,
                            48.15315356597447
                        ],
                        [
                            7.154952087584343,
                            48.153468435823775
                        ],
                        [
                            7.158217373738367,
                            48.15378330567308
                        ],
                        [
                            7.161482659892396,
                            48.15409817552238
                        ],
                        [
                            7.162033419239762,
                            48.15767154740124
                        ],
                        [
                            7.162584178587126,
                            48.1612449192801
                        ],
                        [
                            7.163134937934492,
                            48.164818291158944
                        ],
                        [
                            7.163685697281858,
                            48.16839166303781
                        ],
                        [
                            7.164236456629222,
                            48.17196503491667
                        ],
                        [
                            7.164787215976585,
                            48.175538406795525
                        ],
                        [
                            7.165337975323951,
                            48.179111778674375
                        ],
                        [
                            7.165888734671316,
                            48.18268515055323
                        ],
                        [
                            7.166439494018681,
                            48.18625852243209
                        ],
                        [
                            7.166990253366047,
                            48.189831894310956
                        ],
                        [
                            7.170437708680055,
                            48.190835820620315
                        ],
                        [
                            7.173885163994067,
                            48.19183974692967
                        ],
                        [
                            7.177332619308077,
                            48.19284367323903
                        ],
                        [
                            7.180780074622085,
                            48.1938475995484
                        ],
                        [
                            7.184227529936093,
                            48.19485152585776
                        ],
                        [
                            7.187674985250105,
                            48.19585545216712
                        ],
                        [
                            7.191122440564113,
                            48.19685937847648
                        ],
                        [
                            7.194569895878123,
                            48.197863304785855
                        ],
                        [
                            7.198017351192133,
                            48.19886723109521
                        ],
                        [
                            7.201464806506143,
                            48.19987115740457
                        ],
                        [
                            7.206632320241942,
                            48.19949642993307
                        ],
                        [
                            7.211799833977739,
                            48.19912170246158
                        ],
                        [
                            7.216967347713535,
                            48.19874697499008
                        ],
                        [
                            7.222134861449334,
                            48.19837224751858
                        ],
                        [
                            7.227302375185134,
                            48.19799752004709
                        ],
                        [
                            7.232469888920932,
                            48.19762279257559
                        ],
                        [
                            7.237637402656729,
                            48.19724806510409
                        ],
                        [
                            7.242804916392528,
                            48.196873337632596
                        ],
                        [
                            7.247972430128328,
                            48.1964986101611
                        ],
                        [
                            7.253139943864126,
                            48.1961238826896
                        ],
                        [
                            7.257950293603061,
                            48.198006240665926
                        ],
                        [
                            7.262760643341998,
                            48.199888598642254
                        ],
                        [
                            7.267570993080934,
                            48.20177095661858
                        ],
                        [
                            7.272381342819871,
                            48.20365331459491
                        ],
                        [
                            7.277191692558807,
                            48.20553567257124
                        ],
                        [
                            7.282002042297748,
                            48.20741803054756
                        ],
                        [
                            7.286812392036683,
                            48.20930038852389
                        ],
                        [
                            7.291622741775619,
                            48.211182746500214
                        ],
                        [
                            7.296433091514556,
                            48.21306510447655
                        ],
                        [
                            7.301243441253492,
                            48.21494746245287
                        ],
                        [
                            7.305229235244223,
                            48.213130328350324
                        ],
                        [
                            7.309215029234952,
                            48.21131319424778
                        ],
                        [
                            7.313200823225685,
                            48.20949606014524
                        ],
                        [
                            7.317186617216411,
                            48.207678926042696
                        ],
                        [
                            7.321172411207145,
                            48.20586179194015
                        ],
                        [
                            7.325158205197875,
                            48.2040446578376
                        ],
                        [
                            7.329143999188606,
                            48.202227523735054
                        ],
                        [
                            7.333129793179335,
                            48.200410389632516
                        ],
                        [
                            7.337115587170066,
                            48.19859325552998
                        ],
                        [
                            7.341101381160795,
                            48.19677612142743
                        ],
                        [
                            7.34771815004432,
                            48.19558669277106
                        ],
                        [
                            7.354334918927844,
                            48.19439726411468
                        ],
                        [
                            7.360951687811369,
                            48.193207835458296
                        ],
                        [
                            7.367568456694894,
                            48.19201840680192
                        ],
                        [
                            7.374185225578419,
                            48.19082897814554
                        ],
                        [
                            7.380801994461944,
                            48.189639549489165
                        ],
                        [
                            7.387418763345467,
                            48.18845012083279
                        ],
                        [
                            7.394035532228992,
                            48.187260692176416
                        ],
                        [
                            7.400652301112515,
                            48.186071263520034
                        ],
                        [
                            7.40726906999604,
                            48.18488183486367
                        ],
                        [
                            7.407354835691793,
                            48.182060661505666
                        ],
                        [
                            7.407440601387547,
                            48.17923948814767
                        ],
                        [
                            7.4075263670833,
                            48.17641831478968
                        ],
                        [
                            7.407612132779056,
                            48.173597141431685
                        ],
                        [
                            7.407697898474808,
                            48.17077596807369
                        ],
                        [
                            7.407783664170561,
                            48.1679547947157
                        ],
                        [
                            7.407869429866315,
                            48.1651336213577
                        ],
                        [
                            7.407955195562069,
                            48.1623124479997
                        ],
                        [
                            7.408040961257823,
                            48.15949127464171
                        ],
                        [
                            7.408126726953576,
                            48.156670101283716
                        ],
                        [
                            7.411568536477523,
                            48.15478980822161
                        ],
                        [
                            7.415010346001472,
                            48.1529095151595
                        ],
                        [
                            7.418452155525419,
                            48.15102922209739
                        ],
                        [
                            7.421893965049364,
                            48.14914892903529
                        ],
                        [
                            7.425335774573313,
                            48.14726863597318
                        ],
                        [
                            7.42877758409726,
                            48.14538834291108
                        ],
                        [
                            7.432219393621205,
                            48.14350804984897
                        ],
                        [
                            7.435661203145152,
                            48.14162775678686
                        ],
                        [
                            7.439103012669101,
                            48.13974746372476
                        ],
                        [
                            7.442544822193048,
                            48.13786717066265
                        ],
                        [
                            7.441812939752424,
                            48.134105745032535
                        ],
                        [
                            7.441081057311802,
                            48.13034431940242
                        ],
                        [
                            7.440349174871177,
                            48.12658289377231
                        ],
                        [
                            7.439617292430553,
                            48.12282146814219
                        ],
                        [
                            7.438885409989931,
                            48.119060042512075
                        ],
                        [
                            7.438153527549307,
                            48.11529861688196
                        ],
                        [
                            7.437421645108683,
                            48.11153719125185
                        ],
                        [
                            7.436689762668058,
                            48.10777576562173
                        ],
                        [
                            7.435957880227438,
                            48.104014339991615
                        ],
                        [
                            7.435225997786812,
                            48.100252914361505
                        ],
                        [
                            7.435129662336539,
                            48.097556680906514
                        ],
                        [
                            7.435033326886263,
                            48.09486044745153
                        ],
                        [
                            7.434936991435988,
                            48.09216421399653
                        ],
                        [
                            7.434840655985713,
                            48.08946798054154
                        ],
                        [
                            7.434744320535444,
                            48.086771747086566
                        ],
                        [
                            7.434647985085167,
                            48.084075513631575
                        ],
                        [
                            7.434551649634892,
                            48.081379280176584
                        ],
                        [
                            7.434455314184618,
                            48.0786830467216
                        ],
                        [
                            7.434358978734341,
                            48.07598681326661
                        ],
                        [
                            7.434262643284068,
                            48.073290579811626
                        ],
                        [
                            7.437247565899476,
                            48.06921602134402
                        ],
                        [
                            7.440232488514885,
                            48.06514146287642
                        ],
                        [
                            7.443217411130295,
                            48.06106690440881
                        ],
                        [
                            7.446202333745703,
                            48.05699234594122
                        ],
                        [
                            7.449187256361109,
                            48.05291778747361
                        ],
                        [
                            7.452172178976518,
                            48.04884322900601
                        ],
                        [
                            7.455157101591926,
                            48.0447686705384
                        ],
                        [
                            7.458142024207334,
                            48.0406941120708
                        ],
                        [
                            7.461126946822741,
                            48.0366195536032
                        ],
                        [
                            7.464111869438151,
                            48.0325449951356
                        ],
                        [
                            7.469370514807244,
                            48.032170290407315
                        ],
                        [
                            7.474629160176336,
                            48.03179558567902
                        ],
                        [
                            7.479887805545426,
                            48.03142088095073
                        ],
                        [
                            7.48514645091452,
                            48.031046176222446
                        ],
                        [
                            7.490405096283611,
                            48.03067147149416
                        ],
                        [
                            7.495663741652702,
                            48.030296766765865
                        ],
                        [
                            7.500922387021799,
                            48.02992206203758
                        ],
                        [
                            7.506181032390886,
                            48.02954735730929
                        ],
                        [
                            7.511439677759981,
                            48.029172652581
                        ],
                        [
                            7.516698323129072,
                            48.028797947852716
                        ],
                        [
                            7.522800023778258,
                            48.031296995332525
                        ],
                        [
                            7.528901724427442,
                            48.033796042812334
                        ],
                        [
                            7.53500342507663,
                            48.03629509029215
                        ],
                        [
                            7.541105125725815,
                            48.03879413777196
                        ],
                        [
                            7.547206826375003,
                            48.041293185251774
                        ],
                        [
                            7.553308527024186,
                            48.04379223273158
                        ],
                        [
                            7.559410227673371,
                            48.04629128021139
                        ],
                        [
                            7.565511928322559,
                            48.04879032769121
                        ],
                        [
                            7.571613628971745,
                            48.05128937517102
                        ],
                        [
                            7.577715329620929,
                            48.05378842265083
                        ],
                        [
                            7.577715329620933,
                            48.05378842265083
                        ],
                        [
                            7.577736382459804,
                            48.046117266975074
                        ],
                        [
                            7.580188126043817,
                            48.03928104105989
                        ],
                        [
                            7.584597196050471,
                            48.03310893579106
                        ],
                        [
                            7.590490228157265,
                            48.027430142054364
                        ],
                        [
                            7.597393858041688,
                            48.022073850735595
                        ],
                        [
                            7.604834721381248,
                            48.01686925272051
                        ],
                        [
                            7.612339453853432,
                            48.011645538894896
                        ],
                        [
                            7.619434691135741,
                            48.00623190014454
                        ],
                        [
                            7.625647068905671,
                            48.00045752735521
                        ],
                        [
                            7.630503222840719,
                            47.994151611412704
                        ],
                        [
                            7.630503222840723,
                            47.994151611412704
                        ],
                        [
                            7.633959686569771,
                            47.98648083912011
                        ],
                        [
                            7.634904509279739,
                            47.97906714402741
                        ],
                        [
                            7.633669099605328,
                            47.97191203601186
                        ],
                        [
                            7.630584866181247,
                            47.96501702495074
                        ],
                        [
                            7.625983217642201,
                            47.95838362072131
                        ],
                        [
                            7.620195562622907,
                            47.95201333320083
                        ],
                        [
                            7.613553309758061,
                            47.94590767226658
                        ],
                        [
                            7.606387867682379,
                            47.940068147795806
                        ],
                        [
                            7.599030645030567,
                            47.934496269665786
                        ],
                        [
                            7.591813050437327,
                            47.92919354775379
                        ],
                        [
                            7.591065490897464,
                            47.924421575621906
                        ],
                        [
                            7.591206772946443,
                            47.919445525460674
                        ],
                        [
                            7.59183743202188,
                            47.91436639033559
                        ],
                        [
                            7.592558003561393,
                            47.909285163312134
                        ],
                        [
                            7.592969023002595,
                            47.904302837455816
                        ],
                        [
                            7.592671025783105,
                            47.899520405832114
                        ],
                        [
                            7.591264547340538,
                            47.89503886150655
                        ],
                        [
                            7.588350123112509,
                            47.89095919754458
                        ],
                        [
                            7.583528288536634,
                            47.88738240701173
                        ],
                        [
                            7.576399579050534,
                            47.884409482973474
                        ],
                        [
                            7.576399579050547,
                            47.88440948297347
                        ],
                        [
                            7.568701330952759,
                            47.88122127556645
                        ],
                        [
                            7.564495185763906,
                            47.87743164789046
                        ],
                        [
                            7.563064992559543,
                            47.87314439292834
                        ],
                        [
                            7.563694600415229,
                            47.86846330366295
                        ],
                        [
                            7.56566785840652,
                            47.86349217307713
                        ],
                        [
                            7.568268615608979,
                            47.858334794153734
                        ],
                        [
                            7.570780721098167,
                            47.85309495987563
                        ],
                        [
                            7.572488023949637,
                            47.84787646322565
                        ],
                        [
                            7.572674373238947,
                            47.84278309718666
                        ],
                        [
                            7.57062361804166,
                            47.837918654741515
                        ],
                        [
                            7.570623618041667,
                            47.83791865474151
                        ],
                        [
                            7.563369910991881,
                            47.8316105260168
                        ],
                        [
                            7.556646180644988,
                            47.824817434353776
                        ],
                        [
                            7.550622096416443,
                            47.81761731555563
                        ],
                        [
                            7.54546732772171,
                            47.81008810542554
                        ],
                        [
                            7.541351543976237,
                            47.80230773976672
                        ],
                        [
                            7.538444414595492,
                            47.79435415438234
                        ],
                        [
                            7.53691560899493,
                            47.786305285075606
                        ],
                        [
                            7.53693479659001,
                            47.778239067649714
                        ],
                        [
                            7.538671646796193,
                            47.77023343790785
                        ],
                        [
                            7.540483737912564,
                            47.76629988478053
                        ],
                        [
                            7.542295829028935,
                            47.76236633165321
                        ],
                        [
                            7.542295829028935,
                            47.76236633165321
                        ],
                        [
                            7.542295829028939,
                            47.76236633165321
                        ],
                        [
                            7.545942296121961,
                            47.75775378485419
                        ],
                        [
                            7.549051560279086,
                            47.75290698814039
                        ],
                        [
                            7.551487482989607,
                            47.74790647123721
                        ],
                        [
                            7.553113925742842,
                            47.74283276387009
                        ],
                        [
                            7.553794750028088,
                            47.737766395764446
                        ],
                        [
                            7.55339381733465,
                            47.73278789664569
                        ],
                        [
                            7.551774989151836,
                            47.727977796239244
                        ],
                        [
                            7.548802126968949,
                            47.72341662427054
                        ],
                        [
                            7.544339092275299,
                            47.719184910465
                        ],
                        [
                            7.538249746560185,
                            47.71536318454804
                        ],
                        [
                            7.538249746560171,
                            47.71536318454804
                        ],
                        [
                            7.538249746560171,
                            47.71536318454804
                        ],
                        [
                            7.532767616451755,
                            47.7130264107931
                        ],
                        [
                            7.528407656253966,
                            47.71028790225283
                        ],
                        [
                            7.525085847869054,
                            47.70720102768371
                        ],
                        [
                            7.522718173199271,
                            47.703819155842204
                        ],
                        [
                            7.521220614146872,
                            47.70019565548479
                        ],
                        [
                            7.520509152614114,
                            47.69638389536793
                        ],
                        [
                            7.520499770503241,
                            47.692437244248104
                        ],
                        [
                            7.521108449716509,
                            47.68840907088177
                        ],
                        [
                            7.522251172156174,
                            47.684352744025404
                        ],
                        [
                            7.523843919724488,
                            47.6803216324355
                        ],
                        [
                            7.523843919724483,
                            47.6803216324355
                        ],
                        [
                            7.524822874596364,
                            47.673882479740264
                        ],
                        [
                            7.527621605089049,
                            47.66819400832392
                        ],
                        [
                            7.531914164265638,
                            47.66312115791541
                        ],
                        [
                            7.53737460518923,
                            47.65852886824369
                        ],
                        [
                            7.543676980922928,
                            47.65428207903769
                        ],
                        [
                            7.550495344529828,
                            47.65024573002636
                        ],
                        [
                            7.557503749073035,
                            47.64628476093865
                        ],
                        [
                            7.564376247615646,
                            47.6422641115035
                        ],
                        [
                            7.57078689322076,
                            47.638048721449856
                        ],
                        [
                            7.57640973895148,
                            47.63350353050666
                        ],
                        [
                            7.57640973895148,
                            47.63350353050666
                        ],
                        [
                            7.576409738951483,
                            47.63350353050666
                        ],
                        [
                            7.57625733304897,
                            47.62887024106506
                        ],
                        [
                            7.577525285635089,
                            47.6246311910881
                        ],
                        [
                            7.579880492326318,
                            47.62069567989455
                        ],
                        [
                            7.582989848739121,
                            47.61697300680324
                        ],
                        [
                            7.586520250489972,
                            47.61337247113297
                        ],
                        [
                            7.590138593195338,
                            47.609803372202514
                        ],
                        [
                            7.593511772471693,
                            47.60617500933069
                        ],
                        [
                            7.596306683935502,
                            47.602396681836304
                        ],
                        [
                            7.598190223203238,
                            47.59837768903814
                        ],
                        [
                            7.59882928589137,
                            47.59402733025502
                        ],
                        [
                            7.59882928589137,
                            47.59402733025502
                        ],
                        [
                            7.598829285891375,
                            47.59402733025502
                        ],
                        [
                            7.600108029926119,
                            47.588714225487834
                        ],
                        [
                            7.599028839842017,
                            47.585145145388076
                        ],
                        [
                            7.596043549892059,
                            47.582934992643274
                        ],
                        [
                            7.591603994329235,
                            47.581698669940955
                        ],
                        [
                            7.58616200740653,
                            47.58105107996865
                        ],
                        [
                            7.580169423376937,
                            47.58060712541391
                        ],
                        [
                            7.574078076493436,
                            47.57998170896426
                        ],
                        [
                            7.568339801009021,
                            47.57878973330723
                        ],
                        [
                            7.563406431176681,
                            47.57664610113034
                        ],
                        [
                            7.5597298012494,
                            47.57316571512115
                        ],
                        [
                            7.559729801249389,
                            47.57316571512114
                        ],
                        [
                            7.559701152529666,
                            47.56840586224564
                        ],
                        [
                            7.559126522246393,
                            47.56744623329236
                        ],
                        [
                            7.597148532000062,
                            47.53537716300008
                        ],
                        [
                            7.761147544000039,
                            47.51130175900005
                        ],
                        [
                            7.78966911200007,
                            47.53778409600005
                        ],
                        [
                            7.85740783500006,
                            47.55703558100004
                        ],
                        [
                            7.889494598000056,
                            47.540190918000064
                        ],
                        [
                            8.014276455000072,
                            47.545004231000064
                        ],
                        [
                            8.064189197000076,
                            47.57387483000008
                        ],
                        [
                            8.16044948700005,
                            47.57627999500005
                        ],
                        [
                            8.18184066300006,
                            47.55703558100004
                        ],
                        [
                            8.192536251000035,
                            47.50648535200003
                        ],
                        [
                            8.18184066300006,
                            47.46552804800007
                        ],
                        [
                            8.131927920000066,
                            47.43900924500008
                        ],
                        [
                            8.09271076400006,
                            47.36903193300003
                        ],
                        [
                            8.00714606300005,
                            47.36178759500007
                        ],
                        [
                            7.889494598000056,
                            47.30863204800005
                        ],
                        [
                            7.846712247000028,
                            47.31830067300007
                        ],
                        [
                            7.821755875000065,
                            47.25300312500008
                        ],
                        [
                            7.739756369000077,
                            47.25300312500008
                        ],
                        [
                            7.700539214000059,
                            47.20458260000004
                        ],
                        [
                            7.61497451200006,
                            47.21184849900004
                        ],
                        [
                            7.497323047000066,
                            47.17308553700008
                        ],
                        [
                            7.431928205942853,
                            47.17016278801616
                        ],
                        [
                            7.434413159351929,
                            47.17158276139277
                        ],
                        [
                            7.488727141007441,
                            47.18152257502907
                        ],
                        [
                            7.425638794611481,
                            47.2372307905852
                        ]
                    ]
                ]
            }
        }
    ]
}