{
    "type": "FeatureCollection",
    "features": [
        {
            "type": "Feature",
            "properties": {
                "diocese": "Bellicen",
                "province": "Bisuntin",
                "date": 1592
            },
            "geometry": {
                "type": "Polygon",
                "coordinates": [
                    [
                        [
                            5.773733049046605,
                            45.716926189152304
                        ],
                        [
                            5.775556615244534,
                            45.712327914111349
                        ],
                        [
                            5.777380181442465,
                            45.707729639070394
                        ],
                        [
                            5.779203747640397,
                            45.703131364029439
                        ],
                        [
                            5.781027313838329,
                            45.698533088988484
                        ],
                        [
                            5.782850880036261,
                            45.693934813947521
                        ],
                        [
                            5.78467444623419,
                            45.689336538906574
                        ],
                        [
                            5.786498012432119,
                            45.684738263865611
                        ],
                        [
                            5.78832157863005,
                            45.680139988824664
                        ],
                        [
                            5.790145144827981,
                            45.675541713783709
                        ],
                        [
                            5.787825498931227,
                            45.669689324344645
                        ],
                        [
                            5.785505853034469,
                            45.663836934905582
                        ],
                        [
                            5.783186207137712,
                            45.657984545466519
                        ],
                        [
                            5.780866561240956,
                            45.652132156027463
                        ],
                        [
                            5.778546915344201,
                            45.6462797665884
                        ],
                        [
                            5.776227269447443,
                            45.640427377149344
                        ],
                        [
                            5.773907623550686,
                            45.634574987710273
                        ],
                        [
                            5.77158797765393,
                            45.628722598271217
                        ],
                        [
                            5.769268331757171,
                            45.622870208832154
                        ],
                        [
                            5.766948685860418,
                            45.617017819393098
                        ],
                        [
                            5.770397352284595,
                            45.609836999590975
                        ],
                        [
                            5.773846018708774,
                            45.602656179788845
                        ],
                        [
                            5.777294685132954,
                            45.595475359986729
                        ],
                        [
                            5.780743351557133,
                            45.588294540184606
                        ],
                        [
                            5.78419201798131,
                            45.58111372038249
                        ],
                        [
                            5.787640684405488,
                            45.573932900580367
                        ],
                        [
                            5.791089350829667,
                            45.566752080778237
                        ],
                        [
                            5.794538017253846,
                            45.559571260976121
                        ],
                        [
                            5.797986683678023,
                            45.552390441173998
                        ],
                        [
                            5.801435350102201,
                            45.545209621371882
                        ],
                        [
                            5.797448425523067,
                            45.539268212537657
                        ],
                        [
                            5.793461500943934,
                            45.533326803703432
                        ],
                        [
                            5.789474576364798,
                            45.527385394869206
                        ],
                        [
                            5.785487651785662,
                            45.521443986034974
                        ],
                        [
                            5.781500727206529,
                            45.515502577200756
                        ],
                        [
                            5.777513802627395,
                            45.509561168366524
                        ],
                        [
                            5.77352687804826,
                            45.503619759532299
                        ],
                        [
                            5.769539953469122,
                            45.497678350698067
                        ],
                        [
                            5.765553028889991,
                            45.491736941863849
                        ],
                        [
                            5.761566104310855,
                            45.485795533029624
                        ],
                        [
                            5.759457753355619,
                            45.48453339429053
                        ],
                        [
                            5.757349402400383,
                            45.483271255551443
                        ],
                        [
                            5.755241051445147,
                            45.482009116812364
                        ],
                        [
                            5.753132700489912,
                            45.480746978073284
                        ],
                        [
                            5.751024349534678,
                            45.479484839334205
                        ],
                        [
                            5.748915998579442,
                            45.478222700595111
                        ],
                        [
                            5.746807647624207,
                            45.476960561856025
                        ],
                        [
                            5.744699296668971,
                            45.475698423116953
                        ],
                        [
                            5.742590945713737,
                            45.474436284377866
                        ],
                        [
                            5.740482594758502,
                            45.473174145638787
                        ],
                        [
                            5.740642182957066,
                            45.472656239004429
                        ],
                        [
                            5.740487994385758,
                            45.471996051232487
                        ],
                        [
                            5.740333805814448,
                            45.471335863460553
                        ],
                        [
                            5.74017961724314,
                            45.470675675688618
                        ],
                        [
                            5.74002542867183,
                            45.47001548791669
                        ],
                        [
                            5.739871240100523,
                            45.469355300144748
                        ],
                        [
                            5.739717051529212,
                            45.468695112372814
                        ],
                        [
                            5.739562862957904,
                            45.468034924600879
                        ],
                        [
                            5.739408674386594,
                            45.467374736828951
                        ],
                        [
                            5.739254485815284,
                            45.466714549057009
                        ],
                        [
                            5.739100297243978,
                            45.466054361285074
                        ],
                        [
                            5.735940107591128,
                            45.464162767214816
                        ],
                        [
                            5.732779917938279,
                            45.462271173144551
                        ],
                        [
                            5.729619728285432,
                            45.460379579074292
                        ],
                        [
                            5.726459538632582,
                            45.458487985004027
                        ],
                        [
                            5.723299348979735,
                            45.456596390933768
                        ],
                        [
                            5.720139159326886,
                            45.454704796863503
                        ],
                        [
                            5.716978969674038,
                            45.452813202793251
                        ],
                        [
                            5.713818780021189,
                            45.450921608722993
                        ],
                        [
                            5.710658590368341,
                            45.449030014652728
                        ],
                        [
                            5.707498400715492,
                            45.447138420582462
                        ],
                        [
                            5.706221125687394,
                            45.44979800575684
                        ],
                        [
                            5.704943850659296,
                            45.452457590931211
                        ],
                        [
                            5.703666575631198,
                            45.455117176105588
                        ],
                        [
                            5.7023893006031,
                            45.457776761279959
                        ],
                        [
                            5.701112025575002,
                            45.46043634645433
                        ],
                        [
                            5.699834750546902,
                            45.463095931628715
                        ],
                        [
                            5.698557475518804,
                            45.465755516803078
                        ],
                        [
                            5.697280200490706,
                            45.468415101977449
                        ],
                        [
                            5.696002925462608,
                            45.471074687151827
                        ],
                        [
                            5.694725650434508,
                            45.473734272326197
                        ],
                        [
                            5.688698176363694,
                            45.472846133437891
                        ],
                        [
                            5.682670702292882,
                            45.471957994549591
                        ],
                        [
                            5.676643228222066,
                            45.471069855661291
                        ],
                        [
                            5.670615754151251,
                            45.470181716772998
                        ],
                        [
                            5.664588280080435,
                            45.469293577884685
                        ],
                        [
                            5.658560806009621,
                            45.468405438996392
                        ],
                        [
                            5.652533331938807,
                            45.467517300108085
                        ],
                        [
                            5.646505857867991,
                            45.466629161219778
                        ],
                        [
                            5.640478383797177,
                            45.465741022331478
                        ],
                        [
                            5.634450909726365,
                            45.464852883443172
                        ],
                        [
                            5.630223776022305,
                            45.467334416447507
                        ],
                        [
                            5.625996642318251,
                            45.469815949451835
                        ],
                        [
                            5.621769508614193,
                            45.472297482456177
                        ],
                        [
                            5.617542374910137,
                            45.474779015460506
                        ],
                        [
                            5.613315241206081,
                            45.477260548464841
                        ],
                        [
                            5.609088107502025,
                            45.479742081469176
                        ],
                        [
                            5.604860973797969,
                            45.482223614473504
                        ],
                        [
                            5.600633840093909,
                            45.48470514747784
                        ],
                        [
                            5.596406706389855,
                            45.487186680482175
                        ],
                        [
                            5.592179572685797,
                            45.489668213486503
                        ],
                        [
                            5.590775262491146,
                            45.492948372923955
                        ],
                        [
                            5.589370952296491,
                            45.496228532361407
                        ],
                        [
                            5.587966642101842,
                            45.499508691798844
                        ],
                        [
                            5.58656233190719,
                            45.502788851236289
                        ],
                        [
                            5.585158021712534,
                            45.506069010673727
                        ],
                        [
                            5.583753711517884,
                            45.509349170111172
                        ],
                        [
                            5.582349401323231,
                            45.512629329548624
                        ],
                        [
                            5.58094509112858,
                            45.515909488986061
                        ],
                        [
                            5.579540780933927,
                            45.519189648423506
                        ],
                        [
                            5.578136470739276,
                            45.522469807860944
                        ],
                        [
                            5.572625217012956,
                            45.524064385749107
                        ],
                        [
                            5.567113963286639,
                            45.525658963637284
                        ],
                        [
                            5.561602709560319,
                            45.527253541525454
                        ],
                        [
                            5.556091455834002,
                            45.528848119413617
                        ],
                        [
                            5.550580202107682,
                            45.530442697301787
                        ],
                        [
                            5.545068948381363,
                            45.532037275189957
                        ],
                        [
                            5.539557694655047,
                            45.533631853078127
                        ],
                        [
                            5.534046440928726,
                            45.535226430966297
                        ],
                        [
                            5.52853518720241,
                            45.536821008854467
                        ],
                        [
                            5.523023933476091,
                            45.53841558674263
                        ],
                        [
                            5.518148197494456,
                            45.537084445311031
                        ],
                        [
                            5.51327246151282,
                            45.535753303879424
                        ],
                        [
                            5.508396725531185,
                            45.534422162447825
                        ],
                        [
                            5.503520989549552,
                            45.533091021016219
                        ],
                        [
                            5.498645253567915,
                            45.531759879584605
                        ],
                        [
                            5.493769517586282,
                            45.530428738153006
                        ],
                        [
                            5.488893781604645,
                            45.5290975967214
                        ],
                        [
                            5.484018045623012,
                            45.5277664552898
                        ],
                        [
                            5.479142309641375,
                            45.526435313858194
                        ],
                        [
                            5.47426657365974,
                            45.525104172426595
                        ],
                        [
                            5.470423454292852,
                            45.527231114592951
                        ],
                        [
                            5.466580334925965,
                            45.529358056759314
                        ],
                        [
                            5.462737215559072,
                            45.53148499892567
                        ],
                        [
                            5.458894096192182,
                            45.533611941092033
                        ],
                        [
                            5.455050976825294,
                            45.535738883258411
                        ],
                        [
                            5.451207857458405,
                            45.537865825424767
                        ],
                        [
                            5.447364738091517,
                            45.53999276759113
                        ],
                        [
                            5.443521618724626,
                            45.542119709757493
                        ],
                        [
                            5.439678499357738,
                            45.544246651923849
                        ],
                        [
                            5.43583537999085,
                            45.546373594090227
                        ],
                        [
                            5.437504541141625,
                            45.547437961289369
                        ],
                        [
                            5.439173702292402,
                            45.548502328488503
                        ],
                        [
                            5.440842863443184,
                            45.549566695687652
                        ],
                        [
                            5.44251202459396,
                            45.550631062886794
                        ],
                        [
                            5.444181185744739,
                            45.551695430085935
                        ],
                        [
                            5.445850346895515,
                            45.552759797285077
                        ],
                        [
                            5.447519508046295,
                            45.553824164484226
                        ],
                        [
                            5.449188669197072,
                            45.554888531683368
                        ],
                        [
                            5.45085783034785,
                            45.555952898882516
                        ],
                        [
                            5.45252699149863,
                            45.557017266081658
                        ],
                        [
                            5.452148624144417,
                            45.560297681557877
                        ],
                        [
                            5.451770256790205,
                            45.563578097034089
                        ],
                        [
                            5.451391889435994,
                            45.566858512510308
                        ],
                        [
                            5.451013522081782,
                            45.570138927986527
                        ],
                        [
                            5.450635154727571,
                            45.573419343462739
                        ],
                        [
                            5.450256787373361,
                            45.576699758938958
                        ],
                        [
                            5.449878420019148,
                            45.579980174415169
                        ],
                        [
                            5.449500052664938,
                            45.583260589891395
                        ],
                        [
                            5.449121685310727,
                            45.586541005367607
                        ],
                        [
                            5.448743317956515,
                            45.589821420843819
                        ],
                        [
                            5.452465733808118,
                            45.5915956191173
                        ],
                        [
                            5.456188149659722,
                            45.593369817390787
                        ],
                        [
                            5.459910565511329,
                            45.595144015664268
                        ],
                        [
                            5.463632981362933,
                            45.596918213937741
                        ],
                        [
                            5.46735539721454,
                            45.598692412211228
                        ],
                        [
                            5.471077813066143,
                            45.600466610484709
                        ],
                        [
                            5.474800228917749,
                            45.602240808758197
                        ],
                        [
                            5.478522644769354,
                            45.604015007031677
                        ],
                        [
                            5.48224506062096,
                            45.60578920530515
                        ],
                        [
                            5.485967476472563,
                            45.607563403578638
                        ],
                        [
                            5.486100329841932,
                            45.609957366685151
                        ],
                        [
                            5.486233183211302,
                            45.612351329791672
                        ],
                        [
                            5.486366036580669,
                            45.614745292898192
                        ],
                        [
                            5.486498889950038,
                            45.617139256004712
                        ],
                        [
                            5.486631743319407,
                            45.619533219111233
                        ],
                        [
                            5.486764596688776,
                            45.621927182217753
                        ],
                        [
                            5.486897450058146,
                            45.624321145324267
                        ],
                        [
                            5.487030303427515,
                            45.626715108430794
                        ],
                        [
                            5.487163156796882,
                            45.629109071537314
                        ],
                        [
                            5.487296010166252,
                            45.631503034643821
                        ],
                        [
                            5.485760557956334,
                            45.633275920740807
                        ],
                        [
                            5.484225105746413,
                            45.635048806837787
                        ],
                        [
                            5.482689653536495,
                            45.636821692934774
                        ],
                        [
                            5.481154201326575,
                            45.638594579031754
                        ],
                        [
                            5.479618749116657,
                            45.640367465128733
                        ],
                        [
                            5.478083296906737,
                            45.642140351225713
                        ],
                        [
                            5.476547844696817,
                            45.6439132373227
                        ],
                        [
                            5.475012392486898,
                            45.645686123419679
                        ],
                        [
                            5.473476940276981,
                            45.647459009516666
                        ],
                        [
                            5.471941488067062,
                            45.649231895613646
                        ],
                        [
                            5.472753538121649,
                            45.651288405888792
                        ],
                        [
                            5.473565588176237,
                            45.653344916163952
                        ],
                        [
                            5.474377638230829,
                            45.655401426439099
                        ],
                        [
                            5.475189688285418,
                            45.657457936714252
                        ],
                        [
                            5.476001738340008,
                            45.659514446989405
                        ],
                        [
                            5.476813788394596,
                            45.661570957264551
                        ],
                        [
                            5.477625838449185,
                            45.663627467539719
                        ],
                        [
                            5.478437888503777,
                            45.665683977814872
                        ],
                        [
                            5.479249938558366,
                            45.667740488090018
                        ],
                        [
                            5.480061988612958,
                            45.669796998365172
                        ],
                        [
                            5.483783082165946,
                            45.670927072181776
                        ],
                        [
                            5.487504175718938,
                            45.672057145998373
                        ],
                        [
                            5.491225269271927,
                            45.673187219814984
                        ],
                        [
                            5.494946362824916,
                            45.674317293631589
                        ],
                        [
                            5.498667456377907,
                            45.675447367448186
                        ],
                        [
                            5.502388549930899,
                            45.67657744126479
                        ],
                        [
                            5.506109643483891,
                            45.677707515081387
                        ],
                        [
                            5.50983073703688,
                            45.678837588897991
                        ],
                        [
                            5.51355183058987,
                            45.679967662714596
                        ],
                        [
                            5.517272924142858,
                            45.681097736531193
                        ],
                        [
                            5.519174063085122,
                            45.679844091413187
                        ],
                        [
                            5.521075202027383,
                            45.678590446295182
                        ],
                        [
                            5.522976340969647,
                            45.677336801177169
                        ],
                        [
                            5.524877479911908,
                            45.676083156059164
                        ],
                        [
                            5.52677861885417,
                            45.674829510941159
                        ],
                        [
                            5.528679757796432,
                            45.673575865823146
                        ],
                        [
                            5.530580896738694,
                            45.672322220705141
                        ],
                        [
                            5.532482035680955,
                            45.671068575587128
                        ],
                        [
                            5.534383174623215,
                            45.669814930469116
                        ],
                        [
                            5.536284313565478,
                            45.66856128535111
                        ],
                        [
                            5.536645721491412,
                            45.667683327763292
                        ],
                        [
                            5.537007129417344,
                            45.66680537017546
                        ],
                        [
                            5.537368537343278,
                            45.665927412587628
                        ],
                        [
                            5.537729945269213,
                            45.665049454999803
                        ],
                        [
                            5.538091353195142,
                            45.664171497411978
                        ],
                        [
                            5.538452761121079,
                            45.663293539824146
                        ],
                        [
                            5.538814169047011,
                            45.662415582236321
                        ],
                        [
                            5.539175576972946,
                            45.661537624648496
                        ],
                        [
                            5.539536984898879,
                            45.660659667060671
                        ],
                        [
                            5.539898392824812,
                            45.659781709472846
                        ],
                        [
                            5.543253307562486,
                            45.660096596220903
                        ],
                        [
                            5.546608222300161,
                            45.660411482968968
                        ],
                        [
                            5.549963137037835,
                            45.660726369717025
                        ],
                        [
                            5.553318051775509,
                            45.661041256465083
                        ],
                        [
                            5.556672966513183,
                            45.661356143213148
                        ],
                        [
                            5.560027881250859,
                            45.661671029961212
                        ],
                        [
                            5.563382795988533,
                            45.661985916709277
                        ],
                        [
                            5.566737710726207,
                            45.662300803457342
                        ],
                        [
                            5.570092625463882,
                            45.662615690205406
                        ],
                        [
                            5.573447540201558,
                            45.662930576953471
                        ],
                        [
                            5.57716313702808,
                            45.661991434140383
                        ],
                        [
                            5.580878733854606,
                            45.661052291327302
                        ],
                        [
                            5.584594330681128,
                            45.66011314851422
                        ],
                        [
                            5.588309927507654,
                            45.659174005701139
                        ],
                        [
                            5.592025524334176,
                            45.658234862888051
                        ],
                        [
                            5.5957411211607,
                            45.657295720074977
                        ],
                        [
                            5.599456717987223,
                            45.656356577261896
                        ],
                        [
                            5.603172314813747,
                            45.655417434448815
                        ],
                        [
                            5.606887911640273,
                            45.654478291635726
                        ],
                        [
                            5.610603508466795,
                            45.653539148822645
                        ],
                        [
                            5.610968666656555,
                            45.654604284457044
                        ],
                        [
                            5.611333824846316,
                            45.655669420091449
                        ],
                        [
                            5.611698983036078,
                            45.656734555725848
                        ],
                        [
                            5.612064141225842,
                            45.657799691360239
                        ],
                        [
                            5.612429299415602,
                            45.658864826994638
                        ],
                        [
                            5.612794457605363,
                            45.659929962629036
                        ],
                        [
                            5.613159615795125,
                            45.660995098263427
                        ],
                        [
                            5.613524773984887,
                            45.662060233897826
                        ],
                        [
                            5.613889932174645,
                            45.663125369532231
                        ],
                        [
                            5.614255090364406,
                            45.66419050516663
                        ],
                        [
                            5.609004432158946,
                            45.668703533017229
                        ],
                        [
                            5.60375377395348,
                            45.673216560867836
                        ],
                        [
                            5.59850311574802,
                            45.677729588718435
                        ],
                        [
                            5.593252457542555,
                            45.682242616569035
                        ],
                        [
                            5.588001799337095,
                            45.686755644419634
                        ],
                        [
                            5.582751141131633,
                            45.69126867227024
                        ],
                        [
                            5.577500482926171,
                            45.695781700120847
                        ],
                        [
                            5.572249824720707,
                            45.700294727971446
                        ],
                        [
                            5.566999166515243,
                            45.704807755822053
                        ],
                        [
                            5.561748508309783,
                            45.709320783672652
                        ],
                        [
                            5.557855702811715,
                            45.71214100692918
                        ],
                        [
                            5.553962897313646,
                            45.7149612301857
                        ],
                        [
                            5.550070091815575,
                            45.717781453442228
                        ],
                        [
                            5.546177286317507,
                            45.720601676698756
                        ],
                        [
                            5.54228448081944,
                            45.723421899955291
                        ],
                        [
                            5.538391675321371,
                            45.726242123211811
                        ],
                        [
                            5.534498869823304,
                            45.729062346468339
                        ],
                        [
                            5.530606064325234,
                            45.731882569724867
                        ],
                        [
                            5.526713258827165,
                            45.734702792981395
                        ],
                        [
                            5.522820453329096,
                            45.737523016237915
                        ],
                        [
                            5.52246239035512,
                            45.740093078951723
                        ],
                        [
                            5.522104327381138,
                            45.742663141665531
                        ],
                        [
                            5.521746264407161,
                            45.745233204379339
                        ],
                        [
                            5.521388201433181,
                            45.74780326709314
                        ],
                        [
                            5.521030138459203,
                            45.750373329806933
                        ],
                        [
                            5.520672075485225,
                            45.752943392520741
                        ],
                        [
                            5.520314012511244,
                            45.755513455234549
                        ],
                        [
                            5.519955949537268,
                            45.75808351794835
                        ],
                        [
                            5.51959788656329,
                            45.760653580662158
                        ],
                        [
                            5.519239823589308,
                            45.763223643375966
                        ],
                        [
                            5.51453101111197,
                            45.766732690391379
                        ],
                        [
                            5.50982219863463,
                            45.770241737406785
                        ],
                        [
                            5.505113386157289,
                            45.773750784422198
                        ],
                        [
                            5.500404573679951,
                            45.777259831437611
                        ],
                        [
                            5.495695761202612,
                            45.780768878453024
                        ],
                        [
                            5.49098694872527,
                            45.784277925468437
                        ],
                        [
                            5.486278136247931,
                            45.78778697248385
                        ],
                        [
                            5.481569323770591,
                            45.791296019499264
                        ],
                        [
                            5.476860511293252,
                            45.794805066514677
                        ],
                        [
                            5.472151698815914,
                            45.79831411353009
                        ],
                        [
                            5.469987984927762,
                            45.804394986959501
                        ],
                        [
                            5.467824271039611,
                            45.810475860388905
                        ],
                        [
                            5.465660557151461,
                            45.816556733818331
                        ],
                        [
                            5.463496843263309,
                            45.822637607247742
                        ],
                        [
                            5.461333129375159,
                            45.828718480677161
                        ],
                        [
                            5.459169415487006,
                            45.834799354106572
                        ],
                        [
                            5.457005701598858,
                            45.84088022753599
                        ],
                        [
                            5.454841987710706,
                            45.846961100965402
                        ],
                        [
                            5.452678273822555,
                            45.853041974394813
                        ],
                        [
                            5.450514559934403,
                            45.859122847824231
                        ],
                        [
                            5.445985741459802,
                            45.862193955043075
                        ],
                        [
                            5.441456922985202,
                            45.865265062261919
                        ],
                        [
                            5.436928104510603,
                            45.868336169480763
                        ],
                        [
                            5.432399286036004,
                            45.871407276699614
                        ],
                        [
                            5.427870467561403,
                            45.874478383918458
                        ],
                        [
                            5.423341649086803,
                            45.877549491137302
                        ],
                        [
                            5.418812830612202,
                            45.880620598356138
                        ],
                        [
                            5.414284012137601,
                            45.883691705574989
                        ],
                        [
                            5.409755193662999,
                            45.886762812793833
                        ],
                        [
                            5.4052263751884,
                            45.889833920012684
                        ],
                        [
                            5.405684359686928,
                            45.891777126595585
                        ],
                        [
                            5.406142344185454,
                            45.893720333178493
                        ],
                        [
                            5.406600328683982,
                            45.895663539761387
                        ],
                        [
                            5.407058313182507,
                            45.897606746344287
                        ],
                        [
                            5.407516297681036,
                            45.899549952927195
                        ],
                        [
                            5.407974282179561,
                            45.901493159510103
                        ],
                        [
                            5.408432266678089,
                            45.903436366093004
                        ],
                        [
                            5.408890251176619,
                            45.905379572675905
                        ],
                        [
                            5.409348235675141,
                            45.907322779258813
                        ],
                        [
                            5.409806220173669,
                            45.909265985841714
                        ],
                        [
                            5.418159019821696,
                            45.914973521412762
                        ],
                        [
                            5.426511819469724,
                            45.920681056983817
                        ],
                        [
                            5.434864619117748,
                            45.926388592554865
                        ],
                        [
                            5.443217418765775,
                            45.932096128125906
                        ],
                        [
                            5.451570218413803,
                            45.937803663696954
                        ],
                        [
                            5.459923018061831,
                            45.943511199268002
                        ],
                        [
                            5.468275817709856,
                            45.94921873483905
                        ],
                        [
                            5.476628617357882,
                            45.954926270410105
                        ],
                        [
                            5.484981417005907,
                            45.960633805981153
                        ],
                        [
                            5.493334216653935,
                            45.966341341552202
                        ],
                        [
                            5.499848772114724,
                            45.958631417264478
                        ],
                        [
                            5.506363327575515,
                            45.950921492976761
                        ],
                        [
                            5.512877883036307,
                            45.94321156868903
                        ],
                        [
                            5.519392438497096,
                            45.935501644401313
                        ],
                        [
                            5.525906993957888,
                            45.927791720113589
                        ],
                        [
                            5.532421549418681,
                            45.920081795825872
                        ],
                        [
                            5.538936104879472,
                            45.912371871538149
                        ],
                        [
                            5.545450660340261,
                            45.904661947250432
                        ],
                        [
                            5.551965215801053,
                            45.896952022962708
                        ],
                        [
                            5.558479771261844,
                            45.889242098674984
                        ],
                        [
                            5.565359919866765,
                            45.883601426190786
                        ],
                        [
                            5.572240068471682,
                            45.877960753706589
                        ],
                        [
                            5.579120217076603,
                            45.872320081222391
                        ],
                        [
                            5.586000365681526,
                            45.866679408738193
                        ],
                        [
                            5.592880514286446,
                            45.861038736253995
                        ],
                        [
                            5.599760662891367,
                            45.855398063769798
                        ],
                        [
                            5.606640811496286,
                            45.849757391285593
                        ],
                        [
                            5.613520960101207,
                            45.844116718801395
                        ],
                        [
                            5.620401108706126,
                            45.838476046317197
                        ],
                        [
                            5.627281257311047,
                            45.832835373832992
                        ],
                        [
                            5.630815609385319,
                            45.831645143099188
                        ],
                        [
                            5.634349961459593,
                            45.83045491236539
                        ],
                        [
                            5.637884313533865,
                            45.829264681631578
                        ],
                        [
                            5.641418665608137,
                            45.828074450897773
                        ],
                        [
                            5.644953017682408,
                            45.826884220163969
                        ],
                        [
                            5.64848736975668,
                            45.825693989430157
                        ],
                        [
                            5.65202172183095,
                            45.824503758696352
                        ],
                        [
                            5.655556073905224,
                            45.823313527962547
                        ],
                        [
                            5.659090425979496,
                            45.822123297228742
                        ],
                        [
                            5.662624778053768,
                            45.820933066494938
                        ],
                        [
                            5.66551409301942,
                            45.814539363843323
                        ],
                        [
                            5.668403407985069,
                            45.808145661191716
                        ],
                        [
                            5.671292722950723,
                            45.801751958540102
                        ],
                        [
                            5.674182037916374,
                            45.79535825588848
                        ],
                        [
                            5.677071352882024,
                            45.788964553236866
                        ],
                        [
                            5.679960667847675,
                            45.782570850585259
                        ],
                        [
                            5.682849982813327,
                            45.776177147933645
                        ],
                        [
                            5.685739297778976,
                            45.76978344528203
                        ],
                        [
                            5.68862861274463,
                            45.763389742630409
                        ],
                        [
                            5.691517927710281,
                            45.756996039978794
                        ],
                        [
                            5.700805087495077,
                            45.756117083030183
                        ],
                        [
                            5.710092247279876,
                            45.755238126081572
                        ],
                        [
                            5.719379407064674,
                            45.754359169132961
                        ],
                        [
                            5.728666566849473,
                            45.753480212184343
                        ],
                        [
                            5.737953726634268,
                            45.752601255235724
                        ],
                        [
                            5.747240886419066,
                            45.75172229828712
                        ],
                        [
                            5.756528046203867,
                            45.750843341338502
                        ],
                        [
                            5.765815205988664,
                            45.749964384389884
                        ],
                        [
                            5.775102365773462,
                            45.749085427441273
                        ],
                        [
                            5.784389525558259,
                            45.748206470492661
                        ],
                        [
                            5.784193937362767,
                            45.747737480501925
                        ],
                        [
                            5.783998349167277,
                            45.747268490511175
                        ],
                        [
                            5.783802760971783,
                            45.746799500520439
                        ],
                        [
                            5.783607172776293,
                            45.746330510529688
                        ],
                        [
                            5.783411584580801,
                            45.745861520538952
                        ],
                        [
                            5.783215996385309,
                            45.745392530548209
                        ],
                        [
                            5.783020408189818,
                            45.744923540557473
                        ],
                        [
                            5.782824819994325,
                            45.744454550566736
                        ],
                        [
                            5.782629231798834,
                            45.743985560575993
                        ],
                        [
                            5.782433643603342,
                            45.74351657058525
                        ],
                        [
                            5.782314722604925,
                            45.743504781826623
                        ],
                        [
                            5.782195801606509,
                            45.743492993068003
                        ],
                        [
                            5.782076880608091,
                            45.743481204309383
                        ],
                        [
                            5.781957959609674,
                            45.743469415550763
                        ],
                        [
                            5.781839038611256,
                            45.743457626792129
                        ],
                        [
                            5.78172011761284,
                            45.743445838033509
                        ],
                        [
                            5.781601196614423,
                            45.743434049274889
                        ],
                        [
                            5.781482275616005,
                            45.743422260516269
                        ],
                        [
                            5.781363354617591,
                            45.743410471757642
                        ],
                        [
                            5.781244433619174,
                            45.743398682999022
                        ],
                        [
                            5.780551914686239,
                            45.743227593307886
                        ],
                        [
                            5.779859395753308,
                            45.743056503616756
                        ],
                        [
                            5.779166876820378,
                            45.742885413925634
                        ],
                        [
                            5.778474357887447,
                            45.742714324234505
                        ],
                        [
                            5.777781838954514,
                            45.742543234543376
                        ],
                        [
                            5.777089320021584,
                            45.742372144852254
                        ],
                        [
                            5.776396801088653,
                            45.742201055161125
                        ],
                        [
                            5.77570428215572,
                            45.742029965469996
                        ],
                        [
                            5.775011763222791,
                            45.741858875778874
                        ],
                        [
                            5.774319244289858,
                            45.741687786087745
                        ],
                        [
                            5.774466943695009,
                            45.741363053561699
                        ],
                        [
                            5.774614643100158,
                            45.741038321035653
                        ],
                        [
                            5.77476234250531,
                            45.740713588509607
                        ],
                        [
                            5.774910041910461,
                            45.740388855983561
                        ],
                        [
                            5.77505774131561,
                            45.740064123457529
                        ],
                        [
                            5.775205440720759,
                            45.739739390931483
                        ],
                        [
                            5.775353140125908,
                            45.73941465840543
                        ],
                        [
                            5.775500839531063,
                            45.739089925879391
                        ],
                        [
                            5.775648538936212,
                            45.738765193353352
                        ],
                        [
                            5.775796238341361,
                            45.738440460827313
                        ],
                        [
                            5.775980333362744,
                            45.737791077384557
                        ],
                        [
                            5.776164428384128,
                            45.737141693941801
                        ],
                        [
                            5.776348523405515,
                            45.736492310499045
                        ],
                        [
                            5.776532618426897,
                            45.735842927056297
                        ],
                        [
                            5.77671671344828,
                            45.735193543613541
                        ],
                        [
                            5.776900808469664,
                            45.734544160170785
                        ],
                        [
                            5.777084903491048,
                            45.733894776728036
                        ],
                        [
                            5.777268998512433,
                            45.73324539328528
                        ],
                        [
                            5.777453093533817,
                            45.732596009842531
                        ],
                        [
                            5.777637188555198,
                            45.731946626399775
                        ],
                        [
                            5.777239804635759,
                            45.730989392793653
                        ],
                        [
                            5.776842420716317,
                            45.730032159187544
                        ],
                        [
                            5.776445036796874,
                            45.729074925581422
                        ],
                        [
                            5.776047652877434,
                            45.728117691975307
                        ],
                        [
                            5.775650268957991,
                            45.727160458369191
                        ],
                        [
                            5.775252885038549,
                            45.726203224763076
                        ],
                        [
                            5.774855501119109,
                            45.72524599115696
                        ],
                        [
                            5.774458117199666,
                            45.724288757550838
                        ],
                        [
                            5.774060733280223,
                            45.723331523944729
                        ],
                        [
                            5.773663349360781,
                            45.722374290338607
                        ],
                        [
                            5.773081870419956,
                            45.722066440175247
                        ],
                        [
                            5.772500391479131,
                            45.721758590011873
                        ],
                        [
                            5.771935283049038,
                            45.721459406825169
                        ],
                        [
                            5.773733049046605,
                            45.716926189152304
                        ]
                    ]
                ]            
            }
        }
    ]
}