{
    "type": "FeatureCollection",
    "features": [
        {
            "type": "Feature",
            "properties": {
                "diocese": "Lausanen",
                "province": "Bisuntin",
                "date": 1592
            },
            "geometry": {
                "type": "Polygon",
                "coordinates": [
                    [
                        [
                            8.12964969056935,
                            46.56030212255413
                        ],
                        [
                            8.161736453560477,
                            46.65826935420412
                        ],
                        [
                            8.095186130603526,
                            46.693331157528355
                        ],
                        [
                            8.014375022583243,
                            46.68191818414063
                        ],
                        [
                            7.957331888589748,
                            46.72592636517108
                        ],
                        [
                            7.91336113853201,
                            46.70066679569843
                        ],
                        [
                            7.861071598551797,
                            46.694961384982754
                        ],
                        [
                            7.846810814553058,
                            46.677026171701726
                        ],
                        [
                            7.78620248456521,
                            46.67131826401471
                        ],
                        [
                            7.688753795550194,
                            46.69822169394977
                        ],
                        [
                            7.584174715568421,
                            46.76338652132054
                        ],
                        [
                            7.54163004456425,
                            46.85513516867821
                        ],
                        [
                            7.459868218537598,
                            46.93504342437393
                        ],
                        [
                            7.461769656573039,
                            46.96359957734969
                        ],
                        [
                            7.342929792571307,
                            46.93504342437393
                        ],
                        [
                            7.258315809566033,
                            46.95321728436029
                        ],
                        [
                            7.238350712546939,
                            46.97138497433301
                        ],
                        [
                            7.261167966565952,
                            47.038163034380744
                        ],
                        [
                            7.295393846561757,
                            47.08802997253908
                        ],
                        [
                            7.3448312305427805,
                            47.12297376570393
                        ],
                        [
                            7.33342260358653,
                            47.13138273476654
                        ],
                        [
                            7.352436981513414,
                            47.14496364584127
                        ],
                        [
                            7.370500640560957,
                            47.12750183773033
                        ],
                        [
                            7.376204954603338,
                            47.143670375838695
                        ],
                        [
                            7.434198807603931,
                            47.171468761040146
                        ],
                        [
                            7.4887264065573715,
                            47.18151863303889
                        ],
                        [
                            7.425943612595655,
                            47.236963358263495
                        ],
                        [
                            7.171214868536461,
                            47.223501180514994
                        ],
                        [
                            7.012185778286398,
                            47.297757460014786
                        ],
                        [
                            6.9902773715526,
                            47.2936111393481
                        ],
                        [
                            6.984448769166417,
                            47.29129898220147
                        ],
                        [
                            6.971249643006253,
                            47.29030613380413
                        ],
                        [
                            6.960578523713717,
                            47.28831312446837
                        ],
                        [
                            6.95558065181774,
                            47.285128633780566
                        ],
                        [
                            6.953759558506525,
                            47.28128053401522
                        ],
                        [
                            6.952933105370499,
                            47.276602480741666
                        ],
                        [
                            6.956685028066356,
                            47.268588593857345
                        ],
                        [
                            6.955561319825668,
                            47.259492504930954
                        ],
                        [
                            6.9612644153896115,
                            47.2454677732775
                        ],
                        [
                            6.959606477322705,
                            47.24174802670435
                        ],
                        [
                            6.961224770079237,
                            47.240355451926966
                        ],
                        [
                            6.961007121908231,
                            47.23686079819576
                        ],
                        [
                            6.960179694347244,
                            47.236237548798066
                        ],
                        [
                            6.953917143281538,
                            47.234627943939486
                        ],
                        [
                            6.940806997483887,
                            47.22433532532838
                        ],
                        [
                            6.9176270387463905,
                            47.214963659098885
                        ],
                        [
                            6.897304173281942,
                            47.20308685235179
                        ],
                        [
                            6.886473907818448,
                            47.19417305734395
                        ],
                        [
                            6.883230770459961,
                            47.186550085871275
                        ],
                        [
                            6.878241507927861,
                            47.18973158784792
                        ],
                        [
                            6.869270280345788,
                            47.18186281814431
                        ],
                        [
                            6.860239036757527,
                            47.17761025474547
                        ],
                        [
                            6.852098419048951,
                            47.17274320127359
                        ],
                        [
                            6.84826263876304,
                            47.168175179898384
                        ],
                        [
                            6.8481152208061244,
                            47.16455973948777
                        ],
                        [
                            6.850586073958515,
                            47.16109955654971
                        ],
                        [
                            6.856026900097908,
                            47.15772722624556
                        ],
                        [
                            6.840215885333698,
                            47.15099116306456
                        ],
                        [
                            6.818434326710266,
                            47.13602514822512
                        ],
                        [
                            6.809813414368498,
                            47.13104707283596
                        ],
                        [
                            6.802988815889365,
                            47.127820111379
                        ],
                        [
                            6.796208774373468,
                            47.12570415550272
                        ],
                        [
                            6.791929769225373,
                            47.12334561190599
                        ],
                        [
                            6.784665816682994,
                            47.12103817541271
                        ],
                        [
                            6.766724410553819,
                            47.11745345134198
                        ],
                        [
                            6.7613522516284785,
                            47.115929251443745
                        ],
                        [
                            6.7565793835339765,
                            47.11373218500991
                        ],
                        [
                            6.75345137759397,
                            47.11105266129712
                        ],
                        [
                            6.751470916504743,
                            47.107586766875365
                        ],
                        [
                            6.754600546739622,
                            47.10349531995042
                        ],
                        [
                            6.755352169305409,
                            47.09990483181698
                        ],
                        [
                            6.754171033451157,
                            47.09699039637559
                        ],
                        [
                            6.750911360278987,
                            47.09444253074575
                        ],
                        [
                            6.7473126939651955,
                            47.092720489156605
                        ],
                        [
                            6.736164641496389,
                            47.08999198692732
                        ],
                        [
                            6.722704494309309,
                            47.08836317577021
                        ],
                        [
                            6.714401083831139,
                            47.08311064216845
                        ],
                        [
                            6.709933088742951,
                            47.07658406905224
                        ],
                        [
                            6.705541035454042,
                            47.06521722310972
                        ],
                        [
                            6.703752493043574,
                            47.062804688065036
                        ],
                        [
                            6.708042634829487,
                            47.060596118551224
                        ],
                        [
                            6.711870416442446,
                            47.05784784568375
                        ],
                        [
                            6.72545035581126,
                            47.050874800129925
                        ],
                        [
                            6.732577573732906,
                            47.04218960568917
                        ],
                        [
                            6.722668194089486,
                            47.03960944383155
                        ],
                        [
                            6.731567452262104,
                            47.0332406523906
                        ],
                        [
                            6.722814142153692,
                            47.02873486607711
                        ],
                        [
                            6.725854702515582,
                            47.02532688896688
                        ],
                        [
                            6.7019238216331605,
                            47.005509300274724
                        ],
                        [
                            6.678654279065748,
                            46.99655348228454
                        ],
                        [
                            6.644417782940611,
                            46.988088956545866
                        ],
                        [
                            6.62473908006673,
                            46.98134171906979
                        ],
                        [
                            6.589614685750462,
                            46.974654150144126
                        ],
                        [
                            6.554177216895053,
                            46.972872022825605
                        ],
                        [
                            6.530996830135759,
                            46.966367125601465
                        ],
                        [
                            6.495339868873235,
                            46.96512350672247
                        ],
                        [
                            6.461701885839605,
                            46.94189602419875
                        ],
                        [
                            6.440775016619612,
                            46.92273073602726
                        ],
                        [
                            6.457494952936084,
                            46.905360965629846
                        ],
                        [
                            6.470705712863795,
                            46.88433677243025
                        ],
                        [
                            6.469608822096957,
                            46.851468536700295
                        ],
                        [
                            6.454919202390644,
                            46.838647555604105
                        ],
                        [
                            6.446558827743512,
                            46.81974490717767
                        ],
                        [
                            6.444910339957436,
                            46.811633731027094
                        ],
                        [
                            6.440041132543398,
                            46.807487096927
                        ],
                        [
                            6.438863755311601,
                            46.80386484954325
                        ],
                        [
                            6.4391963274571955,
                            46.80013194424836
                        ],
                        [
                            6.444204073301189,
                            46.795558584146
                        ],
                        [
                            6.45690050366909,
                            46.787694436884436
                        ],
                        [
                            6.462417426728478,
                            46.781941313147094
                        ],
                        [
                            6.462971871022479,
                            46.777173023695525
                        ],
                        [
                            6.449897746408813,
                            46.76424253969939
                        ],
                        [
                            6.4387750384842,
                            46.75453674662431
                        ],
                        [
                            6.4319560896068415,
                            46.75041538044417
                        ],
                        [
                            6.424458227555382,
                            46.74765379763396
                        ],
                        [
                            6.414666739873516,
                            46.746024001310765
                        ],
                        [
                            6.4090969768967305,
                            46.74628719145435
                        ],
                        [
                            6.404590815372205,
                            46.74502997983837
                        ],
                        [
                            6.399324095083835,
                            46.74136070901032
                        ],
                        [
                            6.392084468297625,
                            46.73134961729903
                        ],
                        [
                            6.389048590425664,
                            46.72895984573791
                        ],
                        [
                            6.384755456897527,
                            46.7272754483198
                        ],
                        [
                            6.379214893178944,
                            46.726509705392026
                        ],
                        [
                            6.371863754886917,
                            46.71668042476028
                        ],
                        [
                            6.353928065195618,
                            46.70780723100656
                        ],
                        [
                            6.312620048518642,
                            46.69719583302615
                        ],
                        [
                            6.292539523212929,
                            46.69047730358934
                        ],
                        [
                            6.161161250102901,
                            46.60264413092891
                        ],
                        [
                            6.134556890127259,
                            46.58796951667023
                        ],
                        [
                            6.134487211680247,
                            46.57695465919428
                        ],
                        [
                            6.350688329867346,
                            46.40402995203214
                        ],
                        [
                            6.384755591506031,
                            46.40398072781038
                        ],
                        [
                            6.414203063690187,
                            46.406768246923264
                        ],
                        [
                            6.446436538331917,
                            46.41886311961949
                        ],
                        [
                            6.482721603447581,
                            46.442524738882106
                        ],
                        [
                            6.514777328965773,
                            46.453243587971876
                        ],
                        [
                            6.543754908625757,
                            46.45543488183132
                        ],
                        [
                            6.59887257185166,
                            46.451657113177696
                        ],
                        [
                            6.634566756189683,
                            46.459393834116575
                        ],
                        [
                            6.72903821545304,
                            46.44615495954194
                        ],
                        [
                            6.7924289158135895,
                            46.42997249304753
                        ],
                        [
                            6.935021246549661,
                            46.40417523874712
                        ],
                        [
                            7.068216965580003,
                            46.42698479750594
                        ],
                        [
                            7.103583709580921,
                            46.42069345822135
                        ],
                        [
                            7.137524374549569,
                            46.38214316382171
                        ],
                        [
                            7.192856214568876,
                            46.374272409965116
                        ],
                        [
                            7.213676958564415,
                            46.32515297341213
                        ],
                        [
                            7.255033231528386,
                            46.33253847247695
                        ],
                        [
                            7.265728819596636,
                            46.360495860263065
                        ],
                        [
                            7.306229444583432,
                            46.37604342821746
                        ],
                        [
                            7.335321443572088,
                            46.34750336034592
                        ],
                        [
                            7.433578242547544,
                            46.38509440324406
                        ],
                        [
                            7.484489240554137,
                            46.38765201629876
                        ],
                        [
                            7.487056181547415,
                            46.3714189808877
                        ],
                        [
                            7.5402489045619925,
                            46.37879823195299
                        ],
                        [
                            7.553654041562989,
                            46.38981605597272
                        ],
                        [
                            7.531692434584339,
                            46.40840359272362
                        ],
                        [
                            7.595295529554092,
                            46.41322154977837
                        ],
                        [
                            7.6118380385395445,
                            46.43759978610171
                        ],
                        [
                            7.6544777815530205,
                            46.41459803064019
                        ],
                        [
                            7.691698427552782,
                            46.42541203091928
                        ],
                        [
                            7.7118061325538605,
                            46.414892986694845
                        ],
                        [
                            7.842862733578795,
                            46.478958845680644
                        ],
                        [
                            7.897481535561752,
                            46.483574179054635
                        ],
                        [
                            7.966646335569849,
                            46.513613370610415
                        ],
                        [
                            7.961940277571867,
                            46.54030094237662
                        ],
                        [
                            7.995595726555223,
                            46.559033276899015
                        ],
                        [
                            8.115601706549143,
                            46.54722415879784
                        ],
                        [
                            8.12964969056935,
                            46.56030212255413
                        ]
                    ]
                ]
            }
        }
    ]
}