{"type": "FeatureCollection", "features": [{"type": "Feature", "properties": {"source": "0_Province_Tarragone.txt"}, "geometry": {"type": "Polygon", "coordinates": [[[2.2061607848492044, 42.41805589180092], [2.203958217210397, 42.42322879046374], [2.2017556495715875, 42.42840168912656], [2.19955308193278, 42.43357458778938], [2.197350514293973, 42.4387474864522], [2.195147946655165, 42.44392038511502], [2.1929453790163573, 42.44909328377785], [2.190742811377548, 42.454266182440676], [2.1885402437387405, 42.4594390811035], [2.186337676099931, 42.46461197976632], [2.1841351084611236, 42.46978487842914], [2.1841351084611236, 42.46978487842914], [2.1752623943866163, 42.47730513913389], [2.166389680312107, 42.48482539983864], [2.1575169662376, 42.492345660543386], [2.148644252163091, 42.499865921248144], [2.1397715380885836, 42.50738618195289], [2.1308988240140763, 42.51490644265765], [2.122026109939569, 42.52242670336239], [2.1131533958650617, 42.52994696406714], [2.1042806817905526, 42.5374672247719], [2.0954079677160453, 42.54498748547665], [2.0954079677160453, 42.54498748547665], [2.0877966188000485, 42.54799481661334], [2.0801852698840517, 42.55100214775003], [2.0725739209680545, 42.55400947888672], [2.0649625720520577, 42.557016810023406], [2.057351223136061, 42.5600241411601], [2.0497398742200637, 42.56303147229678], [2.0421285253040664, 42.56603880343347], [2.034517176388071, 42.56904613457016], [2.0269058274720733, 42.57205346570685], [2.019294478556076, 42.57506079684354], [2.019294478556076, 42.57506079684354], [2.0104146199170208, 42.57806775671201], [2.001534761277966, 42.58107471658049], [1.9926549026389093, 42.584081676448946], [1.9837750439998554, 42.58708863631742], [1.9748951853607992, 42.59009559618589], [1.9660153267217448, 42.59310255605436], [1.9571354680826887, 42.59610951592283], [1.9482556094436334, 42.5991164757913], [1.9393757508045786, 42.60212343565978], [1.9304958921655233, 42.60513039552825], [1.9304958921655233, 42.60513039552825], [1.925418475727219, 42.60575618817331], [1.9203410592889143, 42.60638198081838], [1.915263642850611, 42.60700777346344], [1.9101862264123057, 42.607633566108504], [1.9051088099740023, 42.608259358753564], [1.900031393535698, 42.60888515139863], [1.8949539770973938, 42.60951094404369], [1.8898765606590895, 42.61013673668876], [1.8847991442207848, 42.61076252933382], [1.8797217277824805, 42.611388321978886], [1.8797217277824805, 42.611388321978886], [1.8716543705839404, 42.60788571252454], [1.8635870133854016, 42.6043831030702], [1.8555196561868605, 42.60088049361585], [1.8474522989883204, 42.5973778841615], [1.8393849417897798, 42.59387527470716], [1.8313175845912406, 42.5903726652528], [1.8232502273926996, 42.586870055798464], [1.81518287019416, 42.58336744634412], [1.8071155129956207, 42.57986483688976], [1.79904815579708, 42.57636222743542], [1.79904815579708, 42.57636222743542], [1.7993480566393378, 42.576089904554955], [1.799630828350426, 42.575823139718054], [1.799896532254417, 42.57556198216408], [1.8001452296753788, 42.575306481132415], [1.8003769819373838, 42.57505668586239], [1.8005918503645035, 42.57481264559339], [1.8007898962808078, 42.574574409564754], [1.800971181010369, 42.57434202701586], [1.8011357658772567, 42.57411554718606], [1.8012837122055436, 42.573895019314726], [1.8012837122055445, 42.57389501931473], [1.801767409258059, 42.57145017566924], [1.799840424709235, 42.56977213344542], [1.796027563490569, 42.56863928564905], [1.7908536305335532, 42.56783002528592], [1.784843430769686, 42.56712274536184], [1.7785217691304602, 42.566295838882596], [1.7724134505473734, 42.56512769885396], [1.767043279951917, 42.56339671828175], [1.7629360622755899, 42.56088129017176], [1.7606166024498857, 42.557359807529764], [1.7606166024498848, 42.55735980752976], [1.758816690879792, 42.55345309855232], [1.756731293807754, 42.549404667901086], [1.7544643135337572, 42.54522998145212], [1.7521196523577887, 42.54094450508147], [1.749801212579834, 42.536563704665205], [1.7476128964998776, 42.53210304607935], [1.745658606417905, 42.5275779952], [1.7440422446339023, 42.523004017903176], [1.7428677134478554, 42.518396580064945], [1.742238915159751, 42.513771147561364], [1.7422389151597555, 42.513771147561364], [1.7424853990991331, 42.51027381469691], [1.74310110886824, 42.506558852694276], [1.7441574195232232, 42.50281564103011], [1.7457257061202247, 42.49923355918113], [1.7478773437153912, 42.49600198662399], [1.7506837073648644, 42.49331030283539], [1.7542161721247913, 42.491347887292], [1.7585461130513154, 42.490304119470494], [1.7637449052005798, 42.49036837884758], [1.7698839236287305, 42.49173004489991], [1.769883923628731, 42.49173004489992], [1.7762760181695447, 42.489341120868055], [1.782853602191214, 42.4877033234725], [1.7895932114262112, 42.48667437620748], [1.7964713816070086, 42.486112002567275], [1.8034646484660772, 42.48587392604614], [1.8105495477358864, 42.48581787013834], [1.8177026151489133, 42.48580155833814], [1.8249003864376254, 42.48568271413978], [1.8321193973344951, 42.485319061037536], [1.8393361835719952, 42.48456832252567], [1.8393361835719984, 42.48456832252567], [1.8459804204536572, 42.48309557580567], [1.851880619126983, 42.480799210255576], [1.8572293155567547, 42.47788731447818], [1.8622190457077497, 42.47456797707627], [1.867042345544744, 42.47104928665264], [1.8718917510325164, 42.46753933181008], [1.8769597981358421, 42.46424620115138], [1.8824390228194998, 42.46137798327935], [1.888521961048268, 42.459142766796745], [1.895401148786923, 42.45774864030639], [1.8954011487869264, 42.45774864030639], [1.8992117737335126, 42.45340900579048], [1.9037575596810923, 42.44994687510475], [1.9089044870260339, 42.447300930852265], [1.9145185361647084, 42.44540985563608], [1.9204656874934813, 42.444212332059244], [1.9266119214087247, 42.44364704272483], [1.9328232183068068, 42.44365267023587], [1.938965558584095, 42.44416789719544], [1.9449049226369581, 42.44513140620659], [1.950507290861768, 42.44648187987239], [1.9505072908617707, 42.44648187987239], [1.9551623238194122, 42.446209747999866], [1.959282147008465, 42.444875414468754], [1.9629180033990519, 42.44263502093009], [1.9661211359612882, 42.43964470903491], [1.968942787665294, 42.436060620434255], [1.971434201481188, 42.43203889677917], [1.973646620379089, 42.42773567972069], [1.9756312873291177, 42.423307110909846], [1.9774394453013922, 42.41890933199769], [1.9791223372660318, 42.41469848463525], [1.979122337266031, 42.41469848463526], [1.98006435077221, 42.40990967899573], [1.9810298886822757, 42.404957393008786], [1.9821121488582234, 42.399904660007294], [1.9834043291620462, 42.39481451332412], [1.9849996274557387, 42.38974998629215], [1.9869912416012974, 42.384774112244266], [1.9894723694607164, 42.37994992451333], [1.9925362088959897, 42.37534045643223], [1.9962759577691105, 42.371008741333824], [2.0007848139420776, 42.36701781255099], [2.000784813942079, 42.367017812551], [2.006078949986064, 42.36422239516875], [2.0114350851247425, 42.36109802888922], [2.0168726948498583, 42.35788862377309], [2.0224112546531585, 42.354838089881056], [2.0280702400263855, 42.352190337273775], [2.033869126461283, 42.350189276011946], [2.0398273894495964, 42.349078816156236], [2.045964504483069, 42.34910286776733], [2.052299947053447, 42.350505340905904], [2.0588531926524714, 42.35353014563264], [2.0588531926524656, 42.35353014563263], [2.064031733329037, 42.352671819716264], [2.0698263180582295, 42.35248669134957], [2.0760339637784884, 42.352885108965864], [2.0824516874282564, 42.35377742099844], [2.0888765059459753, 42.35507397588059], [2.0951054362700905, 42.3566851220456], [2.100935495339044, 42.35852120792677], [2.106163700091277, 42.36049258195739], [2.110587067465238, 42.36250959257076], [2.1140026143993653, 42.364482588200175], [2.1140026143993618, 42.364482588200175], [2.1153222790231347, 42.36835224287465], [2.118260735887325, 42.37172807560602], [2.1223899827322987, 42.37478621811072], [2.1272820172984255, 42.377702802105155], [2.13250883732607, 42.38065395930575], [2.137642440555602, 42.38381582142891], [2.142254824727393, 42.38736452019107], [2.1459179875818046, 42.39147618730863], [2.1482039268592104, 42.39632695449803], [2.1486846402999733, 42.40209295347566], [2.148684640299975, 42.40209295347566], [2.151761711650814, 42.405867764276856], [2.1558308913047743, 42.409167196867166], [2.160742683906857, 42.41198797499493], [2.166347594102065, 42.414326822408526], [2.172496126535404, 42.41618046285631], [2.1790387858518803, 42.417545620086656], [2.1858260766964914, 42.418419017847924], [2.1927085037142477, 42.41879737988849], [2.1995365715501536, 42.418677429956695], [2.2061607848492066, 42.418055891800925], [2.2061607848492044, 42.41805589180092], [2.2061607848492044, 42.41805589180092], [2.2061607848492044, 42.41805589180092], [2.2061607848492044, 42.41805589180092], [2.2061607848492044, 42.41805589180092], [2.2061607848492044, 42.41805589180092], [2.2061607848492044, 42.41805589180092], [2.2061607848492044, 42.41805589180092], [2.2061607848492044, 42.41805589180092], [2.2061607848492044, 42.41805589180092], [2.2061607848492044, 42.41805589180092]]]}}]}