{
    "type": "FeatureCollection",
    "features": [
        {
            "type": "Feature",
            "properties": {
                "diocese": "Brugen",
                "province": "Mechlinien",
                "date": 1592
            },
            "geometry": {
                "type": "Polygon",
                "coordinates": [
                    [
                        [
                            3.4297878969245756,
                            51.04057479039696
                        ],
                        [
                            3.435029128296607,
                            51.03834534431296
                        ],
                        [
                            3.435831455264005,
                            51.03655451446217
                        ],
                        [
                            3.435755094969682,
                            51.0349545968535
                        ],
                        [
                            3.436307673737883,
                            51.03171204631456
                        ],
                        [
                            3.4395598390949806,
                            51.02970478276176
                        ],
                        [
                            3.442377338160975,
                            51.027121385578134
                        ],
                        [
                            3.4458631529656905,
                            51.02099186015382
                        ],
                        [
                            3.4513697961870142,
                            51.02313565783739
                        ],
                        [
                            3.453362778114739,
                            51.025350510264595
                        ],
                        [
                            3.459072178585024,
                            51.024750624937305
                        ],
                        [
                            3.4690893003898773,
                            51.026347747707504
                        ],
                        [
                            3.4698761812580874,
                            51.02824925366507
                        ],
                        [
                            3.465407254857383,
                            51.031633924602716
                        ],
                        [
                            3.460464503040514,
                            51.03434252312733
                        ],
                        [
                            3.458440193812599,
                            51.03798556967564
                        ],
                        [
                            3.462207519218033,
                            51.042485150745044
                        ],
                        [
                            3.4613090348429756,
                            51.0461992260686
                        ],
                        [
                            3.4595401301323454,
                            51.04788355148903
                        ],
                        [
                            3.456870130438317,
                            51.050101734450735
                        ],
                        [
                            3.454513186196029,
                            51.050373067869685
                        ],
                        [
                            3.4510317224053586,
                            51.04940383680723
                        ],
                        [
                            3.4502233040182864,
                            51.04839998362041
                        ],
                        [
                            3.4503586205513623,
                            51.04618103529321
                        ],
                        [
                            3.446507755678489,
                            51.04499383240536
                        ],
                        [
                            3.444411872271499,
                            51.045527256822034
                        ],
                        [
                            3.4441769175196852,
                            51.042147293808185
                        ],
                        [
                            3.443021723323146,
                            51.04060584156363
                        ],
                        [
                            3.441570877730209,
                            51.039806575169905
                        ],
                        [
                            3.4367212376114806,
                            51.03970192948168
                        ],
                        [
                            3.4297878969245756,
                            51.04057479039696
                        ]
                    ]
                ]
            }
        },
        {
            "type": "Feature",
            "properties": {
                "diocese": "Brugen",
                "province": "Mechlinien",
                "date": 1592
            },
            "geometry": {
                "type": "Polygon",
                "coordinates": [
                    [
                        [
                            2.734333891175663,
                            51.15750005150451
                        ],
                        [
                            2.741401812183896,
                            51.150893159699514
                        ],
                        [
                            2.746981545761624,
                            51.150893159699514
                        ],
                        [
                            2.751445332623806,
                            51.14389261271534
                        ],
                        [
                            2.761488853063716,
                            51.14249237589654
                        ],
                        [
                            2.76260479977926,
                            51.14039194102746
                        ],
                        [
                            2.773764266934716,
                            51.14319249961531
                        ],
                        [
                            2.774880213650262,
                            51.14599288830386
                        ],
                        [
                            2.789387520952353,
                            51.14739301893702
                        ],
                        [
                            2.800546988107808,
                            51.13128895220625
                        ],
                        [
                            2.802778881538899,
                            51.12148372635529
                        ],
                        [
                            2.818402135556536,
                            51.117981355516335
                        ],
                        [
                            2.818402135556536,
                            51.10046551840449
                        ],
                        [
                            2.821749975703172,
                            51.09766236840512
                        ],
                        [
                            2.8150542954099,
                            51.08154095755295
                        ],
                        [
                            2.80501077496999,
                            51.078736660268135
                        ],
                        [
                            2.801662934823354,
                            51.06471262404054
                        ],
                        [
                            2.810590508547717,
                            51.064011310670345
                        ],
                        [
                            2.822865922418717,
                            51.05980320732115
                        ],
                        [
                            2.829561602711991,
                            51.06120595093853
                        ],
                        [
                            2.835141336289718,
                            51.067517771271795
                        ],
                        [
                            2.841837016582991,
                            51.065413926785716
                        ],
                        [
                            2.838489176436355,
                            51.04507183322092
                        ],
                        [
                            2.84964864359181,
                            51.03244121123046
                        ],
                        [
                            2.863040004178356,
                            51.03805524608737
                        ],
                        [
                            2.877547311480448,
                            51.03665180113698
                        ],
                        [
                            2.885358938489266,
                            51.03665180113698
                        ],
                        [
                            2.925533020248904,
                            51.03173940904986
                        ],
                        [
                            2.940040327550995,
                            51.01559502556005
                        ],
                        [
                            2.940040327550995,
                            51.013488821896516
                        ],
                        [
                            2.922185180102268,
                            51.00155186081759
                        ],
                        [
                            2.922185180102268,
                            50.995231049493675
                        ],
                        [
                            2.929996807111085,
                            50.99382630782087
                        ],
                        [
                            2.938924380835449,
                            50.986099468519214
                        ],
                        [
                            2.946736007844267,
                            50.98469445044237
                        ],
                        [
                            2.956779528284177,
                            50.977668722169085
                        ],
                        [
                            2.95119979470645,
                            50.97556079636774
                        ],
                        [
                            2.95119979470645,
                            50.95517924679212
                        ],
                        [
                            2.945620061128723,
                            50.95166428269726
                        ],
                        [
                            2.946736007844267,
                            50.94814905275418
                        ],
                        [
                            2.961243315146359,
                            50.94322728419572
                        ],
                        [
                            2.966823048724087,
                            50.931975570695855
                        ],
                        [
                            2.972402782301815,
                            50.92423843831131
                        ],
                        [
                            2.976866569163997,
                            50.91016762765201
                        ],
                        [
                            3.000301450190452,
                            50.914389317590846
                        ],
                        [
                            3.018156597639179,
                            50.9150928953514
                        ],
                        [
                            3.028200118079089,
                            50.92142461654773
                        ],
                        [
                            3.029316064794634,
                            50.92142461654773
                        ],
                        [
                            3.031547958225725,
                            50.91650001896221
                        ],
                        [
                            3.049403105674454,
                            50.91368572919343
                        ],
                        [
                            3.050519052389999,
                            50.90946397543244
                        ],
                        [
                            3.060562572829909,
                            50.91016762765201
                        ],
                        [
                            3.067258253123181,
                            50.91720356481258
                        ],
                        [
                            3.079533666994182,
                            50.92001764184843
                        ],
                        [
                            3.08511340057191,
                            50.89679641646265
                        ],
                        [
                            3.090693134149637,
                            50.88975739437355
                        ],
                        [
                            3.099620707874001,
                            50.88694148765598
                        ],
                        [
                            3.099620707874001,
                            50.88130916354699
                        ],
                        [
                            3.110780175029456,
                            50.88130916354699
                        ],
                        [
                            3.120823695469366,
                            50.877084473611845
                        ],
                        [
                            3.137562896202548,
                            50.877084473611845
                        ],
                        [
                            3.144258576495822,
                            50.87919686645747
                        ],
                        [
                            3.157649937082367,
                            50.88060507515662
                        ],
                        [
                            3.162113723944549,
                            50.88905343365242
                        ],
                        [
                            3.172157244384458,
                            50.91861062460353
                        ],
                        [
                            3.192244285264278,
                            50.91861062460353
                        ],
                        [
                            3.194476178695369,
                            50.936195282310265
                        ],
                        [
                            3.202287805704186,
                            50.93478875431326
                        ],
                        [
                            3.203403752419733,
                            50.93760176776671
                        ],
                        [
                            3.22125889986846,
                            50.93830499454236
                        ],
                        [
                            3.22125889986846,
                            50.94252413186373
                        ],
                        [
                            3.227954580161732,
                            50.94744597486316
                        ],
                        [
                            3.23130242030837,
                            50.95236729678388
                        ],
                        [
                            3.236882153886097,
                            50.9544762752407
                        ],
                        [
                            3.249157567757098,
                            50.9544762752407
                        ],
                        [
                            3.267012715205826,
                            50.96642534547557
                        ],
                        [
                            3.281520022507917,
                            50.96431690931833
                        ],
                        [
                            3.296027329810008,
                            50.96712813626239
                        ],
                        [
                            3.30049111667219,
                            50.97134465769802
                        ],
                        [
                            3.303838956818827,
                            50.99031426760201
                        ],
                        [
                            3.294911383094463,
                            50.99101669690735
                        ],
                        [
                            3.281520022507917,
                            51.00506305061126
                        ],
                        [
                            3.292679489663372,
                            51.014892968301176
                        ],
                        [
                            3.283751915939008,
                            51.017701133563484
                        ],
                        [
                            3.285983809370098,
                            51.02823023873151
                        ],
                        [
                            3.314998423974282,
                            51.033143002783476
                        ],
                        [
                            3.313882477258737,
                            51.04156367248969
                        ],
                        [
                            3.330621677991919,
                            51.04577343348725
                        ],
                        [
                            3.337317358285191,
                            51.04577343348725
                        ],
                        [
                            3.340665198431829,
                            51.05278885170174
                        ],
                        [
                            3.33285357142301,
                            51.06120595093853
                        ],
                        [
                            3.341781145147374,
                            51.0703227485066
                        ],
                        [
                            3.326157891129736,
                            51.09555989437088
                        ],
                        [
                            3.371911706467102,
                            51.1095745821743
                        ],
                        [
                            3.369679813036011,
                            51.11447871915897
                        ],
                        [
                            3.37749144004483,
                            51.12288460034727
                        ],
                        [
                            3.386419013769194,
                            51.1256862208876
                        ],
                        [
                            3.400926321071285,
                            51.14249237589654
                        ],
                        [
                            3.398694427640195,
                            51.14809306832602
                        ],
                        [
                            3.409853894795649,
                            51.15509297821833
                        ],
                        [
                            3.444448242977559,
                            51.144592715196744
                        ],
                        [
                            3.447796083124197,
                            51.14669295892965
                        ],
                        [
                            3.486854218168289,
                            51.14669295892965
                        ],
                        [
                            3.506941259048107,
                            51.14249237589654
                        ],
                        [
                            3.528144246643472,
                            51.153693081183654
                        ],
                        [
                            3.532608033505654,
                            51.15579291080905
                        ],
                        [
                            3.553811021101018,
                            51.157192744137454
                        ],
                        [
                            3.559390754678746,
                            51.16489106829923
                        ],
                        [
                            3.566086434972018,
                            51.16279165275261
                        ],
                        [
                            3.577245902127474,
                            51.16349146855186
                        ],
                        [
                            3.579477795558565,
                            51.16629062557877
                        ],
                        [
                            3.585057529136292,
                            51.16629062557877
                        ],
                        [
                            3.587289422567383,
                            51.16908961273631
                        ],
                        [
                            3.61295619702493,
                            51.16629062557877
                        ],
                        [
                            3.63527513133584,
                            51.166990388293286
                        ],
                        [
                            3.660941905793385,
                            51.16209182633623
                        ],
                        [
                            3.65982595907784,
                            51.18308200060987
                        ],
                        [
                            3.665405692655568,
                            51.195671519190505
                        ],
                        [
                            3.655362172215658,
                            51.22433480719544
                        ],
                        [
                            3.649782438637931,
                            51.22573256001362
                        ],
                        [
                            3.645318651775749,
                            51.22713027038381
                        ],
                        [
                            3.63750702476693,
                            51.22713027038381
                        ],
                        [
                            3.62746350432702,
                            51.2418036665882
                        ],
                        [
                            3.617419983887112,
                            51.2418036665882
                        ],
                        [
                            3.616304037171567,
                            51.245296642636916
                        ],
                        [
                            3.629695397758113,
                            51.24669375878322
                        ],
                        [
                            3.629695397758113,
                            51.248789353425735
                        ],
                        [
                            3.64755054520684,
                            51.25158333107446
                        ],
                        [
                            3.653130278784568,
                            51.250186363470085
                        ],
                        [
                            3.677681106526569,
                            51.25158333107446
                        ],
                        [
                            3.686608680250933,
                            51.25786916011172
                        ],
                        [
                            3.683260840104296,
                            51.26555067302036
                        ],
                        [
                            3.691072467113115,
                            51.278815717326765
                        ],
                        [
                            3.734594389019389,
                            51.31440295534853
                        ],
                        [
                            3.736826282450479,
                            51.31231035201905
                        ],
                        [
                            3.753565483183662,
                            51.32486454039337
                        ],
                        [
                            3.773652524063482,
                            51.33183760493282
                        ],
                        [
                            3.782580097787845,
                            51.34717461465819
                        ],
                        [
                            3.778116310925664,
                            51.34926562748759
                        ],
                        [
                            3.770304683916844,
                            51.34717461465819
                        ],
                        [
                            3.766956843770209,
                            51.34438644912444
                        ],
                        [
                            3.752449536468117,
                            51.348568633812995
                        ],
                        [
                            3.737942229166026,
                            51.348568633812995
                        ],
                        [
                            3.727898708726116,
                            51.35135654490082
                        ],
                        [
                            3.720087081717298,
                            51.35484119522457
                        ],
                        [
                            3.706695721130751,
                            51.359022425769794
                        ],
                        [
                            3.698884094121933,
                            51.36320327467965
                        ],
                        [
                            3.688840573682024,
                            51.37086717319765
                        ],
                        [
                            3.672101372948841,
                            51.373653727382184
                        ],
                        [
                            3.633043237904749,
                            51.377833240667385
                        ],
                        [
                            3.618535930602657,
                            51.38340533148296
                        ],
                        [
                            3.60068078315393,
                            51.38828035450113
                        ],
                        [
                            3.58059374227411,
                            51.393851173468214
                        ],
                        [
                            3.552695074385473,
                            51.40568691172171
                        ],
                        [
                            3.532608033505654,
                            51.40847134622314
                        ],
                        [
                            3.518100726203562,
                            51.40847134622314
                        ],
                        [
                            3.509173152479198,
                            51.40847134622314
                        ],
                        [
                            3.484622324737197,
                            51.401509942056265
                        ],
                        [
                            3.453375816701924,
                            51.395243772228184
                        ],
                        [
                            3.439984456115378,
                            51.395243772228184
                        ],
                        [
                            3.432172829106559,
                            51.395243772228184
                        ],
                        [
                            3.370795759751557,
                            51.37992285421718
                        ],
                        [
                            3.348476825440646,
                            51.36947383250567
                        ],
                        [
                            3.327273837845283,
                            51.36459680617727
                        ],
                        [
                            3.311650583827645,
                            51.36320327467965
                        ],
                        [
                            3.297143276525554,
                            51.359719260423546
                        ],
                        [
                            3.268128661921371,
                            51.34926562748759
                        ],
                        [
                            3.230186473592824,
                            51.34438644912444
                        ],
                        [
                            3.213447272859641,
                            51.34159811395548
                        ],
                        [
                            3.204519699135277,
                            51.34438644912444
                        ],
                        [
                            3.200055912273096,
                            51.34438644912444
                        ],
                        [
                            3.19893996555755,
                            51.34368938123566
                        ],
                        [
                            3.200055912273096,
                            51.333232090599886
                        ],
                        [
                            3.193360231979823,
                            51.34299230274459
                        ],
                        [
                            3.18889644511764,
                            51.34090100365728
                        ],
                        [
                            3.183316711539913,
                            51.3339293175287
                        ],
                        [
                            3.171024661838529,
                            51.329179623428054
                        ],
                        [
                            3.1495001694307074,
                            51.32203339192473
                        ],
                        [
                            3.11472973442741,
                            51.315185929087995
                        ],
                        [
                            3.094358034681676,
                            51.30765952404233
                        ],
                        [
                            3.074844685686299,
                            51.30103017089351
                        ],
                        [
                            3.048912765916942,
                            51.2889441560421
                        ],
                        [
                            3.013090752659152,
                            51.2735344775686
                        ],
                        [
                            2.9267574923926336,
                            51.23779245539006
                        ],
                        [
                            2.9167753858067713,
                            51.23487737570749
                        ],
                        [
                            2.868033419212433,
                            51.21200298220342
                        ],
                        [
                            2.850724441134475,
                            51.204117054671464
                        ],
                        [
                            2.794770292016049,
                            51.1801485333437
                        ],
                        [
                            2.734333891175663,
                            51.15750005150451
                        ]
                    ]
                ]
            }
        }
    ]
}