{
    "type": "FeatureCollection",
    "features": [
        {
            "type": "Feature",
            "properties": {
                "diocese": "Buscoducen",
                "province": "Mechlinien",
                "date": 1592
            },
            "geometry": {
                "type": "Polygon",
                "coordinates": [
                    [
                        [
                            4.841122899446676,
                            51.032317727837459
                        ],
                        [
                            4.850450777714423,
                            51.016311783387714
                        ],
                        [
                            4.816204323635543,
                            51.014118170457792
                        ],
                        [
                            4.803123524664697,
                            51.014202135436982
                        ],
                        [
                            4.805468014311478,
                            51.020512756916361
                        ],
                        [
                            4.800594842942905,
                            51.025043853688153
                        ],
                        [
                            4.791526027182532,
                            51.028666783395352
                        ],
                        [
                            4.784921622535413,
                            51.032805789817836
                        ],
                        [
                            4.782239966870767,
                            51.03770978391335
                        ],
                        [
                            4.800578016326629,
                            51.045088715554577
                        ],
                        [
                            4.81953298730113,
                            51.044708602010424
                        ],
                        [
                            4.833609734678871,
                            51.040181597519087
                        ],
                        [
                            4.841122899446676,
                            51.032317727837459
                        ]
                    ]
                ]
            }
        },
        {
            "type": "Feature",
            "properties": {
                "diocese": "Buscoducen",
                "province": "Mechlinien",
                "date": 1592
            },
            "geometry": {
                "type": "Polygon",
                "coordinates": [
                    [
                        [
                            5.147087418695523,
                            51.15278838168274
                        ],
                        [
                            5.101809398544125,
                            51.141426804610994
                        ],
                        [
                            5.092964389956411,
                            51.158203962997547
                        ],
                        [
                            5.063418561557132,
                            51.149022538110174
                        ],
                        [
                            5.014739200345758,
                            51.146660544996848
                        ],
                        [
                            5.028216532679466,
                            51.116779551317336
                        ],
                        [
                            5.001167915218385,
                            51.109868305988016
                        ],
                        [
                            4.967214641152967,
                            51.088364259461983
                        ],
                        [
                            4.968180653018414,
                            51.072151737433693
                        ],
                        [
                            4.938819143142728,
                            51.063752528290571
                        ],
                        [
                            4.951089624881819,
                            51.082063596881461
                        ],
                        [
                            4.94363968954023,
                            51.089771352974196
                        ],
                        [
                            4.840711648569462,
                            51.065180816427784
                        ],
                        [
                            4.826347639480307,
                            51.07372157218942
                        ],
                        [
                            4.823721960399493,
                            51.101177182925632
                        ],
                        [
                            4.855646342366088,
                            51.132128950197163
                        ],
                        [
                            4.904267182585193,
                            51.149626207751069
                        ],
                        [
                            4.925550267360349,
                            51.149741299329385
                        ],
                        [
                            4.929117224230876,
                            51.165909259142225
                        ],
                        [
                            4.894756579745579,
                            51.195817956664314
                        ],
                        [
                            4.900966334773043,
                            51.201200758525097
                        ],
                        [
                            4.919492103938307,
                            51.201330456834
                        ],
                        [
                            5.0233896449661,
                            51.244137704306475
                        ],
                        [
                            5.029438177091826,
                            51.268637603776696
                        ],
                        [
                            5.065947159197129,
                            51.292427407229411
                        ],
                        [
                            5.047896974297118,
                            51.296911306228665
                        ],
                        [
                            5.054078544468354,
                            51.307268984540997
                        ],
                        [
                            5.037759199216288,
                            51.31607890070206
                        ],
                        [
                            5.025838425604363,
                            51.329179630879032
                        ],
                        [
                            5.065083599390005,
                            51.394326456961984
                        ],
                        [
                            5.069817455114635,
                            51.426408183594781
                        ],
                        [
                            5.040471300055877,
                            51.439224697006523
                        ],
                        [
                            5.030584627495975,
                            51.434724651523865
                        ],
                        [
                            4.996385842879649,
                            51.444655276126376
                        ],
                        [
                            4.997015601233083,
                            51.444694857411015
                        ],
                        [
                            4.996377874707593,
                            51.444879418989643
                        ],
                        [
                            4.922888434130289,
                            51.398288718877019
                        ],
                        [
                            4.915539490052531,
                            51.399052883796685
                        ],
                        [
                            4.898391953904479,
                            51.418152857809012
                        ],
                        [
                            4.797956385108803,
                            51.413569591651054
                        ],
                        [
                            4.772235080866663,
                            51.419680511067853
                        ],
                        [
                            4.771010256870433,
                            51.43342709293033
                        ],
                        [
                            4.823677689290818,
                            51.42808169138992
                        ],
                        [
                            4.83837557742631,
                            51.462434075446993
                        ],
                        [
                            4.835925929413774,
                            51.485321309412733
                        ],
                        [
                            4.817553569249417,
                            51.486846716738356
                        ],
                        [
                            4.815103921236831,
                            51.500573086442643
                        ],
                        [
                            4.766110960825261,
                            51.508959388867346
                        ],
                        [
                            4.692621520227931,
                            51.453275966467956
                        ],
                        [
                            4.66567539198951,
                            51.443352608072082
                        ],
                        [
                            4.668125040022096,
                            51.428845358476572
                        ],
                        [
                            4.639954087787469,
                            51.423499420846852
                        ],
                        [
                            4.577488063276714,
                            51.436481327318987
                        ],
                        [
                            4.537068870959208,
                            51.42426316451548
                        ],
                        [
                            4.533394398910291,
                            51.449459545387427
                        ],
                        [
                            4.554216407087235,
                            51.475404917868033
                        ],
                        [
                            4.540743342968025,
                            51.485321309412733
                        ],
                        [
                            4.477052494440989,
                            51.478456344916935
                        ],
                        [
                            4.386415517715683,
                            51.448696222885275
                        ],
                        [
                            4.403563053863709,
                            51.443352608072082
                        ],
                        [
                            4.398663757818538,
                            51.42426316451548
                        ],
                        [
                            4.386415517715683,
                            51.42273566441424
                        ],
                        [
                            4.434183654110922,
                            51.376122382585123
                        ],
                        [
                            4.431734006098361,
                            51.363123330916657
                        ],
                        [
                            4.390089989744524,
                            51.35394530777257
                        ],
                        [
                            4.371409845760492,
                            51.355712793332529
                        ],
                        [
                            4.359950643000047,
                            51.359567711000068
                        ],
                        [
                            4.340964272931255,
                            51.360496677919201
                        ],
                        [
                            4.299007640536822,
                            51.373637913892381
                        ],
                        [
                            4.269946145778248,
                            51.385615938488613
                        ],
                        [
                            4.286156255000037,
                            51.405292703000043
                        ],
                        [
                            4.241591307000022,
                            51.491946295000048
                        ],
                        [
                            4.137844105000056,
                            51.526783502000058
                        ],
                        [
                            4.164226555000027,
                            51.536985537000078
                        ],
                        [
                            4.129644155000051,
                            51.591948425000055
                        ],
                        [
                            4.177417780000042,
                            51.587961419000067
                        ],
                        [
                            4.230182680000041,
                            51.551840932000061
                        ],
                        [
                            4.213426259000073,
                            51.607892950000064
                        ],
                        [
                            4.415216348000058,
                            51.589733465000052
                        ],
                        [
                            4.407729436000068,
                            51.597263889000033
                        ],
                        [
                            4.389903457000059,
                            51.601250079000067
                        ],
                        [
                            4.297564882000074,
                            51.614534850000041
                        ],
                        [
                            4.311825666000061,
                            51.638216380000074
                        ],
                        [
                            4.516111392000028,
                            51.60457163600006
                        ],
                        [
                            4.499711491000028,
                            51.61608448700008
                        ],
                        [
                            4.528589578000037,
                            51.65016311200003
                        ],
                        [
                            4.57493712400003,
                            51.64706611400004
                        ],
                        [
                            4.679397365000057,
                            51.691951891000031
                        ],
                        [
                            4.704710256000055,
                            51.684437177000063
                        ],
                        [
                            4.670127855000032,
                            51.70476823100006
                        ],
                        [
                            4.687240796000026,
                            51.718022694000069
                        ],
                        [
                            4.722536235000064,
                            51.705431047000047
                        ],
                        [
                            4.704710256000055,
                            51.721998275000033
                        ],
                        [
                            4.760327312000072,
                            51.704326349000041
                        ],
                        [
                            4.854448484000045,
                            51.707198507000044
                        ],
                        [
                            4.841970298000035,
                            51.680679352000027
                        ],
                        [
                            4.865144072000021,
                            51.667413947000057
                        ],
                        [
                            4.892952600000058,
                            51.676479061000066
                        ],
                        [
                            4.844465936000063,
                            51.683331967000072
                        ],
                        [
                            4.879761375000044,
                            51.705651983000052
                        ],
                        [
                            4.969604312000058,
                            51.703884462000076
                        ],
                        [
                            4.933595833000027,
                            51.719347927000058
                        ],
                        [
                            4.945717500000057,
                            51.727960992000078
                        ],
                        [
                            5.005612791000033,
                            51.708965898000031
                        ],
                        [
                            5.120055580000042,
                            51.725752670000077
                        ],
                        [
                            5.173890038000025,
                            51.70012825200007
                        ],
                        [
                            5.181733469000051,
                            51.729285934000075
                        ],
                        [
                            5.192072537000058,
                            51.710733220000066
                        ],
                        [
                            5.208115919000022,
                            51.731052462000036
                        ],
                        [
                            5.254106946000036,
                            51.725973507000049
                        ],
                        [
                            5.261593858000026,
                            51.740546368000082
                        ],
                        [
                            5.289402386000063,
                            51.730610836000039
                        ],
                        [
                            5.355715030000056,
                            51.74761030500008
                        ],
                        [
                            5.356071549000035,
                            51.765044673000034
                        ],
                        [
                            5.316854394000075,
                            51.785118957000066
                        ],
                        [
                            5.358567186000073,
                            51.787103841000032
                        ],
                        [
                            5.407766890000062,
                            51.820392752000032
                        ],
                        [
                            5.448766643000056,
                            51.811797308000052
                        ],
                        [
                            5.467662181000037,
                            51.790632307000067
                        ],
                        [
                            5.479783848000068,
                            51.795924489000072
                        ],
                        [
                            5.469444779000071,
                            51.820833500000049
                        ],
                        [
                            5.495470710000063,
                            51.827664539000068
                        ],
                        [
                            5.543600854000033,
                            51.797247437000067
                        ],
                        [
                            5.527557473000059,
                            51.823477896000043
                        ],
                        [
                            5.542887815000029,
                            51.837578721000057
                        ],
                        [
                            5.641287222000074,
                            51.817307397000036
                        ],
                        [
                            5.654121928000052,
                            51.788647579000042
                        ],
                        [
                            5.685139132000074,
                            51.787324378000051
                        ],
                        [
                            5.675156584000035,
                            51.755335223000031
                        ],
                        [
                            5.714017219000027,
                            51.770781094000029
                        ],
                        [
                            5.767495158000031,
                            51.752466122000044
                        ],
                        [
                            5.865894565000076,
                            51.757542099000034
                        ],
                        [
                            5.876413420089477,
                            51.743743479828424
                        ],
                        [
                            5.442611398020359,
                            51.169621724743557
                        ],
                        [
                            5.102918449709142,
                            51.0882805262221
                        ],
                        [
                            5.116201747669462,
                            51.099581226995163
                        ],
                        [
                            5.119337373000064,
                            51.100597895000078
                        ],
                        [
                            5.117953283629547,
                            51.101071337646701
                        ],
                        [
                            5.138457459877156,
                            51.118515165306412
                        ],
                        [
                            5.192349716333897,
                            51.122359186172893
                        ],
                        [
                            5.210542493839528,
                            51.141386670928142
                        ],
                        [
                            5.19010871885124,
                            51.150513733938411
                        ],
                        [
                            5.147087418695523,
                            51.15278838168274
                        ]
                    ]
                ]
            }
        },
        {
            "type": "Feature",
            "properties": {
                "diocese": "Buscoducen",
                "province": "Mechlinien",
                "date": 1592
            },
            "geometry": {
                "type": "Polygon",
                "coordinates": [
                    [
                        [
                            4.466592306000052,
                            51.61877316600004
                        ],
                        [
                            4.454827160000036,
                            51.617444988000045
                        ],
                        [
                            4.448409807000075,
                            51.625192146000074
                        ],
                        [
                            4.464809708000075,
                            51.623864156000081
                        ],
                        [
                            4.466592306000052,
                            51.61877316600004
                        ]
                    ]
                ]
            }
        },
        {
            "type": "Feature",
            "properties": {
                "diocese": "Buscoducen",
                "province": "Mechlinien",
                "date": 1592
            },
            "geometry": {
                "type": "Polygon",
                "coordinates": [
                    [
                        [
                            4.42773167100006,
                            51.661254347000067
                        ],
                        [
                            4.408123093000029,
                            51.680711590000044
                        ],
                        [
                            4.428444710000065,
                            51.691542114000072
                        ],
                        [
                            4.485131325000054,
                            51.677616678000049
                        ],
                        [
                            4.607417545000033,
                            51.685795628000051
                        ],
                        [
                            4.611695780000048,
                            51.674521555000069
                        ],
                        [
                            4.523278921000042,
                            51.654176914000061
                        ],
                        [
                            4.48834000100004,
                            51.625856127000077
                        ],
                        [
                            4.429870788000073,
                            51.63603594500006
                        ],
                        [
                            4.442705494000052,
                            51.651301391000061
                        ],
                        [
                            4.406340495000052,
                            51.655946376000031
                        ],
                        [
                            4.42773167100006,
                            51.661254347000067
                        ]
                    ]
                ]
            }
        },
        {
            "type": "Feature",
            "properties": {
                "diocese": "Buscoducen",
                "province": "Mechlinien",
                "date": 1592
            },
            "geometry": {
                "type": "Polygon",
                "coordinates": [
                    [
                        [
                            4.674086708000061,
                            51.696182974000067
                        ],
                        [
                            4.660895483000047,
                            51.686458721000065
                        ],
                        [
                            4.618469652000044,
                            51.690879095000071
                        ],
                        [
                            4.646991219000029,
                            51.71120725600008
                        ],
                        [
                            4.674086708000061,
                            51.696182974000067
                        ]
                    ]
                ]
            }
        },
        {
            "type": "Feature",
            "properties": {
                "diocese": "Buscoducen",
                "province": "Mechlinien",
                "date": 1592
            },
            "geometry": {
                "type": "Polygon",
                "coordinates": [
                    [
                        [
                            4.647347739000054,
                            51.73925395200007
                        ],
                        [
                            4.65055641500004,
                            51.766180064000082
                        ],
                        [
                            4.667669356000033,
                            51.771916341000065
                        ],
                        [
                            4.661252003000072,
                            51.767283251000038
                        ],
                        [
                            4.647347739000054,
                            51.73925395200007
                        ]
                    ]
                ]
            }
        },
        {
            "type": "Feature",
            "properties": {
                "diocese": "Buscoducen",
                "province": "Mechlinien",
                "date": 1592
            },
            "geometry": {
                "type": "Polygon",
                "coordinates": [
                    [
                        [
                            4.398853584000051,
                            51.758236324000052
                        ],
                        [
                            4.430583827000021,
                            51.79683861400008
                        ],
                        [
                            4.524348480000072,
                            51.801248201000078
                        ],
                        [
                            4.614547937000054,
                            51.776769544000047
                        ],
                        [
                            4.627382642000043,
                            51.76816578100005
                        ],
                        [
                            4.578182938000054,
                            51.731084664000036
                        ],
                        [
                            4.62274788700006,
                            51.755808791000049
                        ],
                        [
                            4.632730436000031,
                            51.745655876000058
                        ],
                        [
                            4.587095928000053,
                            51.715183436000075
                        ],
                        [
                            4.519000686000027,
                            51.732188708000081
                        ],
                        [
                            4.498679069000048,
                            51.752719015000082
                        ],
                        [
                            4.398853584000051,
                            51.758236324000052
                        ]
                    ]
                ]
            }
        }
    ]
}