{"type": "FeatureCollection", "features": [{"type": "Feature", "properties": {"diocese": "Vabres", "province": "II_Albi", "source": "12_Vabres.txt"}, "geometry": {"type": "Polygon", "coordinates": [[[3.3481646063545907, 44.21166461397413], [3.342905719778732, 44.211914344231936], [3.33764683320287, 44.21216407448974], [3.3323879466270117, 44.212413804747555], [3.3271290600511514, 44.212663535005355], [3.321870173475292, 44.21291326526317], [3.3166112868994317, 44.213162995520975], [3.3113524003235715, 44.21341272577879], [3.306093513747713, 44.213662456036595], [3.300834627171851, 44.2139121862944], [3.2955757405959925, 44.2141619165522], [3.2955757405959925, 44.2141619165522], [3.290310966949408, 44.21140241468267], [3.285046193302825, 44.208642912813126], [3.2797814196562443, 44.205883410943585], [3.2745166460096597, 44.20312390907405], [3.2692518723630744, 44.20036440720451], [3.2639870987164916, 44.19760490533498], [3.258722325069909, 44.194845403465436], [3.253457551423326, 44.1920859015959], [3.2481927777767408, 44.18932639972636], [3.242928004130158, 44.18656689785683], [3.242928004130158, 44.18656689785683], [3.2391218818013088, 44.18782006755886], [3.2353157594724586, 44.18907323726091], [3.2315096371436094, 44.190326406962946], [3.2277035148147593, 44.191579576664985], [3.22389739248591, 44.192832746367024], [3.220091270157058, 44.19408591606907], [3.2162851478282106, 44.1953390857711], [3.2124790254993587, 44.19659225547315], [3.2086729031705095, 44.197845425175196], [3.2048667808416593, 44.19909859487723], [3.2048667808416593, 44.19909859487723], [3.1979735629467902, 44.19796778410483], [3.191080345051924, 44.19683697333243], [3.184187127157054, 44.19570616256003], [3.1772939092621866, 44.19457535178763], [3.1704006913673166, 44.19344454101522], [3.1635074734724467, 44.19231373024282], [3.1566142555775794, 44.19118291947042], [3.1497210376827094, 44.190052108698026], [3.142827819787842, 44.188921297925624], [3.135934601892972, 44.187790487153215], [3.135934601892972, 44.187790487153215], [3.1326631469787745, 44.18427944854744], [3.1293916920645777, 44.18076840994168], [3.126120237150379, 44.17725737133591], [3.1228487822361832, 44.17374633273013], [3.1195773273219847, 44.17023529412436], [3.116305872407788, 44.166724255518595], [3.113034417493592, 44.16321321691282], [3.1097629625793934, 44.15970217830705], [3.1064915076651975, 44.156191139701285], [3.103220052750999, 44.152680101095505], [3.103220052750999, 44.152680101095505], [3.1012154385114568, 44.147538202800185], [3.0992108242719145, 44.14239630450486], [3.097206210032374, 44.13725440620952], [3.095201595792832, 44.132112507914194], [3.093196981553288, 44.126970609618866], [3.0911923673137456, 44.121828711323545], [3.089187753074205, 44.11668681302821], [3.0871831388346638, 44.11154491473289], [3.0851785245951207, 44.106403016437554], [3.0831739103555793, 44.101261118142226], [3.0831739103555793, 44.101261118142226], [3.075551906651554, 44.09875207068056], [3.06792990294753, 44.096243023218896], [3.060307899243505, 44.09373397575723], [3.052685895539479, 44.09122492829556], [3.0450638918354556, 44.088715880833895], [3.0374418881314313, 44.08620683337223], [3.029819884427407, 44.083697785910566], [3.022197880723382, 44.0811887384489], [3.0145758770193556, 44.07867969098723], [3.0069538733153327, 44.076170643525565], [3.0069538733153327, 44.076170643525565], [2.9987930869030675, 44.07629358129438], [2.9906323004907995, 44.07641651906319], [2.982471514078535, 44.076539456831995], [2.97431072766627, 44.07666239460081], [2.966149941254002, 44.076785332369624], [2.9579891548417367, 44.07690827013844], [2.949828368429471, 44.07703120790725], [2.9416675820172067, 44.07715414567606], [2.933506795604939, 44.07727708344487], [2.9253460091926735, 44.077400021213684], [2.9253460091926735, 44.077400021213684], [2.920623403699522, 44.073762606867625], [2.9159007982063665, 44.07012519252157], [2.911178192713215, 44.066487778175514], [2.9064555872200613, 44.06285036382946], [2.901732981726908, 44.05921294948342], [2.897010376233753, 44.05557553513735], [2.8922877707406016, 44.051938120791306], [2.887565165247448, 44.04830070644524], [2.8828425597542964, 44.044663292099195], [2.878119954261141, 44.04102587775313], [2.878119954261141, 44.04102587775313], [2.873405656245706, 44.04165176101962], [2.868691358230272, 44.0422776442861], [2.8639770602148364, 44.04290352755258], [2.8592627621994016, 44.04352941081907], [2.8545484641839676, 44.04415529408555], [2.8498341661685327, 44.044781177352036], [2.8451198681530987, 44.045407060618516], [2.840405570137662, 44.046032943884995], [2.8356912721222263, 44.046658827151475], [2.8309769741067914, 44.04728471041796], [2.8309769741067914, 44.04728471041796], [2.8249920130114883, 44.04678222527589], [2.819007051916183, 44.04627974013382], [2.8130220908208754, 44.04577725499174], [2.807037129725572, 44.04527476984967], [2.8010521686302687, 44.0447722847076], [2.795067207534961, 44.04426979956552], [2.789082246439656, 44.043767314423455], [2.78309728534435, 44.04326482928138], [2.7771123242490487, 44.042762344139305], [2.771127363153743, 44.04225985899723], [2.771127363153743, 44.04225985899723], [2.7589631582314533, 44.03510927145802], [2.7467989533091637, 44.027958683918804], [2.734634748386874, 44.02080809637959], [2.722470543464586, 44.01365750884038], [2.7103063385422943, 44.00650692130117], [2.6981421336200047, 43.999356333761945], [2.685977928697715, 43.99220574622274], [2.673813723775427, 43.98505515868352], [2.6616495188531375, 43.97790457114431], [2.6494853139308474, 43.9707539836051], [2.6494853139308474, 43.9707539836051], [2.6456749993123068, 43.96987602407851], [2.641864684693769, 43.968998064551926], [2.6380543700752273, 43.96812010502534], [2.6342440554566875, 43.96724214549876], [2.6304337408381464, 43.96636418597217], [2.6266234262196066, 43.965486226445584], [2.6228131116010673, 43.964608266919], [2.6190027969825276, 43.96373030739242], [2.6151924823639865, 43.962852347865834], [2.6113821677454467, 43.96197438833925], [2.6113821677454467, 43.96197438833925], [2.608121842122081, 43.964229677270815], [2.604861516498716, 43.9664849662024], [2.6016011908753485, 43.968740255133966], [2.5983408652519846, 43.97099554406554], [2.595080539628619, 43.97325083299711], [2.5918202140052538, 43.97550612192869], [2.588559888381888, 43.97776141086026], [2.5852995627585225, 43.980016699791825], [2.5820392371351586, 43.982271988723404], [2.578778911511791, 43.984527277654976], [2.578778911511791, 43.984527277654976], [2.5738779661981366, 43.9821438836828], [2.5689770208844798, 43.97976048971063], [2.564076075570825, 43.97737709573845], [2.55917513025717, 43.97499370176627], [2.5542741849435155, 43.972610307794106], [2.5493732396298605, 43.97022691382193], [2.544472294316204, 43.96784351984976], [2.539571349002551, 43.96546012587758], [2.5346704036888945, 43.96307673190541], [2.5297694583752395, 43.960693337933236], [2.5297694583752395, 43.960693337933236], [2.5281269303339857, 43.95580366655814], [2.5264844022927297, 43.95091399518303], [2.524841874251479, 43.946024323807926], [2.5231993462102245, 43.94113465243283], [2.5215568181689707, 43.93624498105773], [2.519914290127717, 43.93135530968264], [2.5182717620864623, 43.92646563830753], [2.51662923404521, 43.92157596693244], [2.5149867060039544, 43.91668629555733], [2.513344177962702, 43.91179662418224], [2.513344177962702, 43.91179662418224], [2.516787326262291, 43.909790235829334], [2.5202304745618833, 43.90778384747642], [2.5236736228614745, 43.90577745912353], [2.5271167711610665, 43.903771070770624], [2.530559919460655, 43.90176468241772], [2.534003067760246, 43.89975829406482], [2.537446216059837, 43.89775190571192], [2.5408893643594275, 43.89574551735901], [2.54433251265902, 43.893739129006114], [2.5477756609586106, 43.891732740653204], [2.5477756609586106, 43.891732740653204], [2.5466795783582605, 43.88822229963625], [2.545583495757914, 43.884711858619276], [2.544487413157566, 43.88120141760231], [2.543391330557216, 43.87769097658535], [2.54229524795687, 43.87418053556838], [2.54119916535652, 43.87067009455142], [2.5401030827561715, 43.86715965353445], [2.539007000155825, 43.86364921251748], [2.537910917555475, 43.860138771500516], [2.5368148349551265, 43.85662833048355], [2.5368148349551265, 43.85662833048355], [2.53862586077843, 43.855123620188024], [2.540436886601735, 43.8536189098925], [2.5422479124250397, 43.852114199596976], [2.544058938248343, 43.85060948930145], [2.5458699640716462, 43.849104779005934], [2.547680989894951, 43.847600068710406], [2.549492015718254, 43.84609535841487], [2.551303041541559, 43.84459064811934], [2.5531140673648602, 43.84308593782383], [2.5549250931881655, 43.8415812275283], [2.5549250931881655, 43.8415812275283], [2.554196598261725, 43.839574946643225], [2.5534681033352857, 43.83756866575816], [2.552739608408844, 43.835562384873086], [2.5520111134824046, 43.83355610398801], [2.5512826185559665, 43.83154982310295], [2.5505541236295253, 43.82954354221787], [2.5498256287030854, 43.82753726133279], [2.549097133776644, 43.82553098044772], [2.548368638850204, 43.823524699562654], [2.5476401439237644, 43.821518418677584], [2.5476401439237644, 43.821518418677584], [2.552707571818789, 43.81650429889677], [2.5577749997138106, 43.81149017911595], [2.5628424276088335, 43.80647605933514], [2.567909855503856, 43.801461939554315], [2.572977283398879, 43.7964478197735], [2.578044711293902, 43.79143369999268], [2.5831121391889256, 43.78641958021187], [2.588179567083948, 43.781405460431046], [2.5932469949789696, 43.77639134065023], [2.598314422873992, 43.77137722086941], [2.598314422873992, 43.77137722086941], [2.601935915216524, 43.768118999879526], [2.605557407559054, 43.76486077888964], [2.609178899901586, 43.76160255789977], [2.612800392244116, 43.758344336909886], [2.616421884586648, 43.75508611592], [2.6200433769291798, 43.75182789493012], [2.623664869271708, 43.748569673940246], [2.627286361614242, 43.74531145295036], [2.6309078539567716, 43.742053231960476], [2.634529346299303, 43.7387950109706], [2.634529346299303, 43.7387950109706], [2.6446782879935333, 43.73528622774965], [2.6548272296877666, 43.7317774445287], [2.664976171382, 43.72826866130776], [2.675125113076233, 43.724759878086815], [2.6852740547704643, 43.72125109486587], [2.6954229964646976, 43.71774231164492], [2.705571938158931, 43.714233528423975], [2.7157208798531642, 43.71072474520303], [2.7258698215473975, 43.70721596198209], [2.736018763241629, 43.703707178761135], [2.736018763241629, 43.703707178761135], [2.7411007121007684, 43.70621668618356], [2.746182660959907, 43.708726193605976], [2.7512646098190463, 43.711235701028386], [2.756346558678186, 43.7137452084508], [2.7614285075373255, 43.71625471587323], [2.766510456396463, 43.718764223295636], [2.771592405255601, 43.72127373071805], [2.776674354114741, 43.72378323814047], [2.7817563029738808, 43.726292745562894], [2.7868382518330184, 43.72880225298531], [2.7868382518330184, 43.72880225298531], [2.7939105847447405, 43.728301932610584], [2.8009829176564582, 43.727801612235865], [2.8080552505681786, 43.72730129186115], [2.8151275834798986, 43.72680097148644], [2.822199916391618, 43.726300651111714], [2.82927224930334, 43.725800330737], [2.8363445822150566, 43.72530001036228], [2.8434169151267783, 43.724799689987556], [2.850489248038498, 43.72429936961284], [2.857561580950218, 43.72379904923813], [2.857561580950218, 43.72379904923813], [2.8666203786908695, 43.71903702294287], [2.875679176431524, 43.714274996647625], [2.8847379741721735, 43.70951297035238], [2.8937967719128284, 43.70475094405713], [2.9028555696534792, 43.69998891776187], [2.9119143673941323, 43.695226891466625], [2.9209731651347854, 43.69046486517138], [2.9300319628754368, 43.68570283887613], [2.939090760616091, 43.68094081258087], [2.9481495583567425, 43.67617878628563], [2.9481495583567425, 43.67617878628563], [2.953407475883092, 43.67542697040899], [2.958665393409444, 43.67467515453236], [2.9639233109357934, 43.67392333865573], [2.9691812284621406, 43.67317152277909], [2.9744391459884936, 43.67241970690247], [2.9796970635148425, 43.671667891025834], [2.9849549810411915, 43.670916075149194], [2.9902128985675427, 43.67016425927256], [2.995470816093891, 43.66941244339593], [3.0007287336202424, 43.668660627519294], [3.0007287336202424, 43.668660627519294], [3.0025563289245243, 43.67656066960666], [3.004383924228806, 43.68446071169401], [3.0062115195330876, 43.69236075378137], [3.0080391148373695, 43.700260795868736], [3.009866710141651, 43.70816083795609], [3.011694305445933, 43.71606088004346], [3.0135219007502148, 43.723960922130814], [3.0153494960544966, 43.73186096421818], [3.01717709135878, 43.739761006305535], [3.01900468666306, 43.7476610483929], [3.01900468666306, 43.7476610483929], [3.017014351969744, 43.74991769344347], [3.0150240172764287, 43.75217433849405], [3.0130336825831114, 43.75443098354464], [3.0110433478897956, 43.75668762859521], [3.0090530131964806, 43.758944273645795], [3.0070626785031647, 43.761200918696375], [3.0050723438098514, 43.76345756374695], [3.0030820091165356, 43.76571420879753], [3.0010916744232183, 43.76797085384811], [2.999101339729903, 43.77022749889869], [2.999101339729903, 43.77022749889869], [3.002006383699167, 43.77198333497774], [3.004911427668435, 43.773739171056796], [3.007816471637699, 43.77549500713585], [3.0107215156069658, 43.77725084321491], [3.0136265595762306, 43.77900667929396], [3.0165316035454963, 43.780762515373006], [3.019436647514761, 43.78251835145207], [3.0223416914840286, 43.784274187531125], [3.0252467354532926, 43.78603002361017], [3.028151779422559, 43.78778585968922], [3.028151779422559, 43.78778585968922], [3.029790196392662, 43.79054549572389], [3.0314286133627655, 43.79330513175856], [3.033067030332868, 43.796064767793226], [3.034705447302971, 43.79882440382789], [3.0363438642730736, 43.80158403986256], [3.037982281243178, 43.80434367589723], [3.03962069821328, 43.8071033119319], [3.0412591151833808, 43.80986294796656], [3.0428975321534852, 43.812622584001225], [3.044535949123588, 43.81538222003589], [3.044535949123588, 43.81538222003589], [3.0468927738691574, 43.814880777531776], [3.049249598614725, 43.81437933502767], [3.051606423360291, 43.81387789252354], [3.0539632481058585, 43.813376450019426], [3.056320072851426, 43.8128750075153], [3.0586768975969956, 43.812373565011185], [3.061033722342563, 43.81187212250706], [3.063390547088131, 43.81137068000294], [3.0657473718336985, 43.810869237498814], [3.068104196579266, 43.8103677949947], [3.068104196579266, 43.8103677949947], [3.0690061924123158, 43.80861290901711], [3.0699081882453627, 43.806858023039524], [3.070810184078413, 43.80510313706195], [3.071712179911462, 43.80334825108435], [3.0726141757445116, 43.801593365106775], [3.073516171577561, 43.799838479129185], [3.07441816741061, 43.7980835931516], [3.0753201632436578, 43.79632870717401], [3.0762221590767074, 43.79457382119642], [3.077124154909756, 43.79281893521884], [3.077124154909756, 43.79281893521884], [3.083290086023245, 43.792569431327024], [3.089456017136732, 43.792319927435216], [3.0956219482502196, 43.7920704235434], [3.1017878793637084, 43.79182091965159], [3.107953810477196, 43.79157141575976], [3.114119741590685, 43.79132191186795], [3.120285672704171, 43.79107240797614], [3.1264516038176597, 43.79082290408433], [3.1326175349311485, 43.79057340019251], [3.1387834660446363, 43.7903238963007], [3.1387834660446363, 43.7903238963007], [3.1438659488933562, 43.79233131847939], [3.1489484317420753, 43.79433874065809], [3.154030914590796, 43.796346162836784], [3.159113397439516, 43.798353585015484], [3.164195880288236, 43.800361007194184], [3.1692783631369568, 43.802368429372876], [3.1743608459856767, 43.80437585155157], [3.1794433288343957, 43.80638327373026], [3.1845258116831157, 43.80839069590896], [3.1896082945318347, 43.81039811808766], [3.1896082945318347, 43.81039811808766], [3.1934170785800107, 43.81052404303472], [3.197225862628184, 43.81064996798177], [3.201034646676358, 43.810775892928824], [3.2048434307245315, 43.81090181787587], [3.208652214772702, 43.81102774282294], [3.212460998820877, 43.811153667769986], [3.2162697828690514, 43.81127959271705], [3.220078566917223, 43.8114055176641], [3.223887350965399, 43.81153144261115], [3.227696135013572, 43.81165736755821], [3.227696135013572, 43.81165736755821], [3.2287857966591766, 43.81266071638496], [3.229875458304783, 43.81366406521173], [3.2309651199503873, 43.81466741403849], [3.2320547815959917, 43.81567076286526], [3.233144443241597, 43.816674111692016], [3.234234104887203, 43.81767746051879], [3.2353237665328076, 43.818680809345544], [3.236413428178412, 43.819684158172315], [3.2375030898240182, 43.82068750699907], [3.2385927514696218, 43.82169085582584], [3.2385927514696218, 43.82169085582584], [3.2369676986835, 43.82507673720202], [3.235342645897379, 43.82846261857821], [3.233717593111255, 43.83184849995439], [3.2320925403251333, 43.83523438133057], [3.2304674875390114, 43.83862026270675], [3.2288424347528877, 43.84200614408294], [3.2272173819667658, 43.84539202545911], [3.225592329180642, 43.848777906835295], [3.22396727639452, 43.852163788211485], [3.222342223608399, 43.85554966958767], [3.222342223608399, 43.85554966958767], [3.2232525249135056, 43.858057042047584], [3.2241628262186164, 43.860564414507515], [3.2250731275237254, 43.863071786967424], [3.2259834288288345, 43.865579159427355], [3.2268937301339435, 43.86808653188727], [3.227804031439051, 43.87059390434721], [3.2287143327441616, 43.87310127680712], [3.2296246340492707, 43.87560864926705], [3.2305349353543797, 43.878116021726974], [3.2314452366594906, 43.88062339418689], [3.2314452366594906, 43.88062339418689], [3.234711368135041, 43.881376243494486], [3.237977499610589, 43.88212909280206], [3.241243631086139, 43.88288194210964], [3.244509762561687, 43.88363479141722], [3.2477758940372374, 43.884387640724796], [3.251042025512787, 43.88514049003238], [3.2543081569883374, 43.885893339339965], [3.257574288463886, 43.88664618864754], [3.2608404199394347, 43.88739903795512], [3.2641065514149843, 43.8881518872627], [3.2641065514149843, 43.8881518872627], [3.268999752777438, 43.88652297175806], [3.2738929541398902, 43.88489405625344], [3.2787861555023405, 43.88326514074881], [3.2836793568647917, 43.88163622524417], [3.288572558227241, 43.88000730973955], [3.2934657595896932, 43.87837839423492], [3.2983589609521453, 43.87674947873028], [3.3032521623145974, 43.87512056322566], [3.3081453636770486, 43.873491647721025], [3.3130385650395007, 43.87186273221639], [3.3130385650395007, 43.87186273221639], [3.315943773113872, 43.873744581921216], [3.318848981188243, 43.87562643162603], [3.3217541892626126, 43.87750828133086], [3.324659397336984, 43.87939013103568], [3.327564605411356, 43.88127198074049], [3.330469813485727, 43.883153830445316], [3.3333750215600984, 43.885035680150146], [3.336280229634468, 43.88691752985496], [3.339185437708839, 43.88879937955978], [3.3420906457832094, 43.8906812292646], [3.3420906457832094, 43.8906812292646], [3.340826275191499, 43.89281313577306], [3.3395619045997855, 43.89494504228152], [3.3382975340080736, 43.89707694878998], [3.33703316341636, 43.89920885529844], [3.3357687928246498, 43.9013407618069], [3.334504422232936, 43.90347266831536], [3.333240051641224, 43.90560457482382], [3.3319756810495123, 43.90773648133228], [3.3307113104578003, 43.909868387840746], [3.3294469398660884, 43.912000294349205], [3.3294469398660884, 43.912000294349205], [3.331085787673683, 43.91576191350952], [3.332724635481275, 43.91952353266983], [3.3343634832888704, 43.92328515183014], [3.336002331096465, 43.92704677099046], [3.3376411789040588, 43.93080839015077], [3.3392800267116525, 43.93457000931108], [3.340918874519246, 43.938331628471396], [3.3425577223268417, 43.9420932476317], [3.3441965701344354, 43.94585486679202], [3.3458354179420273, 43.94961648595233], [3.3458354179420273, 43.94961648595233], [3.3518253507458113, 43.95187517728669], [3.357815283549592, 43.95413386862105], [3.363805216353374, 43.95639255995541], [3.369795149157158, 43.95865125128977], [3.3757850819609385, 43.96090994262414], [3.3817750147647225, 43.9631686339585], [3.3877649475685048, 43.96542732529286], [3.393754880372287, 43.96768601662722], [3.3997448131760692, 43.969944707961574], [3.4057347459798497, 43.972203399295935], [3.4057347459798497, 43.972203399295935], [3.40936876940031, 43.97621655906947], [3.4130027928207727, 43.98022971884301], [3.416636816241233, 43.98424287861655], [3.420270839661694, 43.98825603839009], [3.423904863082154, 43.992269198163626], [3.427538886502615, 43.99628235793717], [3.431172909923075, 44.00029551771071], [3.4348069333435354, 44.00430867748425], [3.4384409567639964, 44.00832183725779], [3.4420749801844566, 44.01233499703133], [3.4420749801844566, 44.01233499703133], [3.4417155062406652, 44.01421499281332], [3.4413560322968766, 44.01609498859533], [3.440996558353087, 44.017974984377325], [3.4406370844092966, 44.01985498015933], [3.440277610465507, 44.02173497594133], [3.439918136521714, 44.023614971723326], [3.4395586625779235, 44.025494967505324], [3.439199188634135, 44.027374963287336], [3.4388397146903453, 44.02925495906933], [3.438480240746554, 44.03113495485133], [3.438480240746554, 44.03113495485133], [3.435037462225877, 44.03251318964132], [3.431594683705202, 44.03389142443132], [3.428151905184522, 44.035269659221306], [3.424709126663847, 44.0366478940113], [3.421266348143171, 44.0380261288013], [3.417823569622495, 44.03940436359128], [3.4143807911018187, 44.04078259838128], [3.410938012581141, 44.042160833171266], [3.4074952340604647, 44.043539067961255], [3.4040524555397904, 44.04491730275125], [3.4040524555397904, 44.04491730275125], [3.3978882192073327, 44.046044909541784], [3.3917239828748795, 44.047172516332324], [3.385559746542422, 44.04830012312286], [3.3793955102099704, 44.04942772991339], [3.3732312738775128, 44.05055533670392], [3.3670670375450578, 44.05168294349446], [3.3609028012126045, 44.052810550284995], [3.354738564880147, 44.05393815707553], [3.3485743285476937, 44.05506576386606], [3.3424100922152378, 44.056193370656594], [3.3424100922152378, 44.056193370656594], [3.3416915182234495, 44.05932734170116], [3.3409729442316602, 44.06246131274574], [3.340254370239872, 44.0655952837903], [3.339535796248082, 44.06872925483487], [3.3388172222562935, 44.07186322587944], [3.3380986482645016, 44.074997196924016], [3.3373800742727115, 44.07813116796858], [3.336661500280925, 44.08126513901315], [3.335942926289135, 44.084399110057724], [3.3352243522973475, 44.08753308110229], [3.3352243522973475, 44.08753308110229], [3.334318355916548, 44.08803494037487], [3.3334123595357528, 44.08853679964744], [3.332506363154954, 44.08903865892002], [3.331600366774157, 44.08954051819259], [3.3306943703933594, 44.09004237746516], [3.3297883740125607, 44.09054423673774], [3.3288823776317638, 44.09104609601031], [3.327976381250967, 44.09154795528289], [3.327070384870169, 44.092049814555466], [3.326164388489373, 44.09255167382804], [3.326164388489373, 44.09255167382804], [3.3228948675573187, 44.09004267341644], [3.3196253466252625, 44.08753367300484], [3.3163558256932073, 44.08502467259325], [3.3130863047611556, 44.08251567218164], [3.3098167838291013, 44.08000667177004], [3.306547262897046, 44.07749767135846], [3.303277741964991, 44.07498867094685], [3.3000082210329365, 44.07247967053526], [3.2967387001008848, 44.06997067012366], [3.2934691791688286, 44.06746166971206], [3.2934691791688286, 44.06746166971206], [3.291657556186149, 44.067837234694295], [3.2898459332034693, 44.06821279967654], [3.288034310220788, 44.06858836465877], [3.286222687238108, 44.06896392964102], [3.2844110642554285, 44.06933949462326], [3.282599441272749, 44.06971505960549], [3.2807878182900683, 44.070090624587735], [3.278976195307387, 44.07046618956997], [3.277164572324707, 44.07084175455221], [3.2753529493420257, 44.071217319534455], [3.2753529493420257, 44.071217319534455], [3.275175689094438, 44.07385043416258], [3.2749984288468474, 44.07648354879072], [3.274821168599257, 44.079116663418844], [3.274643908351669, 44.08174977804698], [3.2744666481040796, 44.0843828926751], [3.274289387856489, 44.08701600730323], [3.2741121276089014, 44.08964912193135], [3.273934867361311, 44.092282236559484], [3.2737576071137204, 44.09491535118761], [3.273580346866131, 44.09754846581574], [3.273580346866131, 44.09754846581574], [3.2761205955641777, 44.09842720224705], [3.2786608442622245, 44.09930593867837], [3.2812010929602713, 44.10018467510968], [3.283741341658317, 44.10106341154099], [3.286281590356366, 44.10194214797231], [3.288821839054411, 44.10282088440363], [3.2913620877524576, 44.10369962083494], [3.2939023364505027, 44.10457835726625], [3.296442585148552, 44.10545709369756], [3.298982833846597, 44.10633583012889], [3.298982833846597, 44.10633583012889], [3.3027928281510497, 44.10708881516524], [3.3066028224555013, 44.107841800201605], [3.310412816759951, 44.10859478523797], [3.3142228110644054, 44.109347770274326], [3.3180328053688553, 44.11010075531069], [3.321842799673306, 44.11085374034705], [3.3256527939777585, 44.11160672538342], [3.3294627882822083, 44.112359710419774], [3.333272782586661, 44.11311269545613], [3.3370827768911124, 44.1138656804925], [3.3370827768911124, 44.1138656804925], [3.340179360548633, 44.12038689059591], [3.343275944206154, 44.12690810069932], [3.3463725278636747, 44.133429310802725], [3.3494691115211954, 44.13995052090613], [3.352565695178716, 44.146471731009555], [3.355662278836236, 44.15299294111296], [3.3587588624937568, 44.15951415121637], [3.3618554461512775, 44.166035361319786], [3.3649520298088, 44.17255657142319], [3.368048613466321, 44.1790777815266], [3.368048613466321, 44.1790777815266], [3.3660602127551456, 44.18233646477136], [3.364071812043973, 44.18559514801611], [3.3620834113328004, 44.188853831260865], [3.360095010621628, 44.19211251450562], [3.358106609910456, 44.19537119775037], [3.3561182091992836, 44.198629880995114], [3.354129808488111, 44.20188856423987], [3.3521414077769376, 44.205147247484625], [3.3501530070657632, 44.20840593072938], [3.3481646063545907, 44.21166461397413]]]}}]}