{
  "type": "FeatureCollection",
  "features": [
    {
      "type": "Feature",
      "properties": {
                "diocese": "Tridentin",
                "province": "Goritien",
                "date": 1751
            },
      "geometry": {
        "type": "MultiPolygon",
        "coordinates": [
          [
            [
              [
                11.384402098000066,
                46.79541060300005
              ],
              [
                11.403986907000046,
                46.74487959000004
              ],
              [
                11.379838647000042,
                46.72155162200005
              ],
              [
                11.388014829000042,
                46.705515939000065
              ],
              [
                11.437071925000055,
                46.67173416500003
              ],
              [
                11.530242378000025,
                46.66599307700005
              ],
              [
                11.551158194000038,
                46.640542278000055
              ],
              [
                11.515779567000038,
                46.547249985000064
              ],
              [
                11.478986745000043,
                46.51094847000007
              ],
              [
                11.438343512000074,
                46.497599113000035
              ],
              [
                11.435206139000059,
                46.47992580500005
              ],
              [
                11.568687074000024,
                46.38580070800003
              ],
              [
                11.674811073000058,
                46.39080099200004
              ],
              [
                11.721206972000061,
                46.349450467000054
              ],
              [
                11.768267558000048,
                46.31728517400006
              ],
              [
                11.752343016000054,
                46.27360201700003
              ],
              [
                11.623995963000027,
                46.266537182000036
              ],
              [
                11.609497500000032,
                46.24467972000008
              ],
              [
                11.496837309000057,
                46.18711845000007
              ],
              [
                11.393921987000056,
                46.16983830400005
              ],
              [
                11.29029362500006,
                46.130320433000065
              ],
              [
                11.18856670200006,
                46.03585677600006
              ],
              [
                11.176445036000075,
                46.00020545900003
              ],
              [
                11.248443001034708,
                45.92671273545239
              ],
              [
                11.238722197000072,
                45.85982478900007
              ],
              [
                11.190996108000036,
                45.81809709400005
              ],
              [
                11.175404317000073,
                45.73023434300006
              ],
              [
                11.11662059300005,
                45.70036840600005
              ],
              [
                11.061859183000024,
                45.71882434300005
              ],
              [
                11.011280937000038,
                45.71271729800003
              ],
              [
                10.996259578000036,
                45.69532183700005
              ],
              [
                10.926857098000028,
                45.70793740500005
              ],
              [
                11.010937502000047,
                45.772691192000025
              ],
              [
                11.020088172000044,
                45.79606172600006
              ],
              [
                11.002499872000044,
                45.83374884600005
              ],
              [
                10.954250887000057,
                45.83523924000008
              ],
              [
                10.891859958000055,
                45.81089113100006
              ],
              [
                10.840521137000053,
                45.832755227000064
              ],
              [
                10.730367537000063,
                45.70006049300008
              ],
              [
                10.666038889000049,
                45.724828401000025
              ],
              [
                10.662426157000027,
                45.75176819100005
              ],
              [
                10.624967832000038,
                45.73279225300007
              ],
              [
                10.561840096000026,
                45.72934139000006
              ],
              [
                10.567164122000065,
                45.75110480600006
              ],
              [
                10.531417091000037,
                45.79699247700006
              ],
              [
                10.447563683000055,
                45.821114769000076
              ],
              [
                10.507078687000046,
                45.91789631600005
              ],
              [
                10.482169851000037,
                45.94950242900006
              ],
              [
                10.489395315000024,
                45.972765707000065
              ],
              [
                10.443760807000046,
                45.99033886500007
              ],
              [
                10.457070872000031,
                46.016754164000076
              ],
              [
                10.486733302000061,
                46.028108866000025
              ],
              [
                10.479127551000033,
                46.05938824100008
              ],
              [
                10.544917300000066,
                46.109372042000075
              ],
              [
                10.563551390000043,
                46.16787066000006
              ],
              [
                10.543586293000033,
                46.19222674300005
              ],
              [
                10.578953037000076,
                46.25103177600005
              ],
              [
                10.56050909000004,
                46.284550059000026
              ],
              [
                10.576481167000054,
                46.30228673500005
              ],
              [
                10.560889377000024,
                46.32815883600006
              ],
              [
                10.514788482318135,
                46.33971280917504
              ],
              [
                10.613749349000045,
                46.387867448000065
              ],
              [
                10.63143272000002,
                46.40897948400004
              ],
              [
                10.61450992400006,
                46.41972905800003
              ],
              [
                10.618339637877472,
                46.45140054994773
              ],
              [
                10.680489816000033,
                46.450393021000025
              ],
              [
                10.842682462000027,
                46.55208934500007
              ],
              [
                10.98053670400003,
                46.58738330300008
              ],
              [
                11.083024203000036,
                46.62774709800004
              ],
              [
                11.112496489000023,
                46.66325279700004
              ],
              [
                11.164025454000068,
                46.66873321800006
              ],
              [
                11.168398761000049,
                46.689866779000056
              ],
              [
                11.132271442000047,
                46.73002383800008
              ],
              [
                11.142539207000027,
                46.773927693000076
              ],
              [
                11.23647023500007,
                46.82456156200004
              ],
              [
                11.207948668000029,
                46.85044581400007
              ],
              [
                11.219167151000022,
                46.856817410000076
              ],
              [
                11.219145699005564,
                46.857160113605495
              ],
              [
                11.346563485000047,
                46.831716748000076
              ],
              [
                11.384402098000066,
                46.79541060300005
              ]
            ]
          ]
        ]
      }
    }
  ]
}