{
    "type": "FeatureCollection",
    "name": "Oriolen",
    "features": [
        {
            "type": "Feature",
            "properties": {
                "diocese": "Oriolen",
                "province": "Valentin",
                "date": 1592
            },
            "geometry": {
                "type": "MultiPolygon",
                "coordinates": [
                    [
                        [
                            [
                                -2.422768456999965,
                                38.033672494
                            ],
                            [
                                -2.551192,
                                38.08413
                            ],
                            [
                                -2.60630174799994,
                                38.061542976000077
                            ],
                            [
                                -2.595752999999899,
                                38.053225
                            ],
                            [
                                -2.605270810999941,
                                37.998102324000101
                            ],
                            [
                                -2.648893076986131,
                                37.973311877008442
                            ],
                            [
                                -2.81623878468752,
                                37.986192017635659
                            ],
                            [
                                -2.816260541999959,
                                37.986466433000047
                            ],
                            [
                                -2.894694851999903,
                                38.011564190000094
                            ],
                            [
                                -2.899915382999933,
                                38.058039673000067
                            ],
                            [
                                -2.840002217999909,
                                38.10487581600011
                            ],
                            [
                                -2.820274420999958,
                                38.156641824000104
                            ],
                            [
                                -2.795577024999917,
                                38.174165238000036
                            ],
                            [
                                -2.798287714999915,
                                38.202335948000098
                            ],
                            [
                                -2.7622931672902,
                                38.234847141591665
                            ],
                            [
                                -2.482425288022299,
                                38.408264093392084
                            ],
                            [
                                -2.280991718867652,
                                38.438988272965496
                            ],
                            [
                                -2.049253984441959,
                                38.430610247423829
                            ],
                            [
                                -1.963392182840693,
                                38.462488098788668
                            ],
                            [
                                -1.968145777393,
                                38.503419999771076
                            ],
                            [
                                -2.025188912020822,
                                38.562915805058651
                            ],
                            [
                                -2.174927140418988,
                                38.657635518398848
                            ],
                            [
                                -2.220086288666025,
                                38.696601398775748
                            ],
                            [
                                -2.239100666875288,
                                38.74296168798255
                            ],
                            [
                                -2.163043154038203,
                                38.831889115389039
                            ],
                            [
                                -2.070348060267925,
                                38.907760094668191
                            ],
                            [
                                -2.056087276610937,
                                38.965072182069804
                            ],
                            [
                                -2.084931634999957,
                                39.198180142000133
                            ],
                            [
                                -2.050887,
                                39.266705000000123
                            ],
                            [
                                -1.989724912999966,
                                39.293707648000101
                            ],
                            [
                                -1.886909999999877,
                                39.304971
                            ],
                            [
                                -1.769782399999907,
                                39.280536
                            ],
                            [
                                -1.739211,
                                39.321188
                            ],
                            [
                                -1.505107,
                                39.418023
                            ],
                            [
                                -1.496581,
                                39.429347
                            ],
                            [
                                -1.521652,
                                39.432705000000105
                            ],
                            [
                                -1.528665558999917,
                                39.454996127000129
                            ],
                            [
                                -1.513323,
                                39.458295
                            ],
                            [
                                -1.512386,
                                39.496296
                            ],
                            [
                                -1.499085,
                                39.500476
                            ],
                            [
                                -1.502535,
                                39.545642
                            ],
                            [
                                -1.51775,
                                39.551423
                            ],
                            [
                                -1.202545645999935,
                                39.514736286000065
                            ],
                            [
                                -1.140748916999914,
                                39.472550541000032
                            ],
                            [
                                -1.085409764999958,
                                39.475635506000138
                            ],
                            [
                                -1.065444666999914,
                                39.431590262000022
                            ],
                            [
                                -1.069009862999957,
                                39.359406015000033
                            ],
                            [
                                -1.212330738999892,
                                39.271692762000065
                            ],
                            [
                                -1.218748091999921,
                                39.241326106000017
                            ],
                            [
                                -1.138174663999914,
                                39.150700196000102
                            ],
                            [
                                -1.111079174999915,
                                39.096489908000073
                            ],
                            [
                                -1.094679273999944,
                                39.007339607000041
                            ],
                            [
                                -1.050470844999918,
                                38.964108319000033
                            ],
                            [
                                -1.041201334999902,
                                38.921405387000092
                            ],
                            [
                                -0.951358397999976,
                                38.839810204000045
                            ],
                            [
                                -0.912141242999937,
                                38.730314693000089
                            ],
                            [
                                -0.841550363999902,
                                38.70750515200011
                            ],
                            [
                                -0.76454213199997,
                                38.611179871000054
                            ],
                            [
                                -0.770959484999933,
                                38.499659776000051
                            ],
                            [
                                -0.733168407999906,
                                38.517514616000057
                            ],
                            [
                                -0.505708908999918,
                                38.521977634000052
                            ],
                            [
                                -0.455796165999985,
                                38.549307582000075
                            ],
                            [
                                -0.412300775999949,
                                38.598921130000086
                            ],
                            [
                                -0.308910093999941,
                                38.56993760000011
                            ],
                            [
                                -0.23472345599988,
                                38.501464776000084
                            ],
                            [
                                -0.237541,
                                38.499403
                            ],
                            [
                                -0.26633,
                                38.494222
                            ],
                            [
                                -0.281312767999939,
                                38.487801675000135
                            ],
                            [
                                -0.287689,
                                38.487791
                            ],
                            [
                                -0.380961,
                                38.437252
                            ],
                            [
                                -0.405086,
                                38.401091000000115
                            ],
                            [
                                -0.402705,
                                38.352905000000106
                            ],
                            [
                                -0.444516294999961,
                                38.362913590000062
                            ],
                            [
                                -0.504625,
                                38.333673
                            ],
                            [
                                -0.519908,
                                38.297763
                            ],
                            [
                                -0.509891,
                                38.202048
                            ],
                            [
                                -0.591917,
                                38.189064
                            ],
                            [
                                -0.631921,
                                38.146762
                            ],
                            [
                                -0.648316,
                                37.9999
                            ],
                            [
                                -0.664582744999966,
                                37.977313849000062
                            ],
                            [
                                -0.696812,
                                37.970231
                            ],
                            [
                                -0.719911,
                                37.9111
                            ],
                            [
                                -0.750437,
                                37.898099000000137
                            ],
                            [
                                -0.755223577037301,
                                37.877217250842818
                            ],
                            [
                                -0.76047147104446,
                                37.94113589230161
                            ],
                            [
                                -0.936028324187762,
                                38.094499884806808
                            ],
                            [
                                -0.958927044162976,
                                38.175550107981408
                            ],
                            [
                                -0.905496697554145,
                                38.223537384044199
                            ],
                            [
                                -0.878781524249729,
                                38.337380361695985
                            ],
                            [
                                -0.989458670796593,
                                38.385260825147569
                            ],
                            [
                                -1.019990297430211,
                                38.474951308541826
                            ],
                            [
                                -0.934450447957724,
                                38.534999255160457
                            ],
                            [
                                -0.926180671379477,
                                38.593195331899544
                            ],
                            [
                                -0.942720224535972,
                                38.70299262711454
                            ],
                            [
                                -1.02955287860757,
                                38.74815436063416
                            ],
                            [
                                -1.058497096631436,
                                38.796510250231485
                            ],
                            [
                                -1.170139080437777,
                                38.790064692348416
                            ],
                            [
                                -1.285915952533242,
                                38.725577062000994
                            ],
                            [
                                -1.318995058846232,
                                38.764276632687938
                            ],
                            [
                                -1.393423048050459,
                                38.715898892232119
                            ],
                            [
                                -1.40582771291783,
                                38.635196517504383
                            ],
                            [
                                -1.443727917076248,
                                38.610926420898032
                            ],
                            [
                                -1.436980978772307,
                                38.425109752371242
                            ],
                            [
                                -1.54628137929615,
                                38.348955656599472
                            ],
                            [
                                -1.649977059253442,
                                38.349810813765203
                            ],
                            [
                                -1.681220145374968,
                                38.403963880826709
                            ],
                            [
                                -1.736752209390689,
                                38.422080285917119
                            ],
                            [
                                -1.872338381480137,
                                38.337049882318858
                            ],
                            [
                                -1.991654212918851,
                                38.320031810285144
                            ],
                            [
                                -2.067582469288943,
                                38.34555741973675
                            ],
                            [
                                -2.110970044357566,
                                38.27746914983517
                            ],
                            [
                                -2.214015535145547,
                                38.247660432892893
                            ],
                            [
                                -2.28452034463206,
                                38.15816091590245
                            ],
                            [
                                -2.371295494769307,
                                38.068551414469141
                            ],
                            [
                                -2.342392371137755,
                                38.026120217808717
                            ],
                            [
                                -2.422768456999965,
                                38.033672494
                            ]
                        ]
                    ]
                ]
            }
        }
    ]
}