{
    "type": "FeatureCollection",
    "name": "Valentin",
    "features": [
        {
            "type": "Feature",
            "properties": {
                "diocese": "Valentin",
                "province": "Valentin",
                "date": 1592
            },
            "geometry": {
                "type": "MultiPolygon",
                "coordinates": [
                    [
                        [
                            [
                                -0.243489434999958,
                                39.621263729000077
                            ],
                            [
                                -0.317028181999945,
                                39.506221818000029
                            ],
                            [
                                -0.328805454999952,
                                39.427223636000065
                            ],
                            [
                                -0.311694545999956,
                                39.3615
                            ],
                            [
                                -0.214028181999936,
                                39.186584545000073
                            ],
                            [
                                -0.237110908999966,
                                39.16980727300006
                            ],
                            [
                                -0.186916363999956,
                                39.05263909100006
                            ],
                            [
                                -0.136944545999938,
                                38.975277273000074
                            ],
                            [
                                -0.055028181999944,
                                38.901443636000067
                            ],
                            [
                                0.00938909100006,
                                38.864055454000038
                            ],
                            [
                                0.152833636000025,
                                38.831527273000063
                            ],
                            [
                                0.194083636000073,
                                38.805027273000064
                            ],
                            [
                                0.180610909000052,
                                38.79522363600006
                            ],
                            [
                                0.18816636300005,
                                38.776279091000049
                            ],
                            [
                                0.232471818000022,
                                38.737582727000074
                            ],
                            [
                                0.169055454000045,
                                38.709556364000036
                            ],
                            [
                                0.15288909100002,
                                38.678722727000036
                            ],
                            [
                                0.137083636000057,
                                38.686584545000073
                            ],
                            [
                                0.078528182000071,
                                38.652
                            ],
                            [
                                0.080721818000029,
                                38.629055454000024
                            ],
                            [
                                0.053360909000048,
                                38.639637273000062
                            ],
                            [
                                -0.022555454999974,
                                38.617027273000076
                            ],
                            [
                                -0.06002818199994,
                                38.581973636000043
                            ],
                            [
                                -0.055916363999927,
                                38.553249091000055
                            ],
                            [
                                -0.092555454999967,
                                38.524833636000039
                            ],
                            [
                                -0.145055454999977,
                                38.53286
                            ],
                            [
                                -0.233944545999975,
                                38.497276364000072
                            ],
                            [
                                -0.308910093999941,
                                38.56993760000006
                            ],
                            [
                                -0.412300775999938,
                                38.598921130000065
                            ],
                            [
                                -0.455796165999971,
                                38.54930758200004
                            ],
                            [
                                -0.505708908999964,
                                38.521977634000052
                            ],
                            [
                                -0.733168407999926,
                                38.517514616000028
                            ],
                            [
                                -0.770959484999935,
                                38.499659776000044
                            ],
                            [
                                -0.764542131999974,
                                38.611179871000047
                            ],
                            [
                                -0.841550363999943,
                                38.707505152000067
                            ],
                            [
                                -0.912141242999951,
                                38.730314693000025
                            ],
                            [
                                -0.951358397999968,
                                38.839810204000059
                            ],
                            [
                                -1.041201334999926,
                                38.92140538700005
                            ],
                            [
                                -1.05047084499995,
                                38.964108319000047
                            ],
                            [
                                -1.09467927399993,
                                39.007339607000063
                            ],
                            [
                                -1.111079174999929,
                                39.096489908000081
                            ],
                            [
                                -1.138174663999962,
                                39.150700196000059
                            ],
                            [
                                -1.218748091999942,
                                39.241326106000031
                            ],
                            [
                                -1.212330738999924,
                                39.271692762000043
                            ],
                            [
                                -1.069009862999962,
                                39.359406015000047
                            ],
                            [
                                -1.065444666999952,
                                39.431590262000043
                            ],
                            [
                                -1.118922605999956,
                                39.548249225000063
                            ],
                            [
                                -1.146018094999931,
                                39.569139103000055
                            ],
                            [
                                -1.036923099999967,
                                39.619139288000042
                            ],
                            [
                                -0.951358397999968,
                                39.62243473500007
                            ],
                            [
                                -0.900019576999966,
                                39.646596553000052
                            ],
                            [
                                -0.934958496999968,
                                39.686115867000069
                            ],
                            [
                                -1.05902731499998,
                                39.744804196000075
                            ],
                            [
                                -1.10822701799998,
                                39.884467523000069
                            ],
                            [
                                -1.179530936999925,
                                39.909084527000061
                            ],
                            [
                                -1.206776,
                                39.940224
                            ],
                            [
                                -1.195973877662282,
                                39.999036875687118
                            ],
                            [
                                -1.195930837999924,
                                39.999271208000039
                            ],
                            [
                                -1.121418243499932,
                                40.019475570500049
                            ],
                            [
                                -1.046905648999939,
                                40.039679933000059
                            ],
                            [
                                -1.015175404999951,
                                40.029579247500067
                            ],
                            [
                                -0.983445160999963,
                                40.019478562000074
                            ],
                            [
                                -0.934245457999964,
                                39.855462823000039
                            ],
                            [
                                -0.859376343999941,
                                39.859294336000062
                            ],
                            [
                                -0.809330817139656,
                                39.875299079460149
                            ],
                            [
                                -0.808947218188461,
                                39.874194779449134
                            ],
                            [
                                -0.683146705790448,
                                39.787182758373845
                            ],
                            [
                                -0.643309876864411,
                                39.823874574489935
                            ],
                            [
                                -0.595086347111839,
                                39.801859484820277
                            ],
                            [
                                -0.595086347111839,
                                39.721137489364885
                            ],
                            [
                                -0.54581447975595,
                                39.716944138951618
                            ],
                            [
                                -0.492349261986795,
                                39.737910891017954
                            ],
                            [
                                -0.382188745542009,
                                39.690105383881537
                            ],
                            [
                                -0.38239277637986,
                                39.685018159886816
                            ],
                            [
                                -0.386336695091921,
                                39.669242485038588
                            ],
                            [
                                -0.383069166818139,
                                39.668153308947325
                            ],
                            [
                                -0.383095878999939,
                                39.667487278000067
                            ],
                            [
                                -0.243489434999958,
                                39.621263729000077
                            ]
                        ]
                    ]
                ]
            }
        }
    ]
}