{"type": "FeatureCollection", "features": [{"type": "Feature", "properties": {"diocese": "Rennes", "province": "XVII_Tours", "source": "121_Rennes.txt"}, "geometry": {"type": "Polygon", "coordinates": [[[-1.5464488358534905, 48.508019632497266], [-1.5543637454098425, 48.506652455355706], [-1.5622786549661944, 48.50528527821414], [-1.5701935645225467, 48.50391810107257], [-1.5781084740788986, 48.502550923931004], [-1.5860233836352502, 48.50118374678944], [-1.593938293191603, 48.49981656964787], [-1.6018532027479542, 48.49844939250631], [-1.6097681123043066, 48.49708221536474], [-1.6176830218606586, 48.495715038223175], [-1.6255979314170106, 48.494347861081614], [-1.6255979314170106, 48.494347861081614], [-1.628936635543047, 48.492041788720236], [-1.632275339669085, 48.48973571635887], [-1.6356140437951212, 48.487429643997494], [-1.6389527479211583, 48.48512357163613], [-1.6422914520471956, 48.48281749927476], [-1.6456301561732318, 48.48051142691339], [-1.64896886029927, 48.47820535455202], [-1.6523075644253062, 48.475899282190646], [-1.6556462685513433, 48.473593209829275], [-1.6589849726773804, 48.47128713746791], [-1.6589849726773804, 48.47128713746791], [-1.6598859022699244, 48.469602312270744], [-1.6607868318624681, 48.467917487073585], [-1.661687761455013, 48.46623266187642], [-1.662588691047557, 48.46454783667926], [-1.6634896206401009, 48.4628630114821], [-1.6643905502326455, 48.46117818628494], [-1.6652914798251892, 48.45949336108778], [-1.666192409417734, 48.45780853589062], [-1.6670933390102787, 48.45612371069346], [-1.6679942686028228, 48.454438885496295], [-1.6679942686028228, 48.454438885496295], [-1.6672327029609428, 48.45036057259435], [-1.666471137319062, 48.4462822596924], [-1.6657095716771813, 48.44220394679046], [-1.6649480060353004, 48.438125633888504], [-1.6641864403934203, 48.43404732098656], [-1.6634248747515394, 48.429969008084605], [-1.6626633091096588, 48.42589069518265], [-1.6619017434677787, 48.42181238228071], [-1.6611401778258972, 48.41773406937875], [-1.6603786121840172, 48.413655756476814], [-1.6603786121840172, 48.413655756476814], [-1.6604363160493045, 48.41017438161394], [-1.6604940199145901, 48.40669300675108], [-1.6605517237798773, 48.40321163188821], [-1.6606094276451646, 48.39973025702534], [-1.6606671315104518, 48.39624888216248], [-1.6607248353757393, 48.39276750729962], [-1.6607825392410256, 48.38928613243676], [-1.660840243106312, 48.38580475757388], [-1.6608979469715983, 48.382323382711014], [-1.6609556508368857, 48.37884200784816], [-1.6609556508368857, 48.37884200784816], [-1.6619366983326809, 48.37567445750186], [-1.6629177458284778, 48.37250690715557], [-1.6638987933242728, 48.36933935680928], [-1.6648798408200691, 48.36617180646298], [-1.6658608883158652, 48.36300425611669], [-1.6668419358116613, 48.35983670577039], [-1.6678229833074583, 48.3566691554241], [-1.6688040308032535, 48.3535016050778], [-1.6697850782990495, 48.35033405473151], [-1.6707661257948454, 48.34716650438522], [-1.6707661257948454, 48.34716650438522], [-1.6726931535312202, 48.34539275964597], [-1.674620181267596, 48.34361901490672], [-1.6765472090039708, 48.34184527016747], [-1.6784742367403467, 48.340071525428215], [-1.6804012644767212, 48.338297780688976], [-1.682328292213097, 48.33652403594972], [-1.6842553199494719, 48.334750291210476], [-1.6861823476858486, 48.33297654647122], [-1.6881093754222223, 48.33120280173198], [-1.6900364031585982, 48.32942905699274], [-1.6900364031585982, 48.32942905699274], [-1.6946557969096396, 48.328009294193095], [-1.6992751906606807, 48.326589531393466], [-1.703894584411721, 48.325169768593824], [-1.7085139781627623, 48.323750005794196], [-1.7131333719138027, 48.32233024299456], [-1.717752765664844, 48.320910480194925], [-1.7223721594158852, 48.31949071739529], [-1.7269915531669255, 48.318070954595655], [-1.7316109469179677, 48.316651191796026], [-1.736230340669008, 48.315231428996384], [-1.736230340669008, 48.315231428996384], [-1.742768880054452, 48.31531846067452], [-1.749307419439897, 48.31540549235265], [-1.7558459588253403, 48.31549252403079], [-1.7623844982107835, 48.315579555708915], [-1.7689230375962277, 48.31566658738705], [-1.7754615769816715, 48.31575361906518], [-1.7820001163671157, 48.31584065074332], [-1.78853865575256, 48.31592768242144], [-1.795077195138004, 48.31601471409958], [-1.8016157345234483, 48.31610174577771], [-1.8016157345234483, 48.31610174577771], [-1.8032890264029195, 48.31290945439832], [-1.8049623182823928, 48.309717163018924], [-1.8066356101618652, 48.30652487163953], [-1.8083089020413379, 48.30333258026014], [-1.8099821939208098, 48.30014028888076], [-1.8116554858002825, 48.29694799750137], [-1.8133287776797558, 48.293755706121985], [-1.815002069559227, 48.29056341474259], [-1.8166753614387006, 48.2873711233632], [-1.818348653318173, 48.28417883198381], [-1.818348653318173, 48.28417883198381], [-1.8204023818082333, 48.28320302680558], [-1.822456110298294, 48.282227221627345], [-1.8245098387883543, 48.28125141644912], [-1.8265635672784155, 48.28027561127089], [-1.828617295768476, 48.27929980609266], [-1.8306710242585362, 48.278324000914424], [-1.8327247527485968, 48.277348195736195], [-1.834778481238657, 48.27637239055797], [-1.8368322097287175, 48.27539658537974], [-1.8388859382187788, 48.2744207802015], [-1.8388859382187788, 48.2744207802015], [-1.8392744176658407, 48.272470097969304], [-1.839662897112903, 48.27051941573711], [-1.8400513765599642, 48.268568733504914], [-1.8404398560070268, 48.26661805127272], [-1.8408283354540884, 48.264667369040524], [-1.8412168149011507, 48.262716686808325], [-1.8416052943482133, 48.26076600457613], [-1.8419937737952756, 48.25881532234394], [-1.8423822532423373, 48.25686464011173], [-1.8427707326893998, 48.25491395787954], [-1.8427707326893998, 48.25491395787954], [-1.8403379365770283, 48.25296397426784], [-1.8379051404646558, 48.25101399065615], [-1.8354723443522842, 48.24906400704445], [-1.8330395482399116, 48.247114023432765], [-1.83060675212754, 48.24516403982107], [-1.8281739560151686, 48.243214056209375], [-1.8257411599027964, 48.24126407259768], [-1.823308363790424, 48.239314088985985], [-1.8208755676780524, 48.23736410537429], [-1.81844277156568, 48.23541412176259], [-1.81844277156568, 48.23541412176259], [-1.8196018941509537, 48.23284260295343], [-1.8207610167362265, 48.23027108414427], [-1.8219201393215012, 48.227699565335115], [-1.8230792619067742, 48.22512804652596], [-1.8242383844920473, 48.22255652771679], [-1.825397507077321, 48.219985008907635], [-1.826556629662594, 48.21741349009848], [-1.8277157522478678, 48.214841971289324], [-1.8288748748331405, 48.21227045248016], [-1.8300339974184143, 48.209698933671], [-1.8300339974184143, 48.209698933671], [-1.834920653747783, 48.20269332778243], [-1.8398073100771513, 48.19568772189386], [-1.8446939664065207, 48.18868211600529], [-1.849580622735889, 48.18167651011672], [-1.8544672790652572, 48.174670904228144], [-1.8593539353946262, 48.16766529833958], [-1.8642405917239953, 48.16065969245102], [-1.8691272480533634, 48.15365408656245], [-1.8740139043827324, 48.14664848067388], [-1.8789005607121012, 48.1396428747853], [-1.8789005607121012, 48.1396428747853], [-1.8827541028102897, 48.1363613758286], [-1.8866076449084779, 48.133079876871896], [-1.8904611870066659, 48.12979837791518], [-1.894314729104854, 48.12651687895848], [-1.898168271203043, 48.123235380001766], [-1.902021813301231, 48.11995388104507], [-1.9058753553994194, 48.11667238208836], [-1.9097288974976072, 48.11339088313166], [-1.9135824395957959, 48.11010938417495], [-1.9174359816939845, 48.10682788521824], [-1.9174359816939845, 48.10682788521824], [-1.9191075544141833, 48.10452222891346], [-1.920779127134383, 48.102216572608675], [-1.9224506998545825, 48.0999109163039], [-1.924122272574782, 48.09760525999912], [-1.9257938452949814, 48.095299603694336], [-1.9274654180151813, 48.09299394738956], [-1.9291369907353808, 48.090688291084774], [-1.9308085634555805, 48.08838263477999], [-1.9324801361757804, 48.08607697847521], [-1.9341517088959799, 48.08377132217043], [-1.9341517088959799, 48.08377132217043], [-1.9330013136465967, 48.081821018517175], [-1.931850918397214, 48.07987071486393], [-1.9307005231478307, 48.07792041121067], [-1.9295501278984475, 48.075970107557424], [-1.9283997326490647, 48.07401980390417], [-1.9272493373996815, 48.072069500250926], [-1.9260989421502992, 48.07011919659767], [-1.924948546900916, 48.06816889294443], [-1.9237981516515328, 48.066218589291175], [-1.9226477564021502, 48.06426828563792], [-1.9226477564021502, 48.06426828563792], [-1.9198295452475131, 48.062673052070316], [-1.9170113340928772, 48.06107781850271], [-1.9141931229382403, 48.0594825849351], [-1.9113749117836039, 48.0578873513675], [-1.9085567006289665, 48.056292117799885], [-1.90573848947433, 48.05469688423228], [-1.9029202783196932, 48.05310165066467], [-1.9001020671650564, 48.05150641709706], [-1.8972838560104204, 48.04991118352945], [-1.8944656448557833, 48.04831594996184], [-1.8944656448557833, 48.04831594996184], [-1.8898505292049823, 48.04751913601857], [-1.8852354135541813, 48.04672232207531], [-1.8806202979033808, 48.04592550813204], [-1.8760051822525794, 48.045128694188776], [-1.871390066601779, 48.0443318802455], [-1.866774950950978, 48.04353506630224], [-1.8621598353001771, 48.04273825235897], [-1.8575447196493762, 48.041941438415705], [-1.8529296039985752, 48.04114462447244], [-1.8483144883477742, 48.04034781052917], [-1.8483144883477742, 48.04034781052917], [-1.8466504450894865, 48.038752288922375], [-1.8449864018311986, 48.037156767315594], [-1.8433223585729117, 48.035561245708806], [-1.8416583153146235, 48.033965724102025], [-1.8399942720563356, 48.032370202495244], [-1.838330228798048, 48.03077468088845], [-1.83666618553976, 48.02917915928167], [-1.835002142281473, 48.02758363767488], [-1.8333380990231842, 48.0259881160681], [-1.8316740557648972, 48.02439259446132], [-1.8316740557648972, 48.02439259446132], [-1.82834271788665, 48.02288615241641], [-1.8250113800084031, 48.021379710371505], [-1.821680042130156, 48.0198732683266], [-1.8183487042519089, 48.01836682628169], [-1.8150173663736617, 48.01686038423679], [-1.8116860284954144, 48.01535394219189], [-1.8083546906171675, 48.01384750014697], [-1.8050233527389203, 48.012341058102066], [-1.8016920148606732, 48.01083461605716], [-1.7983606769824263, 48.00932817401225], [-1.7983606769824263, 48.00932817401225], [-1.7973415953471263, 48.00658093839736], [-1.7963225137118273, 48.003833702782465], [-1.7953034320765273, 48.00108646716757], [-1.7942843504412274, 47.99833923155267], [-1.7932652688059283, 47.99559199593778], [-1.7922461871706283, 47.992844760322875], [-1.7912271055353282, 47.99009752470799], [-1.7902080239000293, 47.987350289093094], [-1.7891889422647291, 47.984603053478196], [-1.7881698606294303, 47.9818558178633], [-1.7881698606294303, 47.9818558178633], [-1.7850972291184741, 47.979196691684606], [-1.782024597607518, 47.97653756550591], [-1.7789519660965627, 47.97387843932721], [-1.7758793345856074, 47.971219313148524], [-1.7728067030746513, 47.968560186969825], [-1.769734071563695, 47.96590106079113], [-1.766661440052739, 47.963241934612434], [-1.7635888085417835, 47.96058280843374], [-1.7605161770308273, 47.95792368225504], [-1.757443545519872, 47.95526455607636], [-1.757443545519872, 47.95526455607636], [-1.7570617319997193, 47.953757377935275], [-1.756679918479566, 47.9522501997942], [-1.7562981049594133, 47.95074302165312], [-1.7559162914392603, 47.949235843512035], [-1.7555344779191073, 47.94772866537097], [-1.7551526643989555, 47.946221487229884], [-1.7547708508788025, 47.94471430908881], [-1.7543890373586495, 47.94320713094773], [-1.7540072238384967, 47.941699952806644], [-1.7536254103183444, 47.94019277466557], [-1.7536254103183444, 47.94019277466557], [-1.7555526091795732, 47.93833036641906], [-1.7574798080408027, 47.93646795817255], [-1.7594070069020324, 47.93460554992603], [-1.7613342057632615, 47.93274314167952], [-1.763261404624491, 47.93088073343301], [-1.7651886034857207, 47.9290183251865], [-1.7671158023469493, 47.92715591693999], [-1.7690430012081784, 47.92529350869348], [-1.770970200069409, 47.92343110044696], [-1.7728973989306376, 47.92156869220045], [-1.7728973989306376, 47.92156869220045], [-1.7727741206529226, 47.918997493432855], [-1.7726508423752065, 47.91642629466525], [-1.7725275640974905, 47.913855095897645], [-1.7724042858197755, 47.91128389713005], [-1.7722810075420594, 47.908712698362436], [-1.7721577292643447, 47.90614149959483], [-1.7720344509866286, 47.90357030082723], [-1.7719111727089125, 47.90099910205963], [-1.7717878944311976, 47.898427903292024], [-1.7716646161534815, 47.89585670452443], [-1.7716646161534815, 47.89585670452443], [-1.7738505213820022, 47.892841612144124], [-1.7760364266105226, 47.88982651976382], [-1.7782223318390442, 47.88681142738353], [-1.7804082370675647, 47.88379633500322], [-1.7825941422960854, 47.88078124262292], [-1.7847800475246058, 47.87776615024262], [-1.7869659527531268, 47.87475105786232], [-1.7891518579816472, 47.87173596548201], [-1.791337763210168, 47.86872087310172], [-1.7935236684386884, 47.86570578072141], [-1.7935236684386884, 47.86570578072141], [-1.7931461330187757, 47.861982025837435], [-1.7927685975988632, 47.858258270953456], [-1.7923910621789505, 47.85453451606948], [-1.7920135267590378, 47.8508107611855], [-1.7916359913391244, 47.847087006301514], [-1.7912584559192115, 47.84336325141754], [-1.790880920499299, 47.83963949653356], [-1.7905033850793866, 47.83591574164957], [-1.7901258496594736, 47.832191986765594], [-1.789748314239561, 47.82846823188162], [-1.789748314239561, 47.82846823188162], [-1.7915464141300845, 47.82625120199538], [-1.7933445140206061, 47.82403417210915], [-1.7951426139111295, 47.82181714222291], [-1.796940713801652, 47.81960011233667], [-1.7987388136921736, 47.817383082450434], [-1.800536913582696, 47.8151660525642], [-1.8023350134732194, 47.81294902267796], [-1.804133113363742, 47.81073199279173], [-1.8059312132542646, 47.8085149629055], [-1.8077293131447871, 47.80629793301926], [-1.8077293131447871, 47.80629793301926], [-1.8118354011366318, 47.80505562525156], [-1.815941489128476, 47.803813317483865], [-1.8200475771203197, 47.80257100971617], [-1.8241536651121646, 47.80132870194847], [-1.8282597531040095, 47.800086394180774], [-1.8323658410958543, 47.79884408641309], [-1.836471929087698, 47.797601778645394], [-1.840578017079542, 47.7963594708777], [-1.844684105071387, 47.79511716310999], [-1.8487901930632318, 47.793874855342295], [-1.8487901930632318, 47.793874855342295], [-1.8496904460670913, 47.79254468417222], [-1.8505906990709518, 47.79121451300214], [-1.8514909520748113, 47.789884341832064], [-1.8523912050786715, 47.78855417066198], [-1.853291458082531, 47.7872239994919], [-1.8541917110863912, 47.78589382832182], [-1.8550919640902517, 47.784563657151736], [-1.8559922170941123, 47.783233485981654], [-1.8568924700979716, 47.78190331481157], [-1.857792723101832, 47.78057314364149], [-1.857792723101832, 47.78057314364149], [-1.857270877394386, 47.77876903171419], [-1.85674903168694, 47.776964919786884], [-1.8562271859794939, 47.775160807859585], [-1.855705340272048, 47.77335669593227], [-1.855183494564602, 47.77155258400497], [-1.854661648857156, 47.769748472077666], [-1.8541398031497098, 47.76794436015037], [-1.8536179574422638, 47.76614024822307], [-1.8530961117348188, 47.76433613629576], [-1.8525742660273719, 47.762532024368454], [-1.8525742660273719, 47.762532024368454], [-1.8467728247529045, 47.76159236293329], [-1.8409713834784371, 47.760652701498124], [-1.8351699422039696, 47.75971304006296], [-1.8293685009295024, 47.758773378627794], [-1.8235670596550357, 47.757833717192625], [-1.8177656183805673, 47.75689405575746], [-1.8119641771061008, 47.7559543943223], [-1.8061627358316334, 47.75501473288713], [-1.8003612945571659, 47.754075071451965], [-1.7945598532826985, 47.7531354100168], [-1.7945598532826985, 47.7531354100168], [-1.7851290146707406, 47.75301278373843], [-1.775698176058782, 47.75289015746004], [-1.7662673374468234, 47.752767531181654], [-1.7568364988348655, 47.75264490490328], [-1.7474056602229069, 47.752522278624895], [-1.7379748216109498, 47.75239965234652], [-1.7285439829989904, 47.752277026068136], [-1.7191131443870324, 47.75215439978975], [-1.7096823057750747, 47.75203177351137], [-1.700251467163116, 47.75190914723299], [-1.700251467163116, 47.75190914723299], [-1.6934490080190532, 47.75247487053255], [-1.6866465488749902, 47.753040593832104], [-1.6798440897309272, 47.753606317131656], [-1.6730416305868654, 47.75417204043122], [-1.6662391714428015, 47.75473776373078], [-1.6594367122987377, 47.75530348703034], [-1.6526342531546756, 47.7558692103299], [-1.6458317940106129, 47.75643493362946], [-1.6390293348665501, 47.75700065692901], [-1.632226875722486, 47.75756638022857], [-1.632226875722486, 47.75756638022857], [-1.62260934149279, 47.76051495506407], [-1.6129918072630947, 47.76346352989956], [-1.6033742730333982, 47.76641210473506], [-1.5937567388037028, 47.76936067957055], [-1.5841392045740057, 47.77230925440605], [-1.5745216703443097, 47.775257829241546], [-1.564904136114614, 47.77820640407704], [-1.555286601884917, 47.78115497891254], [-1.5456690676552218, 47.78410355374803], [-1.5360515334255245, 47.78705212858353], [-1.5360515334255245, 47.78705212858353], [-1.533510204072595, 47.78849487452469], [-1.5309688747196646, 47.78993762046584], [-1.528427545366733, 47.791380366407], [-1.5258862160138027, 47.792823112348145], [-1.523344886660872, 47.79426585828931], [-1.5208035573079417, 47.79570860423046], [-1.5182622279550102, 47.79715135017162], [-1.5157208986020798, 47.798594096112765], [-1.51317956924915, 47.80003684205393], [-1.510638239896218, 47.80147958799508], [-1.510638239896218, 47.80147958799508], [-1.509090697488953, 47.804364197638336], [-1.5075431550816871, 47.807248807281596], [-1.5059956126744214, 47.81013341692485], [-1.5044480702671554, 47.81301802656811], [-1.5029005278598908, 47.81590263621136], [-1.5013529854526249, 47.81878724585462], [-1.4998054430453591, 47.82167185549788], [-1.4982579006380943, 47.82455646514114], [-1.4967103582308277, 47.827441074784396], [-1.4951628158235617, 47.830325684427656], [-1.4951628158235617, 47.830325684427656], [-1.489543079127995, 47.82970003806508], [-1.483923342432427, 47.829074391702505], [-1.4783036057368604, 47.828448745339934], [-1.4726838690412924, 47.827823098977355], [-1.4670641323457247, 47.827197452614776], [-1.461444395650157, 47.826571806252204], [-1.4558246589545893, 47.82594615988963], [-1.4502049222590232, 47.82532051352705], [-1.4445851855634548, 47.824694867164474], [-1.4389654488678878, 47.8240692208019], [-1.4389654488678878, 47.8240692208019], [-1.4385174991472784, 47.82080909206359], [-1.4380695494266678, 47.81754896332528], [-1.4376215997060573, 47.814288834586975], [-1.4371736499854477, 47.811028705848656], [-1.4367257002648373, 47.80776857711035], [-1.436277750544228, 47.80450844837203], [-1.435829800823618, 47.801248319633736], [-1.4353818511030079, 47.79798819089542], [-1.4349339013823974, 47.794728062157105], [-1.4344859516617878, 47.791467933418794], [-1.4344859516617878, 47.791467933418794], [-1.4329490276187449, 47.78965018816558], [-1.4314121035756993, 47.78783244291236], [-1.4298751795326545, 47.78601469765915], [-1.4283382554896107, 47.78419695240593], [-1.4268013314465668, 47.782379207152715], [-1.4252644074035221, 47.7805614618995], [-1.4237274833604776, 47.77874371664628], [-1.4221905593174347, 47.77692597139307], [-1.42065363527439, 47.77510822613985], [-1.4191167112313452, 47.77329048088664], [-1.4191167112313452, 47.77329048088664], [-1.4041590244681394, 47.77084903612894], [-1.3892013377049317, 47.76840759137126], [-1.3742436509417257, 47.76596614661357], [-1.3592859641785189, 47.76352470185588], [-1.3443282774153122, 47.761083257098186], [-1.3293705906521054, 47.7586418123405], [-1.3144129038888985, 47.75620036758281], [-1.2994552171256928, 47.75375892282512], [-1.284497530362485, 47.75131747806743], [-1.2695398435992782, 47.74887603330973], [-1.2695398435992782, 47.74887603330973], [-1.2669343999475626, 47.75551893944343], [-1.264328956295846, 47.762161845577126], [-1.2617235126441295, 47.76880475171081], [-1.2591180689924129, 47.77544765784451], [-1.2565126253406973, 47.782090563978194], [-1.2539071816889806, 47.78873347011189], [-1.2513017380372633, 47.79537637624558], [-1.2486962943855475, 47.80201928237927], [-1.2460908507338302, 47.80866218851297], [-1.2434854070821144, 47.815305094646654], [-1.2434854070821144, 47.815305094646654], [-1.2411728010999084, 47.817522247465945], [-1.238860195117702, 47.81973940028522], [-1.2365475891354967, 47.821956553104506], [-1.2342349831532906, 47.82417370592378], [-1.2319223771710843, 47.82639085874307], [-1.229609771188879, 47.82860801156235], [-1.2272971652066729, 47.830825164381636], [-1.2249845592244666, 47.83304231720092], [-1.2226719532422614, 47.8352594700202], [-1.2203593472600551, 47.83747662283948], [-1.2203593472600551, 47.83747662283948], [-1.219578444583555, 47.843417247972916], [-1.218797541907055, 47.84935787310634], [-1.218016639230554, 47.85529849823976], [-1.217235736554053, 47.861239123373196], [-1.2164548338775527, 47.86717974850662], [-1.2156739312010518, 47.87312037364004], [-1.2148930285245516, 47.879060998773475], [-1.2141121258480514, 47.8850016239069], [-1.2133312231715514, 47.890942249040336], [-1.2125503204950505, 47.896882874173755], [-1.2125503204950505, 47.896882874173755], [-1.2094680981237582, 47.899188882526424], [-1.2063858757524646, 47.90149489087908], [-1.2033036533811725, 47.90380089923175], [-1.2002214310098804, 47.906106907584416], [-1.1971392086385875, 47.908412915937085], [-1.1940569862672947, 47.91071892428974], [-1.1909747638960018, 47.91302493264241], [-1.1878925415247097, 47.91533094099507], [-1.184810319153416, 47.91763694934774], [-1.181728096782124, 47.91994295770039], [-1.181728096782124, 47.91994295770039], [-1.1796654698207627, 47.925529254317645], [-1.1776028428594014, 47.93111555093489], [-1.1755402158980395, 47.93670184755213], [-1.173477588936679, 47.94228814416938], [-1.1714149619753178, 47.94787444078663], [-1.1693523350139565, 47.95346073740387], [-1.1672897080525955, 47.959047034021125], [-1.1652270810912342, 47.964633330638364], [-1.163164454129873, 47.97021962725561], [-1.1611018271685116, 47.97580592387286], [-1.1611018271685116, 47.97580592387286], [-1.15814853808474, 47.977757246190144], [-1.1551952490009683, 47.97970856850743], [-1.152241959917195, 47.98165989082471], [-1.1492886708334231, 47.983611213142], [-1.1463353817496515, 47.98556253545928], [-1.1433820926658798, 47.98751385777656], [-1.1404288035821082, 47.98946518009384], [-1.1374755144983346, 47.99141650241112], [-1.134522225414563, 47.9933678247284], [-1.131568936330791, 47.99531914704569], [-1.131568936330791, 47.99531914704569], [-1.120744188533039, 47.99613477287253], [-1.1099194407352866, 47.996950398699354], [-1.0990946929375327, 47.99776602452618], [-1.0882699451397804, 47.99858165035301], [-1.0774451973420291, 47.99939727617984], [-1.0666204495442764, 48.00021290200669], [-1.0557957017465234, 48.00102852783351], [-1.0449709539487704, 48.001844153660336], [-1.034146206151018, 48.002659779487175], [-1.0233214583532648, 48.003475405314], [-1.0233214583532648, 48.003475405314], [-1.0232259386294669, 48.00573259826621], [-1.0231304189056685, 48.007989791218414], [-1.0230348991818705, 48.01024698417063], [-1.022939379458071, 48.01250417712284], [-1.0228438597342733, 48.01476137007504], [-1.0227483400104744, 48.01701856302726], [-1.0226528202866767, 48.01927575597947], [-1.0225573005628772, 48.02153294893168], [-1.0224617808390792, 48.023790141883886], [-1.0223662611152806, 48.0260473348361], [-1.0223662611152806, 48.0260473348361], [-1.0250810766247718, 48.02918084597529], [-1.0277958921342636, 48.0323143571145], [-1.0305107076437545, 48.0354478682537], [-1.0332255231532466, 48.0385813793929], [-1.0359403386627366, 48.041714890532106], [-1.0386551541722286, 48.0448484016713], [-1.0413699696817194, 48.047981912810506], [-1.0440847851912105, 48.0511154239497], [-1.0467996007007034, 48.054248935088914], [-1.0495144162101935, 48.057382446228104], [-1.0495144162101935, 48.057382446228104], [-1.052046661880922, 48.060642054800425], [-1.05457890755165, 48.06390166337275], [-1.057111153222378, 48.06716127194506], [-1.0596433988931069, 48.070420880517375], [-1.0621756445638364, 48.073680489089696], [-1.0647078902345644, 48.076940097662], [-1.0672401359052914, 48.080199706234325], [-1.0697723815760203, 48.08345931480664], [-1.07230462724675, 48.08671892337896], [-1.0748368729174778, 48.089978531951274], [-1.0748368729174778, 48.089978531951274], [-1.0759190339509779, 48.0928614133237], [-1.0770011949844784, 48.095744294696125], [-1.07808335601798, 48.09862717606855], [-1.07916551705148, 48.101510057440976], [-1.0802476780849808, 48.104392938813405], [-1.0813298391184814, 48.107275820185826], [-1.0824120001519824, 48.110158701558255], [-1.083494161185482, 48.113041582930684], [-1.0845763222189828, 48.1159244643031], [-1.0856584832524836, 48.11880734567553], [-1.0856584832524836, 48.11880734567553], [-1.0870942903596994, 48.126581571576956], [-1.088530097466915, 48.134355797478385], [-1.0899659045741308, 48.14213002337981], [-1.0914017116813461, 48.14990424928124], [-1.0928375187885602, 48.15767847518267], [-1.0942733258957758, 48.16545270108411], [-1.0957091330029913, 48.173226926985535], [-1.097144940110207, 48.18100115288696], [-1.0985807472174225, 48.18877537878839], [-1.1000165543246372, 48.19654960468982], [-1.1000165543246372, 48.19654960468982], [-1.1007354764215842, 48.20031066278148], [-1.1014543985185294, 48.20407172087314], [-1.1021733206154758, 48.207832778964814], [-1.102892242712421, 48.211593837056476], [-1.103611164809368, 48.21535489514814], [-1.104330086906314, 48.2191159532398], [-1.1050490090032592, 48.22287701133146], [-1.1057679311002064, 48.226638069423124], [-1.1064868531971515, 48.230399127514794], [-1.1072057752940976, 48.23416018560645], [-1.1072057752940976, 48.23416018560645], [-1.1075622373021887, 48.236793282858905], [-1.1079186993102794, 48.23942638011136], [-1.1082751613183706, 48.24205947736381], [-1.1086316233264604, 48.24469257461626], [-1.1089880853345513, 48.24732567186872], [-1.1093445473426424, 48.24995876912117], [-1.1097010093507322, 48.25259186637362], [-1.1100574713588243, 48.25522496362608], [-1.1104139333669143, 48.25785806087853], [-1.110770395375005, 48.260491158130975], [-1.110770395375005, 48.260491158130975], [-1.1067745111890095, 48.26387738124083], [-1.1027786270030129, 48.267263604350696], [-1.0987827428170163, 48.27064982746055], [-1.0947868586310197, 48.274036050570416], [-1.090790974445024, 48.27742227368027], [-1.0867950902590284, 48.28080849679013], [-1.0827992060730318, 48.28419471989999], [-1.0788033218870352, 48.28758094300985], [-1.0748074377010388, 48.29096716611971], [-1.070811553515043, 48.29435338922956], [-1.070811553515043, 48.29435338922956], [-1.0704426509137477, 48.29736268460595], [-1.0700737483124514, 48.300371979982344], [-1.0697048457111569, 48.30338127535873], [-1.0693359431098624, 48.30639057073512], [-1.0689670405085672, 48.309399866111505], [-1.0685981379072709, 48.3124091614879], [-1.0682292353059755, 48.31541845686428], [-1.0678603327046812, 48.318427752240666], [-1.0674914301033849, 48.32143704761705], [-1.0671225275020895, 48.32444634299345], [-1.0671225275020895, 48.32444634299345], [-1.0696577751393472, 48.326953916619026], [-1.072193022776604, 48.3294614902446], [-1.0747282704138619, 48.331969063870176], [-1.0772635180511185, 48.33447663749576], [-1.0797987656883763, 48.33698421112134], [-1.0823340133256343, 48.33949178474691], [-1.0848692609628918, 48.34199935837249], [-1.087404508600148, 48.34450693199807], [-1.0899397562374056, 48.34701450562365], [-1.0924750038746633, 48.349522079249226], [-1.0924750038746633, 48.349522079249226], [-1.0913828326980164, 48.35102642021134], [-1.0902906615213683, 48.35253076117346], [-1.089198490344722, 48.35403510213557], [-1.088106319168074, 48.35553944309768], [-1.0870141479914286, 48.357043784059805], [-1.0859219768147805, 48.35854812502192], [-1.0848298056381336, 48.360052465984026], [-1.0837376344614864, 48.361556806946155], [-1.0826454632848386, 48.36306114790826], [-1.0815532921081923, 48.364565488870376], [-1.0815532921081923, 48.364565488870376], [-1.0822763194556635, 48.36619542869382], [-1.0829993468031347, 48.36782536851725], [-1.0837223741506068, 48.36945530834069], [-1.084445401498077, 48.37108524816413], [-1.08516842884555, 48.372715187987566], [-1.0858914561930222, 48.374345127811004], [-1.0866144835404927, 48.37597506763444], [-1.0873375108879648, 48.37760500745788], [-1.0880605382354351, 48.37923494728132], [-1.0887835655829072, 48.38086488710476], [-1.0887835655829072, 48.38086488710476], [-1.0880540045932898, 48.3826201693221], [-1.0873244436036744, 48.384375451539455], [-1.0865948826140568, 48.38613073375681], [-1.085865321624441, 48.38788601597415], [-1.0851357606348235, 48.389641298191506], [-1.0844061996452061, 48.391396580408845], [-1.0836766386555905, 48.3931518626262], [-1.082947077665973, 48.39490714484354], [-1.0822175166763566, 48.39666242706089], [-1.0814879556867398, 48.39841770927824], [-1.0814879556867398, 48.39841770927824], [-1.083299918937737, 48.399420323024145], [-1.0851118821887338, 48.400422936770056], [-1.0869238454397325, 48.401425550515974], [-1.0887358086907304, 48.402428164261885], [-1.0905477719417274, 48.403430778007795], [-1.0923597351927252, 48.404433391753706], [-1.0941716984437222, 48.405436005499624], [-1.0959836616947218, 48.40643861924553], [-1.0977956249457186, 48.40744123299144], [-1.0996075881967158, 48.408443846737356], [-1.0996075881967158, 48.408443846737356], [-1.0994243995775987, 48.40969799562122], [-1.0992412109584835, 48.410952144505096], [-1.0990580223393667, 48.41220629338897], [-1.0988748337202496, 48.41346044227285], [-1.098691645101132, 48.41471459115672], [-1.098508456482017, 48.41596874004059], [-1.0983252678629007, 48.417222888924464], [-1.0981420792437828, 48.41847703780833], [-1.097958890624666, 48.41973118669221], [-1.0977757020055499, 48.420985335576084], [-1.0977757020055499, 48.420985335576084], [-1.0954145446079384, 48.422741030451085], [-1.0930533872103279, 48.4244967253261], [-1.0906922298127155, 48.42625242020111], [-1.0883310724151052, 48.42800811507611], [-1.0859699150174928, 48.42976380995112], [-1.0836087576198823, 48.43151950482613], [-1.0812476002222708, 48.433275199701136], [-1.0788864428246594, 48.435030894576144], [-1.076525285427048, 48.43678658945115], [-1.0741641280294374, 48.438542284326154], [-1.0741641280294374, 48.438542284326154], [-1.0754282732886253, 48.440799137954436], [-1.0766924185478148, 48.44305599158272], [-1.0779565638070034, 48.445312845211], [-1.0792207090661927, 48.44756969883929], [-1.0804848543253813, 48.44982655246757], [-1.081748999584571, 48.452083406095845], [-1.0830131448437597, 48.45434025972413], [-1.0842772901029492, 48.456597113352416], [-1.0855414353621369, 48.4588539669807], [-1.0868055806213264, 48.46111082060898], [-1.0868055806213264, 48.46111082060898], [-1.087254256073459, 48.463994932067386], [-1.0877029315255913, 48.466879043525815], [-1.0881516069777255, 48.46976315498423], [-1.088600282429858, 48.47264726644264], [-1.089048957881991, 48.47553137790106], [-1.0894976333341235, 48.47841548935947], [-1.089946308786256, 48.48129960081789], [-1.09039498423839, 48.48418371227631], [-1.0908436596905224, 48.487067823734726], [-1.0912923351426558, 48.48995193519315], [-1.0912923351426558, 48.48995193519315], [-1.094281502547486, 48.49183127469736], [-1.0972706699523156, 48.49371061420158], [-1.1002598373571455, 48.49558995370581], [-1.1032490047619752, 48.49746929321004], [-1.106238172166805, 48.499348632714266], [-1.1092273395716357, 48.50122797221849], [-1.1122165069764656, 48.50310731172271], [-1.1152056743812946, 48.50498665122693], [-1.1181948417861254, 48.50686599073116], [-1.121184009190955, 48.50874533023538], [-1.121184009190955, 48.50874533023538], [-1.1263527311034809, 48.508494075078], [-1.1315214530160058, 48.5082428199206], [-1.1366901749285307, 48.507991564763216], [-1.1418588968410566, 48.507740309605836], [-1.1470276187535824, 48.50748905444845], [-1.1521963406661073, 48.50723779929106], [-1.1573650625786334, 48.506986544133674], [-1.162533784491158, 48.50673528897629], [-1.167702506403683, 48.50648403381891], [-1.172871228316209, 48.50623277866151], [-1.172871228316209, 48.50623277866151], [-1.1747739008479625, 48.50667134412146], [-1.1766765733797162, 48.5071099095814], [-1.178579245911468, 48.50754847504135], [-1.1804819184432216, 48.507987040501284], [-1.182384590974975, 48.50842560596122], [-1.1842872635067285, 48.508864171421166], [-1.1861899360384824, 48.50930273688111], [-1.188092608570233, 48.509741302341055], [-1.189995281101987, 48.510179867800986], [-1.1918979536337404, 48.51061843326093], [-1.1918979536337404, 48.51061843326093], [-1.1970641375443745, 48.511682172061434], [-1.202230321455007, 48.51274591086194], [-1.2073965053656412, 48.51380964966245], [-1.2125626892762744, 48.51487338846295], [-1.2177288731869078, 48.51593712726345], [-1.2228950570975412, 48.51700086606395], [-1.2280612410081753, 48.518064604864456], [-1.2332274249188087, 48.51912834366496], [-1.2383936088294418, 48.52019208246547], [-1.243559792740076, 48.52125582126597], [-1.243559792740076, 48.52125582126597], [-1.250370125320619, 48.51661479807291], [-1.2571804579011625, 48.51197377487984], [-1.2639907904817063, 48.507332751686775], [-1.27080112306225, 48.50269172849371], [-1.2776114556427938, 48.49805070530064], [-1.2844217882233366, 48.49340968210758], [-1.2912321208038802, 48.488768658914516], [-1.298042453384424, 48.48412763572145], [-1.3048527859649668, 48.47948661252839], [-1.3116631185455105, 48.47484558933532], [-1.3116631185455105, 48.47484558933532], [-1.3161068466356998, 48.47478251819061], [-1.3205505747258877, 48.47471944704589], [-1.324994302816077, 48.474656375901176], [-1.3294380309062666, 48.47459330475646], [-1.333881758996456, 48.474530233611745], [-1.3383254870866446, 48.474467162467036], [-1.342769215176834, 48.47440409132232], [-1.3472129432670237, 48.474341020177604], [-1.3516566713572113, 48.47427794903288], [-1.3561003994474008, 48.47421487788817], [-1.3561003994474008, 48.47421487788817], [-1.3569228489707805, 48.470766429023435], [-1.35774529849416, 48.4673179801587], [-1.3585677480175409, 48.46386953129396], [-1.3593901975409195, 48.46042108242922], [-1.3602126470642992, 48.456972633564476], [-1.3610350965876787, 48.45352418469974], [-1.3618575461110582, 48.45007573583499], [-1.3626799956344386, 48.44662728697026], [-1.3635024451578184, 48.44317883810552], [-1.3643248946811972, 48.43973038924078], [-1.3643248946811972, 48.43973038924078], [-1.369312720965319, 48.4395411359077], [-1.3743005472494418, 48.43935188257461], [-1.3792883735335626, 48.43916262924152], [-1.3842761998176845, 48.43897337590844], [-1.3892640261018054, 48.43878412257535], [-1.3942518523859273, 48.43859486924227], [-1.399239678670049, 48.43840561590919], [-1.4042275049541708, 48.43821636257611], [-1.4092153312382925, 48.438027109243016], [-1.4142031575224134, 48.43783785590994], [-1.4142031575224134, 48.43783785590994], [-1.41674085615929, 48.438276262889985], [-1.4192785547961684, 48.438714669870045], [-1.421816253433046, 48.439153076850104], [-1.424353952069923, 48.43959148383016], [-1.4268916507068, 48.440029890810216], [-1.4294293493436783, 48.44046829779026], [-1.4319670479805555, 48.44090670477032], [-1.4345047466174323, 48.44134511175038], [-1.4370424452543098, 48.441783518730425], [-1.4395801438911862, 48.44222192571049], [-1.4395801438911862, 48.44222192571049], [-1.4423869847435733, 48.444101310716924], [-1.4451938255959584, 48.44598069572335], [-1.4480006664483436, 48.44786008072979], [-1.4508075073007303, 48.449739465736215], [-1.4536143481531147, 48.451618850742655], [-1.4564211890055008, 48.453498235749095], [-1.4592280298578868, 48.45537762075552], [-1.4620348707102728, 48.45725700576196], [-1.4648417115626577, 48.45913639076839], [-1.4676485524150447, 48.461015775774825], [-1.4676485524150447, 48.461015775774825], [-1.470824392850725, 48.46063896609945], [-1.4740002332864044, 48.46026215642408], [-1.4771760737220836, 48.45988534674869], [-1.4803519141577628, 48.45950853707332], [-1.4835277545934429, 48.459131727397946], [-1.486703595029123, 48.458754917722565], [-1.4898794354648033, 48.45837810804719], [-1.4930552759004834, 48.45800129837181], [-1.4962311163361626, 48.45762448869643], [-1.4994069567718427, 48.45724767902106], [-1.4994069567718427, 48.45724767902106], [-1.504111144680008, 48.462324874368676], [-1.508815332588172, 48.4674020697163], [-1.5135195204963376, 48.47247926506392], [-1.518223708404502, 48.47755646041154], [-1.522927896312667, 48.482633655759166], [-1.5276320842208309, 48.48771085110678], [-1.5323362721289961, 48.49278804645441], [-1.537040460037162, 48.49786524180202], [-1.5417446479453252, 48.50294243714964], [-1.5464488358534905, 48.508019632497266]]]}}]}