{
    "type": "FeatureCollection",
    "name": "Gravinen",
    "features": [
        {
            "type": "Feature",
            "properties": {
                "diocese": "Gravinen",
                "province": "Archeruntin et Materanen",
                "date": 1592
            },
            "geometry": {
                "type": "Polygon",
                "coordinates": [
                    [
                        [
                            16.444497160288886,
                            40.829679011988468
                        ],
                        [
                            16.378428222671605,
                            40.739633682267218
                        ],
                        [
                            16.247324699932772,
                            40.838894419966671
                        ],
                        [
                            16.228324189390911,
                            40.882004974798207
                        ],
                        [
                            16.182722964090448,
                            40.913601547086415
                        ],
                        [
                            16.156122249331844,
                            40.962402924459802
                        ],
                        [
                            16.093420564543706,
                            40.981052745798671
                        ],
                        [
                            16.068719900839284,
                            40.938006742543074
                        ],
                        [
                            15.908241366686022,
                            40.997896297511225
                        ],
                        [
                            15.97200560714953,
                            41.093809391007269
                        ],
                        [
                            15.9727723,
                            41.0938386
                        ],
                        [
                            15.9741087,
                            41.0939957
                        ],
                        [
                            15.9750872,
                            41.0940532
                        ],
                        [
                            15.9759318,
                            41.0940738
                        ],
                        [
                            15.9762539,
                            41.0941667
                        ],
                        [
                            15.9771166,
                            41.0936732
                        ],
                        [
                            15.9777298,
                            41.0932805
                        ],
                        [
                            15.9785062,
                            41.0925628
                        ],
                        [
                            15.9789366,
                            41.0918842
                        ],
                        [
                            15.9794041,
                            41.0913023
                        ],
                        [
                            15.9801918,
                            41.0906289
                        ],
                        [
                            15.9813956,
                            41.0899526
                        ],
                        [
                            15.9825996,
                            41.0891954
                        ],
                        [
                            15.9830329,
                            41.08879550000001
                        ],
                        [
                            15.9830704,
                            41.0881633
                        ],
                        [
                            15.983083,
                            41.0874156
                        ],
                        [
                            15.983241,
                            41.0867761
                        ],
                        [
                            15.9837324,
                            41.0862242
                        ],
                        [
                            15.9839543,
                            41.0859137
                        ],
                        [
                            15.983579,
                            41.0854327
                        ],
                        [
                            15.9831759,
                            41.0848228
                        ],
                        [
                            15.982847,
                            41.0843029
                        ],
                        [
                            15.9827223,
                            41.0840315
                        ],
                        [
                            15.9824026,
                            41.0832276
                        ],
                        [
                            15.9821815,
                            41.0827776
                        ],
                        [
                            15.9813761,
                            41.0822777
                        ],
                        [
                            15.980692,
                            41.081905399999989
                        ],
                        [
                            15.980152,
                            41.0815873
                        ],
                        [
                            15.9795762,
                            41.0813659
                        ],
                        [
                            15.9789797,
                            41.0812087
                        ],
                        [
                            15.9802638,
                            41.0799472
                        ],
                        [
                            15.9803169,
                            41.0798314
                        ],
                        [
                            15.9804676,
                            41.0795433
                        ],
                        [
                            15.9805906,
                            41.0792524
                        ],
                        [
                            15.9808644,
                            41.0787452
                        ],
                        [
                            15.980986,
                            41.0784904
                        ],
                        [
                            15.9811606,
                            41.0782592
                        ],
                        [
                            15.9813807,
                            41.0780434
                        ],
                        [
                            15.9815913,
                            41.0778641
                        ],
                        [
                            15.9819466,
                            41.0776265
                        ],
                        [
                            15.9822867,
                            41.0774213
                        ],
                        [
                            15.9826037,
                            41.0772985
                        ],
                        [
                            15.9829338,
                            41.0771524
                        ],
                        [
                            15.9832976,
                            41.0770582
                        ],
                        [
                            15.9836145,
                            41.0769624
                        ],
                        [
                            15.9838934,
                            41.0768735
                        ],
                        [
                            15.9842995,
                            41.0766597
                        ],
                        [
                            15.9844204,
                            41.0765669
                        ],
                        [
                            15.9844895,
                            41.0764682
                        ],
                        [
                            15.984723,
                            41.076337
                        ],
                        [
                            15.9849128,
                            41.0761994
                        ],
                        [
                            15.9851544,
                            41.0759552
                        ],
                        [
                            15.9852537,
                            41.0756522
                        ],
                        [
                            15.9853293,
                            41.0754406
                        ],
                        [
                            15.9854019,
                            41.0752922
                        ],
                        [
                            15.9853767,
                            41.0750553
                        ],
                        [
                            15.9851971,
                            41.0743103
                        ],
                        [
                            15.9848699,
                            41.0738893
                        ],
                        [
                            15.9847712,
                            41.0736388
                        ],
                        [
                            15.9854091,
                            41.0732355
                        ],
                        [
                            15.9858661,
                            41.0728297
                        ],
                        [
                            15.9860986,
                            41.0725006
                        ],
                        [
                            15.9860456,
                            41.0720089
                        ],
                        [
                            15.9859073,
                            41.0716034
                        ],
                        [
                            15.9867816,
                            41.0712081
                        ],
                        [
                            15.9873278,
                            41.0710398
                        ],
                        [
                            15.9873827,
                            41.07069
                        ],
                        [
                            15.9876166,
                            41.0704013
                        ],
                        [
                            15.9883976,
                            41.0701422
                        ],
                        [
                            15.9885919,
                            41.0696985
                        ],
                        [
                            15.9887117,
                            41.0689037
                        ],
                        [
                            15.9890938,
                            41.0682415
                        ],
                        [
                            15.98963,
                            41.0674979
                        ],
                        [
                            15.9902867,
                            41.066693
                        ],
                        [
                            15.9910563,
                            41.0657057
                        ],
                        [
                            15.9914658,
                            41.0652307
                        ],
                        [
                            15.992125,
                            41.0647496
                        ],
                        [
                            15.9929283,
                            41.0642822
                        ],
                        [
                            15.9935026,
                            41.0637297
                        ],
                        [
                            15.9944126,
                            41.0624773
                        ],
                        [
                            15.9948804,
                            41.0619853
                        ],
                        [
                            15.9954577,
                            41.0615947
                        ],
                        [
                            15.9963336,
                            41.0613342
                        ],
                        [
                            15.9971642,
                            41.0611306
                        ],
                        [
                            15.9972486,
                            41.0603605
                        ],
                        [
                            15.9970262,
                            41.0598072
                        ],
                        [
                            15.9967911,
                            41.0592951
                        ],
                        [
                            15.9965473,
                            41.0588825
                        ],
                        [
                            15.9962649,
                            41.0583733
                        ],
                        [
                            15.996091,
                            41.0578844
                        ],
                        [
                            15.9959068,
                            41.0574727
                        ],
                        [
                            15.9961047,
                            41.0571547
                        ],
                        [
                            15.9969349,
                            41.0569961
                        ],
                        [
                            15.9982913,
                            41.0568953
                        ],
                        [
                            15.9988967,
                            41.0569078
                        ],
                        [
                            15.9994334,
                            41.0568751
                        ],
                        [
                            15.9995798,
                            41.0563802
                        ],
                        [
                            15.9989495,
                            41.0556177
                        ],
                        [
                            15.9986214,
                            41.0551878
                        ],
                        [
                            15.9986866,
                            41.0547744
                        ],
                        [
                            15.9988353,
                            41.0543784
                        ],
                        [
                            15.9988586,
                            41.05399
                        ],
                        [
                            15.9989269,
                            41.0539543
                        ],
                        [
                            15.9990629,
                            41.0538155
                        ],
                        [
                            15.9992506,
                            41.053673599999989
                        ],
                        [
                            15.9994251,
                            41.053582
                        ],
                        [
                            15.9995417,
                            41.0535118
                        ],
                        [
                            16.0002446,
                            41.0538604
                        ],
                        [
                            16.0015006,
                            41.0544001
                        ],
                        [
                            16.002439,
                            41.0549863
                        ],
                        [
                            16.0029073,
                            41.055385099999988
                        ],
                        [
                            16.0034298,
                            41.0560281
                        ],
                        [
                            16.0033164,
                            41.0564625
                        ],
                        [
                            16.0030734,
                            41.0568598
                        ],
                        [
                            16.0043267,
                            41.0571297
                        ],
                        [
                            16.004999,
                            41.0574216
                        ],
                        [
                            16.0055835,
                            41.0575793
                        ],
                        [
                            16.0060287,
                            41.0579076
                        ],
                        [
                            16.0068284,
                            41.0587946
                        ],
                        [
                            16.0072503,
                            41.0591063
                        ],
                        [
                            16.0076279,
                            41.0589122
                        ],
                        [
                            16.0079383,
                            41.0582768
                        ],
                        [
                            16.0083343,
                            41.0577262
                        ],
                        [
                            16.0089029,
                            41.0575115
                        ],
                        [
                            16.0097284,
                            41.0570381
                        ],
                        [
                            16.0103154,
                            41.0564397
                        ],
                        [
                            16.010983,
                            41.0558095
                        ],
                        [
                            16.0114503,
                            41.055259
                        ],
                        [
                            16.0116264,
                            41.0549873
                        ],
                        [
                            16.0125514,
                            41.0556416
                        ],
                        [
                            16.0129501,
                            41.0560357
                        ],
                        [
                            16.0134562,
                            41.0556537
                        ],
                        [
                            16.0140556,
                            41.0551716
                        ],
                        [
                            16.0154671,
                            41.0541044
                        ],
                        [
                            16.0163028,
                            41.0535043
                        ],
                        [
                            16.0170078,
                            41.0529753
                        ],
                        [
                            16.0176338,
                            41.0525545
                        ],
                        [
                            16.0180545,
                            41.0521463
                        ],
                        [
                            16.0180849,
                            41.0521309
                        ],
                        [
                            16.0182208,
                            41.0521721
                        ],
                        [
                            16.0184987,
                            41.0524161
                        ],
                        [
                            16.018632,
                            41.0526554
                        ],
                        [
                            16.018925,
                            41.0529569
                        ],
                        [
                            16.0192766,
                            41.0532368
                        ],
                        [
                            16.0195014,
                            41.0533176
                        ],
                        [
                            16.0198692,
                            41.05361
                        ],
                        [
                            16.0200729,
                            41.0535481
                        ],
                        [
                            16.0201643,
                            41.05320050000001
                        ],
                        [
                            16.0200459,
                            41.0529063
                        ],
                        [
                            16.0199181,
                            41.0526486
                        ],
                        [
                            16.0197392,
                            41.0524481
                        ],
                        [
                            16.0196042,
                            41.0521864
                        ],
                        [
                            16.019757,
                            41.0519476
                        ],
                        [
                            16.0201487,
                            41.0517751
                        ],
                        [
                            16.0204201,
                            41.051763
                        ],
                        [
                            16.0207808,
                            41.0516554
                        ],
                        [
                            16.0210752,
                            41.0515249
                        ],
                        [
                            16.0215348,
                            41.0513483
                        ],
                        [
                            16.0220184,
                            41.0512017
                        ],
                        [
                            16.0225289,
                            41.0512514
                        ],
                        [
                            16.0226782,
                            41.0512783
                        ],
                        [
                            16.0228736,
                            41.0513833
                        ],
                        [
                            16.0230992,
                            41.0516304
                        ],
                        [
                            16.0232605,
                            41.051868
                        ],
                        [
                            16.0235335,
                            41.0521348
                        ],
                        [
                            16.0240964,
                            41.0524872
                        ],
                        [
                            16.024292,
                            41.0524753
                        ],
                        [
                            16.0250589,
                            41.0522258
                        ],
                        [
                            16.0254071,
                            41.0520155
                        ],
                        [
                            16.0256547,
                            41.0519058
                        ],
                        [
                            16.0258685,
                            41.0517173
                        ],
                        [
                            16.0261926,
                            41.0516074
                        ],
                        [
                            16.0261247,
                            41.0514721
                        ],
                        [
                            16.0258535,
                            41.051353699999986
                        ],
                        [
                            16.0256746,
                            41.0512657
                        ],
                        [
                            16.0255394,
                            41.051022
                        ],
                        [
                            16.0257604,
                            41.0505945
                        ],
                        [
                            16.0257902,
                            41.0503452
                        ],
                        [
                            16.0257934,
                            41.050264
                        ],
                        [
                            16.026302,
                            41.0498999
                        ],
                        [
                            16.0264517,
                            41.0496118
                        ],
                        [
                            16.0268286,
                            41.049300700000011
                        ],
                        [
                            16.0271269,
                            41.0493319
                        ],
                        [
                            16.0274587,
                            41.04926660000001
                        ],
                        [
                            16.027587,
                            41.0492228
                        ],
                        [
                            16.0276627,
                            41.0491461
                        ],
                        [
                            16.027663,
                            41.0489886
                        ],
                        [
                            16.0276033,
                            41.0488753
                        ],
                        [
                            16.0272886,
                            41.0487596
                        ],
                        [
                            16.0270927,
                            41.0487896
                        ],
                        [
                            16.026748,
                            41.0487342
                        ],
                        [
                            16.0264086,
                            41.0483951
                        ],
                        [
                            16.0264873,
                            41.0479988
                        ],
                        [
                            16.0268896,
                            41.0478707
                        ],
                        [
                            16.0272912,
                            41.0477561
                        ],
                        [
                            16.0274764,
                            41.0473758
                        ],
                        [
                            16.0273143,
                            41.0469717
                        ],
                        [
                            16.0273345,
                            41.0466601
                        ],
                        [
                            16.0277114,
                            41.046385
                        ],
                        [
                            16.0279936,
                            41.0462102
                        ],
                        [
                            16.0279972,
                            41.0456881
                        ],
                        [
                            16.0278373,
                            41.0452839
                        ],
                        [
                            16.0280824,
                            41.0450394
                        ],
                        [
                            16.0286632,
                            41.0448373
                        ],
                        [
                            16.0292177,
                            41.0445964
                        ],
                        [
                            16.0295699,
                            41.0442778
                        ],
                        [
                            16.0295962,
                            41.0437183
                        ],
                        [
                            16.030009,
                            41.0434455
                        ],
                        [
                            16.0306222,
                            41.0431424
                        ],
                        [
                            16.0309139,
                            41.0428141
                        ],
                        [
                            16.030852,
                            41.0424849
                        ],
                        [
                            16.030953,
                            41.0421863
                        ],
                        [
                            16.0313554,
                            41.0421076
                        ],
                        [
                            16.0318528,
                            41.0419241
                        ],
                        [
                            16.0323451,
                            41.0421729
                        ],
                        [
                            16.0326351,
                            41.0424386
                        ],
                        [
                            16.0332025,
                            41.0422643
                        ],
                        [
                            16.0338061,
                            41.0420248
                        ],
                        [
                            16.0342887,
                            41.0417027
                        ],
                        [
                            16.0345698,
                            41.0413795
                        ],
                        [
                            16.03479,
                            41.0411051
                        ],
                        [
                            16.0349387,
                            41.040718
                        ],
                        [
                            16.0351009,
                            41.0404291
                        ],
                        [
                            16.0354803,
                            41.0403158
                        ],
                        [
                            16.0357528,
                            41.0401686
                        ],
                        [
                            16.0359158,
                            41.0399426
                        ],
                        [
                            16.0364467,
                            41.0397121
                        ],
                        [
                            16.0369511,
                            41.0398926
                        ],
                        [
                            16.0370037,
                            41.0397454
                        ],
                        [
                            16.037041,
                            41.0395946
                        ],
                        [
                            16.0370575,
                            41.0393596
                        ],
                        [
                            16.037188,
                            41.0392256
                        ],
                        [
                            16.0374125,
                            41.0390679
                        ],
                        [
                            16.0377824,
                            41.0389777
                        ],
                        [
                            16.037993,
                            41.0388838
                        ],
                        [
                            16.0381821,
                            41.0387147
                        ],
                        [
                            16.0383859,
                            41.0385087
                        ],
                        [
                            16.0386796,
                            41.0382477
                        ],
                        [
                            16.0387865,
                            41.0381152
                        ],
                        [
                            16.0392404,
                            41.0376373
                        ],
                        [
                            16.039324,
                            41.0374747
                        ],
                        [
                            16.0394378,
                            41.0372743
                        ],
                        [
                            16.039566,
                            41.0371539
                        ],
                        [
                            16.0397033,
                            41.037042
                        ],
                        [
                            16.0397838,
                            41.0369336
                        ],
                        [
                            16.0399364,
                            41.0367982
                        ],
                        [
                            16.0399887,
                            41.0367725
                        ],
                        [
                            16.0402528,
                            41.0366168
                        ],
                        [
                            16.0404044,
                            41.036486
                        ],
                        [
                            16.0405393,
                            41.0363653
                        ],
                        [
                            16.0406228,
                            41.0362432
                        ],
                        [
                            16.0407369,
                            41.0359842
                        ],
                        [
                            16.0406925,
                            41.0358744
                        ],
                        [
                            16.0404081,
                            41.0357164
                        ],
                        [
                            16.040295,
                            41.0356379
                        ],
                        [
                            16.0403279,
                            41.0353074
                        ],
                        [
                            16.0408921,
                            41.0348813
                        ],
                        [
                            16.040862,
                            41.0345097
                        ],
                        [
                            16.0402743,
                            41.0342173
                        ],
                        [
                            16.0397024,
                            41.0340994
                        ],
                        [
                            16.0396487,
                            41.0337293
                        ],
                        [
                            16.0398894,
                            41.0330711
                        ],
                        [
                            16.0400105,
                            41.0324742
                        ],
                        [
                            16.0401896,
                            41.0317613
                        ],
                        [
                            16.0402753,
                            41.0312296
                        ],
                        [
                            16.0395907,
                            41.0308847
                        ],
                        [
                            16.0392393,
                            41.0304114
                        ],
                        [
                            16.0399862,
                            41.0295556
                        ],
                        [
                            16.0403137,
                            41.0292296
                        ],
                        [
                            16.040379,
                            41.0287576
                        ],
                        [
                            16.0404627,
                            41.0283822
                        ],
                        [
                            16.0404675,
                            41.0283607
                        ],
                        [
                            16.0404721,
                            41.0283368
                        ],
                        [
                            16.04052,
                            41.028083
                        ],
                        [
                            16.0408246,
                            41.0276819
                        ],
                        [
                            16.041008,
                            41.0273692
                        ],
                        [
                            16.0405669,
                            41.0271893
                        ],
                        [
                            16.0402075,
                            41.0269954
                        ],
                        [
                            16.0402141,
                            41.026752
                        ],
                        [
                            16.0406074,
                            41.0266244
                        ],
                        [
                            16.0407216,
                            41.0264149
                        ],
                        [
                            16.0407869,
                            41.0261364
                        ],
                        [
                            16.0412977,
                            41.0260241
                        ],
                        [
                            16.0416454,
                            41.0255258
                        ],
                        [
                            16.0416881,
                            41.0243713
                        ],
                        [
                            16.0416231,
                            41.0239029
                        ],
                        [
                            16.041612,
                            41.0233276
                        ],
                        [
                            16.0414026,
                            41.022814
                        ],
                        [
                            16.0414413,
                            41.0223437
                        ],
                        [
                            16.0418478,
                            41.022422299999988
                        ],
                        [
                            16.0422909,
                            41.022732499999989
                        ],
                        [
                            16.043056,
                            41.022942
                        ],
                        [
                            16.0434948,
                            41.0227396
                        ],
                        [
                            16.043248,
                            41.0222103
                        ],
                        [
                            16.0424611,
                            41.0220741
                        ],
                        [
                            16.0422881,
                            41.0216798
                        ],
                        [
                            16.0426225,
                            41.0210294
                        ],
                        [
                            16.0430526,
                            41.0204135
                        ],
                        [
                            16.0435553,
                            41.0198652
                        ],
                        [
                            16.0441992,
                            41.0192767
                        ],
                        [
                            16.0446318,
                            41.0188227
                        ],
                        [
                            16.045582,
                            41.0185979
                        ],
                        [
                            16.0463757,
                            41.0184096
                        ],
                        [
                            16.0461304,
                            41.0180602
                        ],
                        [
                            16.0455445,
                            41.0178038
                        ],
                        [
                            16.0456548,
                            41.0172256
                        ],
                        [
                            16.0460603,
                            41.0166292
                        ],
                        [
                            16.0458636,
                            41.0161239
                        ],
                        [
                            16.0457356,
                            41.0156503
                        ],
                        [
                            16.0463499,
                            41.0152571
                        ],
                        [
                            16.0469696,
                            41.0146926
                        ],
                        [
                            16.046964,
                            41.014252
                        ],
                        [
                            16.0472217,
                            41.0140787
                        ],
                        [
                            16.0477517,
                            41.0137312
                        ],
                        [
                            16.0480418,
                            41.0132229
                        ],
                        [
                            16.04846,
                            41.0126348
                        ],
                        [
                            16.0493276,
                            41.0125275
                        ],
                        [
                            16.0496422,
                            41.012220199999987
                        ],
                        [
                            16.0499794,
                            41.011736
                        ],
                        [
                            16.0505927,
                            41.0113339
                        ],
                        [
                            16.0512094,
                            41.0112689
                        ],
                        [
                            16.0520486,
                            41.0109519
                        ],
                        [
                            16.0526144,
                            41.0106336
                        ],
                        [
                            16.0533451,
                            41.0102737
                        ],
                        [
                            16.0539975,
                            41.0100986
                        ],
                        [
                            16.0546221,
                            41.0098577
                        ],
                        [
                            16.0548684,
                            41.0095231
                        ],
                        [
                            16.0558224,
                            41.008893
                        ],
                        [
                            16.0565629,
                            41.0085145
                        ],
                        [
                            16.0573666,
                            41.0080331
                        ],
                        [
                            16.0579066,
                            41.0076129
                        ],
                        [
                            16.0583264,
                            41.0070966
                        ],
                        [
                            16.0592789,
                            41.0064801
                        ],
                        [
                            16.0598903,
                            41.0061725
                        ],
                        [
                            16.0606103,
                            41.0057412
                        ],
                        [
                            16.0608767,
                            41.0052074
                        ],
                        [
                            16.0610764,
                            41.0044392
                        ],
                        [
                            16.0612378,
                            41.0040063
                        ],
                        [
                            16.0614399,
                            41.003454
                        ],
                        [
                            16.0619146,
                            41.0033392
                        ],
                        [
                            16.0627928,
                            41.0030827
                        ],
                        [
                            16.0635921,
                            41.002561
                        ],
                        [
                            16.0645945,
                            41.0021618
                        ],
                        [
                            16.065612,
                            41.0018202
                        ],
                        [
                            16.0666522,
                            41.001441099999987
                        ],
                        [
                            16.0672696,
                            41.0012996
                        ],
                        [
                            16.0683059,
                            41.0006913
                        ],
                        [
                            16.0690937,
                            41.0002018
                        ],
                        [
                            16.0701919,
                            40.9996167
                        ],
                        [
                            16.0720943,
                            40.9988335
                        ],
                        [
                            16.0730052,
                            40.9986333
                        ],
                        [
                            16.0737992,
                            40.9983954
                        ],
                        [
                            16.0749585,
                            40.9981304
                        ],
                        [
                            16.075657,
                            40.9979164
                        ],
                        [
                            16.076487,
                            40.9978201
                        ],
                        [
                            16.0772056,
                            40.9976273
                        ],
                        [
                            16.0779731,
                            40.996977
                        ],
                        [
                            16.0793451,
                            40.9967304
                        ],
                        [
                            16.0804736,
                            40.9965662
                        ],
                        [
                            16.0809678,
                            40.9962748
                        ],
                        [
                            16.0817075,
                            40.9956712
                        ],
                        [
                            16.0824603,
                            40.9951612
                        ],
                        [
                            16.083104,
                            40.9946581
                        ],
                        [
                            16.0836437,
                            40.9942378
                        ],
                        [
                            16.0845889,
                            40.993806
                        ],
                        [
                            16.0858427,
                            40.9934
                        ],
                        [
                            16.0869777,
                            40.9929655
                        ],
                        [
                            16.0883707,
                            40.9925014
                        ],
                        [
                            16.0896599,
                            40.9920933
                        ],
                        [
                            16.0904983,
                            40.9917175
                        ],
                        [
                            16.0913905,
                            40.9909874
                        ],
                        [
                            16.0922717,
                            40.990348
                        ],
                        [
                            16.0933606,
                            40.9900107
                        ],
                        [
                            16.0949863,
                            40.9898607
                        ],
                        [
                            16.0960782,
                            40.9897166
                        ],
                        [
                            16.0972371,
                            40.9895054
                        ],
                        [
                            16.0972976,
                            40.9894882
                        ],
                        [
                            16.09745,
                            40.989442799999985
                        ],
                        [
                            16.0978071,
                            40.9893397
                        ],
                        [
                            16.0983358,
                            40.988929
                        ],
                        [
                            16.0986401,
                            40.9886942
                        ],
                        [
                            16.0992728,
                            40.9881196
                        ],
                        [
                            16.0997402,
                            40.9876633
                        ],
                        [
                            16.1005465,
                            40.986853
                        ],
                        [
                            16.1010848,
                            40.9863112
                        ],
                        [
                            16.1017202,
                            40.9858444
                        ],
                        [
                            16.1024475,
                            40.9854035
                        ],
                        [
                            16.1027584,
                            40.9847903
                        ],
                        [
                            16.1030926,
                            40.9840902
                        ],
                        [
                            16.103463,
                            40.9834779
                        ],
                        [
                            16.1040396,
                            40.9831542
                        ],
                        [
                            16.1052599,
                            40.9828536
                        ],
                        [
                            16.1058411,
                            40.9827096
                        ],
                        [
                            16.106383,
                            40.9823116
                        ],
                        [
                            16.1072115,
                            40.9823413
                        ],
                        [
                            16.1074442,
                            40.9826553
                        ],
                        [
                            16.1078984,
                            40.9828476
                        ],
                        [
                            16.1082995,
                            40.9825483
                        ],
                        [
                            16.1086441,
                            40.9827429
                        ],
                        [
                            16.1085794,
                            40.9831608
                        ],
                        [
                            16.1090463,
                            40.9833614
                        ],
                        [
                            16.1090889,
                            40.9836737
                        ],
                        [
                            16.1089152,
                            40.9840444
                        ],
                        [
                            16.1085185,
                            40.9843299
                        ],
                        [
                            16.1084641,
                            40.9847877
                        ],
                        [
                            16.1095755,
                            40.9851283
                        ],
                        [
                            16.1102059,
                            40.9851657
                        ],
                        [
                            16.1109725,
                            40.9854466
                        ],
                        [
                            16.1115603,
                            40.9856936
                        ],
                        [
                            16.11212,
                            40.9857084
                        ],
                        [
                            16.1125128,
                            40.985882
                        ],
                        [
                            16.1130131,
                            40.985896
                        ],
                        [
                            16.1133609,
                            40.9859824
                        ],
                        [
                            16.113787,
                            40.9859425
                        ],
                        [
                            16.1143124,
                            40.9861888
                        ],
                        [
                            16.1144495,
                            40.9864683
                        ],
                        [
                            16.114527,
                            40.9868009
                        ],
                        [
                            16.11485,
                            40.9869608
                        ],
                        [
                            16.1153179,
                            40.9871973
                        ],
                        [
                            16.115904,
                            40.9873184
                        ],
                        [
                            16.1161256,
                            40.987885
                        ],
                        [
                            16.1159666,
                            40.9882548
                        ],
                        [
                            16.1157838,
                            40.9887611
                        ],
                        [
                            16.116526,
                            40.9889535
                        ],
                        [
                            16.1173611,
                            40.9892076
                        ],
                        [
                            16.1171452,
                            40.9897925
                        ],
                        [
                            16.11654,
                            40.9899065
                        ],
                        [
                            16.1162253,
                            40.9902095
                        ],
                        [
                            16.1169314,
                            40.9905886
                        ],
                        [
                            16.1179346,
                            40.9908053
                        ],
                        [
                            16.1184461,
                            40.9911425
                        ],
                        [
                            16.1185614,
                            40.9912208
                        ],
                        [
                            16.119284,
                            40.991176
                        ],
                        [
                            16.1204334,
                            40.9909606
                        ],
                        [
                            16.1214676,
                            40.9909144
                        ],
                        [
                            16.1229634,
                            40.990799
                        ],
                        [
                            16.1236178,
                            40.9908933
                        ],
                        [
                            16.1245307,
                            40.991318
                        ],
                        [
                            16.1253453,
                            40.9917669
                        ],
                        [
                            16.1261741,
                            40.9922643
                        ],
                        [
                            16.1274096,
                            40.9922685
                        ],
                        [
                            16.1277619,
                            40.9920396
                        ],
                        [
                            16.1280572,
                            40.9918323
                        ],
                        [
                            16.1285094,
                            40.9917862
                        ],
                        [
                            16.1290283,
                            40.9915875
                        ],
                        [
                            16.1294699,
                            40.9916905
                        ],
                        [
                            16.1303358,
                            40.9917356
                        ],
                        [
                            16.1312332,
                            40.9917698
                        ],
                        [
                            16.1313256,
                            40.9917731
                        ],
                        [
                            16.1313791,
                            40.9918012
                        ],
                        [
                            16.1322384,
                            40.9923057
                        ],
                        [
                            16.1331717,
                            40.9926166
                        ],
                        [
                            16.1344457,
                            40.9928388
                        ],
                        [
                            16.1358799,
                            40.993168
                        ],
                        [
                            16.1366674,
                            40.9933394
                        ],
                        [
                            16.1372623,
                            40.9935139
                        ],
                        [
                            16.1382108,
                            40.9939363
                        ],
                        [
                            16.1396083,
                            40.9944207
                        ],
                        [
                            16.1405558,
                            40.9948071
                        ],
                        [
                            16.1418472,
                            40.9952711
                        ],
                        [
                            16.1431141,
                            40.9957276
                        ],
                        [
                            16.1444066,
                            40.9961735
                        ],
                        [
                            16.145307,
                            40.9965628
                        ],
                        [
                            16.1457651,
                            40.9969257
                        ],
                        [
                            16.1459275,
                            40.9974105
                        ],
                        [
                            16.1460079,
                            40.9979049
                        ],
                        [
                            16.1461395,
                            40.9987336
                        ],
                        [
                            16.1462353,
                            40.999425
                        ],
                        [
                            16.1462803,
                            40.9999216
                        ],
                        [
                            16.1463104,
                            41.0002257
                        ],
                        [
                            16.1469786,
                            41.000445
                        ],
                        [
                            16.1475027,
                            41.0007048
                        ],
                        [
                            16.1479161,
                            41.001012
                        ],
                        [
                            16.1485285,
                            41.0014282
                        ],
                        [
                            16.1493622,
                            41.0021321
                        ],
                        [
                            16.1502535,
                            41.0027109
                        ],
                        [
                            16.1512837,
                            41.0032001
                        ],
                        [
                            16.1517032,
                            41.0033989
                        ],
                        [
                            16.1525432,
                            41.0038054
                        ],
                        [
                            16.1534295,
                            41.0042001
                        ],
                        [
                            16.1544961,
                            41.0046419
                        ],
                        [
                            16.155346,
                            41.0050298
                        ],
                        [
                            16.156414,
                            41.0055391
                        ],
                        [
                            16.157524,
                            41.0059152
                        ],
                        [
                            16.1586035,
                            41.0062573
                        ],
                        [
                            16.1595257,
                            41.0066541
                        ],
                        [
                            16.1599698,
                            41.0068873
                        ],
                        [
                            16.160581,
                            41.0072091
                        ],
                        [
                            16.1613696,
                            41.0074703
                        ],
                        [
                            16.1622314,
                            41.0078844
                        ],
                        [
                            16.1635052,
                            41.0085922
                        ],
                        [
                            16.1643609,
                            41.0091686
                        ],
                        [
                            16.1654403,
                            41.0097536
                        ],
                        [
                            16.1667233,
                            41.0102988
                        ],
                        [
                            16.1678958,
                            41.0106484
                        ],
                        [
                            16.1690287,
                            41.010933
                        ],
                        [
                            16.1702239,
                            41.0112182
                        ],
                        [
                            16.1713488,
                            41.0115933
                        ],
                        [
                            16.1722212,
                            41.0117772
                        ],
                        [
                            16.1730326,
                            41.0120009
                        ],
                        [
                            16.1739016,
                            41.0121805
                        ],
                        [
                            16.1752777,
                            41.0126523
                        ],
                        [
                            16.1766028,
                            41.0129293
                        ],
                        [
                            16.1778793,
                            41.0131148
                        ],
                        [
                            16.1787215,
                            41.01362
                        ],
                        [
                            16.1791633,
                            41.014022
                        ],
                        [
                            16.1795556,
                            41.01437760000001
                        ],
                        [
                            16.1802343,
                            41.015127
                        ],
                        [
                            16.1810246,
                            41.0160268
                        ],
                        [
                            16.1815462,
                            41.016696
                        ],
                        [
                            16.1817742,
                            41.0173431
                        ],
                        [
                            16.1820895,
                            41.0177823
                        ],
                        [
                            16.18258,
                            41.0179495
                        ],
                        [
                            16.1830002,
                            41.0181257
                        ],
                        [
                            16.1853992,
                            41.0187637
                        ],
                        [
                            16.1855331,
                            41.0187993
                        ],
                        [
                            16.1854713,
                            41.0188893
                        ],
                        [
                            16.1853717,
                            41.0190344
                        ],
                        [
                            16.1851158,
                            41.0193294
                        ],
                        [
                            16.1852329,
                            41.0198845
                        ],
                        [
                            16.1857191,
                            41.0205019
                        ],
                        [
                            16.1861714,
                            41.0212159
                        ],
                        [
                            16.1862654,
                            41.0218309
                        ],
                        [
                            16.1860479,
                            41.0219885
                        ],
                        [
                            16.1857178,
                            41.0222297
                        ],
                        [
                            16.1855279,
                            41.0223675
                        ],
                        [
                            16.1845094,
                            41.0233492
                        ],
                        [
                            16.1837615,
                            41.0240889
                        ],
                        [
                            16.182743,
                            41.0250166
                        ],
                        [
                            16.181959,
                            41.0258081
                        ],
                        [
                            16.1813286,
                            41.026509
                        ],
                        [
                            16.1810906,
                            41.0271583
                        ],
                        [
                            16.1812299,
                            41.0275095
                        ],
                        [
                            16.1815797,
                            41.0278835
                        ],
                        [
                            16.1820057,
                            41.0283292
                        ],
                        [
                            16.1820707,
                            41.0287616
                        ],
                        [
                            16.1819716,
                            41.029105199999989
                        ],
                        [
                            16.1840553,
                            41.0359125
                        ],
                        [
                            16.183640791410156,
                            41.034558329858584
                        ],
                        [
                            16.225630348460204,
                            41.005596486361028
                        ],
                        [
                            16.257639413250889,
                            41.010427293708013
                        ],
                        [
                            16.2574284,
                            41.0105815
                        ],
                        [
                            16.2579945,
                            41.0101678
                        ],
                        [
                            16.2584742,
                            41.0098584
                        ],
                        [
                            16.259148,
                            41.0096943
                        ],
                        [
                            16.2598484,
                            41.0095555
                        ],
                        [
                            16.26053,
                            41.0092469
                        ],
                        [
                            16.2610126,
                            41.0090453
                        ],
                        [
                            16.2615316,
                            41.0087155
                        ],
                        [
                            16.2618824,
                            41.0084504
                        ],
                        [
                            16.2621998,
                            41.0081783
                        ],
                        [
                            16.2627236,
                            41.0076502
                        ],
                        [
                            16.2631949,
                            41.0074539
                        ],
                        [
                            16.2641507,
                            41.0069659
                        ],
                        [
                            16.2648416,
                            41.0065532
                        ],
                        [
                            16.265443,
                            41.0061372
                        ],
                        [
                            16.2660189,
                            41.0058127
                        ],
                        [
                            16.266415,
                            41.0053572
                        ],
                        [
                            16.2664246,
                            41.0053461
                        ],
                        [
                            16.275625,
                            40.999496
                        ],
                        [
                            16.2774271,
                            40.9980194
                        ],
                        [
                            16.2801269,
                            40.995639
                        ],
                        [
                            16.2812185,
                            40.994301
                        ],
                        [
                            16.2815138,
                            40.9936299
                        ],
                        [
                            16.2818425,
                            40.9927632
                        ],
                        [
                            16.2825697,
                            40.9920958
                        ],
                        [
                            16.2854326,
                            40.990785
                        ],
                        [
                            16.2865373,
                            40.9903324
                        ],
                        [
                            16.2932904,
                            40.987860499999989
                        ],
                        [
                            16.3076994,
                            40.9814093
                        ],
                        [
                            16.3182152,
                            40.9739497
                        ],
                        [
                            16.3280374,
                            40.9667315
                        ],
                        [
                            16.3435008,
                            40.9596417
                        ],
                        [
                            16.3465663,
                            40.95846
                        ],
                        [
                            16.3483067,
                            40.9581551
                        ],
                        [
                            16.3537653,
                            40.9595417
                        ],
                        [
                            16.3545073,
                            40.959809
                        ],
                        [
                            16.3564945,
                            40.96057230000001
                        ],
                        [
                            16.3571182,
                            40.9620124
                        ],
                        [
                            16.3578023,
                            40.9623194
                        ],
                        [
                            16.3590726,
                            40.9627462
                        ],
                        [
                            16.3599788,
                            40.9629936
                        ],
                        [
                            16.3603137,
                            40.963085
                        ],
                        [
                            16.3617924,
                            40.9633454
                        ],
                        [
                            16.3684675,
                            40.9639879
                        ],
                        [
                            16.3797835,
                            40.9650771
                        ],
                        [
                            16.3811953,
                            40.9650042
                        ],
                        [
                            16.3903907,
                            40.9643353
                        ],
                        [
                            16.402646043453792,
                            40.962594323465737
                        ],
                        [
                            16.444497160288886,
                            40.829679011988468
                        ]
                    ]
                ]
            }
        }
    ]
}