{
    "type": "FeatureCollection",
    "name": "Potentin",
    "features": [
        {
            "type": "Feature",
            "properties": {
                "diocese": "Potentin",
                "province": "Archeruntin et Materanen",
                "date": 1592
            },
            "geometry": {
                "type": "MultiPolygon",
                "coordinates": [
                    [
                        [
                            [
                                15.686135198915,
                                40.318778743085026
                            ],
                            [
                                15.654334024116968,
                                40.391480570920386
                            ],
                            [
                                15.616570129044302,
                                40.389966749077509
                            ],
                            [
                                15.505266017251186,
                                40.509453808225409
                            ],
                            [
                                15.465514548753644,
                                40.592515530021593
                            ],
                            [
                                15.419800359981473,
                                40.612133244759796
                            ],
                            [
                                15.44762638792975,
                                40.649843435207679
                            ],
                            [
                                15.44762638792975,
                                40.681503535944294
                            ],
                            [
                                15.389986758608313,
                                40.689039439853047
                            ],
                            [
                                15.318434115312735,
                                40.738755033036746
                            ],
                            [
                                15.304521101338599,
                                40.824539965998703
                            ],
                            [
                                15.378061318059048,
                                40.85010349389001
                            ],
                            [
                                15.441663667655119,
                                40.821531844040109
                            ],
                            [
                                15.59271924794578,
                                40.807993606905264
                            ],
                            [
                                15.582781380821391,
                                40.887679007522955
                            ],
                            [
                                15.644396156992579,
                                40.91772406481001
                            ],
                            [
                                15.775474081786223,
                                40.825785602387555
                            ],
                            [
                                15.728610762139999,
                                40.802947525820422
                            ],
                            [
                                15.726710711085811,
                                40.7540284895952
                            ],
                            [
                                15.810312957469995,
                                40.723795795565309
                            ],
                            [
                                15.836913672228601,
                                40.651757895453315
                            ],
                            [
                                15.806512855361623,
                                40.521893496774048
                            ],
                            [
                                15.707710200543952,
                                40.471322588567915
                            ],
                            [
                                15.836913672228601,
                                40.39756532510799
                            ],
                            [
                                15.888215050691617,
                                40.42939210646265
                            ],
                            [
                                15.922415969666968,
                                40.412033910019368
                            ],
                            [
                                15.923893167428133,
                                40.41381922723302
                            ],
                            [
                                15.943939090817226,
                                40.298667577600547
                            ],
                            [
                                15.773400938685443,
                                40.274870790479568
                            ],
                            [
                                15.769265440127956,
                                40.267820114423593
                            ],
                            [
                                15.686135198915,
                                40.318778743085026
                            ]
                        ]
                    ]
                ]
            }
        }
    ]
}