{
    "type": "FeatureCollection",
    "name": "Tricaricen",
    "features": [
        {
            "type": "Feature",
            "properties": {
                "diocese": "Tricaricen",
                "province": "Archeruntin et Materanen",
                "date": 1592
            },
            "geometry": {
                "type": "MultiPolygon",
                "coordinates": [
                    [
                        [
                            [
                                15.923893167428133,
                                40.41381922723302
                            ],
                            [
                                15.922415969666968,
                                40.412033910019368
                            ],
                            [
                                15.987017705509293,
                                40.490110518353944
                            ],
                            [
                                16.091520513489517,
                                40.452529400844043
                            ],
                            [
                                16.102920819814635,
                                40.482885013789357
                            ],
                            [
                                16.057319594514173,
                                40.498780097023669
                            ],
                            [
                                16.045919288189054,
                                40.581085216622
                            ],
                            [
                                15.903415459125105,
                                40.631573330219155
                            ],
                            [
                                15.886314999637433,
                                40.667612914623419
                            ],
                            [
                                15.903415459125105,
                                40.69066803321612
                            ],
                            [
                                15.962317041804871,
                                40.667612914623419
                            ],
                            [
                                15.998418011834406,
                                40.670495240501893
                            ],
                            [
                                16.089620462435331,
                                40.745391979097271
                            ],
                            [
                                16.268225261528816,
                                40.68202329816517
                            ],
                            [
                                16.234024342553464,
                                40.563766226825528
                            ],
                            [
                                16.348027405804629,
                                40.38019891814411
                            ],
                            [
                                16.410729090592763,
                                40.339659888829836
                            ],
                            [
                                16.395465623299089,
                                40.349528302256786
                            ],
                            [
                                16.328047745061998,
                                40.347513397412158
                            ],
                            [
                                16.245485815868541,
                                40.303937209626234
                            ],
                            [
                                16.192561502282995,
                                40.300708224817626
                            ],
                            [
                                16.152339023957975,
                                40.274870790479568
                            ],
                            [
                                16.050724341873721,
                                40.271640416746969
                            ],
                            [
                                15.946992687246041,
                                40.299093674536991
                            ],
                            [
                                15.943939090817226,
                                40.298667577600547
                            ],
                            [
                                15.923893167428133,
                                40.41381922723302
                            ]
                        ]
                    ]
                ]
            }
        }
    ]
}