{
    "type": "FeatureCollection",
    "features": [
        {
            "type": "Feature",
            "properties": {
                "diocese": "Biterren",
                "province": "Narbonen",
                "date": 1592
            },
            "geometry": {
                "type": "Polygon",
                "coordinates": [
                    [
                        [
                            3.3319620661839067,
                            43.23750938079069
                        ],
                        [
                            3.3319562339975417,
                            43.244898347773095
                        ],
                        [
                            3.3319504018111794,
                            43.25228731475549
                        ],
                        [
                            3.3319445696248144,
                            43.259676281737896
                        ],
                        [
                            3.3319387374384495,
                            43.2670652487203
                        ],
                        [
                            3.331932905252087,
                            43.274454215702704
                        ],
                        [
                            3.331927073065725,
                            43.28184318268511
                        ],
                        [
                            3.33192124087936,
                            43.28923214966751
                        ],
                        [
                            3.331915408692996,
                            43.29662111664991
                        ],
                        [
                            3.3319095765066336,
                            43.30401008363233
                        ],
                        [
                            3.3319037443202686,
                            43.31139905061472
                        ],
                        [
                            3.3319037443202686,
                            43.31139905061472
                        ],
                        [
                            3.3302774791666487,
                            43.31415677803315
                        ],
                        [
                            3.3286512140130307,
                            43.31691450545157
                        ],
                        [
                            3.327024948859409,
                            43.31967223287
                        ],
                        [
                            3.325398683705791,
                            43.32242996028842
                        ],
                        [
                            3.323772418552171,
                            43.32518768770685
                        ],
                        [
                            3.322146153398552,
                            43.327945415125264
                        ],
                        [
                            3.3205198882449323,
                            43.3307031425437
                        ],
                        [
                            3.3188936230913115,
                            43.33346086996212
                        ],
                        [
                            3.3172673579376935,
                            43.336218597380544
                        ],
                        [
                            3.3156410927840736,
                            43.33897632479897
                        ],
                        [
                            3.3156410927840736,
                            43.33897632479897
                        ],
                        [
                            3.320178132768698,
                            43.34098470472249
                        ],
                        [
                            3.3247151727533235,
                            43.342993084646004
                        ],
                        [
                            3.32925221273795,
                            43.34500146456953
                        ],
                        [
                            3.333789252722576,
                            43.347009844493044
                        ],
                        [
                            3.3383262927072006,
                            43.34901822441656
                        ],
                        [
                            3.342863332691826,
                            43.35102660434008
                        ],
                        [
                            3.3474003726764505,
                            43.353034984263594
                        ],
                        [
                            3.351937412661075,
                            43.35504336418712
                        ],
                        [
                            3.356474452645703,
                            43.357051744110635
                        ],
                        [
                            3.3610114926303276,
                            43.35906012403415
                        ],
                        [
                            3.3610114926303276,
                            43.35906012403415
                        ],
                        [
                            3.360113237983954,
                            43.36357314422166
                        ],
                        [
                            3.3592149833375804,
                            43.36808616440917
                        ],
                        [
                            3.358316728691206,
                            43.37259918459667
                        ],
                        [
                            3.357418474044833,
                            43.377112204784176
                        ],
                        [
                            3.3565202193984587,
                            43.381625224971685
                        ],
                        [
                            3.355621964752085,
                            43.386138245159195
                        ],
                        [
                            3.3547237101057106,
                            43.39065126534669
                        ],
                        [
                            3.353825455459338,
                            43.3951642855342
                        ],
                        [
                            3.3529272008129642,
                            43.39967730572171
                        ],
                        [
                            3.3520289461665906,
                            43.40419032590922
                        ],
                        [
                            3.3520289461665906,
                            43.40419032590922
                        ],
                        [
                            3.3573017069768025,
                            43.411088150901065
                        ],
                        [
                            3.362574467787017,
                            43.41798597589292
                        ],
                        [
                            3.36784722859723,
                            43.42488380088477
                        ],
                        [
                            3.3731199894074426,
                            43.43178162587663
                        ],
                        [
                            3.3783927502176554,
                            43.43867945086848
                        ],
                        [
                            3.38366551102787,
                            43.44557727586032
                        ],
                        [
                            3.3889382718380827,
                            43.452475100852176
                        ],
                        [
                            3.3942110326482955,
                            43.45937292584403
                        ],
                        [
                            3.3994837934585065,
                            43.46627075083588
                        ],
                        [
                            3.404756554268721,
                            43.47316857582774
                        ],
                        [
                            3.404756554268721,
                            43.47316857582774
                        ],
                        [
                            3.408204786911409,
                            43.473796496171
                        ],
                        [
                            3.4116530195541004,
                            43.47442441651425
                        ],
                        [
                            3.415101252196791,
                            43.47505233685751
                        ],
                        [
                            3.4185494848394806,
                            43.475680257200764
                        ],
                        [
                            3.4219977174821685,
                            43.47630817754403
                        ],
                        [
                            3.42544595012486,
                            43.47693609788729
                        ],
                        [
                            3.4288941827675496,
                            43.47756401823054
                        ],
                        [
                            3.4323424154102393,
                            43.478191938573794
                        ],
                        [
                            3.435790648052929,
                            43.478819858917056
                        ],
                        [
                            3.439238880695618,
                            43.47944777926031
                        ],
                        [
                            3.439238880695618,
                            43.47944777926031
                        ],
                        [
                            3.441243492823942,
                            43.48458858368719
                        ],
                        [
                            3.4432481049522665,
                            43.489729388114064
                        ],
                        [
                            3.4452527170805882,
                            43.494870192540944
                        ],
                        [
                            3.447257329208911,
                            43.50001099696782
                        ],
                        [
                            3.4492619413372334,
                            43.5051518013947
                        ],
                        [
                            3.451266553465557,
                            43.510292605821576
                        ],
                        [
                            3.4532711655938813,
                            43.515433410248455
                        ],
                        [
                            3.455275777722204,
                            43.520574214675335
                        ],
                        [
                            3.4572803898505273,
                            43.525715019102215
                        ],
                        [
                            3.459285001978848,
                            43.53085582352909
                        ],
                        [
                            3.459285001978848,
                            43.53085582352909
                        ],
                        [
                            3.4636332944667862,
                            43.52872578052556
                        ],
                        [
                            3.4679815869547252,
                            43.52659573752203
                        ],
                        [
                            3.4723298794426616,
                            43.5244656945185
                        ],
                        [
                            3.4766781719306006,
                            43.52233565151497
                        ],
                        [
                            3.481026464418538,
                            43.520205608511446
                        ],
                        [
                            3.485374756906476,
                            43.518075565507914
                        ],
                        [
                            3.489723049394415,
                            43.51594552250438
                        ],
                        [
                            3.4940713418823512,
                            43.513815479500856
                        ],
                        [
                            3.4984196343702902,
                            43.51168543649733
                        ],
                        [
                            3.5027679268582284,
                            43.5095553934938
                        ],
                        [
                            3.5027679268582284,
                            43.5095553934938
                        ],
                        [
                            3.5087558720981655,
                            43.51156304164363
                        ],
                        [
                            3.514743817338101,
                            43.51357068979348
                        ],
                        [
                            3.520731762578037,
                            43.515578337943325
                        ],
                        [
                            3.526719707817976,
                            43.517585986093174
                        ],
                        [
                            3.5327076530579107,
                            43.519593634243016
                        ],
                        [
                            3.538695598297848,
                            43.52160128239285
                        ],
                        [
                            3.544683543537785,
                            43.5236089305427
                        ],
                        [
                            3.5506714887777213,
                            43.525616578692535
                        ],
                        [
                            3.5566594340176567,
                            43.52762422684238
                        ],
                        [
                            3.562647379257595,
                            43.52963187499222
                        ],
                        [
                            3.562647379257595,
                            43.52963187499222
                        ],
                        [
                            3.567181642777054,
                            43.52938196389432
                        ],
                        [
                            3.571715906296514,
                            43.52913205279642
                        ],
                        [
                            3.5762501698159768,
                            43.528882141698524
                        ],
                        [
                            3.580784433335437,
                            43.528632230600614
                        ],
                        [
                            3.5853186968548996,
                            43.52838231950272
                        ],
                        [
                            3.589852960374358,
                            43.52813240840482
                        ],
                        [
                            3.594387223893819,
                            43.52788249730692
                        ],
                        [
                            3.5989214874132807,
                            43.52763258620902
                        ],
                        [
                            3.6034557509327434,
                            43.52738267511112
                        ],
                        [
                            3.6079900144522035,
                            43.527132764013224
                        ],
                        [
                            3.6079900144522035,
                            43.527132764013224
                        ],
                        [
                            3.6107141675106056,
                            43.5296405891459
                        ],
                        [
                            3.6134383205690104,
                            43.53214841427859
                        ],
                        [
                            3.6161624736274125,
                            43.53465623941127
                        ],
                        [
                            3.6188866266858155,
                            43.53716406454395
                        ],
                        [
                            3.6216107797442203,
                            43.53967188967663
                        ],
                        [
                            3.6243349328026224,
                            43.54217971480932
                        ],
                        [
                            3.627059085861027,
                            43.544687539942
                        ],
                        [
                            3.629783238919431,
                            43.547195365074685
                        ],
                        [
                            3.6325073919778323,
                            43.549703190207374
                        ],
                        [
                            3.635231545036237,
                            43.55221101534006
                        ],
                        [
                            3.635231545036237,
                            43.55221101534006
                        ],
                        [
                            3.6374267300200853,
                            43.56161625673433
                        ],
                        [
                            3.6396219150039335,
                            43.57102149812862
                        ],
                        [
                            3.641817099987781,
                            43.5804267395229
                        ],
                        [
                            3.644012284971629,
                            43.58983198091719
                        ],
                        [
                            3.646207469955478,
                            43.59923722231146
                        ],
                        [
                            3.6484026549393245,
                            43.60864246370575
                        ],
                        [
                            3.6505978399231744,
                            43.618047705100025
                        ],
                        [
                            3.65279302490702,
                            43.627452946494316
                        ],
                        [
                            3.654988209890868,
                            43.63685818788859
                        ],
                        [
                            3.657183394874718,
                            43.646263429282875
                        ],
                        [
                            3.657183394874718,
                            43.646263429282875
                        ],
                        [
                            3.6555561607771483,
                            43.64851912577589
                        ],
                        [
                            3.6539289266795802,
                            43.650774822268914
                        ],
                        [
                            3.6523016925820113,
                            43.65303051876194
                        ],
                        [
                            3.6506744584844424,
                            43.65528621525496
                        ],
                        [
                            3.6490472243868752,
                            43.65754191174798
                        ],
                        [
                            3.6474199902893063,
                            43.65979760824101
                        ],
                        [
                            3.6457927561917383,
                            43.66205330473403
                        ],
                        [
                            3.6441655220941684,
                            43.664309001227046
                        ],
                        [
                            3.6425382879965995,
                            43.66656469772007
                        ],
                        [
                            3.6409110538990332,
                            43.668820394213085
                        ],
                        [
                            3.6409110538990332,
                            43.668820394213085
                        ],
                        [
                            3.6349189440062397,
                            43.66543370573247
                        ],
                        [
                            3.6289268341134524,
                            43.662047017251844
                        ],
                        [
                            3.6229347242206633,
                            43.65866032877123
                        ],
                        [
                            3.61694261432787,
                            43.65527364029061
                        ],
                        [
                            3.6109505044350807,
                            43.651886951809985
                        ],
                        [
                            3.6049583945422934,
                            43.64850026332937
                        ],
                        [
                            3.5989662846495,
                            43.64511357484875
                        ],
                        [
                            3.5929741747567108,
                            43.641726886368126
                        ],
                        [
                            3.586982064863921,
                            43.6383401978875
                        ],
                        [
                            3.58098995497113,
                            43.634953509406884
                        ],
                        [
                            3.58098995497113,
                            43.634953509406884
                        ],
                        [
                            3.5782746253312845,
                            43.637837033311826
                        ],
                        [
                            3.5755592956914346,
                            43.64072055721678
                        ],
                        [
                            3.5728439660515874,
                            43.64360408112172
                        ],
                        [
                            3.5701286364117375,
                            43.64648760502667
                        ],
                        [
                            3.5674133067718903,
                            43.64937112893162
                        ],
                        [
                            3.564697977132044,
                            43.65225465283657
                        ],
                        [
                            3.561982647492194,
                            43.65513817674151
                        ],
                        [
                            3.559267317852347,
                            43.65802170064645
                        ],
                        [
                            3.556551988212497,
                            43.660905224551406
                        ],
                        [
                            3.5538366585726497,
                            43.66378874845635
                        ],
                        [
                            3.5538366585726497,
                            43.66378874845635
                        ],
                        [
                            3.548576854523326,
                            43.662784358910656
                        ],
                        [
                            3.5433170504739997,
                            43.66177996936495
                        ],
                        [
                            3.5380572464246733,
                            43.660775579819244
                        ],
                        [
                            3.5327974423753497,
                            43.659771190273545
                        ],
                        [
                            3.527537638326025,
                            43.65876680072785
                        ],
                        [
                            3.522277834276697,
                            43.65776241118215
                        ],
                        [
                            3.5170180302273732,
                            43.656758021636435
                        ],
                        [
                            3.5117582261780487,
                            43.65575363209074
                        ],
                        [
                            3.506498422128723,
                            43.65474924254503
                        ],
                        [
                            3.5012386180793986,
                            43.65374485299934
                        ],
                        [
                            3.5012386180793986,
                            43.65374485299934
                        ],
                        [
                            3.497777559359188,
                            43.64647146304499
                        ],
                        [
                            3.494316500638973,
                            43.63919807309064
                        ],
                        [
                            3.4908554419187623,
                            43.63192468313628
                        ],
                        [
                            3.487394383198549,
                            43.624651293181934
                        ],
                        [
                            3.4839333244783366,
                            43.6173779032276
                        ],
                        [
                            3.480472265758126,
                            43.61010451327325
                        ],
                        [
                            3.4770112070379144,
                            43.60283112331889
                        ],
                        [
                            3.473550148317701,
                            43.595557733364544
                        ],
                        [
                            3.4700890895974887,
                            43.588284343410194
                        ],
                        [
                            3.4666280308772772,
                            43.581010953455845
                        ],
                        [
                            3.4666280308772772,
                            43.581010953455845
                        ],
                        [
                            3.463361466558579,
                            43.57925508184759
                        ],
                        [
                            3.4600949022398795,
                            43.57749921023934
                        ],
                        [
                            3.456828337921182,
                            43.575743338631085
                        ],
                        [
                            3.4535617736024826,
                            43.57398746702283
                        ],
                        [
                            3.450295209283785,
                            43.57223159541457
                        ],
                        [
                            3.4470286449650867,
                            43.570475723806325
                        ],
                        [
                            3.4437620806463856,
                            43.56871985219807
                        ],
                        [
                            3.440495516327688,
                            43.56696398058982
                        ],
                        [
                            3.4372289520089887,
                            43.56520810898156
                        ],
                        [
                            3.433962387690291,
                            43.563452237373305
                        ],
                        [
                            3.433962387690291,
                            43.563452237373305
                        ],
                        [
                            3.4270715386263713,
                            43.56432752627079
                        ],
                        [
                            3.420180689562454,
                            43.565202815168256
                        ],
                        [
                            3.413289840498536,
                            43.566078104065724
                        ],
                        [
                            3.4063989914346178,
                            43.5669533929632
                        ],
                        [
                            3.399508142370697,
                            43.567828681860675
                        ],
                        [
                            3.392617293306779,
                            43.56870397075815
                        ],
                        [
                            3.385726444242858,
                            43.56957925965562
                        ],
                        [
                            3.3788355951789417,
                            43.5704545485531
                        ],
                        [
                            3.3719447461150236,
                            43.57132983745057
                        ],
                        [
                            3.3650538970511046,
                            43.57220512634804
                        ],
                        [
                            3.3650538970511046,
                            43.57220512634804
                        ],
                        [
                            3.355442525592054,
                            43.57245371568733
                        ],
                        [
                            3.3458311541330032,
                            43.57270230502662
                        ],
                        [
                            3.336219782673956,
                            43.57295089436591
                        ],
                        [
                            3.3266084112149064,
                            43.573199483705196
                        ],
                        [
                            3.3169970397558557,
                            43.57344807304448
                        ],
                        [
                            3.307385668296807,
                            43.57369666238377
                        ],
                        [
                            3.297774296837758,
                            43.57394525172306
                        ],
                        [
                            3.288162925378711,
                            43.57419384106235
                        ],
                        [
                            3.2785515539196592,
                            43.57444243040164
                        ],
                        [
                            3.2689401824606104,
                            43.574691019740925
                        ],
                        [
                            3.2689401824606104,
                            43.574691019740925
                        ],
                        [
                            3.267134126234564,
                            43.57795084236029
                        ],
                        [
                            3.265328070008518,
                            43.58121066497964
                        ],
                        [
                            3.2635220137824734,
                            43.58447048759901
                        ],
                        [
                            3.261715957556428,
                            43.58773031021837
                        ],
                        [
                            3.2599099013303827,
                            43.59099013283773
                        ],
                        [
                            3.2581038451043374,
                            43.594249955457094
                        ],
                        [
                            3.256297788878292,
                            43.59750977807646
                        ],
                        [
                            3.2544917326522467,
                            43.60076960069582
                        ],
                        [
                            3.2526856764262004,
                            43.604029423315176
                        ],
                        [
                            3.2508796202001533,
                            43.607289245934545
                        ],
                        [
                            3.2508796202001533,
                            43.607289245934545
                        ],
                        [
                            3.248165579923905,
                            43.61079982994853
                        ],
                        [
                            3.245451539647655,
                            43.61431041396253
                        ],
                        [
                            3.242737499371406,
                            43.61782099797653
                        ],
                        [
                            3.240023459095157,
                            43.621331581990525
                        ],
                        [
                            3.2373094188189078,
                            43.62484216600452
                        ],
                        [
                            3.234595378542654,
                            43.628352750018514
                        ],
                        [
                            3.231881338266406,
                            43.631863334032516
                        ],
                        [
                            3.229167297990158,
                            43.63537391804651
                        ],
                        [
                            3.226453257713907,
                            43.638884502060506
                        ],
                        [
                            3.223739217437658,
                            43.64239508607451
                        ],
                        [
                            3.223739217437658,
                            43.64239508607451
                        ],
                        [
                            3.224657476263904,
                            43.648287653583864
                        ],
                        [
                            3.2255757350901475,
                            43.65418022109323
                        ],
                        [
                            3.226493993916391,
                            43.660072788602584
                        ],
                        [
                            3.2274122527426354,
                            43.66596535611195
                        ],
                        [
                            3.2283305115688816,
                            43.67185792362131
                        ],
                        [
                            3.2292487703951234,
                            43.67775049113067
                        ],
                        [
                            3.230167029221367,
                            43.68364305864004
                        ],
                        [
                            3.231085288047613,
                            43.68953562614939
                        ],
                        [
                            3.2320035468738566,
                            43.695428193658756
                        ],
                        [
                            3.232921805700101,
                            43.70132076116811
                        ],
                        [
                            3.232921805700101,
                            43.70132076116811
                        ],
                        [
                            3.2311154566912443,
                            43.70520764350168
                        ],
                        [
                            3.229309107682385,
                            43.70909452583524
                        ],
                        [
                            3.2275027586735265,
                            43.71298140816881
                        ],
                        [
                            3.225696409664668,
                            43.716868290502376
                        ],
                        [
                            3.223890060655807,
                            43.720755172835936
                        ],
                        [
                            3.2220837116469503,
                            43.72464205516949
                        ],
                        [
                            3.220277362638092,
                            43.72852893750306
                        ],
                        [
                            3.2184710136292325,
                            43.732415819836625
                        ],
                        [
                            3.216664664620374,
                            43.736302702170185
                        ],
                        [
                            3.2148583156115156,
                            43.74018958450375
                        ],
                        [
                            3.2148583156115156,
                            43.74018958450375
                        ],
                        [
                            3.2186746022985644,
                            43.74420278976371
                        ],
                        [
                            3.222490888985613,
                            43.74821599502366
                        ],
                        [
                            3.226307175672662,
                            43.75222920028362
                        ],
                        [
                            3.230123462359711,
                            43.75624240554357
                        ],
                        [
                            3.2339397490467605,
                            43.760255610803526
                        ],
                        [
                            3.2377560357338075,
                            43.76426881606348
                        ],
                        [
                            3.2415723224208564,
                            43.768282021323444
                        ],
                        [
                            3.245388609107905,
                            43.772295226583395
                        ],
                        [
                            3.249204895794952,
                            43.77630843184335
                        ],
                        [
                            3.253021182482002,
                            43.7803216371033
                        ],
                        [
                            3.253021182482002,
                            43.7803216371033
                        ],
                        [
                            3.25048867773516,
                            43.783455210148794
                        ],
                        [
                            3.247956172988315,
                            43.786588783194276
                        ],
                        [
                            3.245423668241471,
                            43.78972235623977
                        ],
                        [
                            3.242891163494631,
                            43.79285592928526
                        ],
                        [
                            3.2403586587477853,
                            43.79598950233075
                        ],
                        [
                            3.237826154000945,
                            43.79912307537625
                        ],
                        [
                            3.235293649254101,
                            43.80225664842174
                        ],
                        [
                            3.232761144507259,
                            43.80539022146723
                        ],
                        [
                            3.230228639760415,
                            43.808523794512716
                        ],
                        [
                            3.227696135013572,
                            43.81165736755821
                        ],
                        [
                            3.227696135013572,
                            43.81165736755821
                        ],
                        [
                            3.223887350965399,
                            43.81153144261115
                        ],
                        [
                            3.220078566917223,
                            43.8114055176641
                        ],
                        [
                            3.2162697828690514,
                            43.81127959271705
                        ],
                        [
                            3.212460998820877,
                            43.811153667769986
                        ],
                        [
                            3.208652214772702,
                            43.81102774282294
                        ],
                        [
                            3.2048434307245315,
                            43.81090181787587
                        ],
                        [
                            3.201034646676358,
                            43.810775892928824
                        ],
                        [
                            3.197225862628184,
                            43.81064996798177
                        ],
                        [
                            3.1934170785800107,
                            43.81052404303472
                        ],
                        [
                            3.1896082945318347,
                            43.81039811808766
                        ],
                        [
                            3.1896082945318347,
                            43.81039811808766
                        ],
                        [
                            3.1845258116831157,
                            43.80839069590896
                        ],
                        [
                            3.1794433288343957,
                            43.80638327373026
                        ],
                        [
                            3.1743608459856767,
                            43.80437585155157
                        ],
                        [
                            3.1692783631369568,
                            43.802368429372876
                        ],
                        [
                            3.164195880288236,
                            43.800361007194184
                        ],
                        [
                            3.159113397439516,
                            43.798353585015484
                        ],
                        [
                            3.154030914590796,
                            43.796346162836784
                        ],
                        [
                            3.1489484317420753,
                            43.79433874065809
                        ],
                        [
                            3.1438659488933562,
                            43.79233131847939
                        ],
                        [
                            3.1387834660446363,
                            43.7903238963007
                        ],
                        [
                            3.1387834660446363,
                            43.7903238963007
                        ],
                        [
                            3.1326175349311485,
                            43.79057340019251
                        ],
                        [
                            3.1264516038176597,
                            43.79082290408433
                        ],
                        [
                            3.120285672704171,
                            43.79107240797614
                        ],
                        [
                            3.114119741590685,
                            43.79132191186795
                        ],
                        [
                            3.107953810477196,
                            43.79157141575976
                        ],
                        [
                            3.1017878793637084,
                            43.79182091965159
                        ],
                        [
                            3.0956219482502196,
                            43.7920704235434
                        ],
                        [
                            3.089456017136732,
                            43.792319927435216
                        ],
                        [
                            3.083290086023245,
                            43.792569431327024
                        ],
                        [
                            3.077124154909756,
                            43.79281893521884
                        ],
                        [
                            3.077124154909756,
                            43.79281893521884
                        ],
                        [
                            3.0762221590767074,
                            43.79457382119642
                        ],
                        [
                            3.0753201632436578,
                            43.79632870717401
                        ],
                        [
                            3.07441816741061,
                            43.7980835931516
                        ],
                        [
                            3.073516171577561,
                            43.799838479129185
                        ],
                        [
                            3.0726141757445116,
                            43.801593365106775
                        ],
                        [
                            3.071712179911462,
                            43.80334825108435
                        ],
                        [
                            3.070810184078413,
                            43.80510313706195
                        ],
                        [
                            3.0699081882453627,
                            43.806858023039524
                        ],
                        [
                            3.0690061924123158,
                            43.80861290901711
                        ],
                        [
                            3.068104196579266,
                            43.8103677949947
                        ],
                        [
                            3.068104196579266,
                            43.8103677949947
                        ],
                        [
                            3.0657473718336985,
                            43.810869237498814
                        ],
                        [
                            3.063390547088131,
                            43.81137068000294
                        ],
                        [
                            3.061033722342563,
                            43.81187212250706
                        ],
                        [
                            3.0586768975969956,
                            43.812373565011185
                        ],
                        [
                            3.056320072851426,
                            43.8128750075153
                        ],
                        [
                            3.0539632481058585,
                            43.813376450019426
                        ],
                        [
                            3.051606423360291,
                            43.81387789252354
                        ],
                        [
                            3.049249598614725,
                            43.81437933502767
                        ],
                        [
                            3.0468927738691574,
                            43.814880777531776
                        ],
                        [
                            3.044535949123588,
                            43.81538222003589
                        ],
                        [
                            3.044535949123588,
                            43.81538222003589
                        ],
                        [
                            3.0428975321534852,
                            43.812622584001225
                        ],
                        [
                            3.0412591151833808,
                            43.80986294796656
                        ],
                        [
                            3.03962069821328,
                            43.8071033119319
                        ],
                        [
                            3.037982281243178,
                            43.80434367589723
                        ],
                        [
                            3.0363438642730736,
                            43.80158403986256
                        ],
                        [
                            3.034705447302971,
                            43.79882440382789
                        ],
                        [
                            3.033067030332868,
                            43.796064767793226
                        ],
                        [
                            3.0314286133627655,
                            43.79330513175856
                        ],
                        [
                            3.029790196392662,
                            43.79054549572389
                        ],
                        [
                            3.028151779422559,
                            43.78778585968922
                        ],
                        [
                            3.028151779422559,
                            43.78778585968922
                        ],
                        [
                            3.0252467354532926,
                            43.78603002361017
                        ],
                        [
                            3.0223416914840286,
                            43.784274187531125
                        ],
                        [
                            3.019436647514761,
                            43.78251835145207
                        ],
                        [
                            3.0165316035454963,
                            43.780762515373006
                        ],
                        [
                            3.0136265595762306,
                            43.77900667929396
                        ],
                        [
                            3.0107215156069658,
                            43.77725084321491
                        ],
                        [
                            3.007816471637699,
                            43.77549500713585
                        ],
                        [
                            3.004911427668435,
                            43.773739171056796
                        ],
                        [
                            3.002006383699167,
                            43.77198333497774
                        ],
                        [
                            2.999101339729903,
                            43.77022749889869
                        ],
                        [
                            2.999101339729903,
                            43.77022749889869
                        ],
                        [
                            3.0010916744232183,
                            43.76797085384811
                        ],
                        [
                            3.0030820091165356,
                            43.76571420879753
                        ],
                        [
                            3.0050723438098514,
                            43.76345756374695
                        ],
                        [
                            3.0070626785031647,
                            43.761200918696375
                        ],
                        [
                            3.0090530131964806,
                            43.758944273645795
                        ],
                        [
                            3.0110433478897956,
                            43.75668762859521
                        ],
                        [
                            3.0130336825831114,
                            43.75443098354464
                        ],
                        [
                            3.0150240172764287,
                            43.75217433849405
                        ],
                        [
                            3.017014351969744,
                            43.74991769344347
                        ],
                        [
                            3.01900468666306,
                            43.7476610483929
                        ],
                        [
                            3.01900468666306,
                            43.7476610483929
                        ],
                        [
                            3.01717709135878,
                            43.739761006305535
                        ],
                        [
                            3.0153494960544966,
                            43.73186096421818
                        ],
                        [
                            3.0135219007502148,
                            43.723960922130814
                        ],
                        [
                            3.011694305445933,
                            43.71606088004346
                        ],
                        [
                            3.009866710141651,
                            43.70816083795609
                        ],
                        [
                            3.0080391148373695,
                            43.700260795868736
                        ],
                        [
                            3.0062115195330876,
                            43.69236075378137
                        ],
                        [
                            3.004383924228806,
                            43.68446071169401
                        ],
                        [
                            3.0025563289245243,
                            43.67656066960666
                        ],
                        [
                            3.0007287336202424,
                            43.668660627519294
                        ],
                        [
                            3.0007287336202424,
                            43.668660627519294
                        ],
                        [
                            2.9940100646832515,
                            43.66427068082939
                        ],
                        [
                            2.98729139574626,
                            43.65988073413946
                        ],
                        [
                            2.9805727268092728,
                            43.65549078744955
                        ],
                        [
                            2.973854057872282,
                            43.65110084075964
                        ],
                        [
                            2.9671353889352905,
                            43.64671089406973
                        ],
                        [
                            2.9604167199983027,
                            43.642320947379815
                        ],
                        [
                            2.953698051061312,
                            43.637931000689896
                        ],
                        [
                            2.9469793821243226,
                            43.633541053999984
                        ],
                        [
                            2.9402607131873335,
                            43.629151107310065
                        ],
                        [
                            2.933542044250342,
                            43.62476116062016
                        ],
                        [
                            2.933542044250342,
                            43.62476116062016
                        ],
                        [
                            2.93397360959859,
                            43.62100853563759
                        ],
                        [
                            2.9344051749468365,
                            43.61725591065503
                        ],
                        [
                            2.934836740295085,
                            43.61350328567248
                        ],
                        [
                            2.9352683056433326,
                            43.60975066068991
                        ],
                        [
                            2.935699870991581,
                            43.60599803570735
                        ],
                        [
                            2.9361314363398274,
                            43.60224541072479
                        ],
                        [
                            2.9365630016880737,
                            43.59849278574223
                        ],
                        [
                            2.9369945670363236,
                            43.59474016075967
                        ],
                        [
                            2.93742613238457,
                            43.59098753577712
                        ],
                        [
                            2.937857697732818,
                            43.58723491079455
                        ],
                        [
                            2.937857697732818,
                            43.58723491079455
                        ],
                        [
                            2.941962759007206,
                            43.5879452539267
                        ],
                        [
                            2.946067820281594,
                            43.588655597058825
                        ],
                        [
                            2.9501728815559822,
                            43.58936594019097
                        ],
                        [
                            2.95427794283037,
                            43.59007628332311
                        ],
                        [
                            2.9583830041047583,
                            43.590786626455255
                        ],
                        [
                            2.9624880653791466,
                            43.59149696958739
                        ],
                        [
                            2.966593126653535,
                            43.59220731271954
                        ],
                        [
                            2.970698187927923,
                            43.59291765585168
                        ],
                        [
                            2.974803249202311,
                            43.59362799898382
                        ],
                        [
                            2.9789083104767013,
                            43.59433834211596
                        ],
                        [
                            2.9789083104767013,
                            43.59433834211596
                        ],
                        [
                            2.980187083626873,
                            43.593274710616164
                        ],
                        [
                            2.981465856777046,
                            43.592211079116375
                        ],
                        [
                            2.9827446299272182,
                            43.59114744761658
                        ],
                        [
                            2.9840234030773924,
                            43.59008381611678
                        ],
                        [
                            2.9853021762275627,
                            43.58902018461699
                        ],
                        [
                            2.986580949377737,
                            43.587956553117195
                        ],
                        [
                            2.9878597225279075,
                            43.5868929216174
                        ],
                        [
                            2.989138495678082,
                            43.58582929011761
                        ],
                        [
                            2.990417268828256,
                            43.584765658617805
                        ],
                        [
                            2.9916960419784284,
                            43.58370202711802
                        ],
                        [
                            2.9916960419784284,
                            43.58370202711802
                        ],
                        [
                            2.9881012187596587,
                            43.580776345923816
                        ],
                        [
                            2.984506395540891,
                            43.57785066472961
                        ],
                        [
                            2.980911572322121,
                            43.574924983535404
                        ],
                        [
                            2.9773167491033496,
                            43.57199930234121
                        ],
                        [
                            2.9737219258845795,
                            43.569073621147005
                        ],
                        [
                            2.9701271026658103,
                            43.566147939952806
                        ],
                        [
                            2.9665322794470423,
                            43.56322225875859
                        ],
                        [
                            2.9629374562282726,
                            43.560296577564394
                        ],
                        [
                            2.9593426330095025,
                            43.55737089637019
                        ],
                        [
                            2.955747809790733,
                            43.55444521517599
                        ],
                        [
                            2.955747809790733,
                            43.55444521517599
                        ],
                        [
                            2.9570166996904255,
                            43.54744111267636
                        ],
                        [
                            2.9582855895901172,
                            43.54043701017673
                        ],
                        [
                            2.9595544794898063,
                            43.53343290767711
                        ],
                        [
                            2.9608233693894994,
                            43.52642880517749
                        ],
                        [
                            2.96209225928919,
                            43.51942470267785
                        ],
                        [
                            2.9633611491888834,
                            43.51242060017823
                        ],
                        [
                            2.9646300390885743,
                            43.50541649767861
                        ],
                        [
                            2.9658989289882656,
                            43.49841239517898
                        ],
                        [
                            2.9671678188879564,
                            43.49140829267935
                        ],
                        [
                            2.9684367087876473,
                            43.484404190179724
                        ],
                        [
                            2.9684367087876473,
                            43.484404190179724
                        ],
                        [
                            2.9742011350522954,
                            43.48192304082883
                        ],
                        [
                            2.9799655613169396,
                            43.47944189147794
                        ],
                        [
                            2.9857299875815877,
                            43.476960742127055
                        ],
                        [
                            2.991494413846232,
                            43.474479592776156
                        ],
                        [
                            2.99725884011088,
                            43.47199844342526
                        ],
                        [
                            3.0030232663755263,
                            43.469517294074365
                        ],
                        [
                            3.008787692640174,
                            43.46703614472347
                        ],
                        [
                            3.0145521189048203,
                            43.46455499537258
                        ],
                        [
                            3.0203165451694667,
                            43.462073846021696
                        ],
                        [
                            3.0260809714341126,
                            43.459592696670796
                        ],
                        [
                            3.0260809714341126,
                            43.459592696670796
                        ],
                        [
                            3.0270995559374954,
                            43.45578043830526
                        ],
                        [
                            3.028118140440879,
                            43.45196817993973
                        ],
                        [
                            3.029136724944261,
                            43.448155921574205
                        ],
                        [
                            3.0301553094476454,
                            43.44434366320867
                        ],
                        [
                            3.031173893951029,
                            43.44053140484315
                        ],
                        [
                            3.0321924784544136,
                            43.436719146477614
                        ],
                        [
                            3.0332110629577955,
                            43.43290688811209
                        ],
                        [
                            3.034229647461179,
                            43.42909462974656
                        ],
                        [
                            3.035248231964562,
                            43.42528237138103
                        ],
                        [
                            3.0362668164679456,
                            43.4214701130155
                        ],
                        [
                            3.0362668164679456,
                            43.4214701130155
                        ],
                        [
                            3.0420311137360216,
                            43.41810238368024
                        ],
                        [
                            3.0477954110040995,
                            43.414734654344976
                        ],
                        [
                            3.053559708272178,
                            43.411366925009716
                        ],
                        [
                            3.059324005540256,
                            43.40799919567447
                        ],
                        [
                            3.065088302808332,
                            43.40463146633921
                        ],
                        [
                            3.07085260007641,
                            43.401263737003944
                        ],
                        [
                            3.0766168973444876,
                            43.39789600766869
                        ],
                        [
                            3.0823811946125663,
                            43.39452827833344
                        ],
                        [
                            3.088145491880644,
                            43.39116054899817
                        ],
                        [
                            3.09390978914872,
                            43.38779281966292
                        ],
                        [
                            3.09390978914872,
                            43.38779281966292
                        ],
                        [
                            3.0880109273682934,
                            43.387880005512436
                        ],
                        [
                            3.0821120655878693,
                            43.38796719136197
                        ],
                        [
                            3.0762132038074417,
                            43.388054377211496
                        ],
                        [
                            3.070314342027013,
                            43.388141563061026
                        ],
                        [
                            3.064415480246589,
                            43.38822874891055
                        ],
                        [
                            3.058516618466163,
                            43.38831593476009
                        ],
                        [
                            3.0526177566857364,
                            43.3884031206096
                        ],
                        [
                            3.046718894905308,
                            43.38849030645913
                        ],
                        [
                            3.040820033124883,
                            43.388577492308656
                        ],
                        [
                            3.034921171344456,
                            43.388664678158186
                        ],
                        [
                            3.034921171344456,
                            43.388664678158186
                        ],
                        [
                            3.031455300533454,
                            43.3868905439092
                        ],
                        [
                            3.0279894297224472,
                            43.38511640966022
                        ],
                        [
                            3.024523558911444,
                            43.38334227541124
                        ],
                        [
                            3.02105768810044,
                            43.38156814116226
                        ],
                        [
                            3.0175918172894356,
                            43.37979400691328
                        ],
                        [
                            3.0141259464784294,
                            43.37801987266429
                        ],
                        [
                            3.010660075667426,
                            43.376245738415314
                        ],
                        [
                            3.007194204856422,
                            43.37447160416633
                        ],
                        [
                            3.0037283340454177,
                            43.372697469917355
                        ],
                        [
                            3.0002624632344133,
                            43.37092333566837
                        ],
                        [
                            3.0002624632344133,
                            43.37092333566837
                        ],
                        [
                            3.0042321963263796,
                            43.36799844844993
                        ],
                        [
                            3.0082019294183455,
                            43.36507356123149
                        ],
                        [
                            3.012171662510312,
                            43.36214867401304
                        ],
                        [
                            3.0161413956022765,
                            43.359223786794615
                        ],
                        [
                            3.0201111286942424,
                            43.35629889957617
                        ],
                        [
                            3.0240808617862087,
                            43.35337401235772
                        ],
                        [
                            3.028050594878175,
                            43.350449125139285
                        ],
                        [
                            3.0320203279701397,
                            43.347524237920844
                        ],
                        [
                            3.035990061062105,
                            43.34459935070241
                        ],
                        [
                            3.0399597941540697,
                            43.34167446348397
                        ],
                        [
                            3.0399597941540697,
                            43.34167446348397
                        ],
                        [
                            3.041614831080946,
                            43.33537977600801
                        ],
                        [
                            3.043269868007824,
                            43.32908508853206
                        ],
                        [
                            3.044924904934702,
                            43.3227904010561
                        ],
                        [
                            3.0465799418615807,
                            43.31649571358015
                        ],
                        [
                            3.048234978788457,
                            43.310201026104195
                        ],
                        [
                            3.049890015715335,
                            43.303906338628245
                        ],
                        [
                            3.05154505264221,
                            43.29761165115228
                        ],
                        [
                            3.053200089569089,
                            43.29131696367633
                        ],
                        [
                            3.054855126495967,
                            43.28502227620038
                        ],
                        [
                            3.056510163422843,
                            43.278727588724415
                        ],
                        [
                            3.056510163422843,
                            43.278727588724415
                        ],
                        [
                            3.061639377181811,
                            43.27855155280296
                        ],
                        [
                            3.0667685909407774,
                            43.278375516881496
                        ],
                        [
                            3.0718978046997463,
                            43.27819948096003
                        ],
                        [
                            3.077027018458716,
                            43.27802344503856
                        ],
                        [
                            3.082156232217683,
                            43.27784740911711
                        ],
                        [
                            3.0872854459766494,
                            43.277671373195645
                        ],
                        [
                            3.0924146597356157,
                            43.277495337274175
                        ],
                        [
                            3.0975438734945864,
                            43.27731930135271
                        ],
                        [
                            3.1026730872535526,
                            43.27714326543125
                        ],
                        [
                            3.1078023010125198,
                            43.276967229509786
                        ],
                        [
                            3.1078023010125198,
                            43.276967229509786
                        ],
                        [
                            3.10740955931835,
                            43.272799986946666
                        ],
                        [
                            3.107016817624181,
                            43.268632744383545
                        ],
                        [
                            3.1066240759300103,
                            43.26446550182042
                        ],
                        [
                            3.1062313342358414,
                            43.26029825925729
                        ],
                        [
                            3.10583859254167,
                            43.25613101669417
                        ],
                        [
                            3.105445850847501,
                            43.25196377413104
                        ],
                        [
                            3.105053109153332,
                            43.24779653156792
                        ],
                        [
                            3.1046603674591613,
                            43.2436292890048
                        ],
                        [
                            3.1042676257649924,
                            43.23946204644168
                        ],
                        [
                            3.103874884070821,
                            43.235294803878546
                        ],
                        [
                            3.103874884070821,
                            43.235294803878546
                        ],
                        [
                            3.106180497645092,
                            43.23387674196727
                        ],
                        [
                            3.108486111219366,
                            43.23245868005599
                        ],
                        [
                            3.110791724793637,
                            43.231040618144704
                        ],
                        [
                            3.113097338367908,
                            43.22962255623343
                        ],
                        [
                            3.115402951942182,
                            43.22820449432214
                        ],
                        [
                            3.117708565516455,
                            43.22678643241086
                        ],
                        [
                            3.120014179090727,
                            43.22536837049958
                        ],
                        [
                            3.122319792665,
                            43.2239503085883
                        ],
                        [
                            3.124625406239272,
                            43.22253224667702
                        ],
                        [
                            3.1269310198135414,
                            43.22111418476573
                        ],
                        [
                            3.1269310198135414,
                            43.22111418476573
                        ],
                        [
                            3.129496693038035,
                            43.22155816973582
                        ],
                        [
                            3.132062366262526,
                            43.22200215470592
                        ],
                        [
                            3.1346280394870214,
                            43.222446139676
                        ],
                        [
                            3.137193712711515,
                            43.222890124646085
                        ],
                        [
                            3.139759385936007,
                            43.22333410961618
                        ],
                        [
                            3.1423250591605005,
                            43.22377809458628
                        ],
                        [
                            3.144890732384995,
                            43.22422207955636
                        ],
                        [
                            3.1474564056094887,
                            43.22466606452646
                        ],
                        [
                            3.1500220788339823,
                            43.22511004949654
                        ],
                        [
                            3.152587752058474,
                            43.22555403446663
                        ],
                        [
                            3.152587752058474,
                            43.22555403446663
                        ],
                        [
                            3.160535474476536,
                            43.22070301819795
                        ],
                        [
                            3.168483196894599,
                            43.21585200192929
                        ],
                        [
                            3.176430919312662,
                            43.211000985660625
                        ],
                        [
                            3.1843786417307247,
                            43.20614996939196
                        ],
                        [
                            3.1923263641487876,
                            43.201298953123285
                        ],
                        [
                            3.2002740865668495,
                            43.19644793685461
                        ],
                        [
                            3.208221808984914,
                            43.19159692058595
                        ],
                        [
                            3.216169531402977,
                            43.18674590431728
                        ],
                        [
                            3.22411725382104,
                            43.1818948880486
                        ],
                        [
                            3.2320649762391027,
                            43.17704387177994
                        ],
                        [
                            3.2320649762391027,
                            43.17704387177994
                        ],
                        [
                            3.2353930401062425,
                            43.17951003343198
                        ],
                        [
                            3.238210196397015,
                            43.18224859820969
                        ],
                        [
                            3.2406466752470844,
                            43.18518198212148
                        ],
                        [
                            3.2428327067921203,
                            43.18823260117572
                        ],
                        [
                            3.244898521167786,
                            43.19132287138085
                        ],
                        [
                            3.246974348509751,
                            43.19437520874527
                        ],
                        [
                            3.2491904189536815,
                            43.19731202927738
                        ],
                        [
                            3.2516769626352446,
                            43.200055748985584
                        ],
                        [
                            3.254564209690105,
                            43.20252878387828
                        ],
                        [
                            3.2579823902539293,
                            43.2046535499639
                        ],
                        [
                            3.2579823902539222,
                            43.2046535499639
                        ],
                        [
                            3.2639337500438184,
                            43.20357900499173
                        ],
                        [
                            3.2690362148330228,
                            43.2037318764468
                        ],
                        [
                            3.273440041273681,
                            43.204902454841154
                        ],
                        [
                            3.277295486017947,
                            43.20688103068687
                        ],
                        [
                            3.2807528057179733,
                            43.209457894496005
                        ],
                        [
                            3.2839622570259093,
                            43.21242333678065
                        ],
                        [
                            3.287074096593908,
                            43.21556764805286
                        ],
                        [
                            3.290238581074114,
                            43.21868111882471
                        ],
                        [
                            3.293605967118689,
                            43.22155403960827
                        ],
                        [
                            3.2973265113797763,
                            43.2239767009156
                        ],
                        [
                            3.29732651137978,
                            43.22397670091561
                        ],
                        [
                            3.3010326502798217,
                            43.225054611001994
                        ],
                        [
                            3.3046767656217315,
                            43.22620533096039
                        ],
                        [
                            3.3082619009548346,
                            43.227424503580565
                        ],
                        [
                            3.311791099828468,
                            43.22870777165225
                        ],
                        [
                            3.315267405791961,
                            43.23005077796523
                        ],
                        [
                            3.3186938623946447,
                            43.23144916530924
                        ],
                        [
                            3.3220735131858494,
                            43.23289857647404
                        ],
                        [
                            3.325409401714906,
                            43.23439465424938
                        ],
                        [
                            3.3287045715311474,
                            43.235933041425014
                        ],
                        [
                            3.3319620661839022,
                            43.237509380790684
                        ],
                        [
                            3.3319620661839067,
                            43.23750938079069
                        ]
                    ]
                ]
            }
        }
    ]
}