{
    "type": "FeatureCollection",
    "features": [
        {
            "type": "Feature",
            "properties": {
                "diocese": "Carcassonen",
                "province": "Narbonen",
                "date": 1592
            },
            "geometry": {
                "type": "Polygon",
                "coordinates": [
                    [
                        [
                            2.0612558562726906,
                            43.17410287836893
                        ],
                        [
                            2.0690639251695733,
                            43.16973679359169
                        ],
                        [
                            2.0768719940664573,
                            43.16537070881446
                        ],
                        [
                            2.0846800629633413,
                            43.161004624037226
                        ],
                        [
                            2.0924881318602235,
                            43.156638539259994
                        ],
                        [
                            2.1002962007571075,
                            43.15227245448276
                        ],
                        [
                            2.1081042696539916,
                            43.14790636970553
                        ],
                        [
                            2.115912338550874,
                            43.1435402849283
                        ],
                        [
                            2.1237204074477574,
                            43.139174200151075
                        ],
                        [
                            2.1315284763446396,
                            43.134808115373836
                        ],
                        [
                            2.1393365452415236,
                            43.130442030596605
                        ],
                        [
                            2.1393365452415236,
                            43.130442030596605
                        ],
                        [
                            2.145748852231405,
                            43.13062094687036
                        ],
                        [
                            2.152161159221286,
                            43.130799863144105
                        ],
                        [
                            2.1585734662111666,
                            43.13097877941786
                        ],
                        [
                            2.1649857732010473,
                            43.13115769569162
                        ],
                        [
                            2.1713980801909267,
                            43.13133661196536
                        ],
                        [
                            2.177810387180808,
                            43.13151552823912
                        ],
                        [
                            2.1842226941706886,
                            43.13169444451286
                        ],
                        [
                            2.1906350011605698,
                            43.13187336078662
                        ],
                        [
                            2.1970473081504505,
                            43.132052277060374
                        ],
                        [
                            2.203459615140331,
                            43.13223119333412
                        ],
                        [
                            2.203459615140331,
                            43.13223119333412
                        ],
                        [
                            2.2075497886263054,
                            43.12522784961974
                        ],
                        [
                            2.2116399621122804,
                            43.11822450590535
                        ],
                        [
                            2.2157301355982537,
                            43.11122116219097
                        ],
                        [
                            2.2198203090842292,
                            43.104217818476585
                        ],
                        [
                            2.223910482570203,
                            43.0972144747622
                        ],
                        [
                            2.228000656056178,
                            43.09021113104781
                        ],
                        [
                            2.232090829542153,
                            43.08320778733343
                        ],
                        [
                            2.2361810030281273,
                            43.07620444361904
                        ],
                        [
                            2.2402711765141023,
                            43.06920109990466
                        ],
                        [
                            2.244361350000078,
                            43.06219775619027
                        ],
                        [
                            2.244361350000078,
                            43.06219775619027
                        ],
                        [
                            2.244485726234062,
                            43.060158543953364
                        ],
                        [
                            2.244610102468048,
                            43.05811933171645
                        ],
                        [
                            2.244734478702032,
                            43.05608011947954
                        ],
                        [
                            2.244858854936018,
                            43.05404090724263
                        ],
                        [
                            2.2449832311700018,
                            43.052001695005714
                        ],
                        [
                            2.2451076074039857,
                            43.0499624827688
                        ],
                        [
                            2.2452319836379697,
                            43.04792327053189
                        ],
                        [
                            2.2453563598719577,
                            43.04588405829499
                        ],
                        [
                            2.24548073610594,
                            43.04384484605807
                        ],
                        [
                            2.2456051123399257,
                            43.041805633821156
                        ],
                        [
                            2.2456051123399257,
                            43.041805633821156
                        ],
                        [
                            2.250092476702939,
                            43.04127475104269
                        ],
                        [
                            2.254579841065954,
                            43.04074386826423
                        ],
                        [
                            2.2590672054289676,
                            43.040212985485766
                        ],
                        [
                            2.263554569791982,
                            43.039682102707296
                        ],
                        [
                            2.268041934154998,
                            43.03915121992884
                        ],
                        [
                            2.272529298518011,
                            43.03862033715037
                        ],
                        [
                            2.2770166628810267,
                            43.03808945437191
                        ],
                        [
                            2.2815040272440417,
                            43.03755857159344
                        ],
                        [
                            2.285991391607055,
                            43.03702768881497
                        ],
                        [
                            2.29047875597007,
                            43.03649680603651
                        ],
                        [
                            2.29047875597007,
                            43.03649680603651
                        ],
                        [
                            2.294708114371122,
                            43.035167936911996
                        ],
                        [
                            2.2989374727721743,
                            43.03383906778748
                        ],
                        [
                            2.3031668311732276,
                            43.03251019866297
                        ],
                        [
                            2.30739618957428,
                            43.031181329538455
                        ],
                        [
                            2.311625547975332,
                            43.02985246041394
                        ],
                        [
                            2.315854906376384,
                            43.02852359128943
                        ],
                        [
                            2.320084264777436,
                            43.027194722164914
                        ],
                        [
                            2.3243136231784884,
                            43.02586585304041
                        ],
                        [
                            2.328542981579542,
                            43.02453698391589
                        ],
                        [
                            2.3327723399805924,
                            43.02320811479137
                        ],
                        [
                            2.3327723399805924,
                            43.02320811479137
                        ],
                        [
                            2.335087878817516,
                            43.02693254724006
                        ],
                        [
                            2.3374034176544374,
                            43.03065697968874
                        ],
                        [
                            2.339718956491359,
                            43.034381412137435
                        ],
                        [
                            2.3420344953282823,
                            43.03810584458611
                        ],
                        [
                            2.3443500341652035,
                            43.0418302770348
                        ],
                        [
                            2.3466655730021238,
                            43.04555470948348
                        ],
                        [
                            2.348981111839045,
                            43.04927914193217
                        ],
                        [
                            2.35129665067597,
                            43.05300357438085
                        ],
                        [
                            2.35361218951289,
                            43.05672800682954
                        ],
                        [
                            2.355927728349811,
                            43.06045243927822
                        ],
                        [
                            2.355927728349811,
                            43.06045243927822
                        ],
                        [
                            2.3588772447971738,
                            43.060453175372416
                        ],
                        [
                            2.361826761244537,
                            43.06045391146662
                        ],
                        [
                            2.3647762776918975,
                            43.06045464756082
                        ],
                        [
                            2.36772579413926,
                            43.06045538365501
                        ],
                        [
                            2.370675310586623,
                            43.060456119749205
                        ],
                        [
                            2.3736248270339857,
                            43.060456855843405
                        ],
                        [
                            2.3765743434813484,
                            43.0604575919376
                        ],
                        [
                            2.379523859928709,
                            43.0604583280318
                        ],
                        [
                            2.3824733763760717,
                            43.06045906412599
                        ],
                        [
                            2.3854228928234344,
                            43.060459800220194
                        ],
                        [
                            2.3854228928234344,
                            43.060459800220194
                        ],
                        [
                            2.389779970742671,
                            43.058864934290874
                        ],
                        [
                            2.394137048661908,
                            43.057270068361554
                        ],
                        [
                            2.3984941265811464,
                            43.055675202432234
                        ],
                        [
                            2.4028512045003843,
                            43.05408033650291
                        ],
                        [
                            2.407208282419621,
                            43.05248547057359
                        ],
                        [
                            2.411565360338858,
                            43.05089060464427
                        ],
                        [
                            2.415922438258094,
                            43.049295738714946
                        ],
                        [
                            2.420279516177334,
                            43.04770087278563
                        ],
                        [
                            2.424636594096571,
                            43.04610600685631
                        ],
                        [
                            2.428993672015809,
                            43.044511140926986
                        ],
                        [
                            2.428993672015809,
                            43.044511140926986
                        ],
                        [
                            2.431944423463969,
                            43.045930514639664
                        ],
                        [
                            2.4348951749121306,
                            43.04734988835234
                        ],
                        [
                            2.437845926360292,
                            43.048769262065015
                        ],
                        [
                            2.440796677808453,
                            43.050188635777694
                        ],
                        [
                            2.443747429256613,
                            43.05160800949037
                        ],
                        [
                            2.4466981807047765,
                            43.053027383203045
                        ],
                        [
                            2.449648932152938,
                            43.05444675691572
                        ],
                        [
                            2.4525996836011,
                            43.0558661306284
                        ],
                        [
                            2.4555504350492594,
                            43.057285504341074
                        ],
                        [
                            2.4585011864974207,
                            43.05870487805375
                        ],
                        [
                            2.4585011864974207,
                            43.05870487805375
                        ],
                        [
                            2.4604232199701,
                            43.05790738107447
                        ],
                        [
                            2.4623452534427765,
                            43.05710988409517
                        ],
                        [
                            2.464267286915457,
                            43.05631238711589
                        ],
                        [
                            2.466189320388134,
                            43.05551489013659
                        ],
                        [
                            2.4681113538608126,
                            43.054717393157304
                        ],
                        [
                            2.4700333873334914,
                            43.05391989617802
                        ],
                        [
                            2.4719554208061685,
                            43.05312239919873
                        ],
                        [
                            2.4738774542788473,
                            43.05232490221944
                        ],
                        [
                            2.475799487751524,
                            43.05152740524015
                        ],
                        [
                            2.4777215212242045,
                            43.05072990826086
                        ],
                        [
                            2.4777215212242045,
                            43.05072990826086
                        ],
                        [
                            2.4798977040317483,
                            43.04869120808175
                        ],
                        [
                            2.4820738868392955,
                            43.04665250790264
                        ],
                        [
                            2.4842500696468437,
                            43.04461380772354
                        ],
                        [
                            2.486426252454389,
                            43.04257510754443
                        ],
                        [
                            2.4886024352619347,
                            43.04053640736532
                        ],
                        [
                            2.49077861806948,
                            43.03849770718621
                        ],
                        [
                            2.492954800877026,
                            43.0364590070071
                        ],
                        [
                            2.4951309836845748,
                            43.03442030682799
                        ],
                        [
                            2.497307166492119,
                            43.03238160664889
                        ],
                        [
                            2.4994833492996666,
                            43.03034290646978
                        ],
                        [
                            2.4994833492996666,
                            43.03034290646978
                        ],
                        [
                            2.5051286541954396,
                            43.03176289795358
                        ],
                        [
                            2.5107739590912113,
                            43.03318288943737
                        ],
                        [
                            2.516419263986986,
                            43.03460288092117
                        ],
                        [
                            2.5220645688827594,
                            43.03602287240496
                        ],
                        [
                            2.527709873778531,
                            43.037442863888764
                        ],
                        [
                            2.5333551786743045,
                            43.038862855372564
                        ],
                        [
                            2.5390004835700757,
                            43.040282846856364
                        ],
                        [
                            2.5446457884658513,
                            43.041702838340164
                        ],
                        [
                            2.5502910933616243,
                            43.043122829823965
                        ],
                        [
                            2.5559363982573973,
                            43.04454282130777
                        ],
                        [
                            2.5559363982573973,
                            43.04454282130777
                        ],
                        [
                            2.5597837165855366,
                            43.04463243945653
                        ],
                        [
                            2.5636310349136795,
                            43.0447220576053
                        ],
                        [
                            2.567478353241819,
                            43.04481167575407
                        ],
                        [
                            2.571325671569958,
                            43.044901293902846
                        ],
                        [
                            2.575172989898103,
                            43.04499091205162
                        ],
                        [
                            2.579020308226242,
                            43.04508053020038
                        ],
                        [
                            2.582867626554381,
                            43.04517014834915
                        ],
                        [
                            2.586714944882522,
                            43.04525976649792
                        ],
                        [
                            2.5905622632106633,
                            43.0453493846467
                        ],
                        [
                            2.5944095815388026,
                            43.045439002795455
                        ],
                        [
                            2.5944095815388026,
                            43.045439002795455
                        ],
                        [
                            2.592880632094452,
                            43.05058111310714
                        ],
                        [
                            2.591351682650101,
                            43.05572322341881
                        ],
                        [
                            2.58982273320575,
                            43.0608653337305
                        ],
                        [
                            2.588293783761396,
                            43.06600744404217
                        ],
                        [
                            2.586764834317045,
                            43.07114955435386
                        ],
                        [
                            2.585235884872694,
                            43.076291664665526
                        ],
                        [
                            2.583706935428344,
                            43.08143377497721
                        ],
                        [
                            2.582177985983993,
                            43.08657588528888
                        ],
                        [
                            2.5806490365396404,
                            43.09171799560056
                        ],
                        [
                            2.5791200870952897,
                            43.096860105912235
                        ],
                        [
                            2.5791200870952897,
                            43.096860105912235
                        ],
                        [
                            2.5842601606901563,
                            43.10226979986667
                        ],
                        [
                            2.589400234285023,
                            43.107679493821095
                        ],
                        [
                            2.5945403078798894,
                            43.11308918777552
                        ],
                        [
                            2.5996803814747564,
                            43.118498881729955
                        ],
                        [
                            2.604820455069625,
                            43.123908575684375
                        ],
                        [
                            2.60996052866449,
                            43.12931826963881
                        ],
                        [
                            2.6151006022593566,
                            43.13472796359324
                        ],
                        [
                            2.620240675854223,
                            43.14013765754767
                        ],
                        [
                            2.6253807494490915,
                            43.145547351502096
                        ],
                        [
                            2.6305208230439567,
                            43.15095704545652
                        ],
                        [
                            2.6305208230439567,
                            43.15095704545652
                        ],
                        [
                            2.627448720718473,
                            43.15388215669161
                        ],
                        [
                            2.624376618392986,
                            43.1568072679267
                        ],
                        [
                            2.621304516067499,
                            43.159732379161795
                        ],
                        [
                            2.618232413742014,
                            43.16265749039689
                        ],
                        [
                            2.6151603114165303,
                            43.16558260163198
                        ],
                        [
                            2.6120882090910436,
                            43.16850771286707
                        ],
                        [
                            2.609016106765558,
                            43.17143282410216
                        ],
                        [
                            2.605944004440071,
                            43.174357935337255
                        ],
                        [
                            2.6028719021145856,
                            43.17728304657234
                        ],
                        [
                            2.5997997997891007,
                            43.18020815780744
                        ],
                        [
                            2.5997997997891007,
                            43.18020815780744
                        ],
                        [
                            2.6004447294535384,
                            43.182158958733865
                        ],
                        [
                            2.6010896591179797,
                            43.184109759660295
                        ],
                        [
                            2.6017345887824175,
                            43.186060560586725
                        ],
                        [
                            2.602379518446857,
                            43.18801136151315
                        ],
                        [
                            2.603024448111296,
                            43.18996216243958
                        ],
                        [
                            2.6036693777757356,
                            43.191912963366
                        ],
                        [
                            2.6043143074401733,
                            43.19386376429244
                        ],
                        [
                            2.6049592371046146,
                            43.19581456521886
                        ],
                        [
                            2.6056041667690524,
                            43.19776536614529
                        ],
                        [
                            2.6062490964334915,
                            43.19971616707171
                        ],
                        [
                            2.6062490964334915,
                            43.19971616707171
                        ],
                        [
                            2.596763065765343,
                            43.20166329111015
                        ],
                        [
                            2.5872770350971948,
                            43.20361041514858
                        ],
                        [
                            2.5777910044290446,
                            43.20555753918702
                        ],
                        [
                            2.5683049737608963,
                            43.20750466322546
                        ],
                        [
                            2.5588189430927497,
                            43.20945178726389
                        ],
                        [
                            2.5493329124245996,
                            43.21139891130232
                        ],
                        [
                            2.5398468817564495,
                            43.213346035340756
                        ],
                        [
                            2.530360851088303,
                            43.21529315937919
                        ],
                        [
                            2.5208748204201545,
                            43.217240283417624
                        ],
                        [
                            2.5113887897520057,
                            43.219187407456054
                        ],
                        [
                            2.5113887897520057,
                            43.219187407456054
                        ],
                        [
                            2.5092070410744802,
                            43.218301322191685
                        ],
                        [
                            2.5070252923969583,
                            43.217415236927316
                        ],
                        [
                            2.5048435437194345,
                            43.216529151662954
                        ],
                        [
                            2.5026617950419108,
                            43.21564306639859
                        ],
                        [
                            2.500480046364387,
                            43.214756981134215
                        ],
                        [
                            2.4982982976868655,
                            43.21387089586985
                        ],
                        [
                            2.496116549009343,
                            43.21298481060549
                        ],
                        [
                            2.4939348003318176,
                            43.21209872534112
                        ],
                        [
                            2.4917530516542956,
                            43.21121264007675
                        ],
                        [
                            2.4895713029767723,
                            43.2103265548124
                        ],
                        [
                            2.4895713029767723,
                            43.2103265548124
                        ],
                        [
                            2.487514112435969,
                            43.20757747947903
                        ],
                        [
                            2.485456921895168,
                            43.20482840414565
                        ],
                        [
                            2.4833997313543645,
                            43.20207932881228
                        ],
                        [
                            2.4813425408135625,
                            43.199330253478905
                        ],
                        [
                            2.4792853502727596,
                            43.19658117814554
                        ],
                        [
                            2.4772281597319545,
                            43.19383210281216
                        ],
                        [
                            2.475170969191153,
                            43.191083027478804
                        ],
                        [
                            2.4731137786503496,
                            43.18833395214543
                        ],
                        [
                            2.4710565881095485,
                            43.18558487681206
                        ],
                        [
                            2.468999397568745,
                            43.18283580147869
                        ],
                        [
                            2.468999397568745,
                            43.18283580147869
                        ],
                        [
                            2.4650282583616825,
                            43.18425339304073
                        ],
                        [
                            2.46105711915462,
                            43.18567098460276
                        ],
                        [
                            2.4570859799475575,
                            43.187088576164804
                        ],
                        [
                            2.453114840740493,
                            43.188506167726835
                        ],
                        [
                            2.4491437015334308,
                            43.18992375928888
                        ],
                        [
                            2.4451725623263685,
                            43.19134135085092
                        ],
                        [
                            2.4412014231193058,
                            43.19275894241296
                        ],
                        [
                            2.4372302839122435,
                            43.194176533974996
                        ],
                        [
                            2.433259144705181,
                            43.19559412553704
                        ],
                        [
                            2.4292880054981167,
                            43.19701171709908
                        ],
                        [
                            2.4292880054981167,
                            43.19701171709908
                        ],
                        [
                            2.430834786974565,
                            43.201887527150014
                        ],
                        [
                            2.432381568451011,
                            43.20676333720095
                        ],
                        [
                            2.433928349927457,
                            43.21163914725188
                        ],
                        [
                            2.4354751314039054,
                            43.21651495730282
                        ],
                        [
                            2.437021912880351,
                            43.221390767353746
                        ],
                        [
                            2.4385686943567975,
                            43.22626657740468
                        ],
                        [
                            2.4401154758332453,
                            43.23114238745562
                        ],
                        [
                            2.441662257309691,
                            43.23601819750655
                        ],
                        [
                            2.4432090387861387,
                            43.240894007557486
                        ],
                        [
                            2.444755820262585,
                            43.245769817608426
                        ],
                        [
                            2.444755820262585,
                            43.245769817608426
                        ],
                        [
                            2.4422049978369156,
                            43.252241597518676
                        ],
                        [
                            2.4396541754112437,
                            43.258713377428926
                        ],
                        [
                            2.437103352985574,
                            43.26518515733917
                        ],
                        [
                            2.4345525305599023,
                            43.271656937249425
                        ],
                        [
                            2.432001708134232,
                            43.278128717159674
                        ],
                        [
                            2.4294508857085613,
                            43.28460049706993
                        ],
                        [
                            2.4269000632828894,
                            43.291072276980174
                        ],
                        [
                            2.4243492408572194,
                            43.29754405689042
                        ],
                        [
                            2.4217984184315497,
                            43.30401583680067
                        ],
                        [
                            2.419247596005878,
                            43.31048761671092
                        ],
                        [
                            2.419247596005878,
                            43.31048761671092
                        ],
                        [
                            2.4245092658882323,
                            43.313237491768156
                        ],
                        [
                            2.429770935770586,
                            43.315987366825375
                        ],
                        [
                            2.435032605652942,
                            43.31873724188259
                        ],
                        [
                            2.4402942755352948,
                            43.32148711693981
                        ],
                        [
                            2.445555945417649,
                            43.32423699199703
                        ],
                        [
                            2.450817615300004,
                            43.32698686705425
                        ],
                        [
                            2.4560792851823567,
                            43.32973674211147
                        ],
                        [
                            2.461340955064713,
                            43.33248661716869
                        ],
                        [
                            2.466602624947066,
                            43.33523649222592
                        ],
                        [
                            2.471864294829421,
                            43.337986367283136
                        ],
                        [
                            2.471864294829421,
                            43.337986367283136
                        ],
                        [
                            2.4749519232714667,
                            43.34392541864264
                        ],
                        [
                            2.478039551713512,
                            43.349864470002146
                        ],
                        [
                            2.4811271801555583,
                            43.35580352136166
                        ],
                        [
                            2.4842148085976032,
                            43.361742572721155
                        ],
                        [
                            2.48730243703965,
                            43.36768162408067
                        ],
                        [
                            2.490390065481693,
                            43.37362067544017
                        ],
                        [
                            2.493477693923738,
                            43.37955972679968
                        ],
                        [
                            2.496565322365783,
                            43.38549877815918
                        ],
                        [
                            2.4996529508078313,
                            43.39143782951869
                        ],
                        [
                            2.5027405792498763,
                            43.3973768808782
                        ],
                        [
                            2.5027405792498763,
                            43.3973768808782
                        ],
                        [
                            2.498082198751942,
                            43.398160842014676
                        ],
                        [
                            2.493423818254008,
                            43.39894480315115
                        ],
                        [
                            2.488765437756074,
                            43.39972876428763
                        ],
                        [
                            2.48410705725814,
                            43.40051272542412
                        ],
                        [
                            2.4794486767602057,
                            43.4012966865606
                        ],
                        [
                            2.4747902962622716,
                            43.402080647697076
                        ],
                        [
                            2.4701319157643375,
                            43.40286460883355
                        ],
                        [
                            2.4654735352664034,
                            43.40364856997003
                        ],
                        [
                            2.46081515476847,
                            43.40443253110651
                        ],
                        [
                            2.4561567742705357,
                            43.40521649224299
                        ],
                        [
                            2.4561567742705357,
                            43.40521649224299
                        ],
                        [
                            2.4517999351037703,
                            43.40295930233853
                        ],
                        [
                            2.4474430959370026,
                            43.40070211243407
                        ],
                        [
                            2.443086256770237,
                            43.39844492252961
                        ],
                        [
                            2.43872941760347,
                            43.39618773262515
                        ],
                        [
                            2.434372578436706,
                            43.39393054272069
                        ],
                        [
                            2.4300157392699386,
                            43.39167335281623
                        ],
                        [
                            2.425658900103173,
                            43.389416162911765
                        ],
                        [
                            2.421302060936406,
                            43.38715897300731
                        ],
                        [
                            2.4169452217696406,
                            43.38490178310284
                        ],
                        [
                            2.4125883826028747,
                            43.382644593198386
                        ],
                        [
                            2.4125883826028747,
                            43.382644593198386
                        ],
                        [
                            2.4053367388154863,
                            43.383895809153124
                        ],
                        [
                            2.3980850950280965,
                            43.38514702510787
                        ],
                        [
                            2.3908334512407063,
                            43.38639824106262
                        ],
                        [
                            2.3835818074533166,
                            43.38764945701736
                        ],
                        [
                            2.3763301636659264,
                            43.388900672972106
                        ],
                        [
                            2.3690785198785385,
                            43.39015188892685
                        ],
                        [
                            2.3618268760911483,
                            43.3914031048816
                        ],
                        [
                            2.3545752323037568,
                            43.39265432083634
                        ],
                        [
                            2.3473235885163684,
                            43.39390553679109
                        ],
                        [
                            2.340071944728978,
                            43.395156752745834
                        ],
                        [
                            2.340071944728978,
                            43.395156752745834
                        ],
                        [
                            2.3373499194003196,
                            43.394530107505965
                        ],
                        [
                            2.33462789407166,
                            43.393903462266096
                        ],
                        [
                            2.3319058687429957,
                            43.393276817026226
                        ],
                        [
                            2.3291838434143366,
                            43.39265017178636
                        ],
                        [
                            2.3264618180856775,
                            43.39202352654649
                        ],
                        [
                            2.3237397927570163,
                            43.39139688130663
                        ],
                        [
                            2.321017767428356,
                            43.390770236066764
                        ],
                        [
                            2.3182957420996946,
                            43.390143590826895
                        ],
                        [
                            2.3155737167710355,
                            43.389516945587026
                        ],
                        [
                            2.312851691442373,
                            43.38889030034716
                        ],
                        [
                            2.312851691442373,
                            43.38889030034716
                        ],
                        [
                            2.3104987366667498,
                            43.39139685841465
                        ],
                        [
                            2.308145781891127,
                            43.39390341648214
                        ],
                        [
                            2.305792827115504,
                            43.396409974549634
                        ],
                        [
                            2.3034398723398795,
                            43.39891653261713
                        ],
                        [
                            2.3010869175642528,
                            43.40142309068463
                        ],
                        [
                            2.298733962788632,
                            43.403929648752126
                        ],
                        [
                            2.2963810080130087,
                            43.40643620681961
                        ],
                        [
                            2.2940280532373825,
                            43.40894276488711
                        ],
                        [
                            2.2916750984617598,
                            43.4114493229546
                        ],
                        [
                            2.2893221436861344,
                            43.4139558810221
                        ],
                        [
                            2.2893221436861344,
                            43.4139558810221
                        ],
                        [
                            2.283521571475942,
                            43.41533352739081
                        ],
                        [
                            2.2777209992657492,
                            43.41671117375952
                        ],
                        [
                            2.2719204270555546,
                            43.418088820128226
                        ],
                        [
                            2.2661198548453623,
                            43.419466466496935
                        ],
                        [
                            2.2603192826351695,
                            43.420844112865645
                        ],
                        [
                            2.2545187104249753,
                            43.422221759234354
                        ],
                        [
                            2.2487181382147825,
                            43.423599405603056
                        ],
                        [
                            2.24291756600459,
                            43.42497705197177
                        ],
                        [
                            2.2371169937943973,
                            43.42635469834048
                        ],
                        [
                            2.2313164215842027,
                            43.42773234470919
                        ],
                        [
                            2.2313164215842027,
                            43.42773234470919
                        ],
                        [
                            2.2278682405175587,
                            43.42635239018125
                        ],
                        [
                            2.2244200594509143,
                            43.42497243565331
                        ],
                        [
                            2.2209718783842676,
                            43.42359248112536
                        ],
                        [
                            2.217523697317623,
                            43.42221252659742
                        ],
                        [
                            2.2140755162509773,
                            43.42083257206948
                        ],
                        [
                            2.2106273351843346,
                            43.419452617541545
                        ],
                        [
                            2.2071791541176884,
                            43.418072663013604
                        ],
                        [
                            2.203730973051044,
                            43.41669270848567
                        ],
                        [
                            2.2002827919844,
                            43.41531275395772
                        ],
                        [
                            2.1968346109177532,
                            43.41393279942978
                        ],
                        [
                            2.1968346109177532,
                            43.41393279942978
                        ],
                        [
                            2.193204892316046,
                            43.41292881669532
                        ],
                        [
                            2.1895751737143354,
                            43.41192483396085
                        ],
                        [
                            2.185945455112626,
                            43.410920851226386
                        ],
                        [
                            2.182315736510917,
                            43.40991686849193
                        ],
                        [
                            2.178686017909208,
                            43.408912885757466
                        ],
                        [
                            2.175056299307497,
                            43.407908903023
                        ],
                        [
                            2.171426580705788,
                            43.40690492028854
                        ],
                        [
                            2.167796862104079,
                            43.40590093755408
                        ],
                        [
                            2.164167143502368,
                            43.40489695481962
                        ],
                        [
                            2.160537424900659,
                            43.40389297208515
                        ],
                        [
                            2.160537424900659,
                            43.40389297208515
                        ],
                        [
                            2.158356165727209,
                            43.40088325175584
                        ],
                        [
                            2.1561749065537588,
                            43.39787353142654
                        ],
                        [
                            2.1539936473803083,
                            43.39486381109724
                        ],
                        [
                            2.1518123882068587,
                            43.39185409076793
                        ],
                        [
                            2.1496311290334082,
                            43.38884437043862
                        ],
                        [
                            2.1474498698599582,
                            43.38583465010932
                        ],
                        [
                            2.145268610686508,
                            43.382824929780014
                        ],
                        [
                            2.1430873515130577,
                            43.379815209450705
                        ],
                        [
                            2.140906092339606,
                            43.3768054891214
                        ],
                        [
                            2.1387248331661577,
                            43.37379576879209
                        ],
                        [
                            2.1387248331661577,
                            43.37379576879209
                        ],
                        [
                            2.137088162447571,
                            43.37116214677805
                        ],
                        [
                            2.135451491728984,
                            43.36852852476399
                        ],
                        [
                            2.1338148210103993,
                            43.36589490274993
                        ],
                        [
                            2.132178150291811,
                            43.363261280735884
                        ],
                        [
                            2.130541479573226,
                            43.36062765872183
                        ],
                        [
                            2.128904808854639,
                            43.35799403670778
                        ],
                        [
                            2.1272681381360528,
                            43.35536041469373
                        ],
                        [
                            2.125631467417468,
                            43.35272679267967
                        ],
                        [
                            2.1239947966988812,
                            43.350093170665616
                        ],
                        [
                            2.1223581259802944,
                            43.34745954865157
                        ],
                        [
                            2.1223581259802944,
                            43.34745954865157
                        ],
                        [
                            2.118546116580722,
                            43.34570348622626
                        ],
                        [
                            2.1147341071811496,
                            43.34394742380095
                        ],
                        [
                            2.1109220977815752,
                            43.34219136137565
                        ],
                        [
                            2.107110088382005,
                            43.34043529895035
                        ],
                        [
                            2.1032980789824305,
                            43.338679236525046
                        ],
                        [
                            2.0994860695828557,
                            43.33692317409974
                        ],
                        [
                            2.0956740601832835,
                            43.33516711167443
                        ],
                        [
                            2.091862050783711,
                            43.33341104924913
                        ],
                        [
                            2.0880500413841383,
                            43.33165498682382
                        ],
                        [
                            2.084238031984564,
                            43.32989892439852
                        ],
                        [
                            2.084238031984564,
                            43.32989892439852
                        ],
                        [
                            2.0833247899931258,
                            43.326638477832624
                        ],
                        [
                            2.0824115480016854,
                            43.32337803126673
                        ],
                        [
                            2.081498306010245,
                            43.320117584700824
                        ],
                        [
                            2.080585064018805,
                            43.316857138134935
                        ],
                        [
                            2.0796718220273647,
                            43.31359669156903
                        ],
                        [
                            2.0787585800359243,
                            43.310336245003136
                        ],
                        [
                            2.077845338044484,
                            43.30707579843724
                        ],
                        [
                            2.0769320960530444,
                            43.30381535187135
                        ],
                        [
                            2.0760188540616054,
                            43.300554905305454
                        ],
                        [
                            2.0751056120701654,
                            43.29729445873955
                        ],
                        [
                            2.0751056120701654,
                            43.29729445873955
                        ],
                        [
                            2.076912501084463,
                            43.29365867392265
                        ],
                        [
                            2.078719390098762,
                            43.29002288910574
                        ],
                        [
                            2.0805262791130597,
                            43.28638710428882
                        ],
                        [
                            2.08233316812736,
                            43.28275131947192
                        ],
                        [
                            2.0841400571416573,
                            43.279115534655006
                        ],
                        [
                            2.0859469461559565,
                            43.2754797498381
                        ],
                        [
                            2.0877538351702563,
                            43.2718439650212
                        ],
                        [
                            2.0895607241845537,
                            43.26820818020428
                        ],
                        [
                            2.091367613198853,
                            43.264572395387376
                        ],
                        [
                            2.0931745022131527,
                            43.26093661057047
                        ],
                        [
                            2.0931745022131527,
                            43.26093661057047
                        ],
                        [
                            2.0960725378791287,
                            43.259057193629616
                        ],
                        [
                            2.098970573545103,
                            43.257177776688756
                        ],
                        [
                            2.101868609211077,
                            43.2552983597479
                        ],
                        [
                            2.1047666448770532,
                            43.25341894280705
                        ],
                        [
                            2.1076646805430292,
                            43.2515395258662
                        ],
                        [
                            2.1105627162090035,
                            43.24966010892534
                        ],
                        [
                            2.1134607518749777,
                            43.24778069198449
                        ],
                        [
                            2.116358787540952,
                            43.24590127504363
                        ],
                        [
                            2.119256823206928,
                            43.244021858102776
                        ],
                        [
                            2.122154858872904,
                            43.242142441161924
                        ],
                        [
                            2.122154858872904,
                            43.242142441161924
                        ],
                        [
                            2.122872946228718,
                            43.23875633343949
                        ],
                        [
                            2.123591033584533,
                            43.235370225717055
                        ],
                        [
                            2.124309120940349,
                            43.23198411799462
                        ],
                        [
                            2.125027208296164,
                            43.228598010272194
                        ],
                        [
                            2.12574529565198,
                            43.22521190254975
                        ],
                        [
                            2.126463383007795,
                            43.221825794827325
                        ],
                        [
                            2.1271814703636105,
                            43.21843968710489
                        ],
                        [
                            2.127899557719426,
                            43.215053579382456
                        ],
                        [
                            2.1286176450752397,
                            43.21166747166003
                        ],
                        [
                            2.1293357324310556,
                            43.208281363937594
                        ],
                        [
                            2.1293357324310556,
                            43.208281363937594
                        ],
                        [
                            2.128425864074656,
                            43.206777068471766
                        ],
                        [
                            2.1275159957182583,
                            43.20527277300594
                        ],
                        [
                            2.126606127361858,
                            43.20376847754011
                        ],
                        [
                            2.1256962590054593,
                            43.20226418207428
                        ],
                        [
                            2.1247863906490614,
                            43.20075988660845
                        ],
                        [
                            2.1238765222926617,
                            43.199255591142624
                        ],
                        [
                            2.122966653936262,
                            43.197751295676795
                        ],
                        [
                            2.1220567855798627,
                            43.196247000210974
                        ],
                        [
                            2.1211469172234634,
                            43.194742704745146
                        ],
                        [
                            2.120237048867064,
                            43.19323840927932
                        ],
                        [
                            2.120237048867064,
                            43.19323840927932
                        ],
                        [
                            2.1164269991874876,
                            43.19248542422914
                        ],
                        [
                            2.112616949507912,
                            43.191732439178956
                        ],
                        [
                            2.1088068998283376,
                            43.19097945412877
                        ],
                        [
                            2.1049968501487597,
                            43.190226469078596
                        ],
                        [
                            2.1011868004691836,
                            43.18947348402841
                        ],
                        [
                            2.0973767507896093,
                            43.18872049897823
                        ],
                        [
                            2.093566701110032,
                            43.18796751392805
                        ],
                        [
                            2.089756651430456,
                            43.18721452887787
                        ],
                        [
                            2.0859466017508814,
                            43.18646154382769
                        ],
                        [
                            2.0821365520713058,
                            43.185708558777506
                        ],
                        [
                            2.0821365520713058,
                            43.185708558777506
                        ],
                        [
                            2.080048482491444,
                            43.184547990736654
                        ],
                        [
                            2.0779604129115823,
                            43.18338742269579
                        ],
                        [
                            2.0758723433317208,
                            43.18222685465493
                        ],
                        [
                            2.0737842737518593,
                            43.181066286614076
                        ],
                        [
                            2.0716962041719973,
                            43.17990571857322
                        ],
                        [
                            2.0696081345921358,
                            43.17874515053235
                        ],
                        [
                            2.067520065012276,
                            43.1775845824915
                        ],
                        [
                            2.0654319954324145,
                            43.176424014450646
                        ],
                        [
                            2.063343925852553,
                            43.17526344640979
                        ],
                        [
                            2.0612558562726906,
                            43.17410287836893
                        ]
                    ]
                ]
            }
        }
    ]
}