{
    "type": "FeatureCollection",
    "features": [
        {
            "type": "Feature",
            "properties": {
                "diocese": "Lodoven",
                "province": "Narbonen",
                "date": 1592
            },
            "geometry": {
                "type": "Polygon",
                "coordinates": [
                    [
                        [
                            3.227696135013572,
                            43.81165736755821
                        ],
                        [
                            3.230228639760415,
                            43.808523794512716
                        ],
                        [
                            3.232761144507259,
                            43.80539022146723
                        ],
                        [
                            3.235293649254101,
                            43.80225664842174
                        ],
                        [
                            3.237826154000945,
                            43.79912307537625
                        ],
                        [
                            3.2403586587477853,
                            43.79598950233075
                        ],
                        [
                            3.242891163494631,
                            43.79285592928526
                        ],
                        [
                            3.245423668241471,
                            43.78972235623977
                        ],
                        [
                            3.247956172988315,
                            43.786588783194276
                        ],
                        [
                            3.25048867773516,
                            43.783455210148794
                        ],
                        [
                            3.253021182482002,
                            43.7803216371033
                        ],
                        [
                            3.253021182482002,
                            43.7803216371033
                        ],
                        [
                            3.249204895794952,
                            43.77630843184335
                        ],
                        [
                            3.245388609107905,
                            43.772295226583395
                        ],
                        [
                            3.2415723224208564,
                            43.768282021323444
                        ],
                        [
                            3.2377560357338075,
                            43.76426881606348
                        ],
                        [
                            3.2339397490467605,
                            43.760255610803526
                        ],
                        [
                            3.230123462359711,
                            43.75624240554357
                        ],
                        [
                            3.226307175672662,
                            43.75222920028362
                        ],
                        [
                            3.222490888985613,
                            43.74821599502366
                        ],
                        [
                            3.2186746022985644,
                            43.74420278976371
                        ],
                        [
                            3.2148583156115156,
                            43.74018958450375
                        ],
                        [
                            3.2148583156115156,
                            43.74018958450375
                        ],
                        [
                            3.216664664620374,
                            43.736302702170185
                        ],
                        [
                            3.2184710136292325,
                            43.732415819836625
                        ],
                        [
                            3.220277362638092,
                            43.72852893750306
                        ],
                        [
                            3.2220837116469503,
                            43.72464205516949
                        ],
                        [
                            3.223890060655807,
                            43.720755172835936
                        ],
                        [
                            3.225696409664668,
                            43.716868290502376
                        ],
                        [
                            3.2275027586735265,
                            43.71298140816881
                        ],
                        [
                            3.229309107682385,
                            43.70909452583524
                        ],
                        [
                            3.2311154566912443,
                            43.70520764350168
                        ],
                        [
                            3.232921805700101,
                            43.70132076116811
                        ],
                        [
                            3.232921805700101,
                            43.70132076116811
                        ],
                        [
                            3.2320035468738566,
                            43.695428193658756
                        ],
                        [
                            3.231085288047613,
                            43.68953562614939
                        ],
                        [
                            3.230167029221367,
                            43.68364305864004
                        ],
                        [
                            3.2292487703951234,
                            43.67775049113067
                        ],
                        [
                            3.2283305115688816,
                            43.67185792362131
                        ],
                        [
                            3.2274122527426354,
                            43.66596535611195
                        ],
                        [
                            3.226493993916391,
                            43.660072788602584
                        ],
                        [
                            3.2255757350901475,
                            43.65418022109323
                        ],
                        [
                            3.224657476263904,
                            43.648287653583864
                        ],
                        [
                            3.223739217437658,
                            43.64239508607451
                        ],
                        [
                            3.223739217437658,
                            43.64239508607451
                        ],
                        [
                            3.226453257713907,
                            43.638884502060506
                        ],
                        [
                            3.229167297990158,
                            43.63537391804651
                        ],
                        [
                            3.231881338266406,
                            43.631863334032516
                        ],
                        [
                            3.234595378542654,
                            43.628352750018514
                        ],
                        [
                            3.2373094188189078,
                            43.62484216600452
                        ],
                        [
                            3.240023459095157,
                            43.621331581990525
                        ],
                        [
                            3.242737499371406,
                            43.61782099797653
                        ],
                        [
                            3.245451539647655,
                            43.61431041396253
                        ],
                        [
                            3.248165579923905,
                            43.61079982994853
                        ],
                        [
                            3.2508796202001533,
                            43.607289245934545
                        ],
                        [
                            3.2508796202001533,
                            43.607289245934545
                        ],
                        [
                            3.2526856764262004,
                            43.604029423315176
                        ],
                        [
                            3.2544917326522467,
                            43.60076960069582
                        ],
                        [
                            3.256297788878292,
                            43.59750977807646
                        ],
                        [
                            3.2581038451043374,
                            43.594249955457094
                        ],
                        [
                            3.2599099013303827,
                            43.59099013283773
                        ],
                        [
                            3.261715957556428,
                            43.58773031021837
                        ],
                        [
                            3.2635220137824734,
                            43.58447048759901
                        ],
                        [
                            3.265328070008518,
                            43.58121066497964
                        ],
                        [
                            3.267134126234564,
                            43.57795084236029
                        ],
                        [
                            3.2689401824606104,
                            43.574691019740925
                        ],
                        [
                            3.2689401824606104,
                            43.574691019740925
                        ],
                        [
                            3.2785515539196592,
                            43.57444243040164
                        ],
                        [
                            3.288162925378711,
                            43.57419384106235
                        ],
                        [
                            3.297774296837758,
                            43.57394525172306
                        ],
                        [
                            3.307385668296807,
                            43.57369666238377
                        ],
                        [
                            3.3169970397558557,
                            43.57344807304448
                        ],
                        [
                            3.3266084112149064,
                            43.573199483705196
                        ],
                        [
                            3.336219782673956,
                            43.57295089436591
                        ],
                        [
                            3.3458311541330032,
                            43.57270230502662
                        ],
                        [
                            3.355442525592054,
                            43.57245371568733
                        ],
                        [
                            3.3650538970511046,
                            43.57220512634804
                        ],
                        [
                            3.3650538970511046,
                            43.57220512634804
                        ],
                        [
                            3.3719447461150236,
                            43.57132983745057
                        ],
                        [
                            3.3788355951789417,
                            43.5704545485531
                        ],
                        [
                            3.385726444242858,
                            43.56957925965562
                        ],
                        [
                            3.392617293306779,
                            43.56870397075815
                        ],
                        [
                            3.399508142370697,
                            43.567828681860675
                        ],
                        [
                            3.4063989914346178,
                            43.5669533929632
                        ],
                        [
                            3.413289840498536,
                            43.566078104065724
                        ],
                        [
                            3.420180689562454,
                            43.565202815168256
                        ],
                        [
                            3.4270715386263713,
                            43.56432752627079
                        ],
                        [
                            3.433962387690291,
                            43.563452237373305
                        ],
                        [
                            3.433962387690291,
                            43.563452237373305
                        ],
                        [
                            3.4372289520089887,
                            43.56520810898156
                        ],
                        [
                            3.440495516327688,
                            43.56696398058982
                        ],
                        [
                            3.4437620806463856,
                            43.56871985219807
                        ],
                        [
                            3.4470286449650867,
                            43.570475723806325
                        ],
                        [
                            3.450295209283785,
                            43.57223159541457
                        ],
                        [
                            3.4535617736024826,
                            43.57398746702283
                        ],
                        [
                            3.456828337921182,
                            43.575743338631085
                        ],
                        [
                            3.4600949022398795,
                            43.57749921023934
                        ],
                        [
                            3.463361466558579,
                            43.57925508184759
                        ],
                        [
                            3.4666280308772772,
                            43.581010953455845
                        ],
                        [
                            3.4666280308772772,
                            43.581010953455845
                        ],
                        [
                            3.4700890895974887,
                            43.588284343410194
                        ],
                        [
                            3.473550148317701,
                            43.595557733364544
                        ],
                        [
                            3.4770112070379144,
                            43.60283112331889
                        ],
                        [
                            3.480472265758126,
                            43.61010451327325
                        ],
                        [
                            3.4839333244783366,
                            43.6173779032276
                        ],
                        [
                            3.487394383198549,
                            43.624651293181934
                        ],
                        [
                            3.4908554419187623,
                            43.63192468313628
                        ],
                        [
                            3.494316500638973,
                            43.63919807309064
                        ],
                        [
                            3.497777559359188,
                            43.64647146304499
                        ],
                        [
                            3.5012386180793986,
                            43.65374485299934
                        ],
                        [
                            3.5012386180793986,
                            43.65374485299934
                        ],
                        [
                            3.506498422128723,
                            43.65474924254503
                        ],
                        [
                            3.5117582261780487,
                            43.65575363209074
                        ],
                        [
                            3.5170180302273732,
                            43.656758021636435
                        ],
                        [
                            3.522277834276697,
                            43.65776241118215
                        ],
                        [
                            3.527537638326025,
                            43.65876680072785
                        ],
                        [
                            3.5327974423753497,
                            43.659771190273545
                        ],
                        [
                            3.5380572464246733,
                            43.660775579819244
                        ],
                        [
                            3.5433170504739997,
                            43.66177996936495
                        ],
                        [
                            3.548576854523326,
                            43.662784358910656
                        ],
                        [
                            3.5538366585726497,
                            43.66378874845635
                        ],
                        [
                            3.5538366585726497,
                            43.66378874845635
                        ],
                        [
                            3.555293779214455,
                            43.66704933075498
                        ],
                        [
                            3.556750899856262,
                            43.67030991305361
                        ],
                        [
                            3.558208020498068,
                            43.67357049535223
                        ],
                        [
                            3.5596651411398734,
                            43.67683107765085
                        ],
                        [
                            3.5611222617816805,
                            43.680091659949476
                        ],
                        [
                            3.5625793824234875,
                            43.683352242248105
                        ],
                        [
                            3.5640365030652945,
                            43.686612824546735
                        ],
                        [
                            3.5654936237070998,
                            43.689873406845365
                        ],
                        [
                            3.566950744348905,
                            43.69313398914399
                        ],
                        [
                            3.568407864990712,
                            43.69639457144261
                        ],
                        [
                            3.568407864990712,
                            43.69639457144261
                        ],
                        [
                            3.5656909713587566,
                            43.69764801297732
                        ],
                        [
                            3.5629740777268037,
                            43.698901454512026
                        ],
                        [
                            3.5602571840948483,
                            43.70015489604674
                        ],
                        [
                            3.5575402904628937,
                            43.70140833758145
                        ],
                        [
                            3.554823396830939,
                            43.702661779116156
                        ],
                        [
                            3.5521065031989836,
                            43.703915220650856
                        ],
                        [
                            3.5493896095670308,
                            43.70516866218558
                        ],
                        [
                            3.5466727159350735,
                            43.70642210372028
                        ],
                        [
                            3.5439558223031207,
                            43.707675545254986
                        ],
                        [
                            3.5412389286711643,
                            43.708928986789694
                        ],
                        [
                            3.5412389286711643,
                            43.708928986789694
                        ],
                        [
                            3.5405170778574946,
                            43.71118490923412
                        ],
                        [
                            3.5397952270438187,
                            43.71344083167855
                        ],
                        [
                            3.53907337623015,
                            43.715696754122966
                        ],
                        [
                            3.538351525416474,
                            43.71795267656739
                        ],
                        [
                            3.5376296746028006,
                            43.720208599011826
                        ],
                        [
                            3.536907823789131,
                            43.72246452145624
                        ],
                        [
                            3.536185972975456,
                            43.724720443900665
                        ],
                        [
                            3.535464122161786,
                            43.72697636634509
                        ],
                        [
                            3.534742271348111,
                            43.729232288789525
                        ],
                        [
                            3.534020420534437,
                            43.731488211233945
                        ],
                        [
                            3.534020420534437,
                            43.731488211233945
                        ],
                        [
                            3.5374702963821147,
                            43.73374626866061
                        ],
                        [
                            3.5409201722297934,
                            43.73600432608726
                        ],
                        [
                            3.544370048077471,
                            43.73826238351393
                        ],
                        [
                            3.5478199239251507,
                            43.74052044094058
                        ],
                        [
                            3.5512697997728275,
                            43.742778498367244
                        ],
                        [
                            3.5547196756205053,
                            43.74503655579391
                        ],
                        [
                            3.558169551468184,
                            43.74729461322057
                        ],
                        [
                            3.5616194273158617,
                            43.749552670647226
                        ],
                        [
                            3.5650693031635385,
                            43.751810728073885
                        ],
                        [
                            3.5685191790112163,
                            43.75406878550055
                        ],
                        [
                            3.5685191790112163,
                            43.75406878550055
                        ],
                        [
                            3.5678010895441843,
                            43.757453799354536
                        ],
                        [
                            3.5670830000771487,
                            43.760838813208515
                        ],
                        [
                            3.566364910610114,
                            43.764223827062494
                        ],
                        [
                            3.5656468211430803,
                            43.76760884091648
                        ],
                        [
                            3.5649287316760465,
                            43.77099385477047
                        ],
                        [
                            3.564210642209011,
                            43.774378868624446
                        ],
                        [
                            3.563492552741977,
                            43.77776388247843
                        ],
                        [
                            3.5627744632749416,
                            43.78114889633241
                        ],
                        [
                            3.562056373807907,
                            43.7845339101864
                        ],
                        [
                            3.561338284340875,
                            43.787918924040376
                        ],
                        [
                            3.561338284340875,
                            43.787918924040376
                        ],
                        [
                            3.5611693832526075,
                            43.794063356789785
                        ],
                        [
                            3.5610004821643444,
                            43.800207789539186
                        ],
                        [
                            3.560831581076077,
                            43.806352222288595
                        ],
                        [
                            3.560662679987811,
                            43.812496655038
                        ],
                        [
                            3.560493778899548,
                            43.818641087787405
                        ],
                        [
                            3.5603248778112806,
                            43.82478552053681
                        ],
                        [
                            3.5601559767230158,
                            43.830929953286216
                        ],
                        [
                            3.559987075634751,
                            43.83707438603562
                        ],
                        [
                            3.559818174546486,
                            43.84321881878502
                        ],
                        [
                            3.5596492734582204,
                            43.84936325153443
                        ],
                        [
                            3.5596492734582204,
                            43.84936325153443
                        ],
                        [
                            3.553845234689858,
                            43.8489857859544
                        ],
                        [
                            3.5480411959214995,
                            43.84860832037438
                        ],
                        [
                            3.5422371571531373,
                            43.84823085479436
                        ],
                        [
                            3.536433118384777,
                            43.84785338921433
                        ],
                        [
                            3.5306290796164164,
                            43.84747592363431
                        ],
                        [
                            3.524825040848056,
                            43.84709845805428
                        ],
                        [
                            3.5190210020796955,
                            43.84672099247427
                        ],
                        [
                            3.513216963311334,
                            43.84634352689424
                        ],
                        [
                            3.5074129245429746,
                            43.845966061314215
                        ],
                        [
                            3.5016088857746133,
                            43.84558859573419
                        ],
                        [
                            3.5016088857746133,
                            43.84558859573419
                        ],
                        [
                            3.5001641065800118,
                            43.84872238554382
                        ],
                        [
                            3.498719327385413,
                            43.85185617535346
                        ],
                        [
                            3.497274548190814,
                            43.854989965163085
                        ],
                        [
                            3.4958297689962152,
                            43.858123754972716
                        ],
                        [
                            3.4943849898016146,
                            43.86125754478235
                        ],
                        [
                            3.4929402106070158,
                            43.86439133459198
                        ],
                        [
                            3.491495431412417,
                            43.86752512440161
                        ],
                        [
                            3.4900506522178154,
                            43.87065891421123
                        ],
                        [
                            3.488605873023215,
                            43.87379270402087
                        ],
                        [
                            3.487161093828616,
                            43.87692649383049
                        ],
                        [
                            3.487161093828616,
                            43.87692649383049
                        ],
                        [
                            3.481535958512833,
                            43.87554605070574
                        ],
                        [
                            3.4759108231970504,
                            43.874165607581
                        ],
                        [
                            3.470285687881266,
                            43.87278516445625
                        ],
                        [
                            3.4646605525654848,
                            43.8714047213315
                        ],
                        [
                            3.459035417249701,
                            43.870024278206756
                        ],
                        [
                            3.4534102819339183,
                            43.868643835082004
                        ],
                        [
                            3.4477851466181355,
                            43.86726339195726
                        ],
                        [
                            3.442160011302351,
                            43.865882948832514
                        ],
                        [
                            3.43653487598657,
                            43.86450250570777
                        ],
                        [
                            3.4309097406707854,
                            43.86312206258302
                        ],
                        [
                            3.4309097406707854,
                            43.86312206258302
                        ],
                        [
                            3.431277199666987,
                            43.865379296054876
                        ],
                        [
                            3.431644658663188,
                            43.86763652952674
                        ],
                        [
                            3.4320121176593905,
                            43.8698937629986
                        ],
                        [
                            3.4323795766555887,
                            43.87215099647047
                        ],
                        [
                            3.4327470356517904,
                            43.874408229942325
                        ],
                        [
                            3.433114494647993,
                            43.87666546341419
                        ],
                        [
                            3.433481953644194,
                            43.87892269688605
                        ],
                        [
                            3.4338494126403964,
                            43.88117993035792
                        ],
                        [
                            3.4342168716365937,
                            43.88343716382978
                        ],
                        [
                            3.4345843306327963,
                            43.88569439730164
                        ],
                        [
                            3.4345843306327963,
                            43.88569439730164
                        ],
                        [
                            3.432049112590587,
                            43.88820090988272
                        ],
                        [
                            3.429513894548372,
                            43.8907074224638
                        ],
                        [
                            3.4269786765061627,
                            43.89321393504488
                        ],
                        [
                            3.424443458463949,
                            43.895720447625955
                        ],
                        [
                            3.4219082404217382,
                            43.89822696020703
                        ],
                        [
                            3.4193730223795282,
                            43.90073347278811
                        ],
                        [
                            3.4168378043373147,
                            43.90323998536918
                        ],
                        [
                            3.4143025862951037,
                            43.90574649795027
                        ],
                        [
                            3.411767368252892,
                            43.90825301053135
                        ],
                        [
                            3.4092321502106793,
                            43.910759523112425
                        ],
                        [
                            3.4092321502106793,
                            43.910759523112425
                        ],
                        [
                            3.4012536291762223,
                            43.910883600236104
                        ],
                        [
                            3.3932751081417627,
                            43.911007677359784
                        ],
                        [
                            3.385296587107302,
                            43.911131754483456
                        ],
                        [
                            3.3773180660728443,
                            43.911255831607136
                        ],
                        [
                            3.3693395450383847,
                            43.911379908730815
                        ],
                        [
                            3.3613610240039242,
                            43.911503985854495
                        ],
                        [
                            3.3533825029694664,
                            43.911628062978174
                        ],
                        [
                            3.3454039819350077,
                            43.91175214010185
                        ],
                        [
                            3.337425460900548,
                            43.91187621722552
                        ],
                        [
                            3.3294469398660884,
                            43.912000294349205
                        ],
                        [
                            3.3294469398660884,
                            43.912000294349205
                        ],
                        [
                            3.3307113104578003,
                            43.909868387840746
                        ],
                        [
                            3.3319756810495123,
                            43.90773648133228
                        ],
                        [
                            3.333240051641224,
                            43.90560457482382
                        ],
                        [
                            3.334504422232936,
                            43.90347266831536
                        ],
                        [
                            3.3357687928246498,
                            43.9013407618069
                        ],
                        [
                            3.33703316341636,
                            43.89920885529844
                        ],
                        [
                            3.3382975340080736,
                            43.89707694878998
                        ],
                        [
                            3.3395619045997855,
                            43.89494504228152
                        ],
                        [
                            3.340826275191499,
                            43.89281313577306
                        ],
                        [
                            3.3420906457832094,
                            43.8906812292646
                        ],
                        [
                            3.3420906457832094,
                            43.8906812292646
                        ],
                        [
                            3.339185437708839,
                            43.88879937955978
                        ],
                        [
                            3.336280229634468,
                            43.88691752985496
                        ],
                        [
                            3.3333750215600984,
                            43.885035680150146
                        ],
                        [
                            3.330469813485727,
                            43.883153830445316
                        ],
                        [
                            3.327564605411356,
                            43.88127198074049
                        ],
                        [
                            3.324659397336984,
                            43.87939013103568
                        ],
                        [
                            3.3217541892626126,
                            43.87750828133086
                        ],
                        [
                            3.318848981188243,
                            43.87562643162603
                        ],
                        [
                            3.315943773113872,
                            43.873744581921216
                        ],
                        [
                            3.3130385650395007,
                            43.87186273221639
                        ],
                        [
                            3.3130385650395007,
                            43.87186273221639
                        ],
                        [
                            3.3081453636770486,
                            43.873491647721025
                        ],
                        [
                            3.3032521623145974,
                            43.87512056322566
                        ],
                        [
                            3.2983589609521453,
                            43.87674947873028
                        ],
                        [
                            3.2934657595896932,
                            43.87837839423492
                        ],
                        [
                            3.288572558227241,
                            43.88000730973955
                        ],
                        [
                            3.2836793568647917,
                            43.88163622524417
                        ],
                        [
                            3.2787861555023405,
                            43.88326514074881
                        ],
                        [
                            3.2738929541398902,
                            43.88489405625344
                        ],
                        [
                            3.268999752777438,
                            43.88652297175806
                        ],
                        [
                            3.2641065514149843,
                            43.8881518872627
                        ],
                        [
                            3.2641065514149843,
                            43.8881518872627
                        ],
                        [
                            3.2608404199394347,
                            43.88739903795512
                        ],
                        [
                            3.257574288463886,
                            43.88664618864754
                        ],
                        [
                            3.2543081569883374,
                            43.885893339339965
                        ],
                        [
                            3.251042025512787,
                            43.88514049003238
                        ],
                        [
                            3.2477758940372374,
                            43.884387640724796
                        ],
                        [
                            3.244509762561687,
                            43.88363479141722
                        ],
                        [
                            3.241243631086139,
                            43.88288194210964
                        ],
                        [
                            3.237977499610589,
                            43.88212909280206
                        ],
                        [
                            3.234711368135041,
                            43.881376243494486
                        ],
                        [
                            3.2314452366594906,
                            43.88062339418689
                        ],
                        [
                            3.2314452366594906,
                            43.88062339418689
                        ],
                        [
                            3.2305349353543797,
                            43.878116021726974
                        ],
                        [
                            3.2296246340492707,
                            43.87560864926705
                        ],
                        [
                            3.2287143327441616,
                            43.87310127680712
                        ],
                        [
                            3.227804031439051,
                            43.87059390434721
                        ],
                        [
                            3.2268937301339435,
                            43.86808653188727
                        ],
                        [
                            3.2259834288288345,
                            43.865579159427355
                        ],
                        [
                            3.2250731275237254,
                            43.863071786967424
                        ],
                        [
                            3.2241628262186164,
                            43.860564414507515
                        ],
                        [
                            3.2232525249135056,
                            43.858057042047584
                        ],
                        [
                            3.222342223608399,
                            43.85554966958767
                        ],
                        [
                            3.222342223608399,
                            43.85554966958767
                        ],
                        [
                            3.22396727639452,
                            43.852163788211485
                        ],
                        [
                            3.225592329180642,
                            43.848777906835295
                        ],
                        [
                            3.2272173819667658,
                            43.84539202545911
                        ],
                        [
                            3.2288424347528877,
                            43.84200614408294
                        ],
                        [
                            3.2304674875390114,
                            43.83862026270675
                        ],
                        [
                            3.2320925403251333,
                            43.83523438133057
                        ],
                        [
                            3.233717593111255,
                            43.83184849995439
                        ],
                        [
                            3.235342645897379,
                            43.82846261857821
                        ],
                        [
                            3.2369676986835,
                            43.82507673720202
                        ],
                        [
                            3.2385927514696218,
                            43.82169085582584
                        ],
                        [
                            3.2385927514696218,
                            43.82169085582584
                        ],
                        [
                            3.2375030898240182,
                            43.82068750699907
                        ],
                        [
                            3.236413428178412,
                            43.819684158172315
                        ],
                        [
                            3.2353237665328076,
                            43.818680809345544
                        ],
                        [
                            3.234234104887203,
                            43.81767746051879
                        ],
                        [
                            3.233144443241597,
                            43.816674111692016
                        ],
                        [
                            3.2320547815959917,
                            43.81567076286526
                        ],
                        [
                            3.2309651199503873,
                            43.81466741403849
                        ],
                        [
                            3.229875458304783,
                            43.81366406521173
                        ],
                        [
                            3.2287857966591766,
                            43.81266071638496
                        ],
                        [
                            3.227696135013572,
                            43.81165736755821
                        ]
                    ]
                ]
            }
        }
    ]
}