{
    "type": "FeatureCollection",
    "features": [
        {
            "type": "Feature",
            "properties": {
                "diocese": "Nemausen",
                "province": "Narbonen",
                "date": 1694
            },
            "geometry": {
                "type": "Polygon",
                "coordinates": [
                    [
                        [
                            4.559037553143076,
                            43.91856681554242
                        ],
                        [
                            4.557773293074767,
                            43.9215757306863
                        ],
                        [
                            4.556509033006458,
                            43.92458464583018
                        ],
                        [
                            4.555244772938147,
                            43.92759356097407
                        ],
                        [
                            4.5539805128698365,
                            43.93060247611795
                        ],
                        [
                            4.5527162528015275,
                            43.93361139126182
                        ],
                        [
                            4.551451992733218,
                            43.93662030640571
                        ],
                        [
                            4.550187732664908,
                            43.93962922154959
                        ],
                        [
                            4.548923472596599,
                            43.94263813669347
                        ],
                        [
                            4.5476592125282895,
                            43.94564705183736
                        ],
                        [
                            4.5463949524599805,
                            43.94865596698124
                        ],
                        [
                            4.5463949524599805,
                            43.94865596698124
                        ],
                        [
                            4.5425918971623265,
                            43.951539219428625
                        ],
                        [
                            4.538788841864676,
                            43.95442247187601
                        ],
                        [
                            4.534985786567022,
                            43.95730572432339
                        ],
                        [
                            4.531182731269368,
                            43.96018897677077
                        ],
                        [
                            4.527379675971719,
                            43.96307222921816
                        ],
                        [
                            4.523576620674065,
                            43.96595548166555
                        ],
                        [
                            4.519773565376415,
                            43.96883873411293
                        ],
                        [
                            4.515970510078761,
                            43.97172198656031
                        ],
                        [
                            4.512167454781107,
                            43.9746052390077
                        ],
                        [
                            4.508364399483458,
                            43.977488491455084
                        ],
                        [
                            4.508364399483458,
                            43.977488491455084
                        ],
                        [
                            4.499474151100898,
                            43.97510410189502
                        ],
                        [
                            4.49058390271834,
                            43.972719712334964
                        ],
                        [
                            4.481693654335782,
                            43.9703353227749
                        ],
                        [
                            4.472803405953226,
                            43.96795093321485
                        ],
                        [
                            4.463913157570667,
                            43.96556654365479
                        ],
                        [
                            4.455022909188109,
                            43.96318215409473
                        ],
                        [
                            4.446132660805553,
                            43.960797764534675
                        ],
                        [
                            4.437242412422993,
                            43.95841337497462
                        ],
                        [
                            4.428352164040437,
                            43.956028985414555
                        ],
                        [
                            4.419461915657877,
                            43.9536445958545
                        ],
                        [
                            4.419461915657877,
                            43.9536445958545
                        ],
                        [
                            4.4127514750912855,
                            43.95351794675738
                        ],
                        [
                            4.4060410345246925,
                            43.95339129766026
                        ],
                        [
                            4.399330593958101,
                            43.95326464856314
                        ],
                        [
                            4.392620153391508,
                            43.95313799946602
                        ],
                        [
                            4.385909712824915,
                            43.95301135036891
                        ],
                        [
                            4.379199272258324,
                            43.952884701271785
                        ],
                        [
                            4.372488831691731,
                            43.952758052174666
                        ],
                        [
                            4.36577839112514,
                            43.95263140307755
                        ],
                        [
                            4.359067950558549,
                            43.952504753980435
                        ],
                        [
                            4.352357509991956,
                            43.952378104883316
                        ],
                        [
                            4.352357509991956,
                            43.952378104883316
                        ],
                        [
                            4.3456415027742885,
                            43.94936725284249
                        ],
                        [
                            4.338925495556623,
                            43.94635640080167
                        ],
                        [
                            4.332209488338956,
                            43.94334554876085
                        ],
                        [
                            4.32549348112129,
                            43.940334696720036
                        ],
                        [
                            4.318777473903623,
                            43.93732384467921
                        ],
                        [
                            4.312061466685957,
                            43.9343129926384
                        ],
                        [
                            4.30534545946829,
                            43.93130214059758
                        ],
                        [
                            4.2986294522506245,
                            43.92829128855676
                        ],
                        [
                            4.291913445032957,
                            43.92528043651594
                        ],
                        [
                            4.285197437815292,
                            43.922269584475124
                        ],
                        [
                            4.285197437815292,
                            43.922269584475124
                        ],
                        [
                            4.27158748676011,
                            43.91775179499516
                        ],
                        [
                            4.257977535704931,
                            43.91323400551521
                        ],
                        [
                            4.244367584649753,
                            43.90871621603525
                        ],
                        [
                            4.230757633594573,
                            43.90419842655529
                        ],
                        [
                            4.217147682539391,
                            43.89968063707533
                        ],
                        [
                            4.203537731484213,
                            43.895162847595365
                        ],
                        [
                            4.189927780429034,
                            43.89064505811541
                        ],
                        [
                            4.176317829373852,
                            43.886127268635455
                        ],
                        [
                            4.162707878318672,
                            43.88160947915549
                        ],
                        [
                            4.149097927263492,
                            43.87709168967554
                        ],
                        [
                            4.149097927263492,
                            43.87709168967554
                        ],
                        [
                            4.144011572544731,
                            43.87307816745185
                        ],
                        [
                            4.138925217825971,
                            43.86906464522818
                        ],
                        [
                            4.13383886310721,
                            43.865051123004505
                        ],
                        [
                            4.128752508388448,
                            43.86103760078083
                        ],
                        [
                            4.123666153669687,
                            43.85702407855715
                        ],
                        [
                            4.118579798950929,
                            43.85301055633348
                        ],
                        [
                            4.113493444232168,
                            43.8489970341098
                        ],
                        [
                            4.108407089513404,
                            43.84498351188613
                        ],
                        [
                            4.103320734794645,
                            43.84096998966245
                        ],
                        [
                            4.098234380075883,
                            43.836956467438775
                        ],
                        [
                            4.098234380075883,
                            43.836956467438775
                        ],
                        [
                            4.095875860654845,
                            43.8365798617376
                        ],
                        [
                            4.093517341233804,
                            43.83620325603642
                        ],
                        [
                            4.0911588218127655,
                            43.83582665033524
                        ],
                        [
                            4.088800302391725,
                            43.83545004463406
                        ],
                        [
                            4.086441782970686,
                            43.83507343893289
                        ],
                        [
                            4.084083263549646,
                            43.83469683323171
                        ],
                        [
                            4.081724744128605,
                            43.83432022753053
                        ],
                        [
                            4.079366224707567,
                            43.833943621829356
                        ],
                        [
                            4.077007705286528,
                            43.83356701612817
                        ],
                        [
                            4.074649185865489,
                            43.833190410427
                        ],
                        [
                            4.074649185865489,
                            43.833190410427
                        ],
                        [
                            4.072659092484502,
                            43.835572084641484
                        ],
                        [
                            4.070668999103514,
                            43.837953758855974
                        ],
                        [
                            4.068678905722525,
                            43.84033543307044
                        ],
                        [
                            4.066688812341539,
                            43.84271710728493
                        ],
                        [
                            4.064698718960553,
                            43.845098781499416
                        ],
                        [
                            4.0627086255795675,
                            43.8474804557139
                        ],
                        [
                            4.06071853219858,
                            43.84986212992838
                        ],
                        [
                            4.058728438817594,
                            43.852243804142866
                        ],
                        [
                            4.056738345436607,
                            43.85462547835735
                        ],
                        [
                            4.054748252055619,
                            43.857007152571825
                        ],
                        [
                            4.054748252055619,
                            43.857007152571825
                        ],
                        [
                            4.05475430122579,
                            43.860141359149914
                        ],
                        [
                            4.054760350395961,
                            43.863275565727996
                        ],
                        [
                            4.054766399566132,
                            43.866409772306085
                        ],
                        [
                            4.054772448736303,
                            43.86954397888417
                        ],
                        [
                            4.054778497906472,
                            43.872678185462256
                        ],
                        [
                            4.054784547076643,
                            43.875812392040345
                        ],
                        [
                            4.054790596246814,
                            43.87894659861843
                        ],
                        [
                            4.054796645416985,
                            43.88208080519651
                        ],
                        [
                            4.054802694587156,
                            43.88521501177459
                        ],
                        [
                            4.054808743757327,
                            43.88834921835268
                        ],
                        [
                            4.054808743757327,
                            43.88834921835268
                        ],
                        [
                            4.055183705392404,
                            43.89449373213744
                        ],
                        [
                            4.055558667027478,
                            43.90063824592221
                        ],
                        [
                            4.0559336286625545,
                            43.906782759706964
                        ],
                        [
                            4.056308590297629,
                            43.91292727349173
                        ],
                        [
                            4.056683551932705,
                            43.9190717872765
                        ],
                        [
                            4.057058513567782,
                            43.92521630106126
                        ],
                        [
                            4.057433475202858,
                            43.93136081484602
                        ],
                        [
                            4.057808436837934,
                            43.937505328630785
                        ],
                        [
                            4.058183398473007,
                            43.94364984241555
                        ],
                        [
                            4.0585583601080835,
                            43.94979435620031
                        ],
                        [
                            4.0585583601080835,
                            43.94979435620031
                        ],
                        [
                            4.063642132320403,
                            43.95242883848805
                        ],
                        [
                            4.0687259045327195,
                            43.9550633207758
                        ],
                        [
                            4.073809676745039,
                            43.95769780306355
                        ],
                        [
                            4.078893448957357,
                            43.96033228535129
                        ],
                        [
                            4.083977221169675,
                            43.96296676763904
                        ],
                        [
                            4.089060993381995,
                            43.965601249926785
                        ],
                        [
                            4.094144765594315,
                            43.96823573221454
                        ],
                        [
                            4.099228537806633,
                            43.97087021450228
                        ],
                        [
                            4.104312310018951,
                            43.97350469679002
                        ],
                        [
                            4.109396082231269,
                            43.97613917907777
                        ],
                        [
                            4.109396082231269,
                            43.97613917907777
                        ],
                        [
                            4.110859172935925,
                            43.98253396793474
                        ],
                        [
                            4.112322263640582,
                            43.98892875679171
                        ],
                        [
                            4.113785354345238,
                            43.995323545648674
                        ],
                        [
                            4.115248445049895,
                            44.00171833450565
                        ],
                        [
                            4.116711535754552,
                            44.008113123362605
                        ],
                        [
                            4.118174626459206,
                            44.014507912219585
                        ],
                        [
                            4.119637717163863,
                            44.02090270107655
                        ],
                        [
                            4.121100807868521,
                            44.02729748993352
                        ],
                        [
                            4.122563898573178,
                            44.03369227879048
                        ],
                        [
                            4.124026989277834,
                            44.040087067647455
                        ],
                        [
                            4.124026989277834,
                            44.040087067647455
                        ],
                        [
                            4.1164107914259915,
                            44.040586158424944
                        ],
                        [
                            4.108794593574151,
                            44.04108524920243
                        ],
                        [
                            4.101178395722311,
                            44.04158433997991
                        ],
                        [
                            4.093562197870469,
                            44.0420834307574
                        ],
                        [
                            4.08594600001863,
                            44.04258252153489
                        ],
                        [
                            4.078329802166788,
                            44.04308161231237
                        ],
                        [
                            4.070713604314948,
                            44.04358070308986
                        ],
                        [
                            4.063097406463108,
                            44.04407979386735
                        ],
                        [
                            4.055481208611267,
                            44.044578884644835
                        ],
                        [
                            4.047865010759427,
                            44.04507797542232
                        ],
                        [
                            4.047865010759427,
                            44.04507797542232
                        ],
                        [
                            4.045318956209195,
                            44.041191100751846
                        ],
                        [
                            4.0427729016589655,
                            44.03730422608138
                        ],
                        [
                            4.040226847108734,
                            44.03341735141092
                        ],
                        [
                            4.037680792558506,
                            44.029530476740455
                        ],
                        [
                            4.0351347380082725,
                            44.025643602069984
                        ],
                        [
                            4.032588683458044,
                            44.02175672739951
                        ],
                        [
                            4.030042628907813,
                            44.01786985272905
                        ],
                        [
                            4.027496574357583,
                            44.01398297805858
                        ],
                        [
                            4.024950519807351,
                            44.01009610338811
                        ],
                        [
                            4.022404465257122,
                            44.006209228717644
                        ],
                        [
                            4.022404465257122,
                            44.006209228717644
                        ],
                        [
                            4.018594712159437,
                            44.00558121815176
                        ],
                        [
                            4.014784959061753,
                            44.004953207585885
                        ],
                        [
                            4.010975205964071,
                            44.00432519702001
                        ],
                        [
                            4.007165452866387,
                            44.003697186454126
                        ],
                        [
                            4.0033556997687025,
                            44.00306917588824
                        ],
                        [
                            3.9995459466710224,
                            44.00244116532237
                        ],
                        [
                            3.9957361935733373,
                            44.00181315475649
                        ],
                        [
                            3.991926440475653,
                            44.00118514419061
                        ],
                        [
                            3.9881166873779716,
                            44.000557133624724
                        ],
                        [
                            3.9843069342802866,
                            43.99992912305885
                        ],
                        [
                            3.9843069342802866,
                            43.99992912305885
                        ],
                        [
                            3.9783007880536956,
                            43.98926990487782
                        ],
                        [
                            3.9722946418271046,
                            43.978610686696804
                        ],
                        [
                            3.9662884956005153,
                            43.96795146851579
                        ],
                        [
                            3.9602823493739243,
                            43.957292250334774
                        ],
                        [
                            3.9542762031473333,
                            43.94663303215374
                        ],
                        [
                            3.9482700569207423,
                            43.93597381397273
                        ],
                        [
                            3.9422639106941513,
                            43.92531459579171
                        ],
                        [
                            3.936257764467561,
                            43.9146553776107
                        ],
                        [
                            3.93025161824097,
                            43.90399615942968
                        ],
                        [
                            3.9242454720143773,
                            43.893336941248656
                        ],
                        [
                            3.9242454720143773,
                            43.893336941248656
                        ],
                        [
                            3.911636642660668,
                            43.89038653149391
                        ],
                        [
                            3.8990278133069523,
                            43.88743612173917
                        ],
                        [
                            3.88641898395324,
                            43.88448571198442
                        ],
                        [
                            3.873810154599528,
                            43.88153530222968
                        ],
                        [
                            3.861201325245816,
                            43.878584892474926
                        ],
                        [
                            3.848592495892103,
                            43.87563448272019
                        ],
                        [
                            3.8359836665383873,
                            43.87268407296543
                        ],
                        [
                            3.823374837184677,
                            43.86973366321069
                        ],
                        [
                            3.810766007830963,
                            43.86678325345594
                        ],
                        [
                            3.798157178477251,
                            43.863832843701196
                        ],
                        [
                            3.798157178477251,
                            43.863832843701196
                        ],
                        [
                            3.802415750407268,
                            43.86239289957969
                        ],
                        [
                            3.8066743223372828,
                            43.860952955458174
                        ],
                        [
                            3.810932894267298,
                            43.85951301133666
                        ],
                        [
                            3.8151914661973163,
                            43.85807306721516
                        ],
                        [
                            3.8194500381273353,
                            43.856633123093644
                        ],
                        [
                            3.82370861005735,
                            43.85519317897213
                        ],
                        [
                            3.8279671819873644,
                            43.853753234850615
                        ],
                        [
                            3.8322257539173816,
                            43.85231329072911
                        ],
                        [
                            3.8364843258473997,
                            43.8508733466076
                        ],
                        [
                            3.840742897777417,
                            43.849433402486085
                        ],
                        [
                            3.840742897777417,
                            43.849433402486085
                        ],
                        [
                            3.8454513878294487,
                            43.845798287112
                        ],
                        [
                            3.8501598778814805,
                            43.842163171737916
                        ],
                        [
                            3.8548683679335114,
                            43.83852805636383
                        ],
                        [
                            3.859576857985545,
                            43.83489294098973
                        ],
                        [
                            3.8642853480375767,
                            43.83125782561566
                        ],
                        [
                            3.8689938380896085,
                            43.82762271024157
                        ],
                        [
                            3.8737023281416403,
                            43.823987594867475
                        ],
                        [
                            3.878410818193672,
                            43.8203524794934
                        ],
                        [
                            3.8831193082457074,
                            43.816717364119306
                        ],
                        [
                            3.887827798297739,
                            43.81308224874523
                        ],
                        [
                            3.887827798297739,
                            43.81308224874523
                        ],
                        [
                            3.8921797986561715,
                            43.81283234685433
                        ],
                        [
                            3.8965317990146073,
                            43.81258244496343
                        ],
                        [
                            3.9008837993730405,
                            43.81233254307255
                        ],
                        [
                            3.9052357997314746,
                            43.81208264118165
                        ],
                        [
                            3.9095878000899087,
                            43.81183273929075
                        ],
                        [
                            3.913939800448342,
                            43.81158283739987
                        ],
                        [
                            3.9182918008067777,
                            43.81133293550897
                        ],
                        [
                            3.92264380116521,
                            43.81108303361807
                        ],
                        [
                            3.926995801523646,
                            43.81083313172718
                        ],
                        [
                            3.931347801882079,
                            43.81058322983629
                        ],
                        [
                            3.931347801882079,
                            43.81058322983629
                        ],
                        [
                            3.934245022792822,
                            43.80832675641879
                        ],
                        [
                            3.937142243703565,
                            43.806070283001304
                        ],
                        [
                            3.9400394646143044,
                            43.80381380958381
                        ],
                        [
                            3.9429366855250456,
                            43.80155733616631
                        ],
                        [
                            3.945833906435787,
                            43.799300862748815
                        ],
                        [
                            3.948731127346528,
                            43.797044389331326
                        ],
                        [
                            3.95162834825727,
                            43.79478791591384
                        ],
                        [
                            3.9545255691680112,
                            43.79253144249634
                        ],
                        [
                            3.9574227900787524,
                            43.790274969078844
                        ],
                        [
                            3.9603200109894954,
                            43.78801849566135
                        ],
                        [
                            3.9603200109894954,
                            43.78801849566135
                        ],
                        [
                            3.963225539483514,
                            43.79002537454982
                        ],
                        [
                            3.966131067977535,
                            43.792032253438286
                        ],
                        [
                            3.969036596471558,
                            43.79403913232675
                        ],
                        [
                            3.9719421249655764,
                            43.79604601121522
                        ],
                        [
                            3.9748476534595976,
                            43.79805289010369
                        ],
                        [
                            3.9777531819536205,
                            43.80005976899215
                        ],
                        [
                            3.980658710447639,
                            43.80206664788062
                        ],
                        [
                            3.98356423894166,
                            43.80407352676909
                        ],
                        [
                            3.986469767435682,
                            43.80608040565755
                        ],
                        [
                            3.9893752959297015,
                            43.80808728454602
                        ],
                        [
                            3.9893752959297015,
                            43.80808728454602
                        ],
                        [
                            3.99317754628295,
                            43.80482796010558
                        ],
                        [
                            3.996979796636198,
                            43.80156863566514
                        ],
                        [
                            4.000782046989446,
                            43.79830931122469
                        ],
                        [
                            4.004584297342692,
                            43.79504998678425
                        ],
                        [
                            4.00838654769594,
                            43.79179066234381
                        ],
                        [
                            4.012188798049188,
                            43.78853133790336
                        ],
                        [
                            4.0159910484024355,
                            43.78527201346292
                        ],
                        [
                            4.019793298755685,
                            43.78201268902247
                        ],
                        [
                            4.023595549108933,
                            43.77875336458202
                        ],
                        [
                            4.027397799462181,
                            43.77549404014159
                        ],
                        [
                            4.027397799462181,
                            43.77549404014159
                        ],
                        [
                            4.029938289366994,
                            43.77649775104339
                        ],
                        [
                            4.032478779271811,
                            43.777501461945185
                        ],
                        [
                            4.035019269176624,
                            43.77850517284697
                        ],
                        [
                            4.037559759081438,
                            43.77950888374877
                        ],
                        [
                            4.040100248986253,
                            43.78051259465057
                        ],
                        [
                            4.042640738891068,
                            43.78151630555236
                        ],
                        [
                            4.045181228795883,
                            43.78252001645416
                        ],
                        [
                            4.047721718700696,
                            43.783523727355956
                        ],
                        [
                            4.050262208605512,
                            43.78452743825775
                        ],
                        [
                            4.052802698510325,
                            43.785531149159546
                        ],
                        [
                            4.052802698510325,
                            43.785531149159546
                        ],
                        [
                            4.0602204195672105,
                            43.77663143135556
                        ],
                        [
                            4.067638140624096,
                            43.767731713551576
                        ],
                        [
                            4.075055861680978,
                            43.75883199574759
                        ],
                        [
                            4.082473582737862,
                            43.74993227794361
                        ],
                        [
                            4.0898913037947455,
                            43.74103256013963
                        ],
                        [
                            4.0973090248516275,
                            43.732132842335645
                        ],
                        [
                            4.104726745908511,
                            43.72323312453165
                        ],
                        [
                            4.112144466965395,
                            43.714333406727675
                        ],
                        [
                            4.119562188022279,
                            43.70543368892369
                        ],
                        [
                            4.126979909079163,
                            43.696533971119706
                        ],
                        [
                            4.126979909079163,
                            43.696533971119706
                        ],
                        [
                            4.124611597190057,
                            43.69026393076207
                        ],
                        [
                            4.122243285300952,
                            43.683993890404444
                        ],
                        [
                            4.1198749734118465,
                            43.67772385004681
                        ],
                        [
                            4.117506661522743,
                            43.671453809689176
                        ],
                        [
                            4.115138349633639,
                            43.665183769331534
                        ],
                        [
                            4.112770037744532,
                            43.65891372897391
                        ],
                        [
                            4.110401725855429,
                            43.65264368861627
                        ],
                        [
                            4.108033413966323,
                            43.646373648258646
                        ],
                        [
                            4.105665102077218,
                            43.640103607901004
                        ],
                        [
                            4.103296790188114,
                            43.63383356754337
                        ],
                        [
                            4.103296790188114,
                            43.63383356754337
                        ],
                        [
                            4.101870304895824,
                            43.63046081673466
                        ],
                        [
                            4.100443819603532,
                            43.627088065925946
                        ],
                        [
                            4.099017334311242,
                            43.62371531511724
                        ],
                        [
                            4.097590849018951,
                            43.62034256430852
                        ],
                        [
                            4.096164363726658,
                            43.616969813499814
                        ],
                        [
                            4.094737878434369,
                            43.6135970626911
                        ],
                        [
                            4.093311393142079,
                            43.61022431188239
                        ],
                        [
                            4.0918849078497885,
                            43.60685156107368
                        ],
                        [
                            4.0904584225574965,
                            43.603478810264974
                        ],
                        [
                            4.089031937265206,
                            43.60010605945626
                        ],
                        [
                            4.089031937265206,
                            43.60010605945626
                        ],
                        [
                            4.090193522719101,
                            43.599781146788345
                        ],
                        [
                            4.091141088174943,
                            43.59933163728235
                        ],
                        [
                            4.091844291016045,
                            43.59875085514696
                        ],
                        [
                            4.0922727886256975,
                            43.59803212459089
                        ],
                        [
                            4.092396238387215,
                            43.59716876982283
                        ],
                        [
                            4.092184297683897,
                            43.59615411505149
                        ],
                        [
                            4.091606623899047,
                            43.59498148448557
                        ],
                        [
                            4.090632874415965,
                            43.59364420233376
                        ],
                        [
                            4.0892327066179615,
                            43.59213559280479
                        ],
                        [
                            4.087375777888337,
                            43.590448980107325
                        ],
                        [
                            4.087375777888338,
                            43.59044898010733
                        ],
                        [
                            4.087780221753055,
                            43.5886233957878
                        ],
                        [
                            4.087855724151797,
                            43.58690400083273
                        ],
                        [
                            4.087623993992882,
                            43.58529012464951
                        ],
                        [
                            4.087106740184634,
                            43.58378109664553
                        ],
                        [
                            4.086325671635377,
                            43.582376246228186
                        ],
                        [
                            4.0853024972534335,
                            43.58107490280487
                        ],
                        [
                            4.084058925947129,
                            43.57987639578298
                        ],
                        [
                            4.082616666624784,
                            43.57878005456991
                        ],
                        [
                            4.080997428194722,
                            43.57778520857304
                        ],
                        [
                            4.079222919565268,
                            43.57689118719978
                        ],
                        [
                            4.07922291956527,
                            43.57689118719978
                        ],
                        [
                            4.078563237515565,
                            43.57533034650648
                        ],
                        [
                            4.077903555465859,
                            43.57376950581319
                        ],
                        [
                            4.0772438734161565,
                            43.572208665119895
                        ],
                        [
                            4.0765841913664485,
                            43.5706478244266
                        ],
                        [
                            4.075924509316746,
                            43.56908698373331
                        ],
                        [
                            4.0752648272670395,
                            43.56752614304002
                        ],
                        [
                            4.074605145217333,
                            43.56596530234672
                        ],
                        [
                            4.073945463167629,
                            43.56440446165343
                        ],
                        [
                            4.073285781117923,
                            43.56284362096014
                        ],
                        [
                            4.072626099068218,
                            43.56128278026684
                        ],
                        [
                            4.072626099068218,
                            43.56128278026684
                        ],
                        [
                            4.08160094140638,
                            43.560636878163905
                        ],
                        [
                            4.090271230811114,
                            43.55931828285684
                        ],
                        [
                            4.098578406233285,
                            43.55735921820637
                        ],
                        [
                            4.106463906623761,
                            43.55479190807318
                        ],
                        [
                            4.113869170933405,
                            43.551648576317945
                        ],
                        [
                            4.12073563811308,
                            43.54796144680139
                        ],
                        [
                            4.1270047471136575,
                            43.54376274338419
                        ],
                        [
                            4.132617936886001,
                            43.53908468992707
                        ],
                        [
                            4.137516646380977,
                            43.533959510290714
                        ],
                        [
                            4.1416423145494505,
                            43.528419428335816
                        ],
                        [
                            4.141642314549454,
                            43.52841942833581
                        ],
                        [
                            4.142062610819119,
                            43.522217690422416
                        ],
                        [
                            4.142310907936521,
                            43.515751510768325
                        ],
                        [
                            4.142656789564295,
                            43.5091612123972
                        ],
                        [
                            4.143369839365079,
                            43.50258711833268
                        ],
                        [
                            4.14471964100151,
                            43.49616955159841
                        ],
                        [
                            4.146975778136223,
                            43.49004883521807
                        ],
                        [
                            4.150407834431858,
                            43.4843652922153
                        ],
                        [
                            4.155285393551054,
                            43.479259245613754
                        ],
                        [
                            4.161878039156445,
                            43.47487101843708
                        ],
                        [
                            4.17045535491067,
                            43.471340933708944
                        ],
                        [
                            4.1704553549106755,
                            43.471340933708944
                        ],
                        [
                            4.1749371401896855,
                            43.46921829067399
                        ],
                        [
                            4.179555174144255,
                            43.46737714151569
                        ],
                        [
                            4.184296462059923,
                            43.46579588675663
                        ],
                        [
                            4.189148009222221,
                            43.46445292691936
                        ],
                        [
                            4.1940968209166805,
                            43.463326662526434
                        ],
                        [
                            4.199129902428838,
                            43.462395494100434
                        ],
                        [
                            4.204234259044226,
                            43.461637822163915
                        ],
                        [
                            4.209396896048382,
                            43.46103204723945
                        ],
                        [
                            4.214604818726841,
                            43.46055656984959
                        ],
                        [
                            4.219845032365127,
                            43.460189790516914
                        ],
                        [
                            4.219845032365132,
                            43.460189790516914
                        ],
                        [
                            4.219950089403445,
                            43.46338812246415
                        ],
                        [
                            4.22005514644176,
                            43.46658645441141
                        ],
                        [
                            4.22016020348007,
                            43.469784786358666
                        ],
                        [
                            4.2202652605183815,
                            43.47298311830591
                        ],
                        [
                            4.220370317556695,
                            43.476181450253165
                        ],
                        [
                            4.220475374595008,
                            43.47937978220041
                        ],
                        [
                            4.220580431633321,
                            43.48257811414766
                        ],
                        [
                            4.2206854886716325,
                            43.48577644609491
                        ],
                        [
                            4.220790545709944,
                            43.48897477804217
                        ],
                        [
                            4.220895602748255,
                            43.492173109989416
                        ],
                        [
                            4.220895602748255,
                            43.492173109989416
                        ],
                        [
                            4.223439723316343,
                            43.49505794646571
                        ],
                        [
                            4.225983843884432,
                            43.497942782942005
                        ],
                        [
                            4.228527964452519,
                            43.500827619418295
                        ],
                        [
                            4.231072085020607,
                            43.50371245589459
                        ],
                        [
                            4.233616205588696,
                            43.506597292370884
                        ],
                        [
                            4.23616032615678,
                            43.50948212884718
                        ],
                        [
                            4.238704446724869,
                            43.51236696532347
                        ],
                        [
                            4.2412485672929545,
                            43.515251801799764
                        ],
                        [
                            4.243792687861044,
                            43.51813663827607
                        ],
                        [
                            4.246336808429131,
                            43.52102147475236
                        ],
                        [
                            4.246336808429131,
                            43.52102147475236
                        ],
                        [
                            4.2626709640132,
                            43.52729500048689
                        ],
                        [
                            4.279005119597265,
                            43.53356852622144
                        ],
                        [
                            4.295339275181334,
                            43.53984205195597
                        ],
                        [
                            4.311673430765399,
                            43.54611557769051
                        ],
                        [
                            4.328007586349466,
                            43.552389103425035
                        ],
                        [
                            4.344341741933537,
                            43.55866262915957
                        ],
                        [
                            4.360675897517602,
                            43.56493615489411
                        ],
                        [
                            4.377010053101669,
                            43.571209680628655
                        ],
                        [
                            4.393344208685734,
                            43.57748320636319
                        ],
                        [
                            4.409678364269803,
                            43.583756732097726
                        ],
                        [
                            4.409678364269803,
                            43.583756732097726
                        ],
                        [
                            4.413127271067969,
                            43.58551270390556
                        ],
                        [
                            4.416576177866139,
                            43.587268675713396
                        ],
                        [
                            4.420025084664305,
                            43.58902464752123
                        ],
                        [
                            4.423473991462474,
                            43.59078061932907
                        ],
                        [
                            4.426922898260642,
                            43.5925365911369
                        ],
                        [
                            4.43037180505881,
                            43.59429256294474
                        ],
                        [
                            4.433820711856978,
                            43.59604853475256
                        ],
                        [
                            4.4372696186551455,
                            43.5978045065604
                        ],
                        [
                            4.440718525453313,
                            43.59956047836823
                        ],
                        [
                            4.444167432251481,
                            43.60131645017607
                        ],
                        [
                            4.444167432251481,
                            43.60131645017607
                        ],
                        [
                            4.445078028450624,
                            43.603197856790246
                        ],
                        [
                            4.445988624649763,
                            43.60507926340442
                        ],
                        [
                            4.4468992208489055,
                            43.60696067001859
                        ],
                        [
                            4.4478098170480465,
                            43.60884207663276
                        ],
                        [
                            4.448720413247187,
                            43.61072348324693
                        ],
                        [
                            4.449631009446328,
                            43.61260488986111
                        ],
                        [
                            4.450541605645473,
                            43.61448629647528
                        ],
                        [
                            4.451452201844612,
                            43.61636770308945
                        ],
                        [
                            4.452362798043751,
                            43.61824910970362
                        ],
                        [
                            4.453273394242894,
                            43.62013051631779
                        ],
                        [
                            4.453273394242894,
                            43.62013051631779
                        ],
                        [
                            4.449285463529716,
                            43.62088155526995
                        ],
                        [
                            4.445297532816539,
                            43.62163259422212
                        ],
                        [
                            4.441309602103363,
                            43.62238363317428
                        ],
                        [
                            4.437321671390185,
                            43.62313467212644
                        ],
                        [
                            4.433333740677007,
                            43.62388571107861
                        ],
                        [
                            4.429345809963831,
                            43.62463675003076
                        ],
                        [
                            4.425357879250653,
                            43.62538778898293
                        ],
                        [
                            4.421369948537478,
                            43.62613882793508
                        ],
                        [
                            4.417382017824298,
                            43.62688986688725
                        ],
                        [
                            4.41339408711112,
                            43.627640905839414
                        ],
                        [
                            4.41339408711112,
                            43.627640905839414
                        ],
                        [
                            4.4143056501429925,
                            43.63002324951053
                        ],
                        [
                            4.415217213174863,
                            43.63240559318166
                        ],
                        [
                            4.416128776206735,
                            43.63478793685279
                        ],
                        [
                            4.417040339238605,
                            43.63717028052391
                        ],
                        [
                            4.417951902270479,
                            43.639552624195034
                        ],
                        [
                            4.4188634653023495,
                            43.641934967866156
                        ],
                        [
                            4.419775028334222,
                            43.64431731153728
                        ],
                        [
                            4.420686591366092,
                            43.64669965520841
                        ],
                        [
                            4.421598154397964,
                            43.64908199887954
                        ],
                        [
                            4.4225097174298345,
                            43.65146434255066
                        ],
                        [
                            4.4225097174298345,
                            43.65146434255066
                        ],
                        [
                            4.4263231804036725,
                            43.653973533404205
                        ],
                        [
                            4.4301366433775105,
                            43.65648272425774
                        ],
                        [
                            4.433950106351347,
                            43.658991915111294
                        ],
                        [
                            4.437763569325185,
                            43.66150110596483
                        ],
                        [
                            4.441577032299023,
                            43.66401029681838
                        ],
                        [
                            4.445390495272861,
                            43.66651948767192
                        ],
                        [
                            4.449203958246699,
                            43.66902867852547
                        ],
                        [
                            4.453017421220537,
                            43.67153786937901
                        ],
                        [
                            4.456830884194375,
                            43.67404706023256
                        ],
                        [
                            4.460644347168213,
                            43.67655625108609
                        ],
                        [
                            4.460644347168213,
                            43.67655625108609
                        ],
                        [
                            4.461199341293604,
                            43.68232375352725
                        ],
                        [
                            4.461754335418997,
                            43.6880912559684
                        ],
                        [
                            4.462309329544388,
                            43.693858758409554
                        ],
                        [
                            4.4628643236697805,
                            43.69962626085071
                        ],
                        [
                            4.4634193177951715,
                            43.70539376329186
                        ],
                        [
                            4.463974311920563,
                            43.71116126573302
                        ],
                        [
                            4.464529306045955,
                            43.71692876817417
                        ],
                        [
                            4.465084300171345,
                            43.722696270615316
                        ],
                        [
                            4.465639294296738,
                            43.72846377305647
                        ],
                        [
                            4.46619428842213,
                            43.73423127549762
                        ],
                        [
                            4.46619428842213,
                            43.73423127549762
                        ],
                        [
                            4.463843754053501,
                            43.73799189905031
                        ],
                        [
                            4.46149321968487,
                            43.741752522603
                        ],
                        [
                            4.459142685316241,
                            43.74551314615567
                        ],
                        [
                            4.456792150947614,
                            43.74927376970837
                        ],
                        [
                            4.454441616578984,
                            43.753034393261046
                        ],
                        [
                            4.452091082210357,
                            43.75679501681374
                        ],
                        [
                            4.449740547841726,
                            43.76055564036643
                        ],
                        [
                            4.4473900134731,
                            43.764316263919106
                        ],
                        [
                            4.445039479104471,
                            43.76807688747179
                        ],
                        [
                            4.442688944735838,
                            43.77183751102448
                        ],
                        [
                            4.442688944735838,
                            43.77183751102448
                        ],
                        [
                            4.446325147462089,
                            43.77697981650615
                        ],
                        [
                            4.449961350188337,
                            43.782122121987825
                        ],
                        [
                            4.4535975529145855,
                            43.787264427469495
                        ],
                        [
                            4.457233755640834,
                            43.792406732951164
                        ],
                        [
                            4.460869958367084,
                            43.79754903843284
                        ],
                        [
                            4.464506161093331,
                            43.80269134391451
                        ],
                        [
                            4.468142363819577,
                            43.80783364939618
                        ],
                        [
                            4.471778566545828,
                            43.812975954877864
                        ],
                        [
                            4.475414769272074,
                            43.818118260359526
                        ],
                        [
                            4.479050971998323,
                            43.8232605658412
                        ],
                        [
                            4.479050971998323,
                            43.8232605658412
                        ],
                        [
                            4.481600224368677,
                            43.82802554378549
                        ],
                        [
                            4.484149476739033,
                            43.832790521729784
                        ],
                        [
                            4.486698729109387,
                            43.837555499674075
                        ],
                        [
                            4.489247981479741,
                            43.842320477618365
                        ],
                        [
                            4.491797233850095,
                            43.84708545556266
                        ],
                        [
                            4.494346486220447,
                            43.85185043350695
                        ],
                        [
                            4.496895738590803,
                            43.856615411451244
                        ],
                        [
                            4.499444990961155,
                            43.86138038939554
                        ],
                        [
                            4.501994243331513,
                            43.86614536733983
                        ],
                        [
                            4.504543495701865,
                            43.870910345284116
                        ],
                        [
                            4.504543495701865,
                            43.870910345284116
                        ],
                        [
                            4.505637270424279,
                            43.87404476862635
                        ],
                        [
                            4.506731045146694,
                            43.87717919196857
                        ],
                        [
                            4.507824819869107,
                            43.8803136153108
                        ],
                        [
                            4.5089185945915204,
                            43.883448038653015
                        ],
                        [
                            4.510012369313936,
                            43.886582461995246
                        ],
                        [
                            4.511106144036349,
                            43.88971688533747
                        ],
                        [
                            4.512199918758762,
                            43.89285130867969
                        ],
                        [
                            4.513293693481177,
                            43.89598573202192
                        ],
                        [
                            4.514387468203591,
                            43.899120155364145
                        ],
                        [
                            4.515481242926006,
                            43.90225457870637
                        ],
                        [
                            4.515481242926006,
                            43.90225457870637
                        ],
                        [
                            4.51983687394771,
                            43.903885802389965
                        ],
                        [
                            4.52419250496942,
                            43.905517026073575
                        ],
                        [
                            4.528548135991127,
                            43.90714824975718
                        ],
                        [
                            4.532903767012835,
                            43.90877947344078
                        ],
                        [
                            4.537259398034541,
                            43.91041069712439
                        ],
                        [
                            4.541615029056246,
                            43.912041920807994
                        ],
                        [
                            4.5459706600779555,
                            43.913673144491604
                        ],
                        [
                            4.55032629109966,
                            43.91530436817521
                        ],
                        [
                            4.55468192212137,
                            43.91693559185881
                        ],
                        [
                            4.559037553143076,
                            43.91856681554242
                        ]
                    ]
                ]
            }
        }
    ]
}