{
  "type": "FeatureCollection",
  "features": [
    {
      "type": "Feature",
      "properties": {
                "diocese": "Cremen",
                "province": "Bononien",
                "date": 1592
            },
      "geometry": {
        "type": "MultiPolygon",
        "coordinates": [
          [
            [
              [
                9.63063559388095,
                45.35865138815202
              ],
              [
                9.673985199999999,
                45.342373099999996
              ],
              [
                9.6742178,
                45.3432853
              ],
              [
                9.6742924,
                45.3437845
              ],
              [
                9.6743965,
                45.3438199
              ],
              [
                9.6744472,
                45.3439276
              ],
              [
                9.675791899999998,
                45.34402759999999
              ],
              [
                9.6764059,
                45.344141
              ],
              [
                9.6773832,
                45.344342299999994
              ],
              [
                9.678267100000001,
                45.34447649999999
              ],
              [
                9.678650499999998,
                45.34464979999999
              ],
              [
                9.6795838,
                45.344774799999996
              ],
              [
                9.6800591,
                45.34489339999999
              ],
              [
                9.680467699999998,
                45.34503949999999
              ],
              [
                9.6806314,
                45.34525459999999
              ],
              [
                9.680787599999999,
                45.3455012
              ],
              [
                9.6812501,
                45.3458855
              ],
              [
                9.681515299999997,
                45.34604589999999
              ],
              [
                9.6819968,
                45.34627710000001
              ],
              [
                9.682150599999998,
                45.34619519999999
              ],
              [
                9.6821856,
                45.3456594
              ],
              [
                9.682302699999997,
                45.34517709999999
              ],
              [
                9.683105,
                45.3452893
              ],
              [
                9.6834371,
                45.34530989999999
              ],
              [
                9.683613099999999,
                45.345353800000005
              ],
              [
                9.6838118,
                45.3454201
              ],
              [
                9.6839063,
                45.345455599999994
              ],
              [
                9.684145199999998,
                45.3454136
              ],
              [
                9.6842526,
                45.345457999999994
              ],
              [
                9.684326999999998,
                45.34553859999999
              ],
              [
                9.684472500000002,
                45.3455647
              ],
              [
                9.6846792,
                45.3455049
              ],
              [
                9.684868099999997,
                45.34555329999999
              ],
              [
                9.6850436,
                45.3455523
              ],
              [
                9.685191799999998,
                45.34567289999999
              ],
              [
                9.685490299999998,
                45.34568459999999
              ],
              [
                9.6857363,
                45.345710099999984
              ],
              [
                9.685864699999998,
                45.345772399999994
              ],
              [
                9.6860692,
                45.3457891
              ],
              [
                9.686299499999999,
                45.345837299999985
              ],
              [
                9.6865501,
                45.3458403
              ],
              [
                9.686757900000002,
                45.34587049999998
              ],
              [
                9.687046,
                45.3458193
              ],
              [
                9.687464599999998,
                45.34573119999999
              ],
              [
                9.687928300000001,
                45.345417899999994
              ],
              [
                9.688191,
                45.345366799999994
              ],
              [
                9.688838,
                45.34530889999999
              ],
              [
                9.689582799999998,
                45.34540789999999
              ],
              [
                9.6902686,
                45.345385799999995
              ],
              [
                9.6907893,
                45.3452971
              ],
              [
                9.690947,
                45.345278199999996
              ],
              [
                9.6911785,
                45.34528579999999
              ],
              [
                9.691652099999999,
                45.34513889999999
              ],
              [
                9.691878,
                45.34481799999999
              ],
              [
                9.6920441,
                45.344182399999994
              ],
              [
                9.692212699999999,
                45.3437403
              ],
              [
                9.692471899999997,
                45.343410199999994
              ],
              [
                9.6932452,
                45.3434955
              ],
              [
                9.693687599999999,
                45.343487
              ],
              [
                9.6939295,
                45.34348229999999
              ],
              [
                9.6934863,
                45.34247239999999
              ],
              [
                9.6931878,
                45.34180359999999
              ],
              [
                9.692468699999997,
                45.34119139999999
              ],
              [
                9.691910599999998,
                45.340690699999996
              ],
              [
                9.691620500000003,
                45.3403189
              ],
              [
                9.6913483,
                45.339848
              ],
              [
                9.6914969,
                45.33947349999999
              ],
              [
                9.691716799999998,
                45.3391886
              ],
              [
                9.694175799999998,
                45.33935819999998
              ],
              [
                9.696178,
                45.33949009999999
              ],
              [
                9.6976332,
                45.339638699999995
              ],
              [
                9.6987959,
                45.3397351
              ],
              [
                9.700306399999999,
                45.3395774
              ],
              [
                9.7009185,
                45.3395331
              ],
              [
                9.7014782,
                45.33964219999999
              ],
              [
                9.7021205,
                45.339845299999986
              ],
              [
                9.7026263,
                45.339977199999986
              ],
              [
                9.7032488,
                45.34026139999999
              ],
              [
                9.7036554,
                45.3403714
              ],
              [
                9.7034256,
                45.34177699999999
              ],
              [
                9.7040201,
                45.34198489999999
              ],
              [
                9.7048482,
                45.3423713
              ],
              [
                9.705595399999998,
                45.34280329999999
              ],
              [
                9.7059912,
                45.3429359
              ],
              [
                9.707072299999998,
                45.343140699999985
              ],
              [
                9.7079718,
                45.34336019999999
              ],
              [
                9.7075844,
                45.344541699999986
              ],
              [
                9.7080466,
                45.344624399999994
              ],
              [
                9.7080632,
                45.3448088
              ],
              [
                9.7081839,
                45.3450151
              ],
              [
                9.7082042,
                45.34523999999999
              ],
              [
                9.7082935,
                45.34548699999999
              ],
              [
                9.7082883,
                45.34570749999999
              ],
              [
                9.7084005,
                45.345751899999996
              ],
              [
                9.708896800000002,
                45.34575329999999
              ],
              [
                9.7094128,
                45.345808599999984
              ],
              [
                9.7096582,
                45.3457756
              ],
              [
                9.7098346,
                45.345850999999996
              ],
              [
                9.7100978,
                45.3458403
              ],
              [
                9.710611,
                45.34592719999999
              ],
              [
                9.7108154,
                45.34606539999999
              ],
              [
                9.7110443,
                45.3461225
              ],
              [
                9.7111858,
                45.346207099999994
              ],
              [
                9.711445899999998,
                45.346461999999995
              ],
              [
                9.7114311,
                45.34681319999999
              ],
              [
                9.711420000000002,
                45.3471958
              ],
              [
                9.7114741,
                45.347438499999996
              ],
              [
                9.7119523,
                45.34829059999999
              ],
              [
                9.7123686,
                45.349039699999985
              ],
              [
                9.712583999999998,
                45.34941639999999
              ],
              [
                9.7127587,
                45.3497303
              ],
              [
                9.711305899999997,
                45.350572
              ],
              [
                9.7115865,
                45.35067379999999
              ],
              [
                9.711330899999998,
                45.35167
              ],
              [
                9.7110389,
                45.35269349999999
              ],
              [
                9.7124106,
                45.3528875
              ],
              [
                9.713681,
                45.3531541
              ],
              [
                9.7145791,
                45.35337799999999
              ],
              [
                9.7210861,
                45.354822299999995
              ],
              [
                9.7213266,
                45.353907199999995
              ],
              [
                9.7215902,
                45.354054
              ],
              [
                9.7218714,
                45.3542098
              ],
              [
                9.72216,
                45.3543159
              ],
              [
                9.722331099999998,
                45.354467899999996
              ],
              [
                9.722526299999998,
                45.35450269999998
              ],
              [
                9.722673299999999,
                45.35464569999999
              ],
              [
                9.722916899999998,
                45.35472069999999
              ],
              [
                9.7230383,
                45.354859499999996
              ],
              [
                9.7236799,
                45.35511639999999
              ],
              [
                9.723831,
                45.3553225
              ],
              [
                9.7242044,
                45.355446199999996
              ],
              [
                9.7243943,
                45.35557099999999
              ],
              [
                9.724702799999998,
                45.35560949999999
              ],
              [
                9.7249329,
                45.35575209999999
              ],
              [
                9.725260499999997,
                45.3560425
              ],
              [
                9.7255166,
                45.35609939999999
              ],
              [
                9.7256474,
                45.356220099999994
              ],
              [
                9.7258332,
                45.3562729
              ],
              [
                9.7260872,
                45.356415399999996
              ],
              [
                9.726522199999998,
                45.3564846
              ],
              [
                9.7268097,
                45.3565053
              ],
              [
                9.7268669,
                45.35623939999999
              ],
              [
                9.727099099999998,
                45.35580129999999
              ],
              [
                9.7272093,
                45.355431599999996
              ],
              [
                9.7273116,
                45.355070899999994
              ],
              [
                9.7296986,
                45.355037599999996
              ],
              [
                9.734951099999998,
                45.355571099999985
              ],
              [
                9.735469599999998,
                45.35555419999999
              ],
              [
                9.7357269,
                45.3553365
              ],
              [
                9.7359442,
                45.354745499999986
              ],
              [
                9.7363648,
                45.35468879999999
              ],
              [
                9.7377587,
                45.3549859
              ],
              [
                9.7383904,
                45.3549683
              ],
              [
                9.7395799,
                45.3552827
              ],
              [
                9.739131399999998,
                45.356466199999986
              ],
              [
                9.7389001,
                45.357023799999986
              ],
              [
                9.738332499999999,
                45.3569225
              ],
              [
                9.737931399999999,
                45.35689459999998
              ],
              [
                9.7377214,
                45.35696029999999
              ],
              [
                9.7376081,
                45.3570249
              ],
              [
                9.7375574,
                45.35712929999999
              ],
              [
                9.7372966,
                45.3577307
              ],
              [
                9.7372077,
                45.35793579999999
              ],
              [
                9.737202399999997,
                45.3579479
              ],
              [
                9.7371851,
                45.3580149
              ],
              [
                9.737016999999998,
                45.35848409999999
              ],
              [
                9.736962999999998,
                45.35881839999998
              ],
              [
                9.736908799999998,
                45.359243799999994
              ],
              [
                9.736839399999997,
                45.359298599999995
              ],
              [
                9.7367309,
                45.359411299999984
              ],
              [
                9.736732,
                45.3594748
              ],
              [
                9.736729,
                45.35949990000001
              ],
              [
                9.7367218,
                45.35956059999999
              ],
              [
                9.736716899999998,
                45.359602299999985
              ],
              [
                9.7365866,
                45.36070469999999
              ],
              [
                9.736372299999998,
                45.36067010000001
              ],
              [
                9.736195499999997,
                45.361557899999994
              ],
              [
                9.736756599999998,
                45.3616263
              ],
              [
                9.737024099999998,
                45.36170109999998
              ],
              [
                9.7369775,
                45.361841899999995
              ],
              [
                9.7368592,
                45.36219959999999
              ],
              [
                9.7369694,
                45.362262
              ],
              [
                9.7373975,
                45.362174899999985
              ],
              [
                9.737634599999998,
                45.362115899999985
              ],
              [
                9.7377598,
                45.36189099999999
              ],
              [
                9.738022,
                45.3619782
              ],
              [
                9.737959299999998,
                45.36213259999999
              ],
              [
                9.737928599999998,
                45.36220829999999
              ],
              [
                9.737865,
                45.36236519999999
              ],
              [
                9.737813299999997,
                45.362492599999996
              ],
              [
                9.738523099999998,
                45.36282549999999
              ],
              [
                9.738242199999998,
                45.363682499999996
              ],
              [
                9.738015099999998,
                45.36365239999999
              ],
              [
                9.7377134,
                45.364505
              ],
              [
                9.7380832,
                45.364574899999994
              ],
              [
                9.738473399999998,
                45.3646486
              ],
              [
                9.7384534,
                45.36471079999999
              ],
              [
                9.738318499999998,
                45.365131199999986
              ],
              [
                9.739015899999998,
                45.36528349999999
              ],
              [
                9.738538899999998,
                45.36587759999999
              ],
              [
                9.737550499999998,
                45.3668284
              ],
              [
                9.7373757,
                45.3670706
              ],
              [
                9.7366629,
                45.36694659999999
              ],
              [
                9.734468899999998,
                45.36675820000001
              ],
              [
                9.734311399999998,
                45.36852799999998
              ],
              [
                9.733471599999998,
                45.368515399999986
              ],
              [
                9.7321205,
                45.368335
              ],
              [
                9.732232499999999,
                45.3678618
              ],
              [
                9.7319369,
                45.3678411
              ],
              [
                9.731809,
                45.36831899999999
              ],
              [
                9.7312677,
                45.368304499999994
              ],
              [
                9.7288939,
                45.3680451
              ],
              [
                9.728795999999999,
                45.3682528
              ],
              [
                9.728785499999999,
                45.36855439999999
              ],
              [
                9.728532,
                45.368578499999984
              ],
              [
                9.728449399999999,
                45.3687321
              ],
              [
                9.7284258,
                45.3690067
              ],
              [
                9.727323699999998,
                45.36895530000001
              ],
              [
                9.727197199999999,
                45.36905060000001
              ],
              [
                9.7272635,
                45.3702293
              ],
              [
                9.727481299999999,
                45.3726538
              ],
              [
                9.7275737,
                45.374746
              ],
              [
                9.727759699999998,
                45.3753119
              ],
              [
                9.7276746,
                45.37601899999999
              ],
              [
                9.727709600000003,
                45.37675689999998
              ],
              [
                9.727805999999998,
                45.3776699
              ],
              [
                9.7279059,
                45.378857399999994
              ],
              [
                9.7279625,
                45.37929359999999
              ],
              [
                9.7280051,
                45.38024299999999
              ],
              [
                9.728072099999999,
                45.3811067
              ],
              [
                9.7280705,
                45.381732299999996
              ],
              [
                9.7282119,
                45.38291949999999
              ],
              [
                9.728277399999998,
                45.3834187
              ],
              [
                9.728291,
                45.3842242
              ],
              [
                9.7283257,
                45.3849351
              ],
              [
                9.728375099999997,
                45.3856774
              ],
              [
                9.728464299999999,
                45.386775
              ],
              [
                9.728538299999999,
                45.388057199999984
              ],
              [
                9.7285931,
                45.3887229
              ],
              [
                9.7286316,
                45.38972629999999
              ],
              [
                9.7285849,
                45.39006869999999
              ],
              [
                9.7285832,
                45.3904332
              ],
              [
                9.7274418,
                45.390458499999994
              ],
              [
                9.7265207,
                45.39048689999999
              ],
              [
                9.725998,
                45.3904452
              ],
              [
                9.7250912,
                45.3903384
              ],
              [
                9.725470899999998,
                45.3886888
              ],
              [
                9.724200499999998,
                45.3884943
              ],
              [
                9.7230313,
                45.38833969999999
              ],
              [
                9.722072799999998,
                45.3883053
              ],
              [
                9.720460199999998,
                45.38806789999999
              ],
              [
                9.7187518,
                45.3878356
              ],
              [
                9.7180696,
                45.3878039
              ],
              [
                9.7173954,
                45.3877767
              ],
              [
                9.716295599999999,
                45.3878106
              ],
              [
                9.716283,
                45.38732009999999
              ],
              [
                9.716220499999999,
                45.38679390000001
              ],
              [
                9.7160677,
                45.3862053
              ],
              [
                9.7158682,
                45.3858285
              ],
              [
                9.7158374,
                45.3855406
              ],
              [
                9.7157391,
                45.384713100000006
              ],
              [
                9.7155495,
                45.384703099999996
              ],
              [
                9.7149738,
                45.3846729
              ],
              [
                9.7144493,
                45.3846087
              ],
              [
                9.7137605,
                45.3845635
              ],
              [
                9.713222799999999,
                45.384598299999986
              ],
              [
                9.7128306,
                45.384641299999984
              ],
              [
                9.7123593,
                45.38474329999999
              ],
              [
                9.7126791,
                45.3852903
              ],
              [
                9.712902899999998,
                45.38594599999999
              ],
              [
                9.7128239,
                45.38613999999999
              ],
              [
                9.712847899999998,
                45.38652689999999
              ],
              [
                9.712801,
                45.3868558
              ],
              [
                9.712330600000001,
                45.3871603
              ],
              [
                9.7119466,
                45.38748219999999
              ],
              [
                9.711274499999998,
                45.3878734
              ],
              [
                9.710745,
                45.388182799999996
              ],
              [
                9.710473099999998,
                45.3884005
              ],
              [
                9.7102648,
                45.388599799999994
              ],
              [
                9.710145799999998,
                45.388789599999996
              ],
              [
                9.7100593,
                45.3890197
              ],
              [
                9.710092899999998,
                45.389275999999995
              ],
              [
                9.710196500000002,
                45.38951839999999
              ],
              [
                9.710404899999999,
                45.3897106
              ],
              [
                9.7105881,
                45.38993000000001
              ],
              [
                9.710793,
                45.3899692
              ],
              [
                9.7110696,
                45.389873
              ],
              [
                9.711643399999998,
                45.3897839
              ],
              [
                9.7123253,
                45.3896626
              ],
              [
                9.7131379,
                45.38951809999999
              ],
              [
                9.7133715,
                45.389552599999995
              ],
              [
                9.7136809,
                45.389654199999995
              ],
              [
                9.7141909,
                45.3898265
              ],
              [
                9.7144932,
                45.3899911
              ],
              [
                9.714688299999999,
                45.3902645
              ],
              [
                9.714794,
                45.39054279999999
              ],
              [
                9.714873799999998,
                45.39079439999999
              ],
              [
                9.714973199999998,
                45.3910773
              ],
              [
                9.715011099999998,
                45.39116709999998
              ],
              [
                9.7147924,
                45.391555499999996
              ],
              [
                9.7142077,
                45.3920407
              ],
              [
                9.707350599999998,
                45.39254329999999
              ],
              [
                9.7058267,
                45.3926644
              ],
              [
                9.7051521,
                45.39284609999999
              ],
              [
                9.7038405,
                45.39239249999999
              ],
              [
                9.7030455,
                45.392154399999995
              ],
              [
                9.7025726,
                45.39213929999998
              ],
              [
                9.7023056,
                45.392239999999994
              ],
              [
                9.7017063,
                45.392335899999985
              ],
              [
                9.699194299999998,
                45.3922758
              ],
              [
                9.698865499999998,
                45.39195499999999
              ],
              [
                9.6974944,
                45.391610299999996
              ],
              [
                9.6957533,
                45.3914302
              ],
              [
                9.695963099999998,
                45.3901654
              ],
              [
                9.6948836,
                45.390188099999996
              ],
              [
                9.6941099,
                45.39018829999999
              ],
              [
                9.693906099999998,
                45.390186799999995
              ],
              [
                9.6938177,
                45.3901745
              ],
              [
                9.693677499999998,
                45.39018889999999
              ],
              [
                9.6935039,
                45.390187499999996
              ],
              [
                9.6928265,
                45.3901646
              ],
              [
                9.692067,
                45.39014219999999
              ],
              [
                9.691062999999998,
                45.3901122
              ],
              [
                9.6902064,
                45.39005439999999
              ],
              [
                9.6889011,
                45.3898733
              ],
              [
                9.688500399999999,
                45.3898151
              ],
              [
                9.6872157,
                45.389632799999994
              ],
              [
                9.687084,
                45.3896142
              ],
              [
                9.6853067,
                45.3894808
              ],
              [
                9.6851376,
                45.390291999999995
              ],
              [
                9.683826,
                45.39039489999999
              ],
              [
                9.6830284,
                45.3903231
              ],
              [
                9.6823109,
                45.390282400000004
              ],
              [
                9.681969799999997,
                45.390199
              ],
              [
                9.6816202,
                45.390074999999996
              ],
              [
                9.6813763,
                45.39011699999999
              ],
              [
                9.681153099999998,
                45.3901408
              ],
              [
                9.680643199999999,
                45.3900988
              ],
              [
                9.680619099999998,
                45.3902205
              ],
              [
                9.6789627,
                45.3899153
              ],
              [
                9.6756811,
                45.389363199999984
              ],
              [
                9.6755481,
                45.389859099999995
              ],
              [
                9.6743271,
                45.389645699999996
              ],
              [
                9.6741632,
                45.3895522
              ],
              [
                9.6740624,
                45.38940879999999
              ],
              [
                9.6740749,
                45.3891117
              ],
              [
                9.6741733,
                45.38866099999999
              ],
              [
                9.6741807,
                45.3883414
              ],
              [
                9.674018699999998,
                45.38814889999999
              ],
              [
                9.671300799999997,
                45.38799379999999
              ],
              [
                9.666971499999999,
                45.38782119999999
              ],
              [
                9.6667386,
                45.3877055
              ],
              [
                9.6659644,
                45.387723499999986
              ],
              [
                9.6651298,
                45.387494399999994
              ],
              [
                9.6649286,
                45.3862669
              ],
              [
                9.664081399999999,
                45.3863213
              ],
              [
                9.662760799999997,
                45.38304349999999
              ],
              [
                9.661378799999998,
                45.3829615
              ],
              [
                9.661384599999998,
                45.38263289999999
              ],
              [
                9.6597884,
                45.38267369999999
              ],
              [
                9.6613312,
                45.377651
              ],
              [
                9.660773199999998,
                45.377442699999996
              ],
              [
                9.6603548,
                45.37784119999999
              ],
              [
                9.6599806,
                45.378198899999994
              ],
              [
                9.6594548,
                45.378561999999995
              ],
              [
                9.6590026,
                45.37880769999999
              ],
              [
                9.6586705,
                45.3789446
              ],
              [
                9.6562727,
                45.3799215
              ],
              [
                9.6558884,
                45.3783035
              ],
              [
                9.6572084,
                45.37717529999998
              ],
              [
                9.656108799999998,
                45.3767945
              ],
              [
                9.655078399999999,
                45.37645839999998
              ],
              [
                9.652168599999998,
                45.37552989999999
              ],
              [
                9.6512775,
                45.3764801
              ],
              [
                9.6500682,
                45.37766169999999
              ],
              [
                9.6430074,
                45.37670699999999
              ],
              [
                9.643046799999999,
                45.37652679999999
              ],
              [
                9.643094899999998,
                45.37611689999999
              ],
              [
                9.6431023,
                45.3755093
              ],
              [
                9.6430491,
                45.37475799999999
              ],
              [
                9.6415847,
                45.374572699999995
              ],
              [
                9.639212899999999,
                45.374324999999985
              ],
              [
                9.639151299999998,
                45.37452329999999
              ],
              [
                9.639088599999997,
                45.3746317
              ],
              [
                9.6390731,
                45.37480729999999
              ],
              [
                9.6389547,
                45.375068999999996
              ],
              [
                9.638830199999997,
                45.3753533
              ],
              [
                9.6387834,
                45.3755921
              ],
              [
                9.6386842,
                45.3757141
              ],
              [
                9.6386309,
                45.37594399999999
              ],
              [
                9.6383738,
                45.37594089999999
              ],
              [
                9.6378891,
                45.37585359999999
              ],
              [
                9.6364102,
                45.376505400000006
              ],
              [
                9.6362304,
                45.37627239999999
              ],
              [
                9.636006999999998,
                45.37656619999999
              ],
              [
                9.6357884,
                45.3767204
              ],
              [
                9.6357109,
                45.37678839999999
              ],
              [
                9.6356742,
                45.376932599999996
              ],
              [
                9.6357449,
                45.3771167
              ],
              [
                9.635737399999998,
                45.377301299999985
              ],
              [
                9.635477099999997,
                45.377437799999996
              ],
              [
                9.6352276,
                45.37753369999999
              ],
              [
                9.6351026,
                45.37763789999999
              ],
              [
                9.635090599999998,
                45.3777009
              ],
              [
                9.635185699999997,
                45.3777904
              ],
              [
                9.6352991,
                45.3779338
              ],
              [
                9.6354084,
                45.378144699999986
              ],
              [
                9.635276299999997,
                45.37846499999999
              ],
              [
                9.6351148,
                45.378443399999995
              ],
              [
                9.635057699999999,
                45.37847519999999
              ],
              [
                9.6350424,
                45.37853379999999
              ],
              [
                9.6350526,
                45.37873179999998
              ],
              [
                9.6350408,
                45.3788129
              ],
              [
                9.634933999999998,
                45.37883149999999
              ],
              [
                9.6348815,
                45.3788498
              ],
              [
                9.6348351,
                45.378984999999986
              ],
              [
                9.6348266,
                45.37907509999999
              ],
              [
                9.6348517,
                45.379178499999995
              ],
              [
                9.634794799999998,
                45.3792328
              ],
              [
                9.6346942,
                45.379228899999994
              ],
              [
                9.6346699,
                45.3793415
              ],
              [
                9.634568499999999,
                45.3796976
              ],
              [
                9.6344196,
                45.3799415
              ],
              [
                9.634289299999999,
                45.380140199999985
              ],
              [
                9.634021700000002,
                45.38062779999999
              ],
              [
                9.634058399999999,
                45.38090659999999
              ],
              [
                9.634063299999998,
                45.38120359999999
              ],
              [
                9.634015899999998,
                45.38181599999999
              ],
              [
                9.629339599999998,
                45.381828299999995
              ],
              [
                9.629293299999999,
                45.3816846
              ],
              [
                9.6292288,
                45.38148239999999
              ],
              [
                9.6292077,
                45.3811675
              ],
              [
                9.629172,
                45.38068609999999
              ],
              [
                9.629187,
                45.380447499999995
              ],
              [
                9.6292146,
                45.38020879999999
              ],
              [
                9.6292511,
                45.38004209999998
              ],
              [
                9.629230699999999,
                45.37992969999999
              ],
              [
                9.6291842,
                45.379628399999994
              ],
              [
                9.6291502,
                45.379295500000005
              ],
              [
                9.6292851,
                45.378930200000006
              ],
              [
                9.6293176,
                45.378552
              ],
              [
                9.629288400000002,
                45.378228099999994
              ],
              [
                9.6292759,
                45.37810669999999
              ],
              [
                9.6291803,
                45.377837199999995
              ],
              [
                9.6291885,
                45.377706599999996
              ],
              [
                9.6292479,
                45.37744969999999
              ],
              [
                9.629296899999998,
                45.3771254
              ],
              [
                9.629244899999998,
                45.376603599999996
              ],
              [
                9.629212499999998,
                45.37627699999999
              ],
              [
                9.629335099999999,
                45.3758155
              ],
              [
                9.6293866,
                45.3751356
              ],
              [
                9.6293453,
                45.3741502
              ],
              [
                9.6293649,
                45.37332199999999
              ],
              [
                9.6295193,
                45.373136599999995
              ],
              [
                9.6302842,
                45.372592299999994
              ],
              [
                9.6307943,
                45.372089999999986
              ],
              [
                9.6311238,
                45.371579600000004
              ],
              [
                9.6312447,
                45.3711153
              ],
              [
                9.6313092,
                45.370597399999994
              ],
              [
                9.631577599999998,
                45.36990279999999
              ],
              [
                9.631877600000001,
                45.369316099999985
              ],
              [
                9.632071199999999,
                45.369072
              ],
              [
                9.632315599999998,
                45.3689491
              ],
              [
                9.632167599999999,
                45.36870239999998
              ],
              [
                9.6317833,
                45.36858749999999
              ],
              [
                9.6312336,
                45.36853649999999
              ],
              [
                9.630573,
                45.36841419999999
              ],
              [
                9.6307587,
                45.367603
              ],
              [
                9.6310509,
                45.3663232
              ],
              [
                9.6314852,
                45.3644756
              ],
              [
                9.633425300000003,
                45.36369069999999
              ],
              [
                9.6335274,
                45.3635461
              ],
              [
                9.633467799999998,
                45.36334839999999
              ],
              [
                9.633137899999998,
                45.36310719999999
              ],
              [
                9.632844599999999,
                45.3629963
              ],
              [
                9.632291299999999,
                45.3629004
              ],
              [
                9.631691699999998,
                45.3628047
              ],
              [
                9.6315955,
                45.362764699999985
              ],
              [
                9.631488599999999,
                45.36276980000001
              ],
              [
                9.6308552,
                45.36264729999999
              ],
              [
                9.629570600000001,
                45.3623753
              ],
              [
                9.6299577,
                45.3611625
              ],
              [
                9.63063559388095,
                45.35865138815202
              ]
            ]
          ]
        ]
      }
    }
  ]
}