{"type": "FeatureCollection", "features": [{"type": "Feature", "properties": {"diocese": "Condom", "province": "VI_Bordeaux", "source": "38_Condom.txt"}, "geometry": {"type": "Polygon", "coordinates": [[[0.8728666086790229, 44.061056791970884], [0.8632533764053107, 44.0627390041466], [0.8536401441315986, 44.06442121632232], [0.8440269118578854, 44.06610342849804], [0.8344136795841723, 44.067785640673755], [0.8248004473104602, 44.06946785284948], [0.815187215036747, 44.071150065025186], [0.8055739827630348, 44.0728322772009], [0.7959607504893218, 44.074514489376625], [0.7863475182156106, 44.07619670155234], [0.7767342859418973, 44.07787891372806], [0.7767342859418973, 44.07787891372806], [0.7698146071559195, 44.08062574875475], [0.7628949283699433, 44.08337258378143], [0.7559752495839662, 44.08611941880812], [0.74905557079799, 44.088866253834794], [0.742135892012014, 44.09161308886148], [0.7352162132260371, 44.09435992388817], [0.72829653444006, 44.09710675891485], [0.7213768556540829, 44.09985359394153], [0.7144571768681067, 44.102600428968216], [0.7075374980821307, 44.10534726399491], [0.7075374980821307, 44.10534726399491], [0.7042029088633237, 44.10516911580982], [0.7008683196445165, 44.10499096762476], [0.6975337304257097, 44.10481281943968], [0.6941991412069033, 44.10463467125461], [0.690864551988098, 44.104456523069544], [0.6875299627692901, 44.10427837488446], [0.684195373550484, 44.104100226699394], [0.680860784331677, 44.103922078514316], [0.6775261951128706, 44.103743930329244], [0.6741916058940645, 44.10356578214417], [0.6741916058940645, 44.10356578214417], [0.6709833750842304, 44.10241231815947], [0.6677751442743944, 44.10125885417478], [0.66456691346456, 44.10010539019007], [0.6613586826547269, 44.09895192620538], [0.6581504518448926, 44.09779846222067], [0.6549422210350575, 44.09664499823598], [0.6517339902252233, 44.09549153425128], [0.648525759415389, 44.09433807026658], [0.645317528605555, 44.09318460628189], [0.6421092977957208, 44.09203114229719], [0.6421092977957208, 44.09203114229719], [0.6364780092954061, 44.097881547466365], [0.630846720795093, 44.10373195263554], [0.6252154322947774, 44.10958235780471], [0.6195841437944642, 44.11543276297388], [0.6139528552941504, 44.12128316814305], [0.6083215667938355, 44.12713357331223], [0.6026902782935224, 44.1329839784814], [0.5970589897932084, 44.138834383650575], [0.5914277012928943, 44.14468478881974], [0.5857964127925808, 44.150535193988915], [0.5857964127925808, 44.150535193988915], [0.581308682363213, 44.15088870599219], [0.5768209519338447, 44.15124221799547], [0.5723332215044783, 44.15159572999875], [0.5678454910751101, 44.151949242002026], [0.5633577606457432, 44.152302754005305], [0.5588700302163749, 44.15265626600858], [0.5543822997870076, 44.15300977801186], [0.54989456935764, 44.15336329001513], [0.5454068389282725, 44.15371680201841], [0.5409191084989051, 44.15407031402169], [0.5409191084989051, 44.15407031402169], [0.5273312779611037, 44.15699280090575], [0.5137434474233009, 44.159915287789815], [0.5001556168854995, 44.16283777467388], [0.48656778634769804, 44.16576026155795], [0.4729799558098957, 44.168682748442016], [0.45939212527209383, 44.17160523532607], [0.4458042947342915, 44.17452772221014], [0.43221646419649007, 44.177450209094204], [0.41862863365868774, 44.18037269597828], [0.4050408031208861, 44.18329518286234], [0.4050408031208861, 44.18329518286234], [0.399656763480591, 44.1843577898339], [0.3942727238402959, 44.18542039680548], [0.38888868420000144, 44.186483003777056], [0.38350464455970457, 44.18754561074863], [0.3781206049194086, 44.188608217720194], [0.37273656527911436, 44.189670824691774], [0.36735252563881926, 44.19073343166334], [0.36196848599852416, 44.19179603863492], [0.35658444635822795, 44.192858645606485], [0.35120040671793373, 44.19392125257806], [0.35120040671793373, 44.19392125257806], [0.3508271493771482, 44.19986157326626], [0.3504538920363638, 44.20580189395445], [0.35008063469557893, 44.211742214642655], [0.3497073773547945, 44.217682535330844], [0.349334120014009, 44.22362285601905], [0.34896086267322346, 44.22956317670724], [0.3485876053324388, 44.23550349739544], [0.34821434799165507, 44.24144381808364], [0.34784109065087065, 44.247384138771835], [0.34746783331008513, 44.25332445946003], [0.34746783331008513, 44.25332445946003], [0.3447759807016504, 44.25394444832946], [0.3420841280932154, 44.254564437198894], [0.3393922754847798, 44.25518442606833], [0.33670042287634416, 44.25580441493776], [0.3340085702679092, 44.25642440380719], [0.33131671765947446, 44.257044392676626], [0.3286248650510397, 44.257664381546064], [0.3259330124426041, 44.25828437041549], [0.3232411598341691, 44.25890435928491], [0.3205493072257335, 44.25952434815435], [0.3205493072257335, 44.25952434815435], [0.3179995648553178, 44.26652703713092], [0.31544982248490094, 44.27352972610748], [0.31290008011448456, 44.28053241508406], [0.31035033774406795, 44.28753510406062], [0.3078005953736511, 44.2945377930372], [0.3052508530032354, 44.30154048201376], [0.3027011106328188, 44.30854317099033], [0.3001513682624022, 44.3155458599669], [0.29760162589198536, 44.322548548943466], [0.29505188352156986, 44.32955123792005], [0.29505188352156986, 44.32955123792005], [0.2921044047298793, 44.330614452970366], [0.28915692593818987, 44.3316776680207], [0.28620944714650043, 44.33274088307104], [0.2832619683548119, 44.33380409812136], [0.2803144895631222, 44.3348673131717], [0.2773670107714328, 44.33593052822203], [0.27441953197974334, 44.33699374327236], [0.2714720531880548, 44.338056958322696], [0.26852457439636357, 44.339120173373026], [0.2655770956046748, 44.34018338842336], [0.2655770956046748, 44.34018338842336], [0.26429298349314556, 44.339296433309165], [0.26300887138161544, 44.338409478194976], [0.2617247592700849, 44.337522523080786], [0.26044064715855475, 44.336635567966596], [0.2591565350470253, 44.335748612852406], [0.25787242293549517, 44.334861657738216], [0.2565883108239655, 44.33397470262402], [0.2553041987124345, 44.33308774750983], [0.25402008660090525, 44.33220079239564], [0.2527359744893749, 44.33131383728145], [0.2527359744893749, 44.33131383728145], [0.24928289052525443, 44.33618943871867], [0.2458298065611344, 44.34106504015589], [0.24237672259701482, 44.34594064159312], [0.23892363863289479, 44.350816243030344], [0.2354705546687743, 44.35569184446756], [0.23201747070465495, 44.360567445904785], [0.22856438674053448, 44.365443047342005], [0.22511130277641533, 44.37031864877923], [0.22165821881229486, 44.375194250216445], [0.21820513484817372, 44.380069851653666], [0.21820513484817372, 44.380069851653666], [0.21564170214214173, 44.38077853056735], [0.21307826943610886, 44.38148720948102], [0.21051483673007487, 44.38219588839471], [0.207951404024042, 44.38290456730839], [0.20538797131800912, 44.38361324622207], [0.20282453861197602, 44.384321925135744], [0.20026110590594337, 44.385030604049426], [0.19769767319990939, 44.38573928296311], [0.1951342404938765, 44.38644796187679], [0.19257080778784363, 44.387156640790465], [0.19257080778784363, 44.387156640790465], [0.19154847438024758, 44.38901831293883], [0.19052614097265064, 44.3908799850872], [0.18950380756505214, 44.39274165723557], [0.18848147415745542, 44.39460332938393], [0.18745914074985937, 44.3964650015323], [0.18643680734226153, 44.398326673680664], [0.18541447393466481, 44.40018834582904], [0.18439214052706787, 44.402050017977395], [0.18336980711947026, 44.40391169012577], [0.1823474737118731, 44.405773362274125], [0.1823474737118731, 44.405773362274125], [0.17752212303174408, 44.40891489527679], [0.17269677235161418, 44.412056428279435], [0.16787142167148406, 44.4151979612821], [0.16304607099135415, 44.41833949428476], [0.15822072031122447, 44.42148102728742], [0.15339536963109524, 44.42462256029007], [0.14857001895096533, 44.42776409329273], [0.14374466827083632, 44.43090562629539], [0.1389193175907062, 44.434047159298046], [0.1340939669105763, 44.4371886923007], [0.1340939669105763, 44.4371886923007], [0.1332751481349186, 44.43562141276521], [0.13245632935926088, 44.4340541332297], [0.13163751058360207, 44.432486853694186], [0.13081869180794437, 44.430919574158686], [0.12999987303228577, 44.42935229462319], [0.12918105425662785, 44.42778501508768], [0.12836223548097014, 44.42621773555218], [0.12754341670531177, 44.424650456016685], [0.12672459792965385, 44.42308317648117], [0.12590577915399592, 44.42151589694567], [0.12590577915399592, 44.42151589694567], [0.12789005465519, 44.41612395144658], [0.12987433015638317, 44.4107320059475], [0.13185860565757745, 44.40534006044841], [0.13384288115877152, 44.39994811494932], [0.1358271566599658, 44.394556169450226], [0.13781143216115876, 44.38916422395114], [0.13979570766235283, 44.38377227845206], [0.14177998316354712, 44.378380332952965], [0.14376425866474007, 44.37298838745388], [0.14574853416593436, 44.36759644195479], [0.14574853416593436, 44.36759644195479], [0.14592325313399224, 44.36446228048998], [0.14609797210205144, 44.36132811902519], [0.14627269107010865, 44.35819395756039], [0.14644741003816764, 44.35505979609559], [0.14662212900622573, 44.35192563463079], [0.14679684797428405, 44.348791473165996], [0.14697156694234215, 44.345657311701196], [0.14714628591040024, 44.34252315023639], [0.14732100487845923, 44.33938898877159], [0.14749572384651666, 44.336254827306796], [0.14749572384651666, 44.336254827306796], [0.14586098911573186, 44.33462428266194], [0.1442262543849464, 44.33299373801709], [0.14259151965416184, 44.33136319337224], [0.1409567849233766, 44.329732648727386], [0.13932205019259092, 44.32810210408253], [0.13768731546180657, 44.326471559437685], [0.1360525807310211, 44.32484101479283], [0.13441784600023565, 44.323210470147984], [0.13278311126944908, 44.32157992550313], [0.1311483765386645, 44.319949380858276], [0.1311483765386645, 44.319949380858276], [0.1313264909738634, 44.31857038601786], [0.13150460540906117, 44.31719139117745], [0.13168271984425828, 44.31581239633704], [0.13186083427945694, 44.31443340149662], [0.13203894871465582, 44.313054406656214], [0.1322170631498527, 44.3116754118158], [0.13239517758505137, 44.31029641697538], [0.13257329202025026, 44.30891742213497], [0.13275140645544914, 44.30753842729456], [0.13292952089064602, 44.306159432454145], [0.13292952089064602, 44.306159432454145], [0.12893725952052737, 44.30465436773286], [0.12494499815040827, 44.30314930301159], [0.12095273678028962, 44.3016442382903], [0.11696047541017052, 44.30013917356903], [0.11296821404005208, 44.29863410884774], [0.10897595266993365, 44.29712904412647], [0.10498369129981433, 44.295623979405185], [0.1009914299296959, 44.2941189146839], [0.09699916855957746, 44.29261384996263], [0.09300690718945814, 44.29110878524135], [0.09300690718945814, 44.29110878524135], [0.09227984779903986, 44.28985448421869], [0.0915527884086198, 44.28860018319604], [0.09082572901820152, 44.287345882173376], [0.09009866962778301, 44.28609158115073], [0.08937161023736295, 44.284837280128066], [0.08864455084694356, 44.28358297910541], [0.08791749145652461, 44.28232867808276], [0.0871904320661061, 44.2810743770601], [0.08646337267568693, 44.279820076037446], [0.08573631328526776, 44.2785657750148], [0.08573631328526776, 44.2785657750148], [0.08663615365028621, 44.275681798028415], [0.08753599401530399, 44.27279782104205], [0.08843583438032332, 44.26991384405568], [0.08933567474534088, 44.267029867069304], [0.09023551511035932, 44.26414589008293], [0.0911353554753771, 44.26126191309656], [0.09203519584039643, 44.25837793611018], [0.09293503620541488, 44.25549395912381], [0.09383487657043155, 44.252609982137436], [0.09473471693545021, 44.24972600515106], [0.09473471693545021, 44.24972600515106], [0.0945510458711305, 44.248221890918195], [0.09436737480680835, 44.24671777668533], [0.09418370374248863, 44.24521366245248], [0.09400003267816737, 44.24370954821961], [0.09381636161384588, 44.24220543398675], [0.09363269054952639, 44.24070131975389], [0.09344901948520401, 44.23919720552103], [0.09326534842088452, 44.237693091288165], [0.09308167735656303, 44.236188977055306], [0.09289800629224265, 44.23468486282244], [0.09289800629224265, 44.23468486282244], [0.08999516324974133, 44.23405707858899], [0.08709232020724156, 44.233429294355545], [0.08418947716474023, 44.232801510122094], [0.08128663412223958, 44.23217372588865], [0.07838379107973825, 44.2315459416552], [0.07548094803723848, 44.230918157421755], [0.07257810499473805, 44.230290373188296], [0.0696752619522365, 44.22966258895486], [0.06677241890973695, 44.22903480472141], [0.06386957586723563, 44.22840702048796], [0.06386957586723563, 44.22840702048796], [0.06060630776411857, 44.229158240290076], [0.05734303966100063, 44.2299094600922], [0.05407977155788268, 44.230660679894335], [0.05081650345476474, 44.23141189969645], [0.04755323535164768, 44.23216311949857], [0.044289967248528184, 44.232914339300706], [0.04102669914541024, 44.23366555910283], [0.037763431042292295, 44.23441677890495], [0.03450016293917524, 44.235167998707084], [0.031236894836057516, 44.2359192185092], [0.031236894836057516, 44.2359192185092], [0.025067872853615336, 44.23453858495633], [0.018898850871172268, 44.233157951403456], [0.012729828888730976, 44.23177731785058], [0.006560806906288685, 44.23039668429771], [0.00039178492384561725, 44.22901605074484], [-0.005777237058596452, 44.227635417191955], [-0.011946259041039742, 44.22625478363908], [-0.01811528102348192, 44.22487415008621], [-0.024284303005923213, 44.22349351653333], [-0.03045332498836628, 44.222112882980454], [-0.03045332498836628, 44.222112882980454], [-0.03299646079104157, 44.219730077433525], [-0.03553959659371442, 44.217347271886574], [-0.03808273239638904, 44.21496446633963], [-0.04062586819906355, 44.212581660792694], [-0.043169004001739064, 44.21019885524574], [-0.04571213980441258, 44.207816049698806], [-0.04825527560708631, 44.20543324415186], [-0.050798411409760824, 44.203050438604926], [-0.053341547212436224, 44.200667633057975], [-0.05588468301510985, 44.198284827511046], [-0.05588468301510985, 44.198284827511046], [-0.05679769171051341, 44.19514935541365], [-0.057710700405917637, 44.19201388331626], [-0.058623709101321975, 44.188878411218866], [-0.059536717796725425, 44.18574293912148], [-0.06044972649212976, 44.18260746702409], [-0.06136273518753432, 44.1794719949267], [-0.06227574388293855, 44.17633652282931], [-0.063188752578342, 44.17320105073192], [-0.06410176127374545, 44.170065578634535], [-0.0650147699691499, 44.16693010653714], [-0.0650147699691499, 44.16693010653714], [-0.06955064505067043, 44.16554988055954], [-0.07408652013219119, 44.164169654581926], [-0.07862239521371261, 44.16278942860433], [-0.08315827029523337, 44.161409202626714], [-0.08769414537675413, 44.16002897664911], [-0.09223002045827466, 44.15864875067151], [-0.09676589553979542, 44.1572685246939], [-0.10130177062131684, 44.15588829871629], [-0.1058376457028376, 44.15450807273869], [-0.11037352078435836, 44.15312784676108], [-0.11037352078435836, 44.15312784676108], [-0.11255052260345044, 44.15312730345901], [-0.11472752442254142, 44.15312676015693], [-0.1169045262416335, 44.15312621685485], [-0.1190815280607238, 44.15312567355277], [-0.12125852987981578, 44.1531251302507], [-0.12343553169890775, 44.153124586948636], [-0.12561253351799873, 44.15312404364656], [-0.1277895353370908, 44.153123500344485], [-0.129966537156182, 44.153122957042406], [-0.13214353897527398, 44.153122413740334], [-0.13214353897527398, 44.153122413740334], [-0.13378093531982227, 44.1501128291398], [-0.13541833166437034, 44.14710324453928], [-0.1370557280089193, 44.144093659938754], [-0.13869312435346748, 44.141084075338235], [-0.14033052069801577, 44.1380744907377], [-0.14196791704256295, 44.13506490613718], [-0.1436053133871119, 44.13205532153666], [-0.14524270973165931, 44.12904573693613], [-0.14688010607620827, 44.12603615233561], [-0.14851750242075545, 44.12302656773509], [-0.14851750242075545, 44.12302656773509], [-0.14580389719921172, 44.119265980098554], [-0.14309029197766532, 44.11550539246201], [-0.14037668675612058, 44.111744804825484], [-0.13766308153457585, 44.10798421718894], [-0.13494947631303034, 44.10422362955241], [-0.1322358710914856, 44.10046304191587], [-0.12952226586994098, 44.09670245427934], [-0.12680866064839635, 44.0929418666428], [-0.12409505542684984, 44.08918127900627], [-0.12138145020530589, 44.085420691369734], [-0.12138145020530589, 44.085420691369734], [-0.10524170569821889, 44.085424719274805], [-0.08910196119113079, 44.08542874717989], [-0.07296221668404268, 44.08543277508497], [-0.0568224721769548, 44.08543680299004], [-0.04068272766986747, 44.085440830895124], [-0.024542983162779586, 44.085444858800194], [-0.00840323865569248, 44.08544888670527], [0.007736505851395736, 44.08545291461036], [0.02387625035848262, 44.08545694251543], [0.040015994865570725, 44.085460970420506], [0.040015994865570725, 44.085460970420506], [0.04709317671313462, 44.08746889040499], [0.05417035856069785, 44.08947681038948], [0.06124754040826086, 44.09148473037396], [0.06832472225582542, 44.09349265035844], [0.07540190410338865, 44.095500570342935], [0.08247908595095343, 44.097508490327414], [0.08955626779851644, 44.09951641031191], [0.09663344964607945, 44.10152433029638], [0.10371063149364357, 44.10353225028086], [0.11078781334120635, 44.10554017026534], [0.11078781334120635, 44.10554017026534], [0.11241431959603254, 44.10290736262398], [0.1140408258508594, 44.10027455498262], [0.11566733210568536, 44.09764174734125], [0.11729383836051355, 44.09500893969989], [0.11892034461533951, 44.092376132058526], [0.12054685087016637, 44.08974332441715], [0.12217335712499344, 44.08711051677579], [0.12379986337981963, 44.084477709134426], [0.12542636963464648, 44.08184490149306], [0.12705287588947245, 44.07921209385169], [0.12705287588947245, 44.07921209385169], [0.1293864451547937, 44.066673777604656], [0.1317200144201156, 44.05413546135762], [0.13405358368543685, 44.04159714511059], [0.13638715295075787, 44.029058828863555], [0.13872072221607978, 44.016520512616516], [0.1410542914814008, 44.003982196369485], [0.14338786074672294, 43.99144388012245], [0.14572143001204418, 43.978905563875415], [0.1480549992773652, 43.96636724762838], [0.150388568542688, 43.953828931381345], [0.150388568542688, 43.953828931381345], [0.15273398903650803, 43.947435092993054], [0.15507940953032917, 43.94104125460476], [0.1574248300241501, 43.93464741621647], [0.1597702505179719, 43.92825357782817], [0.16211567101179192, 43.921859739439896], [0.16446109150561283, 43.9154659010516], [0.16680651199943464, 43.909072062663306], [0.16915193249325555, 43.90267822427501], [0.17149735298707558, 43.896284385886716], [0.1738427734808976, 43.889890547498425], [0.1738427734808976, 43.889890547498425], [0.18454283163096763, 43.89014426054013], [0.19524288978103788, 43.890397973581834], [0.20594294793110923, 43.890651686623535], [0.2166430060811786, 43.890905399665236], [0.22734306423124973, 43.891159112706944], [0.23804312238131997, 43.891412825748645], [0.24874318053139022, 43.89166653879034], [0.25944323868146135, 43.89192025183205], [0.2701432968315307, 43.892173964873756], [0.28084335498160184, 43.89242767791546], [0.28084335498160184, 43.89242767791546], [0.2862762744532179, 43.888667823616245], [0.29170919392483463, 43.88490796931704], [0.29714211339645047, 43.88114811501783], [0.3025750328680692, 43.877388260718625], [0.30800795233968503, 43.873628406419414], [0.31344087181130087, 43.86986855212021], [0.3188737912829176, 43.866108697821], [0.3243067107545343, 43.862348843521794], [0.3297396302261515, 43.858588989222596], [0.33517254969776733, 43.854829134923385], [0.33517254969776733, 43.854829134923385], [0.3411583672079608, 43.854955603180414], [0.3471441847181551, 43.85508207143744], [0.3531300022283477, 43.855208539694466], [0.3591158197385411, 43.855335007951496], [0.36510163724873457, 43.85546147620852], [0.3710874547589271, 43.85558794446554], [0.37707327226912146, 43.85571441272257], [0.383059089779314, 43.85584088097959], [0.38904490728950836, 43.85596734923662], [0.39503072479970114, 43.85609381749365], [0.39503072479970114, 43.85609381749365], [0.39938826006072015, 43.85872806384513], [0.4037457953217396, 43.86136231019662], [0.40810333058275705, 43.86399655654811], [0.4124608658437765, 43.86663080289959], [0.41681840110479573, 43.869265049251084], [0.42117593636581496, 43.87189929560257], [0.4255334716268342, 43.874533541954044], [0.42989100688785187, 43.877167788305535], [0.434248542148872, 43.879802034657025], [0.4386060774098903, 43.882436281008516], [0.4386060774098903, 43.882436281008516], [0.44042603370847955, 43.885570940273176], [0.44224599000706877, 43.88870559953784], [0.444065946305658, 43.8918402588025], [0.445885902604247, 43.89497491806716], [0.44770585890283643, 43.89810957733184], [0.44952581520142565, 43.9012442365965], [0.45134577150001376, 43.904378895861164], [0.45316572779860387, 43.907513555125824], [0.4549856840971931, 43.910648214390484], [0.4568056403957823, 43.91378287365515], [0.4568056403957823, 43.91378287365515], [0.46188078059908055, 43.91278106334324], [0.4669559208023779, 43.911779253031334], [0.47203106100567704, 43.91077744271943], [0.4771062012089744, 43.909775632407516], [0.48218134141227287, 43.908773822095604], [0.4872564816155711, 43.907772011783706], [0.49233162181886936, 43.90677020147179], [0.49740676202216694, 43.90576839115988], [0.5024819022254658, 43.90476658084797], [0.5075570424287634, 43.90376477053606], [0.5075570424287634, 43.90376477053606], [0.5088287815093127, 43.904643190392584], [0.5101005205898628, 43.905521610249096], [0.5113722596704111, 43.90640003010562], [0.5126439987509612, 43.907278449962135], [0.5139157378315105, 43.90815686981865], [0.5151874769120586, 43.90903528967517], [0.5164592159926089, 43.909913709531686], [0.5177309550731581, 43.910792129388206], [0.5190026941537063, 43.911670549244725], [0.5202744332342557, 43.91254896910125], [0.5202744332342557, 43.91254896910125], [0.5215507699163697, 43.915809506282635], [0.5228271065984818, 43.91907004346403], [0.5241034432805949, 43.92233058064542], [0.525379779962708, 43.92559111782682], [0.526656116644822, 43.9288516550082], [0.5279324533269352, 43.9321121921896], [0.5292087900090474, 43.935372729371], [0.5304851266911612, 43.93863326655238], [0.5317614633732755, 43.94189380373378], [0.5330378000553875, 43.94515434091517], [0.5330378000553875, 43.94515434091517], [0.5301413995781084, 43.94866384024402], [0.5272449991008274, 43.95217333957289], [0.5243485986235463, 43.95568283890175], [0.521452198146267, 43.95919233823061], [0.518555797668987, 43.96270183755947], [0.5156593971917076, 43.966211336888335], [0.5127629967144274, 43.96972083621719], [0.5098665962371465, 43.973230335546056], [0.5069701957598671, 43.97673983487491], [0.5040737952825869, 43.980249334203776], [0.5040737952825869, 43.980249334203776], [0.5049843755547032, 43.98213068612058], [0.5058949558268193, 43.98401203803738], [0.5068055360989345, 43.98589338995417], [0.5077161163710509, 43.98777474187098], [0.5086266966431672, 43.98965609378778], [0.509537276915283, 43.99153744570458], [0.5104478571873994, 43.99341879762138], [0.5113584374595155, 43.99530014953818], [0.5122690177316316, 43.99718150145498], [0.5131795980037479, 43.99906285337178], [0.5131795980037479, 43.99906285337178], [0.5169896397725915, 43.99981583841999], [0.5207996815414351, 44.00056882346819], [0.5246097233102789, 44.00132180851641], [0.5284197650791234, 44.00207479356461], [0.5322298068479667, 44.00282777861282], [0.5360398486168108, 44.00358076366103], [0.539849890385655, 44.00433374870923], [0.5436599321544988, 44.005086733757445], [0.5474699739233424, 44.005839718805646], [0.5512800156921869, 44.006592703853855], [0.5512800156921869, 44.006592703853855], [0.5539970005594075, 44.004587282837754], [0.556713985426629, 44.00258186182166], [0.5594309702938496, 44.00057644080555], [0.5621479551610693, 43.99857101978946], [0.5648649400282908, 43.99656559877336], [0.5675819248955112, 43.994560177757265], [0.5702989097627318, 43.992554756741164], [0.5730158946299524, 43.99054933572507], [0.5757328794971739, 43.98854391470897], [0.5784498643643936, 43.986538493692876], [0.5784498643643936, 43.986538493692876], [0.5828044867829316, 43.98766763174778], [0.5871591092014676, 43.98879676980269], [0.5915137316200045, 43.9899259078576], [0.5958683540385423, 43.99105504591251], [0.6002229764570775, 43.99218418396741], [0.6045775988756155, 43.993313322022324], [0.6089322212941526, 43.994442460077224], [0.6132868437126895, 43.99557159813214], [0.6176414661312255, 43.99670073618704], [0.6219960885497624, 43.99782987424195], [0.6219960885497624, 43.99782987424195], [0.6234449729104399, 43.99682715894581], [0.6248938572711165, 43.99582444364967], [0.6263427416317922, 43.99482172835353], [0.6277916259924696, 43.993819013057376], [0.6292405103531451, 43.99281629776124], [0.6306893947138206, 43.99181358246509], [0.6321382790744983, 43.990810867168946], [0.6335871634351746, 43.98980815187281], [0.6350360477958503, 43.98880543657666], [0.6364849321565269, 43.987802721280524], [0.6364849321565269, 43.987802721280524], [0.6397452973335533, 43.98554743235882], [0.6430056625105789, 43.98329214343712], [0.6462660276876053, 43.981036854515416], [0.6495263928646309, 43.978781565593714], [0.6527867580416569, 43.97652627667201], [0.6560471232186833, 43.97427098775031], [0.6593074883957089, 43.97201569882861], [0.6625678535727353, 43.96976040990691], [0.6658282187497617, 43.96750512098521], [0.6690885839267873, 43.965249832063506], [0.6690885839267873, 43.965249832063506], [0.6758024277656913, 43.96713159309356], [0.682516271604594, 43.96901335412362], [0.6892301154434968, 43.970895115153674], [0.6959439592824006, 43.97277687618373], [0.7026578031213035, 43.974658637213786], [0.7093716469602065, 43.97654039824385], [0.7160854907991112, 43.9784221592739], [0.7227993346380148, 43.98030392030396], [0.7295131784769171, 43.982185681334016], [0.7362270223158207, 43.98406744236407], [0.7362270223158207, 43.98406744236407], [0.7431153518267459, 43.98269006746082], [0.750003681337672, 43.98131269255757], [0.7568920108485988, 43.97993531765432], [0.7637803403595238, 43.978557942751074], [0.7706686698704499, 43.977180567847824], [0.7775569993813751, 43.975803192944575], [0.7844453288923003, 43.974425818041325], [0.7913336584032264, 43.973048443138076], [0.7982219879141532, 43.971671068234826], [0.8051103174250782, 43.97029369333157], [0.8051103174250782, 43.97029369333157], [0.8114625280583057, 43.972928492176344], [0.8178147386915326, 43.97556329102112], [0.8241669493247596, 43.9781980898659], [0.8305191599579878, 43.98083288871067], [0.8368713705912139, 43.98346768755544], [0.8432235812244409, 43.98610248640021], [0.849575791857669, 43.988737285244994], [0.8559280024908951, 43.99137208408977], [0.8622802131241232, 43.99400688293454], [0.8686324237573502, 43.99664168177931], [0.8686324237573502, 43.99664168177931], [0.8738891647815694, 43.99526389968972], [0.8791459058057887, 43.99388611760013], [0.8844026468300088, 43.992508335510536], [0.889659387854228, 43.99113055342094], [0.8949161288784473, 43.98975277133135], [0.9001728699026668, 43.988374989241755], [0.9054296109268858, 43.98699720715217], [0.910686351951105, 43.98561942506257], [0.9159430929753252, 43.984241642972975], [0.9211998339995442, 43.982863860883384], [0.9211998339995442, 43.982863860883384], [0.9230137332172301, 43.982864313567994], [0.924827632434917, 43.9828647662526], [0.9266415316526038, 43.98286521893719], [0.9284554308702906, 43.9828656716218], [0.9302693300879763, 43.982866124306405], [0.9320832293056622, 43.982866576991015], [0.9338971285233488, 43.98286702967562], [0.9357110277410359, 43.98286748236023], [0.9375249269587216, 43.98286793504483], [0.9393388261764084, 43.98286838772944], [0.9393388261764084, 43.98286838772944], [0.9402540120663803, 43.9871319116665], [0.9411691979563532, 43.99139543560357], [0.9420843838463271, 43.99565895954065], [0.9429995697362992, 43.999922483477725], [0.9439147556262721, 44.004186007414795], [0.9448299415162458, 44.008449531351864], [0.945745127406219, 44.01271305528894], [0.9466603132961917, 44.01697657922602], [0.9475754991861645, 44.02124010316308], [0.9484906850761374, 44.02550362710015], [0.9484906850761374, 44.02550362710015], [0.949522266940267, 44.030036380981535], [0.9505538488043985, 44.03456913486293], [0.951585430668529, 44.03910188874431], [0.9526170125326587, 44.0436346426257], [0.9536485943967883, 44.048167396507075], [0.9546801762609198, 44.05270015038847], [0.9557117581250494, 44.05723290426985], [0.9567433399891798, 44.06176565815123], [0.9577749218533107, 44.06629841203263], [0.9588065037174409, 44.070831165914015], [0.9588065037174409, 44.070831165914015], [0.9541883078192661, 44.07003203672654], [0.949570111921092, 44.06923290753906], [0.9449519160229181, 44.06843377835159], [0.9403337201247424, 44.06763464916412], [0.9357155242265676, 44.06683551997664], [0.9310973283283932, 44.066036390789165], [0.9264791324302193, 44.065237261601695], [0.9218609365320445, 44.06443813241422], [0.9172427406338683, 44.06363900322674], [0.9126245447356947, 44.06283987403927], [0.9126245447356947, 44.06283987403927], [0.9086487511300279, 44.06266156583243], [0.9046729575243599, 44.062483257625594], [0.9006971639186934, 44.06230494941875], [0.8967213703130266, 44.06212664121192], [0.8927455767073589, 44.06194833300508], [0.8887697831016919, 44.061770024798236], [0.8847939894960242, 44.0615917165914], [0.8808181958903574, 44.06141340838456], [0.8768424022846908, 44.061235100177726], [0.8728666086790229, 44.061056791970884]]]}}]}