{"type": "FeatureCollection", "features": [{"type": "Feature", "properties": {"diocese": "Chamb\u00e9ry", "province": "XVIII_Vienne", "source": "127_Chamb\u00e9ry.txt"}, "geometry": {"type": "Polygon", "coordinates": [[[5.785526863994093, 45.756287703618256], [5.785826249901552, 45.75528579531618], [5.786125635809013, 45.75428388701411], [5.786425021716473, 45.753281978712046], [5.786724407623934, 45.752280070409974], [5.787023793531395, 45.7512781621079], [5.787323179438854, 45.75027625380583], [5.787622565346313, 45.749274345503764], [5.787921951253772, 45.748272437201685], [5.788221337161232, 45.74727052889962], [5.788520723068693, 45.74626862059755], [5.788520723068693, 45.74626862059755], [5.7882035341067155, 45.746038883867904], [5.78788634514474, 45.74580914713825], [5.787569156182762, 45.74557941040862], [5.787251967220788, 45.745349673678966], [5.786934778258809, 45.745119936949315], [5.786617589296833, 45.74489020021968], [5.7863004003348575, 45.74466046349003], [5.785983211372878, 45.744430726760385], [5.785666022410904, 45.74420099003074], [5.785348833448927, 45.74397125330109], [5.785348833448927, 45.74397125330109], [5.784971743989168, 45.74393801499492], [5.784594654529407, 45.74390477668873], [5.784217565069648, 45.74387153838256], [5.783840475609887, 45.743838300076376], [5.783463386150126, 45.743805061770196], [5.783086296690366, 45.74377182346401], [5.782709207230605, 45.74373858515783], [5.7823321177708475, 45.743705346851655], [5.781955028311083, 45.743672108545475], [5.781577938851326, 45.743638870239295], [5.781577938851326, 45.743638870239295], [5.7810771024031276, 45.74351163779563], [5.780576265954933, 45.743384405351954], [5.780075429506736, 45.743257172908294], [5.779574593058541, 45.743129940464634], [5.7790737566103445, 45.74300270802097], [5.778572920162146, 45.74287547557731], [5.778072083713949, 45.74274824313363], [5.777571247265753, 45.74262101068997], [5.777070410817558, 45.742493778246306], [5.7765695743693595, 45.74236654580263], [5.7765695743693595, 45.74236654580263], [5.776465540473202, 45.74211657101891], [5.776361506577043, 45.7418665962352], [5.776257472680882, 45.74161662145147], [5.776153438784725, 45.74136664666776], [5.776049404888566, 45.74111667188402], [5.775945370992407, 45.7408666971003], [5.775841337096246, 45.74061672231658], [5.7757373032000885, 45.74036674753286], [5.775633269303928, 45.74011677274915], [5.7755292354077685, 45.73986679796542], [5.7755292354077685, 45.73986679796542], [5.7755892718680535, 45.739740744670165], [5.77564930832834, 45.73961469137492], [5.775709344788627, 45.73948863807967], [5.77576938124891, 45.73936258478442], [5.775829417709197, 45.739236531489176], [5.775889454169482, 45.73911047819393], [5.775949490629767, 45.73898442489869], [5.7760095270900536, 45.73885837160344], [5.7760695635503385, 45.73873231830819], [5.7761296000106235, 45.73860626501295], [5.7761296000106235, 45.73860626501295], [5.77648712893272, 45.737317012117735], [5.776844657854818, 45.73602775922253], [5.777202186776915, 45.734738506327325], [5.7775597156990095, 45.73344925343211], [5.777917244621106, 45.732160000536915], [5.778274773543201, 45.73087074764171], [5.778632302465299, 45.729581494746505], [5.7789898313873955, 45.72829224185129], [5.779347360309492, 45.72700298895609], [5.779704889231587, 45.72571373606088], [5.779704889231587, 45.72571373606088], [5.778925348593296, 45.72529480887412], [5.778145807955006, 45.72487588168735], [5.777366267316713, 45.7244569545006], [5.776586726678422, 45.72403802731383], [5.775807186040129, 45.723619100127074], [5.775027645401838, 45.7232001729403], [5.774248104763547, 45.72278124575355], [5.773468564125256, 45.72236231856678], [5.772689023486965, 45.72194339138002], [5.771909482848674, 45.721524464193266], [5.771909482848674, 45.721524464193266], [5.773733049046605, 45.7169261891523], [5.775556615244534, 45.71232791411135], [5.7773801814424655, 45.70772963907039], [5.779203747640397, 45.70313136402944], [5.7810273138383295, 45.69853308898848], [5.782850880036261, 45.69393481394752], [5.78467444623419, 45.68933653890657], [5.786498012432119, 45.68473826386561], [5.78832157863005, 45.68013998882466], [5.7901451448279815, 45.67554171378371], [5.7901451448279815, 45.67554171378371], [5.787825498931227, 45.669689324344645], [5.7855058530344685, 45.66383693490558], [5.783186207137712, 45.65798454546652], [5.7808665612409555, 45.65213215602746], [5.778546915344201, 45.6462797665884], [5.776227269447443, 45.640427377149344], [5.773907623550686, 45.63457498771027], [5.77158797765393, 45.62872259827122], [5.769268331757171, 45.622870208832154], [5.766948685860418, 45.6170178193931], [5.766948685860418, 45.6170178193931], [5.770397352284595, 45.609836999590975], [5.773846018708774, 45.602656179788845], [5.777294685132954, 45.59547535998673], [5.780743351557133, 45.588294540184606], [5.78419201798131, 45.58111372038249], [5.787640684405488, 45.57393290058037], [5.791089350829667, 45.56675208077824], [5.794538017253846, 45.55957126097612], [5.7979866836780225, 45.552390441174], [5.801435350102201, 45.54520962137188], [5.801435350102201, 45.54520962137188], [5.797448425523067, 45.53926821253766], [5.793461500943934, 45.53332680370343], [5.789474576364798, 45.527385394869206], [5.785487651785662, 45.521443986034974], [5.781500727206529, 45.515502577200756], [5.777513802627395, 45.509561168366524], [5.77352687804826, 45.5036197595323], [5.769539953469122, 45.49767835069807], [5.765553028889991, 45.49173694186385], [5.761566104310855, 45.48579553302962], [5.761566104310855, 45.48579553302962], [5.759457753355619, 45.48453339429053], [5.757349402400383, 45.48327125555144], [5.755241051445147, 45.482009116812364], [5.753132700489912, 45.480746978073284], [5.751024349534678, 45.479484839334205], [5.748915998579442, 45.47822270059511], [5.746807647624207, 45.476960561856025], [5.744699296668971, 45.47569842311695], [5.7425909457137365, 45.474436284377866], [5.740482594758502, 45.47317414563879], [5.740482594758502, 45.47317414563879], [5.740513465973343, 45.47314319688089], [5.74054433718819, 45.47311224812301], [5.740575208403035, 45.47308129936513], [5.74060607961788, 45.47305035060723], [5.740636950832725, 45.473019401849356], [5.74066782204757, 45.47298845309147], [5.740698693262415, 45.47295750433357], [5.740729564477258, 45.4729265555757], [5.7407604356921045, 45.4728956068178], [5.740791306906949, 45.47286465805992], [5.740791306906949, 45.47286465805992], [5.740353392191146, 45.4709502799055], [5.739915477475343, 45.4690359017511], [5.739477562759541, 45.46712152359669], [5.739039648043734, 45.46520714544228], [5.738601733327931, 45.46329276728786], [5.738163818612129, 45.46137838913346], [5.737725903896328, 45.45946401097905], [5.737287989180523, 45.45754963282464], [5.736850074464719, 45.45563525467022], [5.736412159748914, 45.45372087651581], [5.736412159748914, 45.45372087651581], [5.7371036423889255, 45.45253529625593], [5.737795125028933, 45.451349715996045], [5.738486607668937, 45.45016413573616], [5.739178090308947, 45.44897855547628], [5.739869572948956, 45.4477929752164], [5.740561055588962, 45.446607394956516], [5.74125253822897, 45.44542181469664], [5.741944020868978, 45.44423623443675], [5.7426355035089856, 45.44305065417687], [5.7433269861489915, 45.44186507391699], [5.7433269861489915, 45.44186507391699], [5.743412896614245, 45.44153715375365], [5.743498807079497, 45.44120923359031], [5.743584717544749, 45.440881313426964], [5.743670628010001, 45.44055339326362], [5.743756538475255, 45.44022547310029], [5.743842448940505, 45.43989755293695], [5.743928359405755, 45.43956963277361], [5.744014269871009, 45.439241712610276], [5.744100180336261, 45.43891379244693], [5.744186090801513, 45.438585872283596], [5.744186090801513, 45.438585872283596], [5.7454988669055, 45.43833515721724], [5.746811643009488, 45.438084442150874], [5.748124419113477, 45.43783372708452], [5.749437195217462, 45.43758301201815], [5.750749971321451, 45.437332296951794], [5.7520627474254375, 45.43708158188544], [5.753375523529426, 45.43683086681907], [5.754688299633415, 45.436580151752715], [5.756001075737402, 45.43632943668636], [5.757313851841387, 45.43607872162], [5.757313851841387, 45.43607872162], [5.757771142443449, 45.436063904446286], [5.758228433045513, 45.43604908727256], [5.7586857236475755, 45.43603427009884], [5.759143014249636, 45.43601945292512], [5.759600304851698, 45.4360046357514], [5.760057595453761, 45.435989818577674], [5.760514886055821, 45.43597500140396], [5.760972176657885, 45.43596018423024], [5.761429467259948, 45.435945367056526], [5.76188675786201, 45.4359305498828], [5.76188675786201, 45.4359305498828], [5.762189938051122, 45.436074797338115], [5.762493118240238, 45.43621904479344], [5.762796298429354, 45.43636329224875], [5.763099478618468, 45.43650753970407], [5.76340265880758, 45.436651787159384], [5.763705838996694, 45.4367960346147], [5.764009019185808, 45.43694028207002], [5.764312199374926, 45.437084529525336], [5.764615379564038, 45.43722877698065], [5.764918559753154, 45.43737302443597], [5.764918559753154, 45.43737302443597], [5.7651894990752, 45.437658318113876], [5.76546043839725, 45.43794361179178], [5.765731377719295, 45.43822890546969], [5.766002317041345, 45.438514199147605], [5.766273256363393, 45.43879949282551], [5.766544195685441, 45.43908478650342], [5.766815135007485, 45.439370080181334], [5.767086074329535, 45.43965537385924], [5.7673570136515835, 45.43994066753715], [5.767627952973632, 45.440225961215056], [5.767627952973632, 45.440225961215056], [5.769536465577243, 45.4404155125824], [5.771444978180854, 45.440605063949754], [5.773353490784464, 45.4407946153171], [5.7752620033880735, 45.44098416668445], [5.777170515991685, 45.4411737180518], [5.779079028595294, 45.44136326941915], [5.780987541198906, 45.44155282078649], [5.782896053802515, 45.44174237215384], [5.78480456640613, 45.441931923521196], [5.786713079009736, 45.442121474888545], [5.786713079009736, 45.442121474888545], [5.788103039938434, 45.441817398330095], [5.789493000867131, 45.44151332177164], [5.790882961795827, 45.44120924521317], [5.792272922724523, 45.44090516865473], [5.793662883653218, 45.44060109209627], [5.795052844581914, 45.440297015537816], [5.796442805510608, 45.439992938979366], [5.797832766439305, 45.43968886242091], [5.799222727368003, 45.43938478586245], [5.800612688296699, 45.439080709303994], [5.800612688296699, 45.439080709303994], [5.802112014345317, 45.43781307178518], [5.803611340393932, 45.436545434266364], [5.805110666442552, 45.43527779674754], [5.80660999249117, 45.43401015922872], [5.8081093185397865, 45.4327425217099], [5.8096086445884065, 45.43147488419108], [5.811107970637025, 45.43020724667227], [5.812607296685643, 45.42893960915344], [5.814106622734261, 45.427671971634624], [5.815605948782878, 45.4264043341158], [5.815605948782878, 45.4264043341158], [5.817448399700414, 45.42597539607244], [5.819290850617952, 45.42554645802908], [5.821133301535488, 45.42511751998572], [5.822975752453024, 45.424688581942355], [5.824818203370562, 45.42425964389899], [5.826660654288094, 45.42383070585562], [5.828503105205632, 45.423401767812265], [5.8303455561231665, 45.422972829768895], [5.832188007040704, 45.42254389172554], [5.8340304579582405, 45.422114953682176], [5.8340304579582405, 45.422114953682176], [5.834516952968853, 45.422025323230855], [5.835003447979469, 45.42193569277953], [5.835489942990083, 45.42184606232821], [5.835976438000699, 45.42175643187688], [5.836462933011312, 45.42166680142556], [5.83694942802193, 45.42157717097424], [5.837435923032544, 45.42148754052292], [5.837922418043156, 45.42139791007159], [5.838408913053774, 45.42130827962027], [5.8388954080643884, 45.42121864916895], [5.8388954080643884, 45.42121864916895], [5.838958773028162, 45.42121866498258], [5.839022137991938, 45.42121868079623], [5.839085502955712, 45.421218696609856], [5.839148867919487, 45.421218712423496], [5.839212232883263, 45.42121872823713], [5.8392755978470365, 45.42121874405076], [5.839338962810812, 45.4212187598644], [5.839402327774586, 45.42121877567804], [5.83946569273836, 45.42121879149168], [5.839529057702135, 45.421218807305316], [5.839529057702135, 45.421218807305316], [5.844749466534349, 45.41943617562994], [5.849969875366561, 45.41765354395455], [5.855190284198773, 45.415870912279175], [5.860410693030987, 45.4140882806038], [5.865631101863201, 45.41230564892841], [5.870851510695413, 45.410523017253034], [5.876071919527625, 45.408740385577644], [5.881292328359839, 45.406957753902276], [5.886512737192055, 45.405175122226886], [5.891733146024265, 45.40339249055151], [5.891733146024265, 45.40339249055151], [5.892087540252776, 45.40207758567119], [5.892441934481285, 45.400762680790855], [5.892796328709792, 45.39944777591053], [5.893150722938303, 45.398132871030214], [5.8935051171668125, 45.39681796614988], [5.893859511395322, 45.395503061269565], [5.894213905623831, 45.39418815638924], [5.89456829985234, 45.3928732515089], [5.894922694080849, 45.391558346628585], [5.895277088309358, 45.39024344174826], [5.895277088309358, 45.39024344174826], [5.895619860561446, 45.39012068592417], [5.895962632813539, 45.38999793010007], [5.896305405065629, 45.38987517427598], [5.896648177317717, 45.389752418451884], [5.896990949569808, 45.38962966262779], [5.897333721821896, 45.389506906803696], [5.897676494073989, 45.3893841509796], [5.8980192663260755, 45.38926139515551], [5.898362038578169, 45.389138639331414], [5.898704810830257, 45.38901588350732], [5.898704810830257, 45.38901588350732], [5.900368463433921, 45.38964439765752], [5.902032116037585, 45.39027291180772], [5.903695768641251, 45.39090142595793], [5.905359421244912, 45.39152994010813], [5.907023073848576, 45.392158454258336], [5.90868672645224, 45.39278696840854], [5.910350379055906, 45.39341548255874], [5.912014031659567, 45.39404399670894], [5.913677684263229, 45.39467251085914], [5.915341336866893, 45.395301025009346], [5.915341336866893, 45.395301025009346], [5.916534154079262, 45.39687802391926], [5.917726971291632, 45.39845502282917], [5.918919788503999, 45.40003202173907], [5.920112605716367, 45.401609020649005], [5.921305422928736, 45.403186019558916], [5.922498240141104, 45.40476301846882], [5.923691057353473, 45.40634001737873], [5.92488387456584, 45.40791701628865], [5.92607669177821, 45.40949401519856], [5.927269508990577, 45.41107101410847], [5.927269508990577, 45.41107101410847], [5.9269797774478, 45.411459811848694], [5.926690045905021, 45.4118486095889], [5.926400314362242, 45.412237407329116], [5.926110582819463, 45.41262620506933], [5.925820851276686, 45.41301500280954], [5.925531119733909, 45.41340380054976], [5.9252413881911306, 45.413792598289966], [5.92495165664835, 45.41418139603018], [5.924661925105575, 45.414570193770395], [5.924372193562796, 45.4149589915106], [5.924372193562796, 45.4149589915106], [5.923512360218689, 45.41458166596015], [5.922652526874582, 45.414204340409675], [5.921792693530477, 45.41382701485922], [5.920932860186372, 45.41344968930875], [5.920073026842267, 45.413072363758296], [5.919213193498162, 45.41269503820782], [5.918353360154056, 45.41231771265736], [5.917493526809947, 45.411940387106895], [5.916633693465842, 45.411563061556436], [5.915773860121735, 45.411185736005976], [5.915773860121735, 45.411185736005976], [5.914980128513475, 45.41140666331963], [5.914186396905215, 45.41162759063329], [5.91339266529695, 45.411848517946936], [5.912598933688688, 45.41206944526059], [5.911805202080426, 45.412290372574255], [5.911011470472166, 45.4125112998879], [5.910217738863903, 45.41273222720156], [5.909424007255639, 45.41295315451522], [5.908630275647381, 45.41317408182887], [5.907836544039117, 45.413395009142526], [5.907836544039117, 45.413395009142526], [5.907977432363742, 45.41515655451418], [5.908118320688365, 45.41691809988585], [5.908259209012993, 45.41867964525751], [5.908400097337616, 45.42044119062917], [5.908540985662238, 45.422202736000834], [5.908681873986863, 45.42396428137249], [5.9088227623114875, 45.425725826744156], [5.90896365063611, 45.42748737211581], [5.909104538960737, 45.42924891748748], [5.909245427285359, 45.43101046285914], [5.909245427285359, 45.43101046285914], [5.9092026821611885, 45.43124229749791], [5.909159937037023, 45.431474132136685], [5.909117191912854, 45.43170596677545], [5.909074446788686, 45.43193780141422], [5.909031701664519, 45.432169636053], [5.90898895654035, 45.432401470691765], [5.908946211416184, 45.43263330533054], [5.908903466292015, 45.43286513996931], [5.908860721167848, 45.433096974608084], [5.9088179760436805, 45.43332880924685], [5.9088179760436805, 45.43332880924685], [5.909686882598363, 45.4336526469202], [5.910555789153047, 45.433976484593536], [5.91142469570773, 45.43430032226688], [5.912293602262414, 45.43462415994023], [5.9131625088171, 45.43494799761358], [5.914031415371783, 45.43527183528692], [5.914900321926467, 45.43559567296026], [5.91576922848115, 45.4359195106336], [5.916638135035834, 45.436243348306945], [5.917507041590518, 45.43656718598029], [5.917507041590518, 45.43656718598029], [5.918255051301292, 45.43745400730242], [5.91900306101207, 45.43834082862456], [5.919751070722844, 45.4392276499467], [5.92049908043362, 45.44011447126883], [5.921247090144394, 45.44100129259097], [5.92199509985517, 45.44188811391311], [5.922743109565948, 45.44277493523524], [5.923491119276722, 45.44366175655738], [5.924239128987498, 45.444548577879516], [5.924987138698272, 45.44543539920165], [5.924987138698272, 45.44543539920165], [5.925457668093683, 45.44748438594354], [5.925928197489094, 45.44953337268542], [5.9263987268845035, 45.4515823594273], [5.926869256279916, 45.453631346169196], [5.927339785675326, 45.45568033291108], [5.927810315070737, 45.45772931965296], [5.928280844466146, 45.45977830639485], [5.928751373861557, 45.461827293136736], [5.929221903256968, 45.46387627987862], [5.929692432652377, 45.4659252666205], [5.929692432652377, 45.4659252666205], [5.92889371622813, 45.466760454222694], [5.928094999803877, 45.46759564182487], [5.927296283379629, 45.468430829427064], [5.926497566955376, 45.46926601702925], [5.925698850531129, 45.47010120463143], [5.924900134106876, 45.47093639223362], [5.9241014176826265, 45.4717715798358], [5.923302701258375, 45.472606767437995], [5.922503984834124, 45.47344195504017], [5.921705268409875, 45.47427714264236], [5.921705268409875, 45.47427714264236], [5.921517372140903, 45.474596505183875], [5.921329475871932, 45.474915867725386], [5.921141579602962, 45.4752352302669], [5.920953683333989, 45.47555459280841], [5.920765787065017, 45.475873955349925], [5.9205778907960465, 45.47619331789143], [5.920389994527074, 45.47651268043295], [5.920202098258102, 45.47683204297446], [5.920014201989133, 45.47715140551596], [5.919826305720161, 45.477470768057486], [5.919826305720161, 45.477470768057486], [5.919872695545028, 45.47748784397434], [5.919919085369898, 45.47750491989119], [5.919965475194765, 45.477521995808054], [5.920011865019635, 45.47753907172491], [5.920058254844502, 45.477556147641764], [5.920104644669372, 45.47757322355863], [5.920151034494237, 45.47759029947548], [5.920197424319108, 45.47760737539233], [5.920243814143976, 45.4776244513092], [5.920290203968843, 45.477641527226055], [5.920290203968843, 45.477641527226055], [5.925816649049381, 45.47912241749003], [5.931343094129918, 45.480603307753995], [5.936869539210454, 45.48208419801798], [5.942395984290991, 45.48356508828195], [5.947922429371527, 45.48504597854593], [5.953448874452066, 45.48652686880991], [5.9589753195326, 45.48800775907388], [5.9645017646131375, 45.48948864933786], [5.970028209693677, 45.49096953960183], [5.975554654774211, 45.492450429865805], [5.975554654774211, 45.492450429865805], [5.9763975604385795, 45.492090648291324], [5.977240466102947, 45.49173086671685], [5.978083371767314, 45.49137108514237], [5.9789262774316825, 45.49101130356789], [5.979769183096051, 45.49065152199342], [5.980612088760418, 45.49029174041893], [5.981454994424787, 45.48993195884446], [5.9822979000891525, 45.48957217726998], [5.983140805753521, 45.489212395695496], [5.983983711417887, 45.488852614121015], [5.983983711417887, 45.488852614121015], [5.985058445654905, 45.487696007620265], [5.986133179891924, 45.48653940111951], [5.987207914128943, 45.48538279461875], [5.988282648365962, 45.484226188117994], [5.989357382602975, 45.48306958161725], [5.990432116839996, 45.48191297511649], [5.991506851077014, 45.48075636861573], [5.992581585314033, 45.47959976211498], [5.99365631955105, 45.478443155614215], [5.994731053788071, 45.477286549113465], [5.994731053788071, 45.477286549113465], [5.996615204502957, 45.47686292673632], [5.998499355217845, 45.47643930435916], [6.0003835059327315, 45.47601568198202], [6.002267656647621, 45.475592059604864], [6.004151807362504, 45.475168437227715], [6.006035958077394, 45.474744814850574], [6.0079201087922804, 45.474321192473425], [6.009804259507167, 45.47389757009628], [6.011688410222055, 45.47347394771913], [6.013572560936941, 45.47305032534197], [6.013572560936941, 45.47305032534197], [6.013535070715973, 45.47202908089217], [6.013497580495002, 45.47100783644237], [6.0134600902740285, 45.46998659199256], [6.013422600053058, 45.468965347542756], [6.013385109832091, 45.467944103092954], [6.013347619611119, 45.466922858643144], [6.013310129390147, 45.46590161419334], [6.013272639169177, 45.46488036974354], [6.0132351489482065, 45.46385912529373], [6.013197658727234, 45.46283788084393], [6.013197658727234, 45.46283788084393], [6.01346589431779, 45.4625420565126], [6.013734129908348, 45.46224623218129], [6.014002365498902, 45.46195040784997], [6.014270601089457, 45.461654583518644], [6.014538836680014, 45.46135875918733], [6.0148070722705675, 45.461062934856], [6.0150753078611245, 45.46076711052468], [6.01534354345168, 45.46047128619336], [6.015611779042237, 45.460175461862036], [6.015880014632792, 45.45987963753072], [6.015880014632792, 45.45987963753072], [6.0157018859954015, 45.45964457555275], [6.015523757358007, 45.45940951357478], [6.015345628720617, 45.45917445159681], [6.0151675000832245, 45.45893938961884], [6.014989371445834, 45.45870432764087], [6.014811242808442, 45.4584692656629], [6.014633114171049, 45.45823420368493], [6.014454985533659, 45.457999141706956], [6.014276856896265, 45.45776407972898], [6.014098728258874, 45.45752901775102], [6.014098728258874, 45.45752901775102], [6.013919013358194, 45.45729182233472], [6.013739298457514, 45.45705462691842], [6.01355958355683, 45.45681743150213], [6.013379868656154, 45.45658023608583], [6.013200153755472, 45.45634304066953], [6.013020438854792, 45.456105845253234], [6.012840723954113, 45.455868649836944], [6.012661009053431, 45.45563145442065], [6.012481294152753, 45.45539425900435], [6.012301579252071, 45.45515706358805], [6.012301579252071, 45.45515706358805], [6.016039354650216, 45.45369987046128], [6.019777130048357, 45.4522426773345], [6.0235149054465005, 45.450785484207735], [6.027252680844644, 45.44932829108097], [6.0309904562427885, 45.44787109795419], [6.03472823164093, 45.446413904827416], [6.038466007039073, 45.44495671170065], [6.042203782437216, 45.44349951857388], [6.045941557835361, 45.442042325447105], [6.049679333233502, 45.44058513232033], [6.049679333233502, 45.44058513232033], [6.049883184015826, 45.44049865824145], [6.05008703479815, 45.440412184162575], [6.050290885580472, 45.440325710083705], [6.050494736362795, 45.44023923600483], [6.050698587145117, 45.44015276192596], [6.050902437927441, 45.440066287847074], [6.051106288709764, 45.4399798137682], [6.051310139492086, 45.43989333968933], [6.05151399027441, 45.43980686561045], [6.051717841056734, 45.43972039153157], [6.051717841056734, 45.43972039153157], [6.0525797798161385, 45.44282806663846], [6.053441718575547, 45.44593574174536], [6.054303657334957, 45.44904341685225], [6.055165596094364, 45.452151091959145], [6.05602753485377, 45.455258767066034], [6.056889473613181, 45.458366442172924], [6.057751412372591, 45.46147411727982], [6.0586133511319975, 45.4645817923867], [6.059475289891404, 45.46768946749359], [6.060337228650813, 45.47079714260049], [6.060337228650813, 45.47079714260049], [6.079589704154948, 45.48090956041442], [6.098842179659082, 45.49102197822834], [6.118094655163219, 45.50113439604226], [6.137347130667353, 45.511246813856204], [6.15659960617149, 45.521359231670125], [6.175852081675625, 45.53147164948405], [6.195104557179759, 45.54158406729798], [6.214357032683894, 45.551696485111904], [6.233609508188028, 45.56180890292583], [6.252861983692167, 45.571921320739754], [6.252861983692167, 45.571921320739754], [6.251002664023204, 45.57479969832146], [6.249143344354247, 45.577678075903165], [6.247284024685285, 45.58055645348487], [6.245424705016328, 45.583434831066576], [6.2435653853473685, 45.58631320864828], [6.241706065678409, 45.58919158622998], [6.23984674600945, 45.59206996381169], [6.237987426340489, 45.59494834139339], [6.236128106671529, 45.59782671897511], [6.23426878700257, 45.60070509655681], [6.23426878700257, 45.60070509655681], [6.215594261513633, 45.60345862403037], [6.196919736024698, 45.60621215150395], [6.17824521053576, 45.608965678977505], [6.159570685046823, 45.61171920645108], [6.140896159557887, 45.614472733924636], [6.122221634068952, 45.617226261398216], [6.103547108580015, 45.61997978887179], [6.084872583091078, 45.62273331634535], [6.06619805760214, 45.62548684381892], [6.047523532113205, 45.628240371292485], [6.047523532113205, 45.628240371292485], [6.036533483830942, 45.633860820710126], [6.025543435548682, 45.63948127012776], [6.014553387266421, 45.6451017195454], [6.003563338984161, 45.65072216896303], [5.992573290701898, 45.65634261838067], [5.981583242419639, 45.66196306779831], [5.970593194137379, 45.667583517215945], [5.959603145855118, 45.67320396663359], [5.948613097572856, 45.67882441605123], [5.937623049290597, 45.684444865468855], [5.937623049290597, 45.684444865468855], [5.930580107974475, 45.689762860981695], [5.923537166658354, 45.695080856494535], [5.916494225342234, 45.70039885200738], [5.909451284026112, 45.70571684752022], [5.902408342709993, 45.71103484303306], [5.895365401393871, 45.716352838545895], [5.888322460077749, 45.72167083405874], [5.8812795187616285, 45.726988829571575], [5.874236577445508, 45.732306825084414], [5.867193636129388, 45.737624820597254], [5.867193636129388, 45.737624820597254], [5.859026958915859, 45.73949110889935], [5.850860281702326, 45.74135739720146], [5.842693604488799, 45.74322368550355], [5.83452692727527, 45.745089973805655], [5.8263602500617395, 45.74695626210775], [5.818193572848209, 45.748822550409855], [5.81002689563468, 45.75068883871195], [5.801860218421153, 45.752555127014055], [5.793693541207622, 45.75442141531615], [5.785526863994093, 45.756287703618256]]]}}, {"type": "Feature", "properties": {"diocese": "Chamb\u00e9ry", "province": "XVIII_Vienne", "source": "127_Chamb\u00e9ry.txt"}, "geometry": {"type": "Polygon", "coordinates": [[[5.9752669895636075, 45.49218837670709], [5.969752982911126, 45.490717115585035], [5.964238976258645, 45.48924585446298], [5.958724969606166, 45.487774593340916], [5.953210962953685, 45.48630333221885], [5.947696956301204, 45.484832071096804], [5.942182949648723, 45.48336080997474], [5.936668942996242, 45.481889548852685], [5.931154936343763, 45.48041828773062], [5.9256409296912835, 45.478947026608566], [5.920126923038801, 45.47747576548651], [5.920126923038801, 45.47747576548651], [5.920075867887677, 45.477459727579884], [5.920024812736555, 45.477443689673244], [5.919973757585428, 45.47742765176662], [5.919922702434304, 45.47741161385999], [5.9198716472831805, 45.477395575953366], [5.919820592132055, 45.47737953804673], [5.919769536980933, 45.4773635001401], [5.919718481829808, 45.477347462233475], [5.919667426678684, 45.47733142432685], [5.91961637152756, 45.477315386420216], [5.91961637152756, 45.477315386420216], [5.919813513113626, 45.47699072092658], [5.920010654699691, 45.47666605543294], [5.920207796285759, 45.4763413899393], [5.920404937871821, 45.47601672444565], [5.92060207945789, 45.47569205895201], [5.920799221043955, 45.47536739345837], [5.920996362630021, 45.475042727964734], [5.921193504216088, 45.4747180624711], [5.921390645802152, 45.474393396977455], [5.921587787388219, 45.47406873148382], [5.921587787388219, 45.47406873148382], [5.922377244139087, 45.47323140852829], [5.923166700889954, 45.472394085572766], [5.923956157640818, 45.47155676261725], [5.9247456143916875, 45.470719439661735], [5.925535071142553, 45.46988211670621], [5.926324527893419, 45.46904479375069], [5.927113984644288, 45.468207470795164], [5.927903441395154, 45.467370147839645], [5.92869289814602, 45.466532824884126], [5.929482354896889, 45.46569550192861], [5.929482354896889, 45.46569550192861], [5.929399786129155, 45.465336583256615], [5.929317217361421, 45.46497766458462], [5.929234648593688, 45.464618745912624], [5.929152079825954, 45.46425982724063], [5.929069511058222, 45.46390090856864], [5.928986942290489, 45.46354198989665], [5.928904373522753, 45.463183071224655], [5.928821804755021, 45.462824152552656], [5.928739235987289, 45.46246523388067], [5.928656667219554, 45.46210631520867], [5.928656667219554, 45.46210631520867], [5.941670268094347, 45.456274871434594], [5.954683868969141, 45.45044342766053], [5.967697469843934, 45.44461198388645], [5.980711070718726, 45.43878054011239], [5.993724671593521, 45.43294909633831], [6.006738272468315, 45.42711765256424], [6.0197518733431075, 45.42128620879017], [6.0327654742179, 45.4154547650161], [6.045779075092694, 45.40962332124203], [6.058792675967489, 45.40379187746795], [6.058792675967489, 45.40379187746795], [6.069309511875096, 45.394773318635146], [6.079826347782699, 45.38575475980233], [6.090343183690306, 45.37673620096951], [6.10086001959791, 45.3677176421367], [6.111376855505521, 45.35869908330389], [6.121893691413124, 45.34968052447106], [6.132410527320731, 45.340661965638255], [6.1429273632283365, 45.33164340680544], [6.153444199135942, 45.32262484797263], [6.163961035043547, 45.313606289139805], [6.163961035043547, 45.313606289139805], [6.165947433396569, 45.31410564334066], [6.167933831749588, 45.314604997541515], [6.169920230102605, 45.31510435174238], [6.171906628455623, 45.315603705943225], [6.173893026808644, 45.31610306014407], [6.175879425161662, 45.31660241434493], [6.177865823514683, 45.317101768545776], [6.1798522218677, 45.31760112274664], [6.18183862022072, 45.318100476947485], [6.183825018573739, 45.31859983114833], [6.183825018573739, 45.31859983114833], [6.184319472262301, 45.31861701888597], [6.184813925950866, 45.3186342066236], [6.185308379639428, 45.31865139436123], [6.18580283332799, 45.31866858209885], [6.186297287016554, 45.31868576983649], [6.186791740705118, 45.318702957574125], [6.187286194393684, 45.31872014531175], [6.187780648082246, 45.318737333049384], [6.1882751017708095, 45.31875452078701], [6.188769555459373, 45.31877170852464], [6.188769555459373, 45.31877170852464], [6.18884766932708, 45.32001944846627], [6.188925783194788, 45.32126718840789], [6.189003897062497, 45.32251492834951], [6.189082010930205, 45.32376266829114], [6.1891601247979136, 45.325010408232764], [6.189238238665622, 45.32625814817439], [6.189316352533329, 45.32750588811602], [6.189394466401037, 45.32875362805763], [6.189472580268745, 45.33000136799926], [6.189550694136454, 45.33124910794089], [6.189550694136454, 45.33124910794089], [6.189798432317971, 45.33152263674844], [6.190046170499487, 45.331796165555986], [6.190293908681008, 45.33206969436354], [6.190541646862524, 45.332343223171094], [6.190789385044042, 45.33261675197864], [6.191037123225559, 45.332890280786195], [6.191284861407079, 45.33316380959374], [6.191532599588594, 45.333437338401296], [6.191780337770112, 45.333710867208836], [6.192028075951631, 45.33398439601639], [6.192028075951631, 45.33398439601639], [6.1924001846067185, 45.33463397296116], [6.192772293261806, 45.335283549905924], [6.193144401916893, 45.3359331268507], [6.19351651057198, 45.33658270379546], [6.193888619227071, 45.337232280740224], [6.194260727882158, 45.337881857685], [6.194632836537245, 45.33853143462976], [6.195004945192332, 45.339181011574524], [6.1953770538474195, 45.33983058851929], [6.1957491625025085, 45.34048016546406], [6.1957491625025085, 45.34048016546406], [6.196072937535595, 45.34174503105357], [6.196396712568681, 45.343009896643075], [6.196720487601768, 45.34427476223258], [6.1970442626348525, 45.345539627822085], [6.197368037667939, 45.3468044934116], [6.197691812701025, 45.348069359001094], [6.198015587734112, 45.34933422459061], [6.198339362767198, 45.35059909018011], [6.198663137800285, 45.35186395576962], [6.198986912833371, 45.35312882135913], [6.198986912833371, 45.35312882135913], [6.1985917061085, 45.35329963959269], [6.198196499383627, 45.353470457826255], [6.1978012926587525, 45.353641276059825], [6.1974060859338795, 45.35381209429339], [6.197010879209008, 45.35398291252696], [6.1966156724841355, 45.35415373076052], [6.1962204657592626, 45.354324548994086], [6.195825259034386, 45.354495367227656], [6.195430052309515, 45.35466618546122], [6.195034845584644, 45.35483700369478], [6.195034845584644, 45.35483700369478], [6.1936260169580475, 45.35495632125222], [6.192217188331455, 45.35507563880965], [6.190808359704862, 45.35519495636708], [6.189399531078269, 45.35531427392453], [6.1879907024516765, 45.355433591481955], [6.18658187382508, 45.35555290903939], [6.185173045198487, 45.35567222659682], [6.183764216571893, 45.35579154415426], [6.1823553879453, 45.355910861711685], [6.180946559318706, 45.356030179269126], [6.180946559318706, 45.356030179269126], [6.180279909324904, 45.356474342047655], [6.179613259331104, 45.35691850482618], [6.1789466093373, 45.35736266760472], [6.1782799593435005, 45.35780683038325], [6.177613309349699, 45.35825099316178], [6.176946659355899, 45.35869515594031], [6.176280009362097, 45.35913931871884], [6.175613359368295, 45.359583481497374], [6.174946709374495, 45.3600276442759], [6.174280059380692, 45.36047180705443], [6.174280059380692, 45.36047180705443], [6.1747991616182585, 45.36047193660385], [6.1753182638558215, 45.36047206615328], [6.175837366093388, 45.3604721957027], [6.176356468330951, 45.36047232525212], [6.176875570568514, 45.36047245480154], [6.177394672806081, 45.36047258435096], [6.177913775043644, 45.36047271390038], [6.1784328772812085, 45.3604728434498], [6.1789519795187715, 45.36047297299922], [6.179471081756338, 45.36047310254864], [6.179471081756338, 45.36047310254864], [6.180980721063126, 45.361310999276604], [6.182490360369915, 45.36214889600458], [6.183999999676702, 45.36298679273254], [6.185509638983492, 45.36382468946051], [6.187019278290281, 45.36466258618847], [6.188528917597068, 45.36550048291644], [6.190038556903859, 45.366338379644404], [6.191548196210647, 45.36717627637237], [6.193057835517434, 45.368014173100335], [6.194567474824224, 45.36885206982831], [6.194567474824224, 45.36885206982831], [6.193089259749227, 45.37146675627034], [6.1916110446742305, 45.37408144271236], [6.190132829599232, 45.37669612915438], [6.188654614524234, 45.37931081559641], [6.187176399449237, 45.38192550203844], [6.185698184374239, 45.38454018848046], [6.184219969299242, 45.387154874922494], [6.182741754224244, 45.389769561364524], [6.181263539149249, 45.39238424780654], [6.179785324074251, 45.39499893424857], [6.179785324074251, 45.39499893424857], [6.1768472547775115, 45.39691246987768], [6.173909185480772, 45.39882600550679], [6.170971116184036, 45.40073954113589], [6.168033046887297, 45.402653076765], [6.165094977590558, 45.4045666123941], [6.162156908293818, 45.406480148023206], [6.159218838997079, 45.408393683652314], [6.15628076970034, 45.41030721928143], [6.153342700403604, 45.412220754910535], [6.1504046311068645, 45.414134290539636], [6.1504046311068645, 45.414134290539636], [6.148826674092888, 45.41630451355223], [6.147248717078909, 45.418474736564804], [6.145670760064936, 45.4206449595774], [6.144092803050958, 45.422815182589986], [6.142514846036981, 45.42498540560257], [6.1409368890230045, 45.42715562861516], [6.139358932009028, 45.429325851627745], [6.137780974995049, 45.43149607464033], [6.136203017981073, 45.43366629765293], [6.134625060967096, 45.435836520665504], [6.134625060967096, 45.435836520665504], [6.133735730326066, 45.436161013413425], [6.132846399685032, 45.43648550616135], [6.131957069044001, 45.43680999890927], [6.131067738402967, 45.437134491657176], [6.130178407761937, 45.437458984405104], [6.129289077120903, 45.43778347715302], [6.128399746479873, 45.43810796990094], [6.127510415838836, 45.438432462648855], [6.1266210851978045, 45.43875695539678], [6.125731754556773, 45.43908144814469], [6.125731754556773, 45.43908144814469], [6.123852065075569, 45.438619530857565], [6.121972375594364, 45.43815761357044], [6.120092686113157, 45.437695696283306], [6.118212996631954, 45.43723377899617], [6.116333307150748, 45.43677186170905], [6.114453617669543, 45.436309944421915], [6.11257392818834, 45.43584802713478], [6.110694238707135, 45.435386109847656], [6.108814549225928, 45.43492419256053], [6.106934859744722, 45.4344622752734], [6.106934859744722, 45.4344622752734], [6.106563773764108, 45.434342568206105], [6.106192687783491, 45.43422286113881], [6.105821601802877, 45.434103154071515], [6.105450515822259, 45.433983447004216], [6.105079429841643, 45.433863739936925], [6.104708343861027, 45.43374403286962], [6.104337257880413, 45.43362432580233], [6.1039661718997955, 45.433504618735036], [6.103595085919181, 45.43338491166774], [6.103223999938562, 45.433265204600445], [6.103223999938562, 45.433265204600445], [6.102778955179216, 45.433230855467116], [6.102333910419871, 45.4331965063338], [6.101888865660525, 45.43316215720047], [6.101443820901178, 45.43312780806715], [6.1009987761418305, 45.43309345893382], [6.100553731382485, 45.433059109800496], [6.1001086866231375, 45.433024760667166], [6.099663641863792, 45.432990411533844], [6.099218597104445, 45.43295606240052], [6.098773552345097, 45.43292171326719], [6.098773552345097, 45.43292171326719], [6.098797390545958, 45.43326355294252], [6.098821228746813, 45.43360539261785], [6.098845066947666, 45.43394723229318], [6.098868905148523, 45.43428907196851], [6.09889274334938, 45.43463091164383], [6.098916581550236, 45.43497275131915], [6.0989404197510915, 45.43531459099449], [6.0989642579519465, 45.43565643066981], [6.098988096152805, 45.43599827034513], [6.099011934353662, 45.43634011002046], [6.099011934353662, 45.43634011002046], [6.098990075420593, 45.437023772017575], [6.098968216487528, 45.43770743401468], [6.0989463575544605, 45.4383910960118], [6.098924498621397, 45.43907475800891], [6.098902639688328, 45.43975842000602], [6.0988807807552625, 45.44044208200313], [6.098858921822195, 45.441125744000246], [6.098837062889132, 45.441809405997354], [6.098815203956065, 45.44249306799446], [6.098793345022997, 45.443176729991585], [6.098793345022997, 45.443176729991585], [6.09834869632833, 45.443347590579585], [6.097904047633666, 45.4435184511676], [6.097459398938996, 45.4436893117556], [6.09701475024433, 45.44386017234361], [6.096570101549663, 45.44403103293162], [6.096125452854997, 45.44420189351963], [6.095680804160331, 45.44437275410763], [6.095236155465663, 45.44454361469565], [6.0947915067709975, 45.44471447528365], [6.09434685807633, 45.44488533587166], [6.09434685807633, 45.44488533587166], [6.0939016813657965, 45.44478261996017], [6.093456504655265, 45.44467990404869], [6.093011327944733, 45.444577188137195], [6.092566151234202, 45.444474472225714], [6.092120974523667, 45.444371756314226], [6.091675797813133, 45.44426904040274], [6.0912306211026035, 45.44416632449125], [6.09078544439207, 45.44406360857977], [6.090340267681539, 45.44396089266827], [6.089895090971005, 45.443858176756784], [6.089895090971005, 45.443858176756784], [6.088980403952641, 45.443873973648586], [6.088065716934276, 45.44388977054037], [6.087151029915908, 45.44390556743218], [6.086236342897546, 45.443921364323984], [6.085321655879181, 45.44393716121578], [6.084406968860813, 45.44395295810758], [6.0834922818424495, 45.44396875499937], [6.082577594824086, 45.44398455189117], [6.08166290780572, 45.444000348782964], [6.080748220787353, 45.44401614567477], [6.080748220787353, 45.44401614567477], [6.079809067565916, 45.44410249094176], [6.078869914344478, 45.44418883620874], [6.077930761123042, 45.444275181475724], [6.076991607901606, 45.44436152674271], [6.076052454680168, 45.4444478720097], [6.075113301458732, 45.444534217276676], [6.074174148237294, 45.44462056254367], [6.0732349950158575, 45.44470690781065], [6.0722958417944195, 45.444793253077634], [6.0713566885729815, 45.44487959834462], [6.0713566885729815, 45.44487959834462], [6.070095247165643, 45.44455342027933], [6.0688338057583024, 45.444227242214026], [6.067572364350966, 45.44390106414873], [6.066310922943625, 45.44357488608343], [6.065049481536285, 45.44324870801814], [6.063788040128948, 45.44292252995283], [6.0625265987216075, 45.44259635188754], [6.061265157314269, 45.44227017382224], [6.06000371590693, 45.44194399575694], [6.05874227449959, 45.44161781769164], [6.05874227449959, 45.44161781769164], [6.058222578481688, 45.4413100376405], [6.057702882463786, 45.441002257589346], [6.0571831864458865, 45.44069447753819], [6.056663490427987, 45.44038669748704], [6.056143794410083, 45.44007891743588], [6.055624098392181, 45.43977113738473], [6.0551044023742815, 45.43946335733359], [6.054584706356378, 45.439155577282435], [6.054065010338476, 45.43884779723128], [6.053545314320578, 45.43854001718013], [6.053545314320578, 45.43854001718013], [6.05315014063628, 45.43872795445494], [6.052754966951985, 45.43891589172976], [6.052359793267689, 45.43910382900457], [6.0519646195833925, 45.439291766279396], [6.0515694458991, 45.43947970355423], [6.051174272214801, 45.43966764082903], [6.050779098530505, 45.43985557810386], [6.050383924846209, 45.44004351537867], [6.049988751161912, 45.44023145265349], [6.0495935774776175, 45.4404193899283], [6.0495935774776175, 45.4404193899283], [6.045838783660582, 45.441871218855056], [6.04208398984354, 45.44332304778182], [6.038329196026503, 45.44477487670857], [6.034574402209463, 45.446226705635326], [6.0308196083924255, 45.44767853456209], [6.027064814575391, 45.449130363488834], [6.02331002075835, 45.450582192415595], [6.019555226941312, 45.45203402134234], [6.015800433124273, 45.4534858502691], [6.012045639307235, 45.45493767919586], [6.012045639307235, 45.45493767919586], [6.012243869437805, 45.45517701227534], [6.012442099568377, 45.455416345354834], [6.012640329698947, 45.455655678434326], [6.012838559829515, 45.45589501151381], [6.013036789960088, 45.45613434459331], [6.013235020090656, 45.456373677672794], [6.013433250221224, 45.456613010752285], [6.013631480351796, 45.45685234383178], [6.013829710482366, 45.457091676911254], [6.0140279406129356, 45.45733100999075], [6.0140279406129356, 45.45733100999075], [6.014201410152166, 45.457570336890875], [6.014374879691399, 45.457809663791004], [6.0145483492306315, 45.45804899069114], [6.014721818769864, 45.45828831759127], [6.014895288309097, 45.45852764449139], [6.015068757848329, 45.45876697139152], [6.015242227387562, 45.45900629829165], [6.015415696926791, 45.45924562519178], [6.0155891664660235, 45.4594849520919], [6.015762636005258, 45.459724278992034], [6.015762636005258, 45.459724278992034], [6.015491307101003, 45.46001589115986], [6.015219978196756, 45.4603075033277], [6.014948649292505, 45.460599115495526], [6.014677320388255, 45.46089072766337], [6.0144059914840025, 45.4611823398312], [6.014134662579753, 45.46147395199903], [6.013863333675502, 45.46176556416686], [6.013592004771251, 45.462057176334696], [6.013320675867002, 45.46234878850253], [6.013049346962751, 45.46264040067037], [6.013049346962751, 45.46264040067037], [6.013074425568146, 45.46366590810757], [6.013099504173542, 45.46469141554479], [6.0131245827789375, 45.465716922982], [6.0131496613843325, 45.4667424304192], [6.0131747399897275, 45.467767937856415], [6.0131998185951225, 45.46879344529363], [6.013224897200518, 45.46981895273083], [6.013249975805914, 45.470844460168045], [6.013275054411311, 45.47186996760526], [6.013300133016706, 45.47289547504247], [6.013300133016706, 45.47289547504247], [6.011422125860344, 45.4733052068302], [6.009544118703978, 45.47371493861793], [6.007666111547612, 45.47412467040566], [6.005788104391247, 45.47453440219339], [6.003910097234886, 45.47494413398112], [6.002032090078522, 45.47535386576886], [6.000154082922158, 45.475763597556586], [5.998276075765794, 45.47617332934432], [5.9963980686094285, 45.47658306113205], [5.994520061453066, 45.47699279291978], [5.994520061453066, 45.47699279291978], [5.993459339556761, 45.478154762870346], [5.992398617660456, 45.4793167328209], [5.991337895764152, 45.48047870277147], [5.990277173867847, 45.48164067272202], [5.989216451971542, 45.482802642672596], [5.988155730075235, 45.48396461262316], [5.987095008178931, 45.48512658257372], [5.986034286282626, 45.486288552524286], [5.984973564386323, 45.487450522474845], [5.983912842490017, 45.4886124924254], [5.983912842490017, 45.4886124924254], [5.983048257197375, 45.488970080853576], [5.982183671904734, 45.48932766928174], [5.981319086612094, 45.48968525770991], [5.980454501319453, 45.490042846138074], [5.979589916026811, 45.490400434566254], [5.9787253307341715, 45.49075802299442], [5.9778607454415305, 45.491115611422586], [5.976996160148888, 45.49147319985076], [5.976131574856247, 45.49183078827892], [5.9752669895636075, 45.49218837670709]]]}}]}