{"type": "FeatureCollection", "features": [{"type": "Feature", "properties": {"diocese": "Tr\u00e8ves", "province": "XXVII_Tr\u00e8ves", "source": "158_Tr\u00e8ves.txt"}, "geometry": {"type": "Polygon", "coordinates": [[[5.136248576154232, 49.733826019342274], [5.135967816315485, 49.726813014343506], [5.1356870564767405, 49.71980000934475], [5.135406296637994, 49.71278700434599], [5.135125536799245, 49.70577399934722], [5.134844776960499, 49.69876099434846], [5.13456401712175, 49.691747989349686], [5.134283257283007, 49.684734984350925], [5.134002497444261, 49.67772197935217], [5.133721737605514, 49.6707089743534], [5.133440977766766, 49.66369596935464], [5.133440977766766, 49.66369596935464], [5.130232904813836, 49.661833241447596], [5.127024831860906, 49.65997051354056], [5.123816758907973, 49.65810778563352], [5.120608685955041, 49.65624505772647], [5.117400613002111, 49.654382329819434], [5.114192540049178, 49.652519601912395], [5.110984467096248, 49.65065687400536], [5.107776394143315, 49.64879414609831], [5.104568321190383, 49.64693141819127], [5.101360248237453, 49.64506869028423], [5.101360248237453, 49.64506869028423], [5.097127296277803, 49.644535658572266], [5.09289434431815, 49.6440026268603], [5.088661392358498, 49.64346959514834], [5.084428440398845, 49.64293656343637], [5.080195488439195, 49.642403531724405], [5.075962536479542, 49.641870500012445], [5.0717295845198915, 49.64133746830047], [5.067496632560239, 49.64080443658851], [5.063263680600587, 49.640271404876536], [5.059030728640936, 49.63973837316457], [5.059030728640936, 49.63973837316457], [5.0590264505301406, 49.63752179095233], [5.059022172419343, 49.63530520874009], [5.059017894308548, 49.633088626527844], [5.059013616197751, 49.630872044315595], [5.059009338086954, 49.62865546210335], [5.059005059976158, 49.626438879891104], [5.059000781865363, 49.62422229767886], [5.058996503754566, 49.622005715466614], [5.05899222564377, 49.61978913325438], [5.058987947532975, 49.61757255104213], [5.058987947532975, 49.61757255104213], [5.061422570643616, 49.61659786599651], [5.063857193754256, 49.61562318095089], [5.066291816864901, 49.614648495905286], [5.068726439975542, 49.613673810859666], [5.071161063086185, 49.612699125814046], [5.073595686196828, 49.611724440768434], [5.07603030930747, 49.610749755722814], [5.078464932418113, 49.6097750706772], [5.080899555528756, 49.60880038563159], [5.083334178639399, 49.60782570058596], [5.083334178639399, 49.60782570058596], [5.084996231695849, 49.60516622237715], [5.0866582847523, 49.60250674416835], [5.088320337808753, 49.59984726595954], [5.089982390865204, 49.597187787750734], [5.0916444439216555, 49.59452830954192], [5.093306496978105, 49.5918688313331], [5.094968550034556, 49.589209353124296], [5.096630603091008, 49.586549874915484], [5.098292656147459, 49.58389039670667], [5.09995470920391, 49.581230918497866], [5.09995470920391, 49.581230918497866], [5.102004291164924, 49.580078810430585], [5.10405387312594, 49.578926702363304], [5.106103455086952, 49.577774594296024], [5.108153037047968, 49.57662248622874], [5.110202619008982, 49.57547037816147], [5.112252200969996, 49.57431827009419], [5.11430178293101, 49.5731661620269], [5.116351364892026, 49.57201405395963], [5.11840094685304, 49.57086194589235], [5.120450528814056, 49.569709837825066], [5.120450528814056, 49.569709837825066], [5.120958155831248, 49.5669614080481], [5.1214657828484444, 49.56421297827113], [5.121973409865641, 49.561464548494165], [5.122481036882835, 49.5587161187172], [5.1229886639000295, 49.55596768894023], [5.1234962909172275, 49.55321925916326], [5.12400391793442, 49.5504708293863], [5.124511544951616, 49.54772239960932], [5.1250191719688125, 49.544973969832355], [5.125526798986007, 49.54222554005539], [5.125526798986007, 49.54222554005539], [5.127059892543121, 49.540009341516324], [5.1285929861002355, 49.537793142977264], [5.13012607965735, 49.535576944438205], [5.131659173214464, 49.53336074589914], [5.13319226677158, 49.531144547360086], [5.134725360328693, 49.52892834882102], [5.136258453885807, 49.526712150281966], [5.137791547442919, 49.52449595174289], [5.1393246410000355, 49.52227975320383], [5.14085773455715, 49.52006355466478], [5.14085773455715, 49.52006355466478], [5.139442343375265, 49.51678266965299], [5.138026952193384, 49.51350178464121], [5.136611561011502, 49.510220899629424], [5.135196169829618, 49.50694001461763], [5.133780778647736, 49.50365912960585], [5.1323653874658515, 49.500378244594074], [5.130949996283968, 49.49709735958229], [5.129534605102087, 49.49381647457051], [5.128119213920206, 49.490535589558725], [5.126703822738319, 49.48725470454694], [5.126703822738319, 49.48725470454694], [5.123884250495582, 49.48814063005841], [5.121064678252846, 49.489026555569886], [5.118245106010107, 49.48991248108136], [5.115425533767372, 49.49079840659284], [5.112605961524634, 49.49168433210431], [5.109786389281897, 49.49257025761579], [5.10696681703916, 49.493456183127265], [5.104147244796421, 49.494342108638726], [5.101327672553683, 49.4952280341502], [5.098508100310946, 49.496113959661685], [5.098508100310946, 49.496113959661685], [5.096459808241445, 49.49797537576733], [5.094411516171943, 49.49983679187298], [5.092363224102442, 49.50169820797862], [5.090314932032939, 49.50355962408426], [5.0882666399634395, 49.50542104018991], [5.086218347893933, 49.50728245629555], [5.084170055824432, 49.5091438724012], [5.08212176375493, 49.511005288506844], [5.080073471685429, 49.51286670461249], [5.078025179615926, 49.51472812071813], [5.078025179615926, 49.51472812071813], [5.075845574332412, 49.51499356169065], [5.073665969048896, 49.51525900266318], [5.071486363765377, 49.515524443635705], [5.069306758481865, 49.515789884608225], [5.0671271531983475, 49.51605532558076], [5.064947547914832, 49.51632076655327], [5.062767942631318, 49.5165862075258], [5.060588337347799, 49.516851648498324], [5.058408732064283, 49.517117089470844], [5.056229126780769, 49.51738253044337], [5.056229126780769, 49.51738253044337], [5.055198129323138, 49.51472238014512], [5.054167131865507, 49.51206222984686], [5.053136134407875, 49.50940207954862], [5.052105136950246, 49.50674192925037], [5.051074139492613, 49.50408177895212], [5.050043142034983, 49.50142162865387], [5.04901214457735, 49.49876147835562], [5.047981147119719, 49.49610132805737], [5.04695014966209, 49.493441177759124], [5.04591915220446, 49.490781027460876], [5.04591915220446, 49.490781027460876], [5.046425925666377, 49.48759035213866], [5.046932699128298, 49.484399676816466], [5.047439472590218, 49.48120900149426], [5.047946246052135, 49.478018326172055], [5.0484530195140565, 49.47482765084985], [5.048959792975976, 49.471636975527645], [5.049466566437895, 49.46844630020545], [5.049973339899816, 49.46525562488324], [5.0504801133617345, 49.46206494956104], [5.050986886823653, 49.45887427423884], [5.050986886823653, 49.45887427423884], [5.055219154294447, 49.45905265739109], [5.059451421765237, 49.45923104054335], [5.063683689236031, 49.459409423695604], [5.0679159567068215, 49.45958780684786], [5.07214822417761, 49.4597661900001], [5.076380491648402, 49.45994457315236], [5.080612759119193, 49.460122956304616], [5.0848450265899885, 49.46030133945687], [5.089077294060779, 49.46047972260913], [5.093309561531571, 49.46065810576138], [5.093309561531571, 49.46065810576138], [5.096894290537392, 49.45835375577286], [5.100479019543213, 49.45604940578434], [5.1040637485490326, 49.453745055795814], [5.107648477554854, 49.45144070580729], [5.1112332065606765, 49.449136355818766], [5.1148179355664976, 49.44683200583025], [5.118402664572319, 49.44452765584173], [5.12198739357814, 49.442223305853204], [5.125572122583961, 49.439918955864684], [5.129156851589782, 49.43761460587616], [5.129156851589782, 49.43761460587616], [5.135693534824204, 49.43575431538234], [5.142230218058627, 49.43389402488853], [5.148766901293049, 49.43203373439471], [5.155303584527468, 49.43017344390089], [5.161840267761891, 49.428313153407075], [5.168376950996311, 49.42645286291326], [5.174913634230736, 49.42459257241944], [5.1814503174651545, 49.422732281925626], [5.187987000699579, 49.42087199143181], [5.194523683933999, 49.419011700937986], [5.194523683933999, 49.419011700937986], [5.198371594744021, 49.419367309628285], [5.202219505554046, 49.4197229183186], [5.206067416364071, 49.4200785270089], [5.209915327174095, 49.4204341356992], [5.213763237984116, 49.42078974438951], [5.217611148794138, 49.4211453530798], [5.221459059604163, 49.42150096177011], [5.225306970414186, 49.42185657046041], [5.229154881224211, 49.42221217915071], [5.233002792034233, 49.42256778784102], [5.233002792034233, 49.42256778784102], [5.24056123201583, 49.41857983466125], [5.248119671997433, 49.41459188148148], [5.255678111979032, 49.41060392830172], [5.263236551960631, 49.40661597512194], [5.270794991942232, 49.40262802194217], [5.278353431923833, 49.398640068762404], [5.28591187190543, 49.39465211558264], [5.293470311887031, 49.390664162402864], [5.301028751868632, 49.386676209223104], [5.308587191850231, 49.38268825604333], [5.308587191850231, 49.38268825604333], [5.318596156580352, 49.38588262770961], [5.328605121310476, 49.3890769993759], [5.338614086040602, 49.392271371042185], [5.348623050770726, 49.395465742708474], [5.358632015500847, 49.39866011437476], [5.368640980230969, 49.401854486041046], [5.378649944961094, 49.40504885770733], [5.388658909691218, 49.40824322937362], [5.3986678744213386, 49.41143760103991], [5.408676839151465, 49.41463197270619], [5.408676839151465, 49.41463197270619], [5.414697773414339, 49.4113529380669], [5.420718707677215, 49.408073903427606], [5.426739641940088, 49.40479486878832], [5.4327605762029645, 49.40151583414902], [5.438781510465843, 49.39823679950974], [5.444802444728715, 49.39495776487045], [5.450823378991592, 49.39167873023115], [5.456844313254466, 49.38839969559186], [5.462865247517344, 49.38512066095258], [5.468886181780217, 49.38184162631329], [5.468886181780217, 49.38184162631329], [5.473372861696596, 49.380956116852474], [5.477859541612974, 49.380070607391666], [5.482346221529353, 49.37918509793086], [5.486832901445732, 49.37829958847006], [5.491319581362111, 49.37741407900925], [5.495806261278487, 49.37652856954844], [5.500292941194866, 49.37564306008763], [5.504779621111247, 49.37475755062683], [5.509266301027626, 49.37387204116602], [5.513752980944002, 49.37298653170521], [5.513752980944002, 49.37298653170521], [5.517729638095229, 49.37360816291969], [5.521706295246455, 49.37422979413415], [5.5256829523976805, 49.37485142534863], [5.529659609548906, 49.375473056563095], [5.533636266700132, 49.376094687777574], [5.537612923851357, 49.37671631899204], [5.541589581002583, 49.37733795020652], [5.545566238153809, 49.37795958142099], [5.549542895305034, 49.37858121263546], [5.553519552456262, 49.37920284384993], [5.553519552456262, 49.37920284384993], [5.558131635334634, 49.37681009225711], [5.562743718213014, 49.37441734066429], [5.567355801091386, 49.37202458907146], [5.571967883969764, 49.36963183747864], [5.57657996684814, 49.36723908588582], [5.581192049726516, 49.36484633429299], [5.58580413260489, 49.36245358270017], [5.590416215483264, 49.36006083110735], [5.595028298361642, 49.357668079514525], [5.599640381240016, 49.355275327921696], [5.599640381240016, 49.355275327921696], [5.60322832453347, 49.35385761338092], [5.6068162678269235, 49.35243989884014], [5.610404211120375, 49.35102218429936], [5.613992154413829, 49.34960446975857], [5.6175800977072825, 49.34818675521779], [5.621168041000736, 49.34676904067701], [5.62475598429419, 49.34535132613623], [5.628343927587643, 49.34393361159545], [5.631931870881095, 49.34251589705466], [5.635519814174549, 49.34109818251388], [5.635519814174549, 49.34109818251388], [5.642572033211826, 49.34136593289011], [5.649624252249101, 49.341633683266345], [5.6566764712863815, 49.341901433642576], [5.663728690323657, 49.34216918401881], [5.670780909360934, 49.34243693439503], [5.677833128398209, 49.34270468477127], [5.684885347435486, 49.3429724351475], [5.691937566472765, 49.34324018552373], [5.69898978551004, 49.343507935899964], [5.706042004547317, 49.343775686276196], [5.706042004547317, 49.343775686276196], [5.7086037418579405, 49.342180388701856], [5.711165479168567, 49.340585091127515], [5.713727216479189, 49.338989793553175], [5.716288953789816, 49.337394495978835], [5.718850691100437, 49.3357991984045], [5.721412428411064, 49.33420390083016], [5.723974165721689, 49.33260860325582], [5.726535903032312, 49.33101330568148], [5.729097640342939, 49.32941800810714], [5.731659377653562, 49.3278227105328], [5.731659377653562, 49.3278227105328], [5.7328137245854975, 49.32791166208122], [5.733968071517431, 49.32800061362963], [5.735122418449366, 49.32808956517805], [5.736276765381302, 49.32817851672646], [5.737431112313237, 49.32826746827487], [5.738585459245172, 49.32835641982329], [5.739739806177109, 49.32844537137171], [5.7408941531090445, 49.32853432292013], [5.74204850004098, 49.328623274468534], [5.743202846972913, 49.328712226016954], [5.743202846972913, 49.328712226016954], [5.746404209003607, 49.32631912235848], [5.7496055710343015, 49.32392601870001], [5.752806933064996, 49.32153291504152], [5.75600829509569, 49.319139811383046], [5.759209657126384, 49.316746707724576], [5.762411019157078, 49.314353604066106], [5.765612381187772, 49.31196050040763], [5.768813743218466, 49.30956739674916], [5.77201510524916, 49.30717429309068], [5.775216467279854, 49.304781189432205], [5.775216467279854, 49.304781189432205], [5.780472966342545, 49.3040731935506], [5.785729465405236, 49.303365197668995], [5.790985964467927, 49.302657201787376], [5.796242463530618, 49.30194920590578], [5.80149896259331, 49.301241210024166], [5.806755461656003, 49.30053321414257], [5.812011960718694, 49.299825218260956], [5.817268459781385, 49.299117222379344], [5.8225249588440775, 49.298409226497746], [5.827781457906768, 49.297701230616134], [5.827781457906768, 49.297701230616134], [5.829189875034581, 49.29654896253696], [5.8305982921623976, 49.295396694457786], [5.83200670929021, 49.29424442637861], [5.833415126418023, 49.29309215829944], [5.834823543545838, 49.29193989022026], [5.836231960673654, 49.29078762214109], [5.837640377801467, 49.28963535406192], [5.8390487949292815, 49.28848308598275], [5.840457212057094, 49.28733081790357], [5.841865629184911, 49.2861785498244], [5.841865629184911, 49.2861785498244], [5.843141192985577, 49.28263234051607], [5.844416756786247, 49.27908613120775], [5.845692320586917, 49.27553992189942], [5.8469678843875865, 49.271993712591104], [5.848243448188256, 49.26844750328278], [5.849519011988926, 49.264901293974454], [5.850794575789594, 49.26135508466613], [5.852070139590264, 49.2578088753578], [5.853345703390934, 49.254262666049485], [5.854621267191604, 49.25071645674116], [5.854621267191604, 49.25071645674116], [5.856930908697276, 49.25142634086183], [5.859240550202951, 49.2521362249825], [5.861550191708625, 49.25284610910317], [5.863859833214299, 49.253555993223834], [5.866169474719973, 49.2542658773445], [5.86847911622565, 49.254975761465175], [5.870788757731324, 49.25568564558584], [5.873098399236998, 49.25639552970651], [5.875408040742672, 49.25710541382718], [5.8777176822483455, 49.25781529794784], [5.8777176822483455, 49.25781529794784], [5.880151699966891, 49.25648595889292], [5.882585717685439, 49.25515661983799], [5.885019735403986, 49.253827280783064], [5.88745375312253, 49.25249794172814], [5.88988777084108, 49.25116860267321], [5.8923217885596255, 49.24983926361828], [5.894755806278173, 49.24850992456335], [5.897189823996721, 49.24718058550842], [5.899623841715266, 49.24585124645349], [5.902057859433814, 49.244521907398564], [5.902057859433814, 49.244521907398564], [5.904753647935003, 49.24594119013488], [5.907449436436195, 49.247360472871186], [5.910145224937388, 49.2487797556075], [5.91284101343858, 49.250199038343816], [5.915536801939769, 49.25161832108013], [5.918232590440963, 49.25303760381644], [5.920928378942154, 49.25445688655276], [5.9236241674433465, 49.25587616928907], [5.926319955944537, 49.25729545202538], [5.929015744445728, 49.258714734761696], [5.929015744445728, 49.258714734761696], [5.928761503124996, 49.25986729088202], [5.928507261804263, 49.261019847002345], [5.928253020483529, 49.26217240312267], [5.927998779162795, 49.26332495924299], [5.927744537842065, 49.26447751536332], [5.927490296521331, 49.26563007148365], [5.927236055200597, 49.26678262760397], [5.9269818138798644, 49.2679351837243], [5.926727572559132, 49.26908773984462], [5.926473331238398, 49.270240295964946], [5.926473331238398, 49.270240295964946], [5.924296463952551, 49.271924353053684], [5.922119596666699, 49.27360841014243], [5.919942729380848, 49.27529246723116], [5.917765862094999, 49.276976524319906], [5.915588994809147, 49.278660581408644], [5.913412127523298, 49.28034463849738], [5.911235260237449, 49.28202869558612], [5.909058392951595, 49.28371275267486], [5.906881525665746, 49.285396809763604], [5.904704658379895, 49.28708086685234], [5.904704658379895, 49.28708086685234], [5.905864652410903, 49.290095703201764], [5.90702464644191, 49.293110539551186], [5.9081846404729195, 49.296125375900615], [5.9093446345039276, 49.29914021225004], [5.910504628534936, 49.30215504859947], [5.911664622565944, 49.30516988494889], [5.912824616596952, 49.30818472129831], [5.913984610627958, 49.31119955764775], [5.915144604658966, 49.31421439399716], [5.916304598689976, 49.3172292303466], [5.916304598689976, 49.3172292303466], [5.9214352605234275, 49.317762486094956], [5.9265659223568825, 49.318295741843315], [5.931696584190334, 49.31882899759167], [5.936827246023785, 49.31936225334003], [5.94195790785724, 49.3198955090884], [5.947088569690692, 49.320428764836755], [5.952219231524143, 49.32096202058511], [5.957349893357597, 49.321495276333465], [5.962480555191052, 49.32202853208182], [5.967611217024503, 49.32256178783019], [5.967611217024503, 49.32256178783019], [5.969666867441617, 49.32451289159819], [5.971722517858732, 49.32646399536618], [5.973778168275848, 49.32841509913418], [5.975833818692964, 49.330366202902184], [5.977889469110082, 49.33231730667019], [5.979945119527198, 49.334268410438185], [5.982000769944314, 49.33621951420619], [5.98405642036143, 49.338170617974185], [5.986112070778546, 49.34012172174218], [5.98816772119566, 49.342072825510186], [5.98816772119566, 49.342072825510186], [5.995095777167643, 49.34367049139875], [6.002023833139626, 49.345268157287315], [6.008951889111609, 49.34686582317589], [6.015879945083594, 49.34846348906446], [6.022808001055575, 49.350061154953025], [6.0297360570275575, 49.351658820841585], [6.036664112999542, 49.35325648673015], [6.043592168971523, 49.35485415261873], [6.050520224943508, 49.35645181850729], [6.057448280915491, 49.358049484395856], [6.057448280915491, 49.358049484395856], [6.058478080509699, 49.36008899561261], [6.059507880103908, 49.36212850682935], [6.0605376796981165, 49.3641680180461], [6.061567479292325, 49.36620752926285], [6.062597278886535, 49.3682470404796], [6.0636270784807405, 49.370286551696346], [6.064656878074949, 49.372326062913096], [6.065686677669159, 49.37436557412985], [6.066716477263366, 49.37640508534659], [6.067746276857575, 49.378444596563334], [6.067746276857575, 49.378444596563334], [6.069033477106096, 49.38092748387156], [6.070320677354621, 49.383410371179785], [6.071607877603144, 49.385893258488004], [6.072895077851667, 49.38837614579623], [6.07418227810019, 49.39085903310445], [6.075469478348715, 49.393341920412674], [6.0767566785972384, 49.3958248077209], [6.078043878845763, 49.398307695029125], [6.0793310790942865, 49.40079058233735], [6.080618279342811, 49.40327346964556], [6.080618279342811, 49.40327346964556], [6.082576309884246, 49.40829784208422], [6.08453434042568, 49.41332221452287], [6.086492370967115, 49.41834658696152], [6.088450401508549, 49.42337095940018], [6.090408432049983, 49.42839533183882], [6.09236646259142, 49.43341970427748], [6.094324493132856, 49.43844407671613], [6.09628252367429, 49.44346844915479], [6.0982405542157245, 49.44849282159344], [6.100198584757159, 49.45351719403209], [6.100198584757159, 49.45351719403209], [6.100192447373951, 49.45353428418673], [6.100186309990743, 49.453551374341366], [6.100180172607535, 49.453568464495994], [6.100174035224326, 49.45358555465063], [6.10016789784112, 49.45360264480527], [6.1001617604579135, 49.45361973495991], [6.100155623074704, 49.453636825114536], [6.100149485691494, 49.45365391526918], [6.100143348308288, 49.45367100542382], [6.10013721092508, 49.45368809557845], [6.10013721092508, 49.45368809557845], [6.097691664650297, 49.454199609388326], [6.095078020737516, 49.45501227537332], [6.092313585274093, 49.456037860777556], [6.0894156643473885, 49.45718813284518], [6.0864015640447615, 49.458374858820335], [6.083288590453568, 49.459509805947164], [6.080094049661174, 49.46050474146982], [6.07683524775493, 49.46127143263244], [6.073529490822203, 49.46172164667915], [6.070194084950343, 49.461767150854115], [6.070194084950334, 49.461767150854115], [6.068444779805084, 49.459893485597696], [6.066701221058887, 49.458183793014676], [6.064957862309379, 49.4566318261726], [6.063209157154198, 49.45523133813896], [6.061449559190981, 49.45397608198128], [6.05967352201737, 49.45285981076709], [6.057875499230992, 49.4518762775639], [6.056049944429493, 49.451019235439226], [6.054191311210506, 49.45028243746059], [6.052294053171671, 49.4496596366955], [6.052294053171675, 49.4496596366955], [6.049544166714792, 49.44896805840943], [6.0466856991675915, 49.448484686536354], [6.043700775558973, 49.44819728214016], [6.040571520917833, 49.448093606284694], [6.037280060273078, 49.44816142003383], [6.0338085186536095, 49.448388484451435], [6.030139021088324, 49.44876256060137], [6.026253692606128, 49.44927140954749], [6.022134658235915, 49.449902792353676], [6.0177640430065935, 49.45064447008378], [6.017764043006586, 49.45064447008378], [6.010547780505931, 49.4505343785345], [6.004622990184902, 49.45024225778861], [5.999804120091426, 49.44996510937533], [5.995905618273413, 49.44989993482386], [5.992741932778779, 49.45024373566342], [5.9901275116554356, 49.451193513423206], [5.987876802951304, 49.452946269632434], [5.985804254714292, 49.45569900582031], [5.9837243149923225, 49.45964872351604], [5.981451431833303, 49.46499242424884], [5.981451431833312, 49.46499242424884], [5.982353729660446, 49.47002122880637], [5.981919836620914, 49.47459382376847], [5.9802712320740685, 49.47871709570682], [5.977529395379257, 49.48239793119311], [5.973815805895821, 49.485643216799005], [5.969251942983119, 49.48845983909618], [5.96395928600049, 49.49085468465632], [5.958059314307286, 49.49283464005111], [5.951673507262859, 49.494406591852204], [5.944923344226549, 49.4955774266313], [5.94492334422654, 49.4955774266313], [5.9372311381959175, 49.49613824247113], [5.929473619546201, 49.496582621210585], [5.921673605678814, 49.49693581785983], [5.91385391399519, 49.49722308742898], [5.906037361896754, 49.497469684928205], [5.898246766784936, 49.49770086536765], [5.890504946061169, 49.49794188375745], [5.882834717126878, 49.498217995107744], [5.875258897383489, 49.498554454428714], [5.867800304232437, 49.49897651673047], [5.867800304232448, 49.49897651673047], [5.862076190621442, 49.50256738321852], [5.857614809321465, 49.50612367450012], [5.854175083722684, 49.50966243380179], [5.851515937215279, 49.513200704350126], [5.849396293189425, 49.516755529371686], [5.847575075035296, 49.520343952093036], [5.845811206143068, 49.52398301574074], [5.843863609902915, 49.527689763541346], [5.841491209705012, 49.53148123872145], [5.8384529289395335, 49.535374484507585], [5.838452928939523, 49.535374484507585], [5.832952789339819, 49.53536500176787], [5.828296683530237, 49.53614668707819], [5.824243479393822, 49.53753321872763], [5.820552044813608, 49.53933827500527], [5.8169812476726435, 49.541375534200206], [5.813289955853961, 49.54345867460151], [5.809237037240607, 49.545401374498304], [5.80458135971562, 49.547017312179655], [5.79908179116204, 49.54812016593465], [5.7924971994629075, 49.54852361405238], [5.79249719946292, 49.54852361405238], [5.790573882227076, 49.550127815880735], [5.788733453613572, 49.55152134958822], [5.786972223380559, 49.55271288096944], [5.785286501286182, 49.553711075818995], [5.783672597088582, 49.5545245999315], [5.782126820545912, 49.55516211910156], [5.780645481416316, 49.55563229912378], [5.779224889457938, 49.555943805792765], [5.777861354428925, 49.55610530490313], [5.776551186087426, 49.556125462249476], [5.7765511860874295, 49.556125462249476], [5.772903520495605, 49.555425235649984], [5.769603403110294, 49.55376829202916], [5.766551290434572, 49.551390084914466], [5.7636476389715, 49.54852606783336], [5.760792905224159, 49.54541169431328], [5.757887545695613, 49.54228241788171], [5.754832016888933, 49.53937369206609], [5.751526775307193, 49.53692097039388], [5.7478722774534585, 49.53515970639254], [5.7437689798308025, 49.53432535358954], [5.743768979830808, 49.53432535358954], [5.737900523163352, 49.53482621894303], [5.7326420761521995, 49.535261890285476], [5.7278915431903865, 49.53571611196505], [5.723546828670949, 49.536272628329975], [5.719505836986917, 49.537015183728435], [5.715666472531332, 49.53802752250863], [5.711926639697229, 49.539393389018784], [5.708184242877641, 49.54119652760707], [5.704337186465603, 49.54352068262171], [5.700283374854152, 49.546449598410895], [5.700283374854154, 49.546449598410895], [5.691915466874063, 49.54895076053429], [5.683283535887963, 49.550174311354496], [5.674656149193375, 49.550191390214515], [5.666301874087813, 49.5490731364573], [5.658489277868794, 49.546890689425865], [5.651486927833837, 49.54371518846317], [5.64556339128046, 49.539617772912194], [5.6409872355061825, 49.53466958211594], [5.638027027808517, 49.52894175541736], [5.636951335484987, 49.52250543215946], [5.636951335484991, 49.52250543215946], [5.636582414553569, 49.519967419436384], [5.636015286974871, 49.51783262401877], [5.635264605571107, 49.516076749615685], [5.6343450231644905, 49.51467549993618], [5.633271192577231, 49.51360457868933], [5.632057766631542, 49.51283968958416], [5.630719398149635, 49.512356536329754], [5.629270739953721, 49.512130822635164], [5.627726444866012, 49.512138252209446], [5.626101165708718, 49.512354528761655], [5.626101165708716, 49.512354528761655], [5.623912042581752, 49.51290623904833], [5.6216386209576665, 49.5137275442066], [5.619309341930972, 49.51477440827385], [5.616952646596193, 49.51600279528742], [5.614596976047844, 49.51736866928464], [5.612270771380453, 49.5188279943029], [5.6100024736885405, 49.52033673437952], [5.607820524066618, 49.521850853551854], [5.605753363609212, 49.523326315857254], [5.603829433410844, 49.524719085333075], [5.60382943341086, 49.524719085333075], [5.598124043658256, 49.52600849743352], [5.591974392929618, 49.52721223839161], [5.585585655204545, 49.52818508379701], [5.579163004462625, 49.528781809239334], [5.5729116146834485, 49.52885719030826], [5.567036659846616, 49.528266002593405], [5.561743313931718, 49.52686302168443], [5.557236750918346, 49.524503023170986], [5.5537221447860965, 49.521040782642714], [5.551404669514557, 49.51633107568925], [5.551404669514554, 49.51633107568925], [5.54655873998005, 49.51277126013002], [5.540927901420082, 49.51043109923755], [5.534676545910349, 49.50903722032865], [5.527969065526552, 49.50831625072019], [5.520969852344388, 49.507994817729006], [5.513843298439557, 49.507799548671926], [5.506753795887757, 49.507457070865804], [5.499865736764688, 49.50669401162749], [5.493343513146048, 49.50523699827381], [5.487351517107534, 49.50281265812162], [5.487351517107536, 49.50281265812162], [5.482793569254854, 49.50517688973452], [5.4794154383743585, 49.507804200382644], [5.477140571012834, 49.51064389348208], [5.475892413717068, 49.51364527244896], [5.47559441303385, 49.516757640699396], [5.476170015509963, 49.519930301649474], [5.477542667692198, 49.52311255871532], [5.479635816127347, 49.526253715313025], [5.482372907362185, 49.529303074858724], [5.485677387943509, 49.53220994076851], [5.485677387943497, 49.53220994076851], [5.4860564709608255, 49.53581360232305], [5.4846019572892715, 49.53907510337764], [5.481846739566318, 49.54207594494512], [5.478323710429443, 49.54489762803833], [5.474565762516132, 49.5476216536701], [5.471105788463861, 49.550329522853275], [5.468476680910117, 49.5531027366007], [5.4672113324923775, 49.5560227959252], [5.467842635848125, 49.559171201839625], [5.4709034836148405, 49.56262945535681], [5.470903483614844, 49.56262945535681], [5.4682202880546615, 49.565520310562945], [5.465134301223934, 49.56835013144344], [5.461837341887977, 49.57116862539479], [5.458521228812103, 49.574025499813516], [5.455377780761621, 49.57697046209614], [5.452598816501844, 49.58005321963919], [5.4503761547980805, 49.58332347983916], [5.448901614415645, 49.58683095009257], [5.448367014119848, 49.59062533779594], [5.448964172676, 49.59475635034579], [5.448964172676005, 49.59475635034579], [5.445038652486767, 49.599333760011724], [5.440253761254748, 49.60353236773965], [5.434729933602675, 49.607366168122454], [5.428587604153286, 49.61084915575299], [5.421947207529312, 49.613995325224145], [5.414929178353487, 49.616818671128804], [5.407653951248541, 49.61933318805984], [5.400241960837214, 49.621552870610124], [5.392813641742229, 49.623491713372545], [5.385489428586332, 49.62516371093999], [5.385489428586332, 49.62516371093999], [5.380011583178918, 49.62833328785496], [5.3752656886665235, 49.630228001623934], [5.371106092917367, 49.6310061647649], [5.367387143799686, 49.63082608979586], [5.363963189181705, 49.629846089234796], [5.360688576931649, 49.62822447559969], [5.35741765491775, 49.62611956140853], [5.354004771008238, 49.623689659179306], [5.3503042730713375, 49.62109308143002], [5.346170508975275, 49.618488140678664], [5.346170508975284, 49.61848814067866], [5.339850517407561, 49.61621211016772], [5.334016811894893, 49.615657205626356], [5.32880803610618, 49.6165456610976], [5.324362833710321, 49.61859971062449], [5.320819848376221, 49.62154158825006], [5.318317723772774, 49.625093528017345], [5.316995103568882, 49.62897776396938], [5.316990631433445, 49.63291653014922], [5.3184429510353635, 49.63663206059989], [5.321490706043537, 49.6398465893644], [5.321490706043537, 49.6398465893644], [5.323923317384702, 49.64267670942881], [5.327114160412618, 49.645392604949016], [5.33064870095782, 49.64801920388931], [5.3341124048508295, 49.650581434214004], [5.337090737922182, 49.653104223887354], [5.339169166002408, 49.65561250087368], [5.339933154922038, 49.65813119313726], [5.3389681705116026, 49.66068522864237], [5.335859678601631, 49.663299535353325], [5.330193145022653, 49.6659990412344], [5.3301931450226565, 49.6659990412344], [5.32496303227688, 49.66864864384215], [5.320015059691647, 49.67145690955275], [5.315311021065902, 49.674405520107555], [5.310812710198581, 49.677476157247895], [5.306481920888631, 49.68065050271509], [5.30228044693499, 49.68391023825049], [5.298170082136597, 49.68723704559541], [5.294112620292395, 49.69061260649119], [5.290069855201327, 49.694018602679186], [5.286003580662332, 49.6974367159007], [5.286003580662328, 49.69743671590069], [5.2796023977062205, 49.69816073097711], [5.273591186907863, 49.69741420380407], [5.267862590665363, 49.69562118727537], [5.26230925137682, 49.69320573428474], [5.256823811440331, 49.69059189772593], [5.251298913254002, 49.688203730492674], [5.245627199215935, 49.68646528547876], [5.239701311724231, 49.68580061557791], [5.233413893176984, 49.68663377368391], [5.226657585972303, 49.68938881269047], [5.226657585972285, 49.68938881269047], [5.222399054947337, 49.69203079193023], [5.217186901643265, 49.69346210739383], [5.211321820122141, 49.69403328348186], [5.205104504446036, 49.694094844594936], [5.198835648677019, 49.69399731513367], [5.1928159468771575, 49.69409121949869], [5.187346093108527, 49.69472708209059], [5.182726781433189, 49.69625542730998], [5.179258705913215, 49.69902677955747], [5.177242560610676, 49.70339166323368], [5.177242560610676, 49.70339166323368], [5.178101458514535, 49.708467968402395], [5.177422871516429, 49.711830157621876], [5.175456498594576, 49.71378481797155], [5.17245203872719, 49.71463853653084], [5.168659190892482, 49.71469790037916], [5.164327654068664, 49.71426949659592], [5.159707127233958, 49.713659912260546], [5.155047309366571, 49.71317573445246], [5.1505978994447155, 49.713123550251076], [5.146608596446608, 49.713809946735815], [5.146608596446605, 49.713809946735815], [5.146608614085414, 49.71381498706483], [5.146608299863626, 49.71382022945783], [5.146607131575394, 49.713825623247764], [5.14660458701486, 49.71383111776764], [5.146600143976169, 49.71383666235041], [5.146593280253468, 49.71384220632907], [5.1465834736409075, 49.71384769903659], [5.146570201932626, 49.71385308980595], [5.146552942922776, 49.71385832797013], [5.146531174405499, 49.71386336286211], [5.146531174405498, 49.71386336286211], [5.144669583537697, 49.715621545287036], [5.143079646941548, 49.71745671301797], [5.141728938518739, 49.71935983683376], [5.140585032170952, 49.72132188751324], [5.139615501799877, 49.72333383583525], [5.138787921307205, 49.72538665257861], [5.138069864594616, 49.72747130852215], [5.137428905563802, 49.729578774444725], [5.136832618116447, 49.73170002112515], [5.136248576154239, 49.733826019342274], [5.136248576154232, 49.733826019342274]]]}}, {"type": "Feature", "properties": {"diocese": "Tr\u00e8ves", "province": "XXVII_Tr\u00e8ves", "source": "158_Tr\u00e8ves.txt"}, "geometry": {"type": "Polygon", "coordinates": [[[6.1182379485530625, 49.46567817841108], [6.124873025715328, 49.46520340558506], [6.131508102877589, 49.46472863275904], [6.1381431800398545, 49.464253859933024], [6.144778257202118, 49.46377908710699], [6.151413334364381, 49.463304314280975], [6.158048411526643, 49.46282954145496], [6.164683488688906, 49.462354768628934], [6.17131856585117, 49.46187999580291], [6.177953643013433, 49.46140522297689], [6.184588720175697, 49.460930450150876], [6.184588720175697, 49.460930450150876], [6.189975676817575, 49.46137510639673], [6.195362633459453, 49.461819762642584], [6.200749590101333, 49.46226441888844], [6.20613654674321, 49.46270907513429], [6.211523503385088, 49.463153731380146], [6.21691046002697, 49.463598387626], [6.222297416668846, 49.46404304387186], [6.2276843733107246, 49.46448770011771], [6.233071329952605, 49.46493235636356], [6.238458286594483, 49.46537701260942], [6.238458286594483, 49.46537701260942], [6.239347611382101, 49.461032741197926], [6.240236936169719, 49.456688469786435], [6.241126260957337, 49.45234419837495], [6.242015585744957, 49.44799992696346], [6.242904910532575, 49.44365565555197], [6.2437942353201965, 49.439311384140474], [6.244683560107815, 49.43496711272899], [6.245572884895433, 49.43062284131751], [6.246462209683051, 49.42627856990602], [6.2473515344706705, 49.42193429849452], [6.2473515344706705, 49.42193429849452], [6.2494018009311, 49.4211368444563], [6.251452067391531, 49.42033939041807], [6.253502333851962, 49.419541936379844], [6.255552600312392, 49.41874448234162], [6.257602866772823, 49.417947028303395], [6.259653133233252, 49.417149574265174], [6.261703399693683, 49.41635212022694], [6.263753666154114, 49.41555466618871], [6.265803932614544, 49.4147572121505], [6.267854199074973, 49.41395975811226], [6.267854199074973, 49.41395975811226], [6.2723450650740595, 49.41520216190685], [6.276835931073146, 49.41644456570142], [6.28132679707223, 49.41768696949599], [6.285817663071317, 49.41892937329057], [6.290308529070401, 49.42017177708514], [6.294799395069486, 49.4214141808797], [6.299290261068572, 49.422656584674286], [6.303781127067657, 49.423898988468856], [6.308271993066743, 49.42514139226343], [6.312762859065828, 49.426383796058005], [6.312762859065828, 49.426383796058005], [6.313529347753702, 49.424876713918145], [6.314295836441579, 49.42336963177828], [6.315062325129457, 49.42186254963842], [6.315828813817333, 49.420355467498545], [6.31659530250521, 49.418848385358686], [6.317361791193086, 49.41734130321883], [6.318128279880964, 49.41583422107896], [6.318894768568841, 49.4143271389391], [6.319661257256717, 49.41282005679923], [6.320427745944594, 49.41131297465937], [6.320427745944594, 49.41131297465937], [6.3193984597249475, 49.409539453964406], [6.318369173505303, 49.40776593326945], [6.317339887285657, 49.40599241257449], [6.316310601066011, 49.40421889187954], [6.315281314846363, 49.40244537118458], [6.314252028626717, 49.40067185048962], [6.313222742407071, 49.39889832979466], [6.3121934561874244, 49.39712480909971], [6.3111641699677765, 49.39535128840475], [6.310134883748134, 49.39357776770979], [6.310134883748134, 49.39357776770979], [6.311796515447556, 49.390740962466715], [6.313458147146978, 49.38790415722363], [6.315119778846402, 49.38506735198055], [6.316781410545822, 49.382230546737475], [6.318443042245244, 49.37939374149439], [6.320104673944668, 49.376556936251305], [6.321766305644092, 49.37372013100824], [6.323427937343514, 49.370883325765156], [6.325089569042934, 49.36804652052207], [6.326751200742356, 49.36520971527899], [6.326751200742356, 49.36520971527899], [6.325462631505557, 49.36201752538201], [6.324174062268758, 49.358825335485015], [6.322885493031958, 49.35563314558803], [6.321596923795157, 49.35244095569104], [6.3203083545583585, 49.34924876579405], [6.319019785321554, 49.34605657589706], [6.317731216084757, 49.34286438600007], [6.316442646847955, 49.339672196103095], [6.315154077611156, 49.3364800062061], [6.313865508374356, 49.33328781630912], [6.313865508374356, 49.33328781630912], [6.316170779751699, 49.33169245473001], [6.3184760511290445, 49.33009709315092], [6.320781322506392, 49.328501731571826], [6.323086593883735, 49.32690636999272], [6.3253918652610786, 49.32531100841362], [6.327697136638424, 49.32371564683452], [6.330002408015767, 49.32212028525543], [6.332307679393113, 49.32052492367634], [6.334612950770458, 49.31892956209724], [6.336918222147801, 49.31733420051814], [6.336918222147801, 49.31733420051814], [6.340767251724481, 49.31831045373955], [6.344616281301166, 49.319286706960945], [6.348465310877845, 49.32026296018236], [6.352314340454527, 49.32123921340376], [6.356163370031208, 49.32221546662516], [6.360012399607891, 49.32319171984657], [6.363861429184572, 49.32416797306797], [6.367710458761252, 49.32514422628938], [6.371559488337935, 49.32612047951078], [6.375408517914616, 49.32709673273219], [6.375408517914616, 49.32709673273219], [6.379123404293754, 49.32496974762476], [6.38283829067289, 49.32284276251733], [6.386553177052027, 49.32071577740991], [6.390268063431165, 49.31858879230248], [6.393982949810303, 49.316461807195054], [6.3976978361894385, 49.31433482208763], [6.401412722568574, 49.3122078369802], [6.405127608947714, 49.310080851872776], [6.40884249532685, 49.30795386676535], [6.412557381705987, 49.30582688165792], [6.412557381705987, 49.30582688165792], [6.418461548325222, 49.308488248125535], [6.4243657149444555, 49.31114961459315], [6.4302698815636905, 49.31381098106077], [6.436174048182927, 49.31647234752838], [6.442078214802162, 49.31913371399599], [6.447982381421397, 49.32179508046361], [6.453886548040629, 49.32445644693122], [6.459790714659867, 49.32711781339883], [6.465694881279102, 49.32977917986645], [6.471599047898337, 49.33244054633406], [6.471599047898337, 49.33244054633406], [6.4795470573619784, 49.33093525644586], [6.487495066825623, 49.32942996655767], [6.4954430762892645, 49.32792467666947], [6.503391085752909, 49.326419386781275], [6.511339095216549, 49.32491409689308], [6.519287104680194, 49.32340880700488], [6.527235114143837, 49.32190351711669], [6.535183123607478, 49.32039822722849], [6.543131133071123, 49.318892937340294], [6.551079142534764, 49.317387647452094], [6.551079142534764, 49.317387647452094], [6.554828741567745, 49.31885953476211], [6.558578340600725, 49.32033142207214], [6.562327939633706, 49.32180330938215], [6.5660775386666845, 49.323275196692165], [6.569827137699663, 49.324747084002176], [6.573576736732644, 49.3262189713122], [6.577326335765623, 49.32769085862222], [6.581075934798603, 49.32916274593224], [6.584825533831584, 49.330634633242255], [6.5885751328645625, 49.33210652055227], [6.5885751328645625, 49.33210652055227], [6.582321235778412, 49.3370062994772], [6.579014612606942, 49.3411400261955], [6.578222138456926, 49.344609419138834], [6.5795106884351355, 49.347516196738894], [6.58244713764835, 49.34996207742734], [6.586598361203338, 49.352048779635886], [6.591531234206876, 49.353878021796184], [6.5968126317657365, 49.35555152233991], [6.602009428986692, 49.357170999698745], [6.606688500976523, 49.35883817230438], [6.606688500976523, 49.35883817230438], [6.603321677481832, 49.36242652449575], [6.600368490594683, 49.366171680434086], [6.597614995550716, 49.369980645800695], [6.594847247585598, 49.37376042627692], [6.591851301934964, 49.377418027544046], [6.588413213834476, 49.38086045528346], [6.584319038519782, 49.383994715176435], [6.5793548312265315, 49.38672781290431], [6.573306647190378, 49.388966754148434], [6.565960541646973, 49.39061854459009], [6.5659605416469535, 49.39061854459009], [6.557104483764013, 49.39342904521077], [6.552018391968346, 49.39655154366706], [6.54988908474639, 49.399935326900746], [6.549903380584578, 49.40352968185361], [6.551248097969346, 49.40728389546746], [6.55311005538713, 49.41114725468405], [6.55467607132436, 49.415069046445204], [6.555132964267482, 49.41899855769268], [6.553667552702924, 49.42288507536829], [6.549466655117122, 49.4266778864138], [6.549466655117126, 49.4266778864138], [6.543461692951176, 49.428665998559175], [6.537831615166464, 49.4309548096689], [6.532479285549535, 49.433458049047246], [6.527307567886934, 49.436089445998476], [6.522219325965205, 49.438762729826884], [6.517117423570891, 49.44139162983671], [6.511904724490536, 49.44388987533224], [6.506484092510679, 49.44617119561775], [6.50075839141787, 49.44814931999749], [6.494630484998648, 49.449737977775754], [6.494630484998641, 49.44973797777575], [6.490495933878984, 49.45386810283486], [6.485709534736644, 49.456704230906844], [6.480409439747326, 49.45855254089514], [6.474733801086732, 49.459719211703174], [6.4688207709305665, 49.46051042223439], [6.46280850145453, 49.46123235139223], [6.456835144834329, 49.46219117808011], [6.451038853245663, 49.46369308120147], [6.445557778864234, 49.46604423965976], [6.440530073865752, 49.469550832358394], [6.440530073865743, 49.469550832358394], [6.440527907956298, 49.46955823489719], [6.440521866302431, 49.469564263445726], [6.440512680518294, 49.46956926144233], [6.440501082218024, 49.46957357232536], [6.440487803015763, 49.46957753953313], [6.440473574525656, 49.46958150650399], [6.440459128361846, 49.469585816676286], [6.440445196138473, 49.46959081348835], [6.44043250946968, 49.469596840378536], [6.440421799969609, 49.46960424078516], [6.440421799969611, 49.46960424078516], [6.439000537703359, 49.47054558128727], [6.437622772372938, 49.471356886953295], [6.436298897718194, 49.47204503960313], [6.435039307478981, 49.47261692105668], [6.433854395395146, 49.47307941313382], [6.4327545552065395, 49.47343939765445], [6.431750180653015, 49.473703756438475], [6.4308516654744245, 49.473879371305756], [6.430069403410608, 49.4739731240762], [6.429413788201419, 49.47399189656972], [6.4294137882014155, 49.47399189656972], [6.425449357663101, 49.47428212250529], [6.421619080902326, 49.47342413760388], [6.417829946432786, 49.471720267903954], [6.413988942768164, 49.469472839443974], [6.410003058422163, 49.4669841782624], [6.40577928190846, 49.46455661039769], [6.401224601740754, 49.46249246188832], [6.396246006432738, 49.46109405877273], [6.390750484498099, 49.4606637270894], [6.384645024450531, 49.46150379287677], [6.384645024450535, 49.46150379287677], [6.377193120647316, 49.45999865556384], [6.369958972957093, 49.459828403980076], [6.362890889374809, 49.46073310547014], [6.355937177895383, 49.4624528273787], [6.349046146513752, 49.46472763705041], [6.342166103224844, 49.46729760182994], [6.335245356023588, 49.46990278906195], [6.328232212904918, 49.47228326609112], [6.3210749818637595, 49.47417910026209], [6.313721970895049, 49.47533035891953], [6.313721970895049, 49.47533035891953], [6.310775919855294, 49.47887404979471], [6.307307190646576, 49.481992017722334], [6.303378648271966, 49.484762152817694], [6.299053157734546, 49.48726234519612], [6.294393584037394, 49.48957048497294], [6.289462792183592, 49.49176446226345], [6.284323647176214, 49.49392216718297], [6.279039014018343, 49.49612148984683], [6.273671757713053, 49.49844032037033], [6.268284743263425, 49.5009565488688], [6.268284743263438, 49.5009565488688], [6.2592853942093765, 49.50426330346566], [6.2499995265673505, 49.50598389392941], [6.240477012401675, 49.50645588339261], [6.230767723776658, 49.506016834987875], [6.220921532756611, 49.50500431184779], [6.210988311405837, 49.50375587710496], [6.201017931788652, 49.50260909389198], [6.191060265969362, 49.50190152534144], [6.181165186012276, 49.50197073458594], [6.171382563981702, 49.50315428475807], [6.171382563981696, 49.50315428475807], [6.169088022563145, 49.50082750162013], [6.16740284490286, 49.49862468710877], [6.166044331475769, 49.496562154079065], [6.164729782756799, 49.49465621538614], [6.163176499220878, 49.49292318388506], [6.161101781342934, 49.491379372430956], [6.1582229295978905, 49.49004109387892], [6.154257244460679, 49.488924661084056], [6.148922026406222, 49.48804638690146], [6.141934575909454, 49.48742258418623], [6.141934575909451, 49.48742258418623], [6.138460069834711, 49.487128952894885], [6.135975831492022, 49.48570878906422], [6.134202580760121, 49.483427808289285], [6.132861037517751, 49.48055172616515], [6.1316719216436475, 49.477346258286886], [6.130355953016553, 49.47407712024957], [6.128633851515211, 49.471010027648255], [6.126226337018355, 49.46841069607803], [6.122854129404724, 49.466544841133945], [6.118237948553061, 49.46567817841108], [6.1182379485530625, 49.46567817841108]]]}}]}