{"type": "FeatureCollection", "features": [{"type": "Feature", "properties": {"diocese": "Ch\u00e2lons", "province": "XIII_Reims", "source": "89_Ch\u00e2lons.txt"}, "geometry": {"type": "Polygon", "coordinates": [[[4.910649734121442, 49.17112206986151], [4.899527729295491, 49.16759947334721], [4.888405724469543, 49.164076876832915], [4.877283719643591, 49.16055428031861], [4.8661617148176415, 49.15703168380431], [4.8550397099916935, 49.15350908729001], [4.843917705165742, 49.14998649077571], [4.832795700339792, 49.14646389426141], [4.821673695513843, 49.14294129774712], [4.810551690687893, 49.13941870123281], [4.799429685861943, 49.13589610471851], [4.799429685861943, 49.13589610471851], [4.792175382455893, 49.13576931442327], [4.784921079049841, 49.13564252412803], [4.777666775643791, 49.13551573383279], [4.770412472237741, 49.135388943537556], [4.763158168831689, 49.1352621532423], [4.755903865425639, 49.13513536294706], [4.748649562019587, 49.13500857265182], [4.741395258613538, 49.13488178235658], [4.7341409552074865, 49.13475499206134], [4.726886651801436, 49.1346282017661], [4.726886651801436, 49.1346282017661], [4.723070285964843, 49.130614974609024], [4.719253920128249, 49.12660174745196], [4.715437554291656, 49.12258852029489], [4.711621188455062, 49.11857529313782], [4.707804822618469, 49.11456206598077], [4.703988456781877, 49.110548838823696], [4.7001720909452835, 49.10653561166663], [4.69635572510869, 49.10252238450956], [4.6925393592720965, 49.098509157352495], [4.688722993435505, 49.094495930195436], [4.688722993435505, 49.094495930195436], [4.684002161756812, 49.09173658048245], [4.679281330078119, 49.08897723076946], [4.674560498399426, 49.08621788105647], [4.669839666720735, 49.08345853134348], [4.665118835042042, 49.08069918163049], [4.660398003363349, 49.077939831917504], [4.655677171684658, 49.075180482204516], [4.6509563400059655, 49.07242113249153], [4.646235508327273, 49.06966178277854], [4.64151467664858, 49.06690243306555], [4.64151467664858, 49.06690243306555], [4.6264614000997355, 49.06627162745556], [4.611408123550897, 49.065640821845584], [4.596354847002056, 49.0650100162356], [4.581301570453213, 49.06437921062561], [4.566248293904371, 49.06374840501563], [4.551195017355532, 49.06311759940564], [4.5361417408066895, 49.062486793795664], [4.521088464257847, 49.06185598818568], [4.506035187709006, 49.0612251825757], [4.490981911160166, 49.06059437696572], [4.490981911160166, 49.06059437696572], [4.49062179059217, 49.062098355487564], [4.490261670024179, 49.06360233400942], [4.489901549456185, 49.06510631253126], [4.489541428888195, 49.06661029105311], [4.4891813083202, 49.068114269574956], [4.488821187752206, 49.06961824809681], [4.4884610671842164, 49.071122226618655], [4.488100946616223, 49.0726262051405], [4.487740826048231, 49.07413018366236], [4.487380705480236, 49.07563416218421], [4.487380705480236, 49.07563416218421], [4.4821273064692395, 49.07876810630465], [4.476873907458245, 49.0819020504251], [4.471620508447252, 49.08503599454555], [4.466367109436259, 49.088169938666006], [4.4611137104252645, 49.091303882786455], [4.45586031141427, 49.094437826906905], [4.450606912403275, 49.09757177102735], [4.445353513392281, 49.1007057151478], [4.440100114381284, 49.10383965926825], [4.4348467153702895, 49.1069736033887], [4.4348467153702895, 49.1069736033887], [4.429588552446402, 49.107598273465975], [4.424330389522515, 49.10822294354326], [4.419072226598626, 49.108847613620526], [4.413814063674739, 49.10947228369781], [4.4085559007508515, 49.11009695377509], [4.403297737826964, 49.11072162385237], [4.398039574903073, 49.11134629392964], [4.39278141197919, 49.11197096400692], [4.387523249055301, 49.1125956340842], [4.382265086131413, 49.11322030416148], [4.382265086131413, 49.11322030416148], [4.378807950952291, 49.10720102929151], [4.375350815773169, 49.10118175442154], [4.371893680594047, 49.09516247955156], [4.3684365454149265, 49.08914320468159], [4.364979410235804, 49.08312392981162], [4.361522275056684, 49.07710465494165], [4.358065139877562, 49.07108538007168], [4.3546080046984414, 49.0650661052017], [4.3511508695193175, 49.05904683033173], [4.347693734340197, 49.05302755546175], [4.347693734340197, 49.05302755546175], [4.344066972320176, 49.052776685122616], [4.340440210300153, 49.05252581478346], [4.336813448280131, 49.05227494444432], [4.33318668626011, 49.05202407410518], [4.329559924240089, 49.051773203766025], [4.325933162220064, 49.05152233342688], [4.322306400200041, 49.05127146308774], [4.3186796381800185, 49.05102059274859], [4.315052876159996, 49.05076972240945], [4.311426114139973, 49.0505188520703], [4.311426114139973, 49.0505188520703], [4.305981495680921, 49.049012358371215], [4.300536877221868, 49.04750586467214], [4.295092258762812, 49.04599937097306], [4.289647640303762, 49.04449287727398], [4.284203021844707, 49.042986383574906], [4.278758403385652, 49.041479889875816], [4.2733137849266, 49.03997339617674], [4.267869166467548, 49.03846690247766], [4.262424548008491, 49.03696040877858], [4.256979929549438, 49.0354539150795], [4.256979929549438, 49.0354539150795], [4.25425238701342, 49.031189927904116], [4.251524844477398, 49.02692594072873], [4.2487973019413765, 49.022661953553346], [4.246069759405357, 49.018397966377954], [4.243342216869337, 49.014133979202576], [4.240614674333317, 49.00986999202719], [4.2378871317972955, 49.005606004851806], [4.235159589261274, 49.001342017676414], [4.232432046725256, 48.99707803050103], [4.229704504189234, 48.992814043325644], [4.229704504189234, 48.992814043325644], [4.225532858746423, 48.99281300223161], [4.221361213303613, 48.992811961137555], [4.217189567860801, 48.99281092004352], [4.213017922417993, 48.99280987894947], [4.20884627697518, 48.992808837855435], [4.20467463153237, 48.99280779676138], [4.200502986089559, 48.99280675566734], [4.196331340646749, 48.9928057145733], [4.192159695203937, 48.99280467347926], [4.187988049761126, 48.99280363238522], [4.187988049761126, 48.99280363238522], [4.183638469968029, 48.99430768180144], [4.179288890174929, 48.99581173121766], [4.174939310381832, 48.99731578063387], [4.170589730588732, 48.99881983005009], [4.1662401507956375, 49.00032387946631], [4.161890571002537, 49.00182792888253], [4.1575409912094425, 49.00333197829875], [4.153191411416342, 49.00483602771498], [4.148841831623246, 49.00634007713119], [4.144492251830146, 49.00784412654741], [4.144492251830146, 49.00784412654741], [4.135412158445364, 49.00157241663763], [4.126332065060577, 48.99530070672785], [4.117251971675794, 48.989028996818085], [4.108171878291008, 48.98275728690831], [4.099091784906227, 48.97648557699853], [4.09001169152144, 48.97021386708876], [4.0809315981366545, 48.96394215717898], [4.071851504751871, 48.95767044726921], [4.062771411367086, 48.951398737359426], [4.053691317982301, 48.94512702744965], [4.053691317982301, 48.94512702744965], [4.041901297503637, 48.944497030762754], [4.030111277024973, 48.94386703407586], [4.018321256546306, 48.943237037388954], [4.006531236067643, 48.94260704070207], [3.9947412155889794, 48.941977044015175], [3.982951195110316, 48.94134704732828], [3.9711611746316504, 48.940717050641375], [3.959371154152987, 48.94008705395448], [3.947581133674323, 48.93945705726759], [3.9357911131956578, 48.938827060580685], [3.9357911131956578, 48.938827060580685], [3.93016554486783, 48.936443507645784], [3.924539976539998, 48.93405995471089], [3.9189144082121685, 48.931676401775995], [3.913288839884338, 48.9292928488411], [3.9076632715565087, 48.9269092959062], [3.9020377032286784, 48.9245257429713], [3.896412134900847, 48.9221421900364], [3.8907865665730186, 48.91975863710151], [3.885160998245189, 48.91737508416661], [3.879535429917358, 48.91499153123171], [3.879535429917358, 48.91499153123171], [3.8641174371835043, 48.91348361505505], [3.8486994444496543, 48.91197569887838], [3.8332814517158016, 48.910467782701716], [3.817863458981949, 48.90895986652506], [3.802445466248097, 48.90745195034838], [3.7870274735142444, 48.905944034171725], [3.7716094807803935, 48.90443611799506], [3.756191488046538, 48.90292820181839], [3.740773495312688, 48.90142028564173], [3.7253555025788354, 48.89991236946506], [3.7253555025788354, 48.89991236946506], [3.7248072832918013, 48.89765505806584], [3.7242590640047673, 48.89539774666661], [3.7237108447177323, 48.89314043526738], [3.7231626254306964, 48.89088312386815], [3.722614406143664, 48.88862581246893], [3.722066186856629, 48.8863685010697], [3.7215179675695933, 48.88411118967048], [3.7209697482825583, 48.88185387827124], [3.7204215289955243, 48.87959656687202], [3.71987330970849, 48.87733925547278], [3.71987330970849, 48.87733925547278], [3.7155906690915397, 48.87507995104319], [3.711308028474589, 48.87282064661359], [3.707025387857637, 48.87056134218399], [3.702742747240688, 48.86830203775439], [3.698460106623737, 48.8660427333248], [3.6941774660067863, 48.863783428895196], [3.689894825389836, 48.861524124465596], [3.6856121847728844, 48.85926482003601], [3.681329544155934, 48.8570055156064], [3.6770469035389834, 48.85474621117681], [3.6770469035389834, 48.85474621117681], [3.683393231264778, 48.85434934266415], [3.6897395589905737, 48.853952474151505], [3.6960858867163693, 48.85355560563885], [3.702432214442162, 48.85315873712621], [3.7087785421679578, 48.85276186861356], [3.7151248698937533, 48.85236500010091], [3.721471197619548, 48.851968131588265], [3.7278175253453436, 48.85157126307561], [3.7341638530711383, 48.851174394562975], [3.740510180796934, 48.85077752605032], [3.740510180796934, 48.85077752605032], [3.741658622913295, 48.84780706427596], [3.7428070650296568, 48.844836602501594], [3.7439555071460178, 48.84186614072724], [3.7451039492623797, 48.83889567895288], [3.7462523913787407, 48.83592521717851], [3.747400833495105, 48.83295475540417], [3.748549275611467, 48.8299842936298], [3.749697717727828, 48.82701383185544], [3.750846159844189, 48.824043370081085], [3.751994601960551, 48.82107290830672], [3.751994601960551, 48.82107290830672], [3.754940695921389, 48.81930037972499], [3.757886789882224, 48.81752785114327], [3.7608328838430602, 48.815755322561536], [3.7637789778038973, 48.813982793979804], [3.7667250717647316, 48.81221026539807], [3.7696711657255713, 48.81043773681634], [3.7726172596864083, 48.808665208234615], [3.7755633536472426, 48.80689267965288], [3.7785094476080787, 48.80512015107116], [3.7814555415689157, 48.80334762248942], [3.7814555415689157, 48.80334762248942], [3.789276602531546, 48.80250781016419], [3.7970976634941738, 48.80166799783897], [3.8049187244567997, 48.80082818551374], [3.8127397854194274, 48.799988373188505], [3.820560846382056, 48.79914856086327], [3.8283819073446836, 48.79830874853804], [3.8362029683073096, 48.79746893621281], [3.844024029269939, 48.79662912388759], [3.8518450902325676, 48.79578931156236], [3.8596661511951953, 48.79494949923712], [3.8596661511951953, 48.79494949923712], [3.8626137852797187, 48.793974942220764], [3.865561419364241, 48.7930003852044], [3.8685090534487654, 48.792025828188045], [3.871456687533288, 48.79105127117169], [3.8744043216178112, 48.790076714155326], [3.8773519557023373, 48.78910215713898], [3.880299589786859, 48.788127600122614], [3.8832472238713813, 48.78715304310625], [3.8861948579559056, 48.786178486089895], [3.889142492040428, 48.78520392907353], [3.889142492040428, 48.78520392907353], [3.888625453187926, 48.78307588235904], [3.888108414335423, 48.78094783564455], [3.8875913754829203, 48.77881978893005], [3.8870743366304192, 48.776691742215554], [3.8865572977779164, 48.77456369550106], [3.8860402589254144, 48.772435648786555], [3.8855232200729124, 48.77030760207206], [3.8850061812204095, 48.76817955535758], [3.8844891423679075, 48.76605150864307], [3.8839721035154064, 48.76392346192858], [3.8839721035154064, 48.76392346192858], [3.8824902621842443, 48.760642560333196], [3.8810084208530866, 48.75736165873783], [3.8795265795219263, 48.754080757142454], [3.878044738190767, 48.750799855547086], [3.8765628968596055, 48.747518953951705], [3.875081055528445, 48.744238052356344], [3.8735992141972875, 48.74095715076097], [3.872117372866127, 48.737676249165595], [3.8706355315349676, 48.73439534757022], [3.869153690203808, 48.731114445974846], [3.869153690203808, 48.731114445974846], [3.871689254187148, 48.72636892804309], [3.87422481817049, 48.72162341011133], [3.876760382153829, 48.71687789217957], [3.879295946137169, 48.712132374247815], [3.8818315101205063, 48.70738685631605], [3.8843670741038463, 48.70264133838429], [3.8869026380871863, 48.69789582045253], [3.8894382020705263, 48.69315030252077], [3.891973766053868, 48.688404784589004], [3.894509330037207, 48.683659266657244], [3.894509330037207, 48.683659266657244], [3.8964079714919246, 48.68115260614802], [3.8983066129466404, 48.67864594563879], [3.900205254401356, 48.67613928512956], [3.9021038958560728, 48.673632624620325], [3.9040025373107903, 48.67112596411109], [3.905901178765506, 48.66861930360187], [3.9077998202202235, 48.66611264309264], [3.9096984616749375, 48.663605982583405], [3.911597103129655, 48.66109932207417], [3.9134957445843725, 48.65859266156495], [3.9134957445843725, 48.65859266156495], [3.9180307338459115, 48.65871877321628], [3.9225657231074504, 48.65884488486762], [3.927100712368993, 48.65897099651895], [3.9316357016305337, 48.65909710817029], [3.9361706908920726, 48.65922321982162], [3.9407056801536124, 48.65934933147297], [3.945240669415153, 48.6594754431243], [3.949775658676694, 48.65960155477564], [3.954310647938233, 48.659727666426974], [3.958845637199772, 48.65985377807831], [3.958845637199772, 48.65985377807831], [3.961561563914549, 48.65809935573191], [3.9642774906293234, 48.656344933385505], [3.9669934173440997, 48.65459051103911], [3.969709344058876, 48.652836088692716], [3.9724252707736514, 48.65108166634631], [3.9751411974884285, 48.64932724399992], [3.977857124203204, 48.64757282165351], [3.9805730509179793, 48.64581839930712], [3.9832889776327565, 48.644063976960716], [3.986004904347532, 48.64230955461432], [3.986004904347532, 48.64230955461432], [3.9906298850690356, 48.6426236972737], [3.995254865790542, 48.64293783993309], [3.999879846512044, 48.643251982592474], [4.004504827233548, 48.643566125251866], [4.009129807955054, 48.64388026791125], [4.013754788676561, 48.644194410570634], [4.018379769398065, 48.644508553230025], [4.02300475011957, 48.64482269588942], [4.027629730841074, 48.645136838548794], [4.0322547115625795, 48.64545098120818], [4.0322547115625795, 48.64545098120818], [4.034617346213869, 48.64795977717064], [4.036979980865162, 48.650468573133104], [4.039342615516455, 48.65297736909556], [4.041705250167745, 48.65548616505801], [4.044067884819036, 48.65799496102048], [4.046430519470329, 48.66050375698293], [4.048793154121622, 48.66301255294539], [4.051155788772913, 48.665521348907845], [4.053518423424203, 48.6680301448703], [4.055881058075498, 48.67053894083276], [4.055881058075498, 48.67053894083276], [4.058600622482816, 48.66984954202077], [4.061320186890136, 48.66916014320878], [4.064039751297454, 48.668470744396785], [4.066759315704774, 48.66778134558479], [4.069478880112092, 48.6670919467728], [4.07219844451941, 48.66640254796081], [4.07491800892673, 48.66571314914881], [4.077637573334048, 48.665023750336815], [4.080357137741368, 48.66433435152482], [4.083076702148686, 48.66364495271283], [4.083076702148686, 48.66364495271283], [4.08679762243497, 48.665464010136624], [4.090518542721254, 48.66728306756042], [4.094239463007536, 48.66910212498421], [4.097960383293822, 48.670921182408], [4.101681303580104, 48.6727402398318], [4.105402223866388, 48.67455929725559], [4.1091231441526705, 48.676378354679386], [4.112844064438955, 48.67819741210318], [4.116564984725239, 48.680016469526976], [4.120285905011523, 48.68183552695076], [4.120285905011523, 48.68183552695076], [4.127267996232137, 48.681837269431924], [4.134250087452752, 48.681839011913084], [4.14123217867337, 48.68184075439424], [4.148214269893982, 48.6818424968754], [4.155196361114598, 48.68184423935655], [4.162178452335215, 48.68184598183771], [4.169160543555831, 48.68184772431887], [4.176142634776443, 48.681849466800024], [4.183124725997059, 48.68185120928118], [4.190106817217675, 48.68185295176233], [4.190106817217675, 48.68185295176233], [4.193645282527097, 48.682793877584125], [4.197183747836519, 48.68373480340592], [4.2007222131459425, 48.6846757292277], [4.204260678455364, 48.68561665504949], [4.207799143764786, 48.68655758087129], [4.211337609074208, 48.68749850669307], [4.21487607438363, 48.688439432514855], [4.218414539693052, 48.68938035833665], [4.221953005002476, 48.690321284158436], [4.225491470311896, 48.69126220998022], [4.225491470311896, 48.69126220998022], [4.229751371993185, 48.690511238902324], [4.234011273674476, 48.689760267824425], [4.238271175355763, 48.689009296746526], [4.242531077037054, 48.68825832566863], [4.246790978718337, 48.68750735459072], [4.251050880399628, 48.68675638351283], [4.255310782080915, 48.68600541243492], [4.259570683762206, 48.68525444135703], [4.263830585443493, 48.68450347027913], [4.268090487124782, 48.683752499201226], [4.268090487124782, 48.683752499201226], [4.270623879755377, 48.681119945233085], [4.273157272385969, 48.67848739126493], [4.275690665016564, 48.67585483729679], [4.278224057647158, 48.67322228332865], [4.280757450277752, 48.67058972936049], [4.283290842908345, 48.66795717539235], [4.285824235538939, 48.665324621424205], [4.288357628169534, 48.662692067456064], [4.290891020800128, 48.66005951348791], [4.2934244134307225, 48.65742695951977], [4.2934244134307225, 48.65742695951977], [4.2962349898918895, 48.656675626741944], [4.29904556635306, 48.65592429396412], [4.301856142814231, 48.655172961186295], [4.304666719275399, 48.65442162840846], [4.307477295736568, 48.65367029563063], [4.3102878721977405, 48.65291896285281], [4.313098448658911, 48.652167630074985], [4.315909025120078, 48.65141629729716], [4.318719601581249, 48.65066496451933], [4.321530178042419, 48.6499136317415], [4.321530178042419, 48.6499136317415], [4.326067416629359, 48.65198392463906], [4.330604655216298, 48.654054217536626], [4.335141893803241, 48.65612451043419], [4.339679132390179, 48.65819480333176], [4.34421637097712, 48.660265096229324], [4.348753609564058, 48.66233538912689], [4.353290848150998, 48.66440568202446], [4.357828086737941, 48.666475974922015], [4.36236532532488, 48.66854626781958], [4.36690256391182, 48.67061656071715], [4.36690256391182, 48.67061656071715], [4.370166716879565, 48.67030331491383], [4.373430869847308, 48.66999006911051], [4.376695022815053, 48.66967682330719], [4.379959175782794, 48.66936357750387], [4.383223328750541, 48.66905033170056], [4.386487481718284, 48.66873708589724], [4.389751634686027, 48.66842384009392], [4.39301578765377, 48.6681105942906], [4.396279940621513, 48.667797348487284], [4.399544093589256, 48.66748410268397], [4.399544093589256, 48.66748410268397], [4.403167753996426, 48.66616894717476], [4.4067914144035925, 48.66485379166554], [4.410415074810759, 48.663538636156325], [4.414038735217925, 48.662223480647114], [4.4176623956250936, 48.660908325137896], [4.421286056032258, 48.65959316962868], [4.424909716439426, 48.65827801411947], [4.428533376846593, 48.65696285861025], [4.432157037253759, 48.65564770310104], [4.4357806976609275, 48.65433254759183], [4.4357806976609275, 48.65433254759183], [4.4389546179513815, 48.65370629084063], [4.442128538241839, 48.653080034089434], [4.445302458532295, 48.652453777338245], [4.448476378822749, 48.651827520587055], [4.451650299113204, 48.651201263835866], [4.454824219403658, 48.650575007084676], [4.457998139694112, 48.64994875033347], [4.461172059984568, 48.64932249358229], [4.464345980275025, 48.6486962368311], [4.467519900565479, 48.64806998007991], [4.467519900565479, 48.64806998007991], [4.469326925872705, 48.645312259487405], [4.4711339511799295, 48.64255453889489], [4.47294097648715, 48.63979681830238], [4.474748001794376, 48.637039097709874], [4.476555027101597, 48.63428137711736], [4.478362052408823, 48.631523656524855], [4.480169077716045, 48.62876593593234], [4.481976103023269, 48.62600821533984], [4.483783128330494, 48.623250494747325], [4.485590153637718, 48.62049277415482], [4.485590153637718, 48.62049277415482], [4.487402148521086, 48.61949015494746], [4.489214143404457, 48.6184875357401], [4.491026138287825, 48.617484916532746], [4.4928381331711975, 48.61648229732538], [4.494650128054566, 48.615479678118035], [4.4964621229379365, 48.61447705891068], [4.498274117821307, 48.613474439703324], [4.500086112704677, 48.61247182049596], [4.501898107588044, 48.61146920128861], [4.503710102471414, 48.61046658208125], [4.503710102471414, 48.61046658208125], [4.508516941073742, 48.610529743845404], [4.513323779676069, 48.610592905609565], [4.518130618278393, 48.61065606737373], [4.522937456880719, 48.610719229137885], [4.527744295483046, 48.610782390902045], [4.532551134085372, 48.610845552666206], [4.537357972687698, 48.610908714430366], [4.542164811290027, 48.610971876194526], [4.546971649892351, 48.611035037958686], [4.551778488494676, 48.61109819972283], [4.551778488494676, 48.61109819972283], [4.559658541504961, 48.607213943445295], [4.567538594515243, 48.60332968716775], [4.575418647525526, 48.59944543089021], [4.58329870053581, 48.59556117461266], [4.591178753546094, 48.591676918335125], [4.599058806556377, 48.58779266205759], [4.606938859566659, 48.583908405780036], [4.614818912576943, 48.5800241495025], [4.622698965587228, 48.576139893224955], [4.63057901859751, 48.57225563694741], [4.63057901859751, 48.57225563694741], [4.636920316480236, 48.56843295333062], [4.6432616143629595, 48.56461026971383], [4.649602912245685, 48.56078758609705], [4.655944210128412, 48.55696490248025], [4.662285508011136, 48.553142218863464], [4.66862680589386, 48.549319535246674], [4.674968103776585, 48.545496851629885], [4.681309401659309, 48.541674168013095], [4.687650699542035, 48.537851484396306], [4.693991997424762, 48.534028800779524], [4.693991997424762, 48.534028800779524], [4.6970701002536615, 48.53183542305083], [4.700148203082561, 48.52964204532215], [4.703226305911462, 48.52744866759345], [4.706304408740362, 48.52525528986476], [4.709382511569261, 48.52306191213607], [4.712460614398163, 48.520868534407384], [4.715538717227062, 48.5186751566787], [4.718616820055962, 48.51648177895], [4.721694922884861, 48.514288401221314], [4.724773025713763, 48.51209502349263], [4.724773025713763, 48.51209502349263], [4.722867728979018, 48.51115343873029], [4.720962432244274, 48.51021185396795], [4.719057135509534, 48.509270269205615], [4.7171518387747895, 48.50832868444327], [4.715246542040045, 48.50738709968093], [4.713341245305303, 48.5064455149186], [4.711435948570559, 48.505503930156266], [4.70953065183582, 48.50456234539392], [4.707625355101076, 48.50362076063159], [4.70572005836633, 48.50267917586925], [4.70572005836633, 48.50267917586925], [4.706077828515273, 48.50073615099228], [4.706435598664216, 48.49879312611531], [4.706793368813157, 48.49685010123834], [4.707151138962097, 48.494907076361365], [4.70750890911104, 48.49296405148439], [4.707866679259983, 48.49102102660742], [4.708224449408922, 48.489078001730455], [4.708582219557865, 48.487134976853476], [4.7089399897068045, 48.4851919519765], [4.709297759855749, 48.48324892709953], [4.709297759855749, 48.48324892709953], [4.7148188159178375, 48.47792090386328], [4.720339871979927, 48.472592880627026], [4.725860928042019, 48.467264857390774], [4.731381984104111, 48.46193683415452], [4.736903040166197, 48.45660881091827], [4.742424096228291, 48.45128078768201], [4.747945152290383, 48.445952764445764], [4.753466208352471, 48.44062474120951], [4.758987264414561, 48.43529671797325], [4.764508320476651, 48.429968694737006], [4.764508320476651, 48.429968694737006], [4.770489057887296, 48.427463052973465], [4.776469795297942, 48.42495741120991], [4.7824505327085856, 48.42245176944637], [4.788431270119229, 48.41994612768281], [4.794412007529877, 48.41744048591927], [4.800392744940522, 48.41493484415572], [4.806373482351164, 48.41242920239217], [4.81235421976181, 48.40992356062862], [4.818334957172453, 48.40741791886507], [4.824315694583101, 48.40491227710153], [4.824315694583101, 48.40491227710153], [4.8281887416991704, 48.40710204604473], [4.832061788815237, 48.409291814987924], [4.835934835931305, 48.41148158393113], [4.8398078830473725, 48.413671352874324], [4.843680930163444, 48.41586112181752], [4.84755397727951, 48.41805089076072], [4.851427024395578, 48.420240659703914], [4.855300071511648, 48.42243042864712], [4.859173118627716, 48.424620197590315], [4.863046165743784, 48.42680996653352], [4.863046165743784, 48.42680996653352], [4.866125363263938, 48.42752004270794], [4.869204560784095, 48.42823011888237], [4.872283758304251, 48.428940195056796], [4.875362955824407, 48.42965027123122], [4.878442153344562, 48.43036034740565], [4.881521350864718, 48.43107042358007], [4.884600548384871, 48.4317804997545], [4.8876797459050305, 48.432490575928924], [4.890758943425183, 48.43320065210335], [4.8938381409453395, 48.43391072827777], [4.8938381409453395, 48.43391072827777], [4.899224926462363, 48.434266721016364], [4.90461171197939, 48.43462271375496], [4.909998497496414, 48.434978706493546], [4.915385283013437, 48.43533469923214], [4.920772068530463, 48.43569069197073], [4.926158854047486, 48.436046684709325], [4.931545639564513, 48.43640267744791], [4.936932425081535, 48.43675867018651], [4.942319210598562, 48.4371146629251], [4.947705996115586, 48.43747065566369], [4.947705996115586, 48.43747065566369], [4.949251031296221, 48.44066291503478], [4.950796066476858, 48.44385517440587], [4.952341101657494, 48.447047433776945], [4.953886136838129, 48.450239693148035], [4.955431172018766, 48.453431952519125], [4.956976207199402, 48.456624211890215], [4.958521242380039, 48.4598164712613], [4.960066277560674, 48.463008730632396], [4.961611312741313, 48.466200990003486], [4.963156347921949, 48.46939324937457], [4.963156347921949, 48.46939324937457], [4.968861253108599, 48.46886269779761], [4.9745661582952465, 48.46833214622064], [4.980271063481899, 48.467801594643674], [4.98597596866855, 48.4672710430667], [4.9916808738552, 48.46674049148974], [4.997385779041849, 48.46620993991278], [5.0030906842285, 48.465679388335815], [5.008795589415152, 48.46514883675885], [5.014500494601801, 48.464618285181885], [5.020205399788454, 48.46408773360491], [5.020205399788454, 48.46408773360491], [5.020331323609339, 48.46289134698945], [5.0204572474302225, 48.46169496037398], [5.0205831712511095, 48.460498573758514], [5.020709095071995, 48.45930218714305], [5.020835018892878, 48.45810580052759], [5.020960942713764, 48.45690941391212], [5.021086866534649, 48.45571302729666], [5.021212790355534, 48.4545166406812], [5.021338714176419, 48.45332025406573], [5.021464637997305, 48.45212386745026], [5.021464637997305, 48.45212386745026], [5.019282379259888, 48.45101449626867], [5.0171001205224695, 48.44990512508708], [5.0149178617850545, 48.44879575390549], [5.012735603047636, 48.44768638272391], [5.0105533443102175, 48.446577011542324], [5.008371085572801, 48.44546764036074], [5.006188826835382, 48.44435826917915], [5.0040065680979655, 48.44324889799756], [5.001824309360549, 48.44213952681597], [4.999642050623132, 48.44103015563439], [4.999642050623132, 48.44103015563439], [4.999633067639733, 48.43637587664129], [4.999624084656338, 48.4317215976482], [4.999615101672941, 48.427067318655105], [4.999606118689545, 48.42241303966201], [4.99959713570615, 48.41775876066892], [4.999588152722753, 48.41310448167583], [4.9995791697393575, 48.40845020268273], [4.999570186755962, 48.403795923689636], [4.999561203772565, 48.39914164469654], [4.99955222078917, 48.39448736570345], [4.99955222078917, 48.39448736570345], [5.002180023966082, 48.393512723399354], [5.004807827142992, 48.39253808109527], [5.007435630319906, 48.39156343879117], [5.010063433496821, 48.390588796487066], [5.0126912366737315, 48.38961415418297], [5.0153190398506435, 48.38863951187888], [5.017946843027556, 48.387664869574785], [5.020574646204468, 48.386690227270684], [5.023202449381383, 48.38571558496659], [5.025830252558295, 48.384740942662496], [5.025830252558295, 48.384740942662496], [5.0262691623137385, 48.379998111982914], [5.026708072069182, 48.375255281303325], [5.027146981824627, 48.37051245062375], [5.027585891580072, 48.36576961994416], [5.0280248013355155, 48.36102678926458], [5.028463711090961, 48.356283958584996], [5.028902620846406, 48.35154112790541], [5.029341530601849, 48.34679829722583], [5.0297804403572925, 48.34205546654624], [5.030219350112738, 48.33731263586666], [5.030219350112738, 48.33731263586666], [5.032821993041292, 48.333671684219404], [5.035424635969848, 48.330030732572155], [5.038027278898403, 48.3263897809249], [5.040629921826957, 48.32274882927764], [5.043232564755513, 48.31910787763039], [5.045835207684069, 48.31546692598313], [5.048437850612624, 48.311825974335875], [5.051040493541178, 48.30818502268862], [5.0536431364697325, 48.30454407104137], [5.056245779398289, 48.300903119394114], [5.056245779398289, 48.300903119394114], [5.062049617421449, 48.30121756172362], [5.067853455444606, 48.30153200405311], [5.073657293467765, 48.301846446382605], [5.079461131490923, 48.30216088871211], [5.085264969514084, 48.302475331041606], [5.091068807537242, 48.30278977337111], [5.096872645560401, 48.30310421570061], [5.10267648358356, 48.30341865803011], [5.10848032160672, 48.3037331003596], [5.114284159629877, 48.304047542689105], [5.114284159629877, 48.304047542689105], [5.12045085902656, 48.304237090226906], [5.126617558423247, 48.30442663776471], [5.132784257819932, 48.304616185302514], [5.138950957216613, 48.30480573284032], [5.145117656613296, 48.30499528037812], [5.151284356009981, 48.30518482791593], [5.157451055406666, 48.30537437545373], [5.163617754803347, 48.30556392299154], [5.16978445420003, 48.30575347052934], [5.175951153596717, 48.30594301806713], [5.175951153596717, 48.30594301806713], [5.178582775113712, 48.30694674077346], [5.181214396630708, 48.30795046347978], [5.183846018147705, 48.3089541861861], [5.1864776396647, 48.30995790889242], [5.189109261181695, 48.31096163159874], [5.191740882698694, 48.31196535430506], [5.194372504215687, 48.312969077011374], [5.197004125732684, 48.3139727997177], [5.1996357472496815, 48.31497652242402], [5.2022673687666785, 48.31598024513033], [5.2022673687666785, 48.31598024513033], [5.204165056840287, 48.31535687491007], [5.206062744913899, 48.31473350468982], [5.207960432987507, 48.314110134469566], [5.209858121061119, 48.31348676424931], [5.211755809134727, 48.312863394029044], [5.2136534972083375, 48.31224002380879], [5.215551185281948, 48.311616653588544], [5.217448873355556, 48.31099328336828], [5.219346561429168, 48.31036991314802], [5.221244249502776, 48.30974654292776], [5.221244249502776, 48.30974654292776], [5.221826810657555, 48.3129513822317], [5.222409371812331, 48.31615622153564], [5.222991932967107, 48.319361060839576], [5.223574494121884, 48.32256590014351], [5.224157055276665, 48.32577073944744], [5.224739616431439, 48.32897557875139], [5.225322177586216, 48.332180418055316], [5.225904738740994, 48.335385257359256], [5.226487299895771, 48.33859009666318], [5.227069861050547, 48.34179493596713], [5.227069861050547, 48.34179493596713], [5.22553364521278, 48.34321315707663], [5.223997429375011, 48.34463137818612], [5.22246121353724, 48.346049599295625], [5.220924997699473, 48.34746782040513], [5.219388781861706, 48.34888604151463], [5.217852566023936, 48.35030426262413], [5.216316350186169, 48.351722483733624], [5.2147801343484, 48.35314070484313], [5.213243918510633, 48.35455892595263], [5.211707702672863, 48.35597714706213], [5.211707702672863, 48.35597714706213], [5.2074791978798665, 48.357748289078586], [5.20325069308687, 48.359519431095045], [5.199022188293874, 48.36129057311151], [5.19479368350088, 48.36306171512797], [5.1905651787078835, 48.36483285714443], [5.186336673914887, 48.366603999160894], [5.182108169121891, 48.36837514117735], [5.177879664328895, 48.37014628319381], [5.173651159535899, 48.37191742521027], [5.1694226547429025, 48.37368856722673], [5.1694226547429025, 48.37368856722673], [5.168528104213239, 48.37528428087148], [5.167633553683578, 48.37687999451622], [5.166739003153914, 48.37847570816098], [5.165844452624251, 48.380071421805724], [5.164949902094591, 48.38166713545048], [5.164055351564926, 48.38326284909522], [5.1631608010352625, 48.38485856273997], [5.162266250505601, 48.38645427638472], [5.161371699975938, 48.388049990029465], [5.160477149446274, 48.38964570367421], [5.160477149446274, 48.38964570367421], [5.163172082323197, 48.39062166887421], [5.165867015200117, 48.39159763407421], [5.1685619480770395, 48.39257359927421], [5.17125688095396, 48.3935495644742], [5.173951813830881, 48.39452552967419], [5.176646746707801, 48.39550149487419], [5.179341679584722, 48.39647746007419], [5.182036612461644, 48.397453425274186], [5.1847315453385665, 48.39842939047418], [5.187426478215485, 48.39940535567417], [5.187426478215485, 48.39940535567417], [5.189096323876237, 48.40082438237172], [5.190766169536987, 48.40224340906925], [5.192436015197739, 48.40366243576679], [5.194105860858487, 48.40508146246434], [5.195775706519239, 48.40650048916187], [5.197445552179989, 48.40791951585941], [5.199115397840741, 48.40933854255695], [5.200785243501491, 48.41075756925449], [5.202455089162241, 48.41217659595203], [5.204124934822991, 48.413595622649574], [5.204124934822991, 48.413595622649574], [5.203494985080617, 48.41944723221996], [5.202865035338242, 48.42529884179034], [5.202235085595866, 48.43115045136072], [5.201605135853491, 48.43700206093111], [5.2009751861111155, 48.44285367050149], [5.20034523636874, 48.44870528007187], [5.199715286626365, 48.45455688964225], [5.199085336883989, 48.46040849921265], [5.198455387141616, 48.466260108783025], [5.19782543739924, 48.4721117183534], [5.19782543739924, 48.4721117183534], [5.198085747176075, 48.47406237406836], [5.198346056952909, 48.47601302978331], [5.198606366729747, 48.47796368549827], [5.198866676506579, 48.47991434121323], [5.1991269862834155, 48.481864996928174], [5.199387296060248, 48.48381565264313], [5.199647605837084, 48.48576630835809], [5.1999079156139185, 48.48771696407304], [5.200168225390755, 48.489667619787994], [5.200428535167589, 48.49161827550295], [5.200428535167589, 48.49161827550295], [5.1978671400961165, 48.49339089462247], [5.195305745024644, 48.49516351374199], [5.19274434995317, 48.49693613286152], [5.190182954881697, 48.49870875198105], [5.187621559810225, 48.50048137110056], [5.185060164738754, 48.50225399022009], [5.182498769667282, 48.50402660933962], [5.179937374595806, 48.50579922845914], [5.177375979524335, 48.50757184757867], [5.174814584452863, 48.50934446669818], [5.174814584452863, 48.50934446669818], [5.175589287102067, 48.51209321649895], [5.176363989751273, 48.514841966299706], [5.177138692400478, 48.51759071610046], [5.177913395049684, 48.52033946590121], [5.178688097698888, 48.52308821570197], [5.179462800348093, 48.52583696550273], [5.180237502997297, 48.52858571530348], [5.181012205646503, 48.53133446510424], [5.181786908295708, 48.53408321490499], [5.182561610944914, 48.53683196470575], [5.182561610944914, 48.53683196470575], [5.179999018020574, 48.5379839502131], [5.1774364250962375, 48.53913593572048], [5.174873832171896, 48.540287921227836], [5.172311239247557, 48.54143990673521], [5.169748646323219, 48.54259189224257], [5.167186053398881, 48.54374387774993], [5.164623460474543, 48.544895863257295], [5.162060867550201, 48.546047848764665], [5.159498274625863, 48.54719983427202], [5.156935681701523, 48.54835181977939], [5.156935681701523, 48.54835181977939], [5.155272509878415, 48.55039065345709], [5.153609338055306, 48.5524294871348], [5.151946166232195, 48.55446832081251], [5.150282994409087, 48.55650715449023], [5.14861982258598, 48.558545988167936], [5.146956650762869, 48.56058482184564], [5.1452934789397595, 48.562623655523346], [5.14363030711665, 48.564662489201055], [5.141967135293541, 48.566701322878764], [5.1403039634704335, 48.56874015655647], [5.1403039634704335, 48.56874015655647], [5.141462588513162, 48.57104569031713], [5.142621213555893, 48.57335122407779], [5.1437798385986255, 48.57565675783846], [5.144938463641356, 48.577962291599114], [5.146097088684087, 48.58026782535977], [5.147255713726821, 48.58257335912043], [5.148414338769552, 48.58487889288109], [5.149572963812284, 48.58718442664175], [5.150731588855015, 48.58948996040241], [5.151890213897746, 48.591795494163065], [5.151890213897746, 48.591795494163065], [5.151893465248861, 48.59348008986239], [5.1518967165999765, 48.59516468556171], [5.151899967951092, 48.59684928126103], [5.151903219302207, 48.59853387696035], [5.151906470653325, 48.60021847265967], [5.15190972200444, 48.601903068359], [5.1519129733555555, 48.60358766405832], [5.151916224706671, 48.60527225975764], [5.151919476057786, 48.60695685545696], [5.151922727408902, 48.60864145115628], [5.151922727408902, 48.60864145115628], [5.150128242392892, 48.60908432063955], [5.148333757376879, 48.60952719012282], [5.1465392723608705, 48.6099700596061], [5.144744787344859, 48.610412929089364], [5.142950302328847, 48.61085579857264], [5.1411558173128356, 48.61129866805591], [5.139361332296826, 48.61174153753919], [5.137566847280814, 48.612184407022454], [5.135772362264804, 48.612627276505734], [5.1339778772487925, 48.613070145989], [5.1339778772487925, 48.613070145989], [5.129234180950531, 48.61289163520233], [5.124490484652272, 48.61271312441567], [5.119746788354012, 48.61253461362901], [5.115003092055749, 48.61235610284234], [5.110259395757488, 48.61217759205567], [5.105515699459227, 48.61199908126901], [5.100772003160966, 48.61182057048235], [5.096028306862705, 48.61164205969568], [5.091284610564445, 48.611463548909015], [5.086540914266184, 48.611285038122354], [5.086540914266184, 48.611285038122354], [5.084364046980333, 48.61296909521109], [5.082187179694484, 48.61465315229982], [5.080010312408634, 48.61633720938857], [5.077833445122783, 48.61802126647731], [5.075656577836934, 48.619705323566045], [5.073479710551082, 48.62138938065479], [5.071302843265233, 48.62307343774352], [5.0691259759793805, 48.62475749483227], [5.066949108693532, 48.626441551921005], [5.064772241407683, 48.62812560900974], [5.064772241407683, 48.62812560900974], [5.062726081933194, 48.631050981752956], [5.060679922458705, 48.633976354496156], [5.058633762984217, 48.63690172723936], [5.056587603509728, 48.639827099982575], [5.054541444035239, 48.64275247272578], [5.0524952845607505, 48.64567784546899], [5.050449125086262, 48.64860321821219], [5.048402965611773, 48.6515285909554], [5.046356806137284, 48.6544539636986], [5.044310646662797, 48.65737933644181], [5.044310646662797, 48.65737933644181], [5.0412338448905984, 48.65791054936908], [5.038157043118401, 48.658441762296334], [5.035080241346201, 48.6589729752236], [5.032003439574003, 48.65950418815086], [5.0289266378018045, 48.660035401078126], [5.0258498360296056, 48.66056661400539], [5.022773034257408, 48.66109782693265], [5.0196962324852095, 48.66162903985991], [5.016619430713012, 48.66216025278718], [5.013542628940813, 48.66269146571443], [5.013542628940813, 48.66269146571443], [5.00957340922341, 48.66588234345466], [5.0056041895060055, 48.6690732211949], [5.001634969788604, 48.67226409893513], [4.997665750071199, 48.67545497667536], [4.993696530353796, 48.678645854415585], [4.9897273106363915, 48.681836732155816], [4.9857580909189885, 48.68502760989605], [4.981788871201584, 48.688218487636284], [4.977819651484184, 48.691409365376515], [4.973850431766779, 48.69460024311674], [4.973850431766779, 48.69460024311674], [4.97219094558314, 48.6985896739345], [4.970531459399501, 48.70257910475227], [4.96887197321586, 48.706568535570035], [4.9672124870322225, 48.71055796638779], [4.96555300084858, 48.71454739720555], [4.963893514664939, 48.71853682802332], [4.9622340284813, 48.72252625884108], [4.96057454229766, 48.72651568965884], [4.958915056114021, 48.7305051204766], [4.957255569930382, 48.73449455129437], [4.957255569930382, 48.73449455129437], [4.953666768943663, 48.73546787630775], [4.950077967956945, 48.73644120132113], [4.946489166970226, 48.73741452633451], [4.942900365983508, 48.7383878513479], [4.939311564996789, 48.739361176361285], [4.935722764010073, 48.74033450137466], [4.932133963023354, 48.741307826388045], [4.9285451620366345, 48.74228115140143], [4.924956361049917, 48.74325447641481], [4.921367560063198, 48.744227801428195], [4.921367560063198, 48.744227801428195], [4.919962736546765, 48.747241997690566], [4.91855791303033, 48.75025619395292], [4.917153089513896, 48.75327039021529], [4.915748265997461, 48.756284586477655], [4.914343442481028, 48.75929878274002], [4.912938618964594, 48.76231297900239], [4.911533795448161, 48.76532717526475], [4.910128971931728, 48.76834137152711], [4.908724148415294, 48.77135556778948], [4.907319324898859, 48.77436976405184], [4.907319324898859, 48.77436976405184], [4.90398451708025, 48.77410294687831], [4.900649709261641, 48.77383612970479], [4.89731490144303, 48.773569312531265], [4.893980093624421, 48.77330249535774], [4.890645285805814, 48.773035678184215], [4.887310477987205, 48.7727688610107], [4.883975670168596, 48.77250204383717], [4.880640862349985, 48.772235226663646], [4.877306054531376, 48.77196840949012], [4.8739712467127685, 48.771701592316596], [4.8739712467127685, 48.771701592316596], [4.871149963232046, 48.771700888224785], [4.868328679751324, 48.77170018413296], [4.865507396270601, 48.77169948004114], [4.862686112789879, 48.771698775949325], [4.859864829309156, 48.77169807185751], [4.857043545828434, 48.77169736776568], [4.854222262347712, 48.771696663673865], [4.851400978866989, 48.77169595958205], [4.848579695386267, 48.771695255490236], [4.845758411905544, 48.77169455139841], [4.845758411905544, 48.77169455139841], [4.850257583883492, 48.777281450621125], [4.8547567558614375, 48.782868349843845], [4.859255927839387, 48.78845524906656], [4.8637550998173325, 48.79404214828927], [4.86825427179528, 48.799629047511985], [4.872753443773226, 48.8052159467347], [4.877252615751173, 48.81080284595742], [4.8817517877291206, 48.81638974518013], [4.886250959707068, 48.82197664440285], [4.890750131685014, 48.82756354362556], [4.890750131685014, 48.82756354362556], [4.897808382093794, 48.8301365346468], [4.9048666325025785, 48.832709525668044], [4.911924882911364, 48.83528251668929], [4.918983133320143, 48.837855507710536], [4.926041383728926, 48.84042849873178], [4.93309963413771, 48.84300148975303], [4.940157884546492, 48.845574480774275], [4.947216134955273, 48.848147471795514], [4.954274385364057, 48.85072046281675], [4.961332635772839, 48.853293453838], [4.961332635772839, 48.853293453838], [4.970958533733706, 48.85737435908071], [4.980584431694574, 48.8614552643234], [4.990210329655442, 48.8655361695661], [4.99983622761631, 48.86961707480881], [5.009462125577178, 48.8736979800515], [5.019088023538044, 48.8777788852942], [5.0287139214989125, 48.8818597905369], [5.038339819459779, 48.885940695779595], [5.047965717420649, 48.8900216010223], [5.057591615381515, 48.89410250626499], [5.057591615381515, 48.89410250626499], [5.062212688727611, 48.89640889866003], [5.06683376207371, 48.898715291055055], [5.071454835419807, 48.90102168345009], [5.076075908765905, 48.90332807584511], [5.080696982112002, 48.905634468240144], [5.0853180554580995, 48.90794086063518], [5.089939128804197, 48.9102472530302], [5.094560202150298, 48.912553645425234], [5.099181275496393, 48.91486003782027], [5.103802348842493, 48.91716643021529], [5.103802348842493, 48.91716643021529], [5.104958364989686, 48.91893998253752], [5.106114381136882, 48.92071353485976], [5.107270397284077, 48.92248708718199], [5.108426413431275, 48.92426063950421], [5.10958242957847, 48.92603419182645], [5.110738445725664, 48.92780774414868], [5.1118944618728595, 48.929581296470914], [5.113050478020055, 48.931354848793134], [5.114206494167249, 48.933128401115376], [5.115362510314446, 48.9349019534376], [5.115362510314446, 48.9349019534376], [5.115111904638374, 48.93711847203994], [5.1148612989623, 48.93933499064227], [5.114610693286229, 48.94155150924461], [5.114360087610157, 48.94376802784695], [5.114109481934085, 48.945984546449274], [5.113858876258011, 48.948201065051606], [5.113608270581937, 48.950417583653945], [5.113357664905866, 48.95263410225628], [5.113107059229794, 48.954850620858615], [5.11285645355372, 48.95706713946095], [5.11285645355372, 48.95706713946095], [5.108115966583851, 48.95937119554413], [5.10337547961398, 48.961675251627305], [5.09863499264411, 48.96397930771049], [5.093894505674241, 48.966283363793664], [5.08915401870437, 48.968587419876854], [5.084413531734501, 48.97089147596004], [5.079673044764631, 48.973195532043206], [5.074932557794762, 48.97549958812639], [5.070192070824893, 48.97780364420957], [5.0654515838550225, 48.98010770029275], [5.0654515838550225, 48.98010770029275], [5.061732077125937, 48.97984078164275], [5.058012570396853, 48.979573862992744], [5.054293063667766, 48.97930694434274], [5.05057355693868, 48.97904002569275], [5.046854050209596, 48.97877310704274], [5.043134543480511, 48.97850618839274], [5.039415036751425, 48.97823926974274], [5.035695530022338, 48.97797235109273], [5.031976023293254, 48.97770543244273], [5.028256516564168, 48.97743851379273], [5.028256516564168, 48.97743851379273], [5.022998898734819, 48.97752586514323], [5.017741280905469, 48.97761321649373], [5.01248366307612, 48.977700567844245], [5.007226045246769, 48.977787919194746], [5.0019684274174185, 48.977875270545255], [4.99671080958807, 48.97796262189576], [4.991453191758724, 48.978049973246264], [4.986195573929372, 48.978137324596766], [4.980937956100021, 48.978224675947274], [4.9756803382706725, 48.97831202729778], [4.9756803382706725, 48.97831202729778], [4.978248407179786, 48.9799972685535], [4.980816476088899, 48.98168250980923], [4.983384544998016, 48.983367751064954], [4.985952613907127, 48.985052992320675], [4.98852068281624, 48.9867382335764], [4.991088751725355, 48.988423474832125], [4.99365682063447, 48.990108716087846], [4.9962248895435835, 48.991793957343575], [4.998792958452697, 48.993479198599296], [5.00136102736181, 48.99516443985503], [5.00136102736181, 48.99516443985503], [5.002005956920689, 48.99711518608803], [5.002650886479568, 48.99906593232104], [5.003295816038445, 49.00101667855404], [5.003940745597323, 49.002967424787045], [5.004585675156198, 49.00491817102005], [5.005230604715077, 49.00686891725305], [5.005875534273956, 49.008819663486065], [5.006520463832834, 49.010770409719065], [5.007165393391711, 49.01272115595207], [5.00781032295059, 49.014671902185086], [5.00781032295059, 49.014671902185086], [5.000756772009632, 49.014492820410354], [4.993703221068676, 49.01431373863562], [4.9866496701277185, 49.0141346568609], [4.979596119186761, 49.01395557508616], [4.972542568245803, 49.01377649331143], [4.965489017304845, 49.0135974115367], [4.958435466363888, 49.01341832976197], [4.951381915422932, 49.01323924798724], [4.944328364481972, 49.01306016621251], [4.9372748135410145, 49.01288108443778], [4.9372748135410145, 49.01288108443778], [4.939715847346912, 49.01518693277263], [4.9421568811528065, 49.01749278110747], [4.944597914958706, 49.01979862944232], [4.947038948764602, 49.02210447777717], [4.949479982570498, 49.02441032611201], [4.951921016376394, 49.02671617444686], [4.95436205018229, 49.02902202278171], [4.956803083988188, 49.03132787111656], [4.959244117794082, 49.03363371945141], [4.961685151599978, 49.03593956778626], [4.961685151599978, 49.03593956778626], [4.9623324769068144, 49.03913160312095], [4.962979802213649, 49.04232363845565], [4.9636271275204855, 49.04551567379034], [4.964274452827322, 49.04870770912503], [4.964921778134155, 49.05189974445972], [4.965569103440988, 49.05509177979442], [4.966216428747826, 49.05828381512911], [4.9668637540546605, 49.06147585046381], [4.967511079361495, 49.0646678857985], [4.968158404668332, 49.0678599211332], [4.968158404668332, 49.0678599211332], [4.967141187094786, 49.07238041556575], [4.966123969521242, 49.07690090999831], [4.965106751947696, 49.08142140443086], [4.964089534374152, 49.08594189886342], [4.963072316800606, 49.09046239329597], [4.962055099227062, 49.09498288772853], [4.961037881653516, 49.09950338216109], [4.9600206640799716, 49.104023876593644], [4.959003446506426, 49.1085443710262], [4.9579862289328815, 49.11306486545875], [4.9579862289328815, 49.11306486545875], [4.9535062228647, 49.11740824076415], [4.949026216796518, 49.121751616069545], [4.944546210728339, 49.12609499137495], [4.940066204660157, 49.13043836668035], [4.935586198591977, 49.13478174198574], [4.931106192523796, 49.139125117291144], [4.926626186455616, 49.14346849259654], [4.922146180387433, 49.147811867901936], [4.917666174319253, 49.15215524320733], [4.91318616825107, 49.15649861851273], [4.91318616825107, 49.15649861851273], [4.912932524838109, 49.15796096364761], [4.912678881425146, 49.159423308782486], [4.912425238012181, 49.16088565391736], [4.912171594599219, 49.162347999052244], [4.911917951186258, 49.16381034418712], [4.911664307773293, 49.165272689321995], [4.91141066436033, 49.16673503445688], [4.911157020947369, 49.16819737959175], [4.910903377534403, 49.16965972472663], [4.910649734121442, 49.17112206986151]]]}}]}