{
  "type": "FeatureCollection",
  "features": [
    {
      "type": "Feature",
      "properties": {
                "diocese": "Torcellan",
                "province": "Venetiarum",
                "date": 1592
            },
      "geometry": {
        "type": "Polygon",
        "coordinates": [
          [
            [
              12.591102010538116,
              45.480349344821676
            ],
            [
              12.580733441000064,
              45.49691357900008
            ],
            [
              12.623200914000051,
              45.50936809600006
            ],
            [
              12.64428405700005,
              45.53469081600008
            ],
            [
              12.581787599000052,
              45.55114447200003
            ],
            [
              12.552120605000027,
              45.57887274700005
            ],
            [
              12.43778102400006,
              45.55441116000003
            ],
            [
              12.37210778988064,
              45.52379886504237
            ],
            [
              12.32582018788065,
              45.48658317251889
            ],
            [
              12.301199162000046,
              45.471711163000066
            ],
            [
              12.346269353649381,
              45.44261610852438
            ],
            [
              12.386600649874058,
              45.44513681453843
            ],
            [
              12.43917166500006,
              45.417471910000074
            ],
            [
              12.591102010538116,
              45.480349344821676
            ]
          ]
        ]
      }
    }
  ]
}