{
  "type": "FeatureCollection",
  "features": [
    {
      "type": "Feature",
      "properties": {
                "diocese": "Venetiarum",
                "province": "Venetiarum",
                "date": 1592
            },
      "geometry": {
        "type": "MultiPolygon",
        "coordinates": [
          [
            [
              [
                12.552844797614773,
                45.57885335905246
              ],
              [
                12.59112213791063,
                45.60940167682108
              ],
              [
                12.643548140113637,
                45.62131667732176
              ],
              [
                12.660229140814593,
                45.63889130306027
              ],
              [
                12.697463517379227,
                45.63680617797265
              ],
              [
                12.721293518380593,
                45.66927455433701
              ],
              [
                12.838060523287288,
                45.64663605338571
              ],
              [
                12.838060523287288,
                45.63263592779741
              ],
              [
                12.865465024438858,
                45.62340180240938
              ],
              [
                12.872316149726752,
                45.60701867672094
              ],
              [
                12.85712452408838,
                45.595103676220255
              ],
              [
                12.871400590229731,
                45.58653026719748
              ],
              [
                12.73449612715104,
                45.531066407796374
              ],
              [
                12.699743455754142,
                45.52193944359113
              ],
              [
                12.591429898493796,
                45.48078783783242
              ],
              [
                12.590951671450833,
                45.48058951795634
              ],
              [
                12.580733441000064,
                45.49691357900008
              ],
              [
                12.623200914000051,
                45.50936809600006
              ],
              [
                12.64428405700005,
                45.53469081600008
              ],
              [
                12.581787599000052,
                45.55114447200003
              ],
              [
                12.552276323570153,
                45.578727204538446
              ],
              [
                12.552844797614773,
                45.57885335905246
              ]
            ]
          ],
          [
            [
              [
                12.438865625528333,
                45.41751971413546
              ],
              [
                12.360161762781159,
                45.38998585016597
              ],
              [
                12.339146155996985,
                45.39041474010034
              ],
              [
                12.314270539803474,
                45.375403592397355
              ],
              [
                12.286678182906849,
                45.32643124636988
              ],
              [
                12.250952463828957,
                45.31813777586966
              ],
              [
                12.238831237713246,
                45.33281083906236
              ],
              [
                12.272445064000067,
                45.44414677100008
              ],
              [
                12.301199162000046,
                45.471711163000066
              ],
              [
                12.346269353649381,
                45.44261610852438
              ],
              [
                12.386600649874058,
                45.44513681453843
              ],
              [
                12.438985979708825,
                45.41756962479299
              ],
              [
                12.438865625528333,
                45.41751971413546
              ]
            ]
          ]
        ]
      }
    }
  ]
}