{"type": "FeatureCollection", "features": [{"type": "Feature", "properties": {"diocese": "Grenoble", "province": "XVIII_Vienne", "source": "130_Grenoble.txt"}, "geometry": {"type": "Polygon", "coordinates": [[[6.163961035043547, 45.313606289139805], [6.153444199135942, 45.32262484797263], [6.1429273632283365, 45.33164340680544], [6.132410527320731, 45.340661965638255], [6.121893691413124, 45.34968052447106], [6.111376855505521, 45.35869908330389], [6.10086001959791, 45.3677176421367], [6.090343183690306, 45.37673620096951], [6.079826347782699, 45.38575475980233], [6.069309511875096, 45.394773318635146], [6.058792675967489, 45.40379187746795], [6.058792675967489, 45.40379187746795], [6.045779075092694, 45.40962332124203], [6.0327654742179, 45.4154547650161], [6.0197518733431075, 45.42128620879017], [6.006738272468315, 45.42711765256424], [5.993724671593521, 45.43294909633831], [5.980711070718726, 45.43878054011239], [5.967697469843934, 45.44461198388645], [5.954683868969141, 45.45044342766053], [5.941670268094347, 45.456274871434594], [5.928656667219554, 45.46210631520867], [5.928656667219554, 45.46210631520867], [5.928265538182178, 45.4604141133056], [5.927874409144803, 45.45872191140254], [5.927483280107426, 45.45702970949947], [5.927092151070047, 45.455337507596404], [5.92670102203267, 45.45364530569334], [5.9263098929952935, 45.45195310379028], [5.925918763957915, 45.45026090188721], [5.925527634920542, 45.44856869998414], [5.925136505883163, 45.446876498081075], [5.924745376845786, 45.44518429617801], [5.924745376845786, 45.44518429617801], [5.924002030350048, 45.44429534297719], [5.923258683854309, 45.44340638977638], [5.92251533735857, 45.442517436575564], [5.9217719908628315, 45.44162848337475], [5.921028644367093, 45.440739530173936], [5.920285297871354, 45.43985057697313], [5.919541951375614, 45.43896162377231], [5.918798604879877, 45.43807267057149], [5.918055258384136, 45.43718371737068], [5.9173119118883974, 45.436294764169865], [5.9173119118883974, 45.436294764169865], [5.916446088407994, 45.43596983339802], [5.915580264927597, 45.43564490262618], [5.914714441447197, 45.435319971854334], [5.913848617966794, 45.4349950410825], [5.912982794486393, 45.43467011031066], [5.912116971005993, 45.434345179538816], [5.9112511475255936, 45.43402024876697], [5.9103853240451905, 45.43369531799513], [5.909519500564791, 45.43337038722329], [5.90865367708439, 45.433045456451445], [5.90865367708439, 45.433045456451445], [5.908704272412024, 45.43282324980954], [5.908754867739653, 45.43260104316762], [5.908805463067283, 45.43237883652571], [5.908856058394916, 45.4321566298838], [5.908906653722546, 45.431934423241884], [5.908957249050177, 45.431712216599976], [5.909007844377809, 45.43149000995806], [5.909058439705442, 45.431267803316146], [5.909109035033071, 45.43104559667424], [5.909159630360703, 45.43082339003232], [5.909159630360703, 45.43082339003232], [5.909006324297968, 45.42906293542956], [5.908853018235234, 45.427302480826796], [5.908699712172501, 45.42554202622404], [5.908546406109766, 45.42378157162128], [5.90839310004703, 45.42202111701852], [5.908239793984297, 45.42026066241575], [5.9080864879215635, 45.418500207813], [5.9079331818588265, 45.41673975321022], [5.907779875796091, 45.41497929860747], [5.907626569733358, 45.4132188440047], [5.907626569733358, 45.4132188440047], [5.908417214044899, 45.41299682205265], [5.909207858356439, 45.412774800100586], [5.90999850266798, 45.41255277814853], [5.9107891469795195, 45.412330756196475], [5.911579791291061, 45.412108734244406], [5.912370435602602, 45.41188671229235], [5.913161079914143, 45.411664690340295], [5.913951724225681, 45.41144266838824], [5.914742368537226, 45.41122064643618], [5.9155330128487655, 45.41099862448412], [5.9155330128487655, 45.41099862448412], [5.916398935450896, 45.41137491237972], [5.917264858053031, 45.41175120027532], [5.91813078065516, 45.41212748817091], [5.918996703257292, 45.412503776066515], [5.919862625859423, 45.41288006396211], [5.920728548461556, 45.41325635185771], [5.92159447106369, 45.4136326397533], [5.922460393665819, 45.4140089276489], [5.923326316267948, 45.4143852155445], [5.924192238870081, 45.4147615034401], [5.924192238870081, 45.4147615034401], [5.92448813255011, 45.414368441152824], [5.9247840262301406, 45.41397537886557], [5.925079919910166, 45.4135823165783], [5.925375813590197, 45.413189254291034], [5.925671707270224, 45.41279619200377], [5.925967600950253, 45.41240312971651], [5.926263494630282, 45.41201006742924], [5.926559388310309, 45.41161700514197], [5.926855281990338, 45.41122394285471], [5.927151175670367, 45.41083088056744], [5.927151175670367, 45.41083088056744], [5.925961530984575, 45.40925814853418], [5.924771886298785, 45.407685416500925], [5.923582241612992, 45.40611268446766], [5.922392596927201, 45.4045399524344], [5.9212029522414085, 45.40296722040113], [5.920013307555616, 45.40139448836788], [5.918823662869826, 45.39982175633462], [5.9176340181840335, 45.39824902430135], [5.916444373498242, 45.39667629226808], [5.915254728812451, 45.39510356023482], [5.915254728812451, 45.39510356023482], [5.913572477754698, 45.39447077535821], [5.911890226696949, 45.39383799048159], [5.910207975639198, 45.39320520560498], [5.908525724581446, 45.392572420728364], [5.906843473523697, 45.391939635851756], [5.905161222465942, 45.391306850975134], [5.903478971408193, 45.39067406609851], [5.901796720350443, 45.3900412812219], [5.90011446929269, 45.38940849634528], [5.898432218234941, 45.38877571146867], [5.898432218234941, 45.38877571146867], [5.8980863545692515, 45.38889523961088], [5.897740490903564, 45.38901476775309], [5.897394627237876, 45.38913429589531], [5.897048763572188, 45.38925382403752], [5.896702899906499, 45.389373352179724], [5.896357036240811, 45.389492880321946], [5.896011172575124, 45.38961240846415], [5.895665308909436, 45.38973193660637], [5.895319445243748, 45.38985146474858], [5.894973581578061, 45.389970992890795], [5.894973581578061, 45.389970992890795], [5.894630027163686, 45.39128699434426], [5.894286472749313, 45.39260299579775], [5.893942918334943, 45.393918997251234], [5.89359936392057, 45.39523499870471], [5.893255809506197, 45.3965510001582], [5.892912255091826, 45.39786700161168], [5.892568700677453, 45.39918300306515], [5.892225146263083, 45.40049900451863], [5.891881591848708, 45.40181500597211], [5.891538037434335, 45.40313100742559], [5.891538037434335, 45.40313100742559], [5.886325401703921, 45.404924306253115], [5.881112765973512, 45.406717605080644], [5.875900130243096, 45.408510903908166], [5.870687494512685, 45.410304202735695], [5.865474858782271, 45.41209750156322], [5.86026222305186, 45.413890800390746], [5.855049587321448, 45.415684099218275], [5.849836951591032, 45.417477398045804], [5.844624315860623, 45.419270696873326], [5.839411680130208, 45.42106399570085], [5.839411680130208, 45.42106399570085], [5.839337477463516, 45.42106397718251], [5.839263274796824, 45.42106395866418], [5.839189072130132, 45.42106394014583], [5.83911486946344, 45.421063921627486], [5.8390406667967465, 45.42106390310914], [5.838966464130053, 45.4210638845908], [5.8388922614633625, 45.421063866072465], [5.8388180587966705, 45.42106384755412], [5.8387438561299785, 45.42106382903578], [5.838669653463285, 45.42106381051744], [5.838669653463285, 45.42106381051744], [5.83817539759594, 45.42114911825363], [5.837681141728593, 45.42123442598982], [5.837186885861248, 45.42131973372601], [5.836692629993905, 45.4214050414622], [5.836198374126559, 45.42149034919839], [5.835704118259214, 45.421575656934586], [5.835209862391869, 45.42166096467077], [5.834715606524522, 45.42174627240696], [5.834221350657176, 45.421831580143156], [5.8337270947898325, 45.42191688787935], [5.8337270947898325, 45.42191688787935], [5.831898562749398, 45.42234375104731], [5.830070030708967, 45.422770614215274], [5.828241498668534, 45.42319747738324], [5.8264129666281015, 45.42362434055121], [5.8245844345876705, 45.424051203719166], [5.822755902547238, 45.424478066887126], [5.820927370506805, 45.424904930055085], [5.819098838466374, 45.42533179322305], [5.817270306425941, 45.42575865639102], [5.81544177438551, 45.426185519558985], [5.81544177438551, 45.426185519558985], [5.813936271737791, 45.427449928625975], [5.812430769090074, 45.42871433769295], [5.810925266442354, 45.429978746759936], [5.809419763794635, 45.43124315582692], [5.807914261146916, 45.43250756489391], [5.806408758499199, 45.43377197396089], [5.80490325585148, 45.43503638302788], [5.803397753203761, 45.43630079209487], [5.801892250556044, 45.43756520116185], [5.800386747908323, 45.438829610228844], [5.800386747908323, 45.438829610228844], [5.7990029635787295, 45.43913691523913], [5.797619179249134, 45.43944422024941], [5.796235394919535, 45.4397515252597], [5.794851610589941, 45.44005883026999], [5.793467826260345, 45.44036613528028], [5.7920840419307495, 45.44067344029057], [5.790700257601154, 45.440980745300855], [5.78931647327156, 45.441288050311144], [5.787932688941963, 45.44159535532143], [5.786548904612369, 45.44190266033172], [5.786548904612369, 45.44190266033172], [5.7846449823445685, 45.441714203977874], [5.78274106007677, 45.441525747624034], [5.78083713780897, 45.4413372912702], [5.778933215541173, 45.441148834916355], [5.7770292932733724, 45.44096037856251], [5.775125371005577, 45.440771922208675], [5.773221448737777, 45.44058346585483], [5.77131752646998, 45.440395009500996], [5.769413604202178, 45.44020655314715], [5.76750968193438, 45.44001809679331], [5.76750968193438, 45.44001809679331], [5.767237229228268, 45.43972744278489], [5.76696477652216, 45.43943678877647], [5.766692323816045, 45.439146134768045], [5.7664198711099335, 45.43885548075963], [5.76614741840382, 45.438564826751204], [5.76587496569771, 45.43827417274278], [5.765602512991599, 45.43798351873436], [5.765330060285486, 45.437692864725946], [5.765057607579376, 45.437402210717515], [5.7647851548732625, 45.43711155670909], [5.7647851548732625, 45.43711155670909], [5.764488238518764, 45.43697474911889], [5.7641913221642636, 45.43683794152869], [5.763894405809761, 45.43670113393848], [5.763597489455261, 45.436564326348275], [5.7633005731007625, 45.43642751875807], [5.763003656746262, 45.43629071116786], [5.76270674039176, 45.436153903577654], [5.762409824037261, 45.43601709598745], [5.762112907682759, 45.43588028839724], [5.761815991328257, 45.435743480807034], [5.761815991328257, 45.435743480807034], [5.761346285099306, 45.43576048261811], [5.760876578870352, 45.435777484429174], [5.760406872641401, 45.43579448624025], [5.759937166412447, 45.435811488051314], [5.75946746018349, 45.43582848986239], [5.758997753954539, 45.435845491673454], [5.758528047725587, 45.43586249348453], [5.758058341496634, 45.435879495295595], [5.75758863526768, 45.43589649710667], [5.757118929038725, 45.43591349891774], [5.757118929038725, 45.43591349891774], [5.755809213313418, 45.43615136179975], [5.75449949758811, 45.43638922468176], [5.753189781862805, 45.436627087563785], [5.751880066137495, 45.4368649504458], [5.750570350412183, 45.43710281332782], [5.749260634686875, 45.437340676209836], [5.747950918961566, 45.43757853909185], [5.74664120323626, 45.43781640197387], [5.745331487510951, 45.43805426485589], [5.744021771785643, 45.4382921277379], [5.744021771785643, 45.4382921277379], [5.743923514350286, 45.438616817909505], [5.7438252569149295, 45.4389415080811], [5.743726999479575, 45.43926619825271], [5.743628742044217, 45.439590888424306], [5.743530484608863, 45.43991557859591], [5.743432227173505, 45.44024026876751], [5.743333969738146, 45.440564958939106], [5.743235712302793, 45.44088964911071], [5.743137454867435, 45.441214339282304], [5.743039197432077, 45.44153902945391], [5.743039197432077, 45.44153902945391], [5.7423493175228675, 45.44273527532603], [5.741659437613656, 45.44393152119816], [5.740969557704444, 45.445127767070275], [5.740279677795234, 45.446324012942405], [5.739589797886021, 45.44752025881453], [5.738899917976809, 45.44871650468665], [5.738210038067599, 45.449912750558774], [5.737520158158388, 45.451108996430904], [5.736830278249176, 45.45230524230302], [5.736140398339963, 45.45350148817515], [5.736140398339963, 45.45350148817515], [5.736434806083954, 45.45475677509129], [5.736729213827944, 45.45601206200743], [5.737023621571934, 45.45726734892358], [5.737318029315924, 45.45852263583973], [5.737612437059914, 45.45977792275587], [5.737906844803902, 45.46103320967202], [5.738201252547892, 45.46228849658817], [5.738495660291882, 45.463543783504306], [5.738790068035874, 45.464799070420455], [5.739084475779865, 45.466054357336596], [5.739084475779865, 45.466054357336596], [5.7359242841213565, 45.46416172409131], [5.732764092462851, 45.46226909084602], [5.729603900804344, 45.46037645760073], [5.726443709145837, 45.45848382435545], [5.72328351748733, 45.45659119111015], [5.720123325828826, 45.454698557864866], [5.716963134170317, 45.452805924619575], [5.713802942511812, 45.450913291374285], [5.710642750853307, 45.449020658128994], [5.7074825591947995, 45.44712802488372], [5.7074825591947995, 45.44712802488372], [5.697199849901548, 45.44137515909111], [5.686917140608298, 45.435622293298515], [5.676634431315048, 45.42986942750593], [5.666351722021798, 45.42411656171333], [5.656069012728548, 45.41836369592074], [5.6457863034352975, 45.412610830128145], [5.635503594142046, 45.40685796433554], [5.625220884848794, 45.40110509854295], [5.614938175555544, 45.395352232750355], [5.604655466262294, 45.38959936695777], [5.604655466262294, 45.38959936695777], [5.600301124604185, 45.38859520338321], [5.595946782946077, 45.387591039808655], [5.591592441287968, 45.3865868762341], [5.587238099629861, 45.38558271265955], [5.58288375797175, 45.384578549084985], [5.578529416313643, 45.38357438551043], [5.574175074655535, 45.38257022193588], [5.569820732997426, 45.38156605836132], [5.565466391339315, 45.380561894786766], [5.561112049681208, 45.37955773121221], [5.561112049681208, 45.37955773121221], [5.559475379068184, 45.37692416389158], [5.55783870845516, 45.37429059657095], [5.55620203784213, 45.37165702925032], [5.554565367229106, 45.369023461929686], [5.552928696616082, 45.36638989460906], [5.551292026003058, 45.36375632728842], [5.549655355390033, 45.3611227599678], [5.548018684777006, 45.35848919264716], [5.54638201416398, 45.35585562532654], [5.5447453435509555, 45.353222058005905], [5.5447453435509555, 45.353222058005905], [5.541299098472114, 45.35284518084717], [5.537852853393268, 45.35246830368843], [5.534406608314423, 45.35209142652969], [5.530960363235579, 45.351714549370946], [5.527514118156736, 45.35133767221221], [5.524067873077893, 45.35096079505347], [5.520621627999047, 45.35058391789473], [5.517175382920204, 45.35020704073599], [5.513729137841359, 45.34983016357725], [5.510282892762515, 45.349453286418516], [5.510282892762515, 45.349453286418516], [5.505204281889396, 45.34945201897822], [5.50012567101628, 45.34945075153792], [5.495047060143161, 45.349449484097626], [5.4899684492700445, 45.349448216657336], [5.484889838396926, 45.34944694921705], [5.479811227523808, 45.34944568177674], [5.474732616650689, 45.34944441433645], [5.469654005777571, 45.349443146896164], [5.464575394904454, 45.34944187945587], [5.4594967840313355, 45.34944061201558], [5.4594967840313355, 45.34944061201558], [5.456418239155461, 45.351445942799174], [5.453339694279586, 45.353451273582785], [5.450261149403714, 45.35545660436638], [5.4471826045278355, 45.357461935149985], [5.444104059651959, 45.35946726593359], [5.441025514776086, 45.3614725967172], [5.437946969900212, 45.363477927500796], [5.434868425024337, 45.36548325828441], [5.431789880148463, 45.367488589068], [5.428711335272586, 45.36949391985161], [5.428711335272586, 45.36949391985161], [5.425806532615651, 45.36786311293646], [5.4229017299587134, 45.36623230602131], [5.419996927301774, 45.364601499106165], [5.417092124644839, 45.362970692191006], [5.414187321987903, 45.36133988527586], [5.411282519330966, 45.35970907836071], [5.40837771667403, 45.358078271445564], [5.4054729140170945, 45.35644746453041], [5.402568111360157, 45.35481665761526], [5.39966330870322, 45.35318585070011], [5.39966330870322, 45.35318585070011], [5.4012917509458465, 45.351556120427944], [5.402920193188475, 45.34992639015579], [5.404548635431103, 45.34829665988362], [5.40617707767373, 45.34666692961145], [5.407805519916355, 45.34503719933929], [5.4094339621589835, 45.343407469067124], [5.411062404401612, 45.34177773879496], [5.4126908466442405, 45.340148008522796], [5.414319288886867, 45.338518278250625], [5.415947731129496, 45.33688854797846], [5.415947731129496, 45.33688854797846], [5.416482398649707, 45.33212439436407], [5.417017066169921, 45.32736024074969], [5.417551733690136, 45.322596087135295], [5.418086401210349, 45.31783193352091], [5.4186210687305625, 45.31306777990652], [5.419155736250776, 45.30830362629213], [5.419690403770987, 45.30353947267774], [5.420225071291203, 45.298775319063346], [5.420759738811418, 45.29401116544896], [5.421294406331629, 45.28924701183457], [5.421294406331629, 45.28924701183457], [5.41766619076901, 45.28824302947522], [5.4140379752063925, 45.287239047115854], [5.410409759643773, 45.2862350647565], [5.406781544081154, 45.28523108239714], [5.403153328518535, 45.28422710003778], [5.399525112955915, 45.283223117678425], [5.395896897393296, 45.28221913531906], [5.392268681830677, 45.28121515295971], [5.388640466268061, 45.280211170600346], [5.38501225070544, 45.279207188240996], [5.38501225070544, 45.279207188240996], [5.3848258721452655, 45.27707491967724], [5.384639493585087, 45.27494265111349], [5.384453115024909, 45.272810382549736], [5.384266736464735, 45.270678113985994], [5.384080357904558, 45.26854584542224], [5.383893979344382, 45.26641357685849], [5.383707600784204, 45.264281308294734], [5.383521222224029, 45.26214903973099], [5.383334843663851, 45.260016771167244], [5.383148465103675, 45.25788450260349], [5.383148465103675, 45.25788450260349], [5.379702945756353, 45.25788364272464], [5.3762574264090315, 45.25788278284579], [5.3728119070617115, 45.25788192296695], [5.369366387714392, 45.25788106308811], [5.36592086836707, 45.25788020320926], [5.36247534901975, 45.257879343330416], [5.359029829672428, 45.25787848345156], [5.355584310325108, 45.25787762357272], [5.352138790977786, 45.25787676369388], [5.3486932716304665, 45.25787590381503], [5.3486932716304665, 45.25787590381503], [5.343799182437042, 45.259003827589034], [5.338905093243621, 45.260131751363026], [5.334011004050199, 45.261259675137026], [5.329116914856778, 45.26238759891102], [5.324222825663355, 45.26351552268502], [5.319328736469934, 45.26464344645902], [5.314434647276512, 45.26577137023301], [5.309540558083089, 45.26689929400701], [5.30464646888967, 45.26802721778101], [5.299752379696246, 45.269155141555004], [5.299752379696246, 45.269155141555004], [5.297211164059911, 45.26777541337332], [5.29466994842357, 45.266395685191625], [5.2921287327872335, 45.265015957009936], [5.2895875171508955, 45.26363622882825], [5.2870463015145575, 45.26225650064656], [5.284505085878219, 45.26087677246487], [5.281963870241883, 45.25949704428317], [5.279422654605547, 45.25811731610149], [5.276881438969209, 45.256737587919794], [5.274340223332871, 45.255357859738105], [5.274340223332871, 45.255357859738105], [5.2757871796164775, 45.253352067074744], [5.277234135900084, 45.25134627441137], [5.278681092183696, 45.249340481748], [5.2801280484673025, 45.24733468908463], [5.281575004750907, 45.24532889642126], [5.2830219610345175, 45.24332310375789], [5.284468917318124, 45.24131731109452], [5.285915873601731, 45.23931151843116], [5.287362829885339, 45.237305725767776], [5.288809786168947, 45.23529993310441], [5.288809786168947, 45.23529993310441], [5.293886087158473, 45.23492414369493], [5.298962388147997, 45.23454835428546], [5.304038689137524, 45.23417256487598], [5.30911499012705, 45.23379677546651], [5.314191291116575, 45.233420986057034], [5.319267592106101, 45.23304519664756], [5.324343893095627, 45.232669407238085], [5.329420194085154, 45.23229361782861], [5.33449649507468, 45.23191782841913], [5.339572796064203, 45.23154203900965], [5.339572796064203, 45.23154203900965], [5.340655570173492, 45.22815706147456], [5.341738344282783, 45.22477208393948], [5.342821118392074, 45.221387106404386], [5.343903892501364, 45.2180021288693], [5.344986666610652, 45.21461715133422], [5.346069440719944, 45.211232173799125], [5.347152214829233, 45.207847196264034], [5.348234988938522, 45.20446221872895], [5.349317763047813, 45.201077241193865], [5.3504005371571015, 45.19769226365877], [5.3504005371571015, 45.19769226365877], [5.348209951991597, 45.190670288151246], [5.346019366826093, 45.1836483126437], [5.343828781660591, 45.17662633713616], [5.341638196495085, 45.169604361628636], [5.339447611329582, 45.1625823861211], [5.337257026164076, 45.15556041061357], [5.33506644099857, 45.14853843510603], [5.332875855833068, 45.14151645959849], [5.330685270667566, 45.13449448409096], [5.32849468550206, 45.12747250858343], [5.32849468550206, 45.12747250858343], [5.319964990636203, 45.12458721749561], [5.311435295770348, 45.1217019264078], [5.302905600904493, 45.118816635319995], [5.294375906038638, 45.11593134423218], [5.285846211172785, 45.113046053144366], [5.277316516306932, 45.11016076205656], [5.268786821441076, 45.10727547096875], [5.260257126575221, 45.10439017988093], [5.251727431709366, 45.10150488879312], [5.243197736843511, 45.098619597705316], [5.243197736843511, 45.098619597705316], [5.243552610968958, 45.09435633603657], [5.243907485094406, 45.09009307436782], [5.244262359219849, 45.08582981269907], [5.2446172333452985, 45.08156655103032], [5.244972107470746, 45.07730328936157], [5.24532698159619, 45.07304002769283], [5.245681855721637, 45.06877676602408], [5.2460367298470825, 45.06451350435533], [5.24639160397253, 45.060250242686585], [5.246746478097977, 45.05598698101783], [5.246746478097977, 45.05598698101783], [5.252551968329383, 45.05711648115764], [5.258357458560791, 45.05824598129745], [5.2641629487921975, 45.059375481437264], [5.269968439023604, 45.06050498157708], [5.275773929255012, 45.06163448171689], [5.281579419486416, 45.0627639818567], [5.287384909717822, 45.06389348199651], [5.29319039994923, 45.06502298213633], [5.298995890180635, 45.06615248227613], [5.304801380412043, 45.06728198241594], [5.304801380412043, 45.06728198241594], [5.3095151940082825, 45.066405111033475], [5.314229007604526, 45.065528239651], [5.318942821200766, 45.06465136826853], [5.323656634797008, 45.06377449688606], [5.328370448393249, 45.062897625503574], [5.333084261989489, 45.06202075412111], [5.337798075585729, 45.061143882738634], [5.3425118891819725, 45.06026701135616], [5.347225702778212, 45.05939013997369], [5.351939516374452, 45.05851326859121], [5.351939516374452, 45.05851326859121], [5.3550229020643165, 45.05901606877799], [5.3581062877541825, 45.05951886896477], [5.3611896734440485, 45.06002166915155], [5.364273059133911, 45.06052446933833], [5.367356444823777, 45.061027269525106], [5.370439830513641, 45.061530069711885], [5.373523216203505, 45.062032869898665], [5.37660660189337, 45.062535670085445], [5.379689987583234, 45.063038470272225], [5.382773373273098, 45.063541270459005], [5.382773373273098, 45.063541270459005], [5.3856747094774295, 45.06341702011884], [5.388576045681759, 45.063292769778684], [5.391477381886091, 45.06316851943853], [5.394378718090422, 45.06304426909837], [5.397280054294752, 45.06292001875821], [5.40018139049908, 45.06279576841805], [5.403082726703412, 45.06267151807789], [5.405984062907741, 45.06254726773773], [5.408885399112073, 45.06242301739757], [5.411786735316404, 45.06229876705741], [5.411786735316404, 45.06229876705741], [5.416142607544877, 45.0640549652115], [5.4204984797733555, 45.06581116336559], [5.424854352001828, 45.06756736151967], [5.429210224230305, 45.069323559673755], [5.433566096458778, 45.07107975782784], [5.437921968687252, 45.07283595598193], [5.442277840915729, 45.07459215413602], [5.4466337131442035, 45.076348352290104], [5.45098958537268, 45.07810455044419], [5.455345457601155, 45.079860748598264], [5.455345457601155, 45.079860748598264], [5.456614074169822, 45.079109031002204], [5.4578826907384865, 45.07835731340614], [5.4591513073071525, 45.07760559581007], [5.460419923875818, 45.076853878214], [5.461688540444486, 45.076102160617936], [5.462957157013154, 45.07535044302187], [5.46422577358182, 45.0745987254258], [5.465494390150486, 45.07384700782974], [5.466763006719152, 45.07309529023367], [5.468031623287818, 45.0723435726376], [5.468031623287818, 45.0723435726376], [5.466574018121259, 45.06883194752957], [5.465116412954696, 45.06532032242153], [5.463658807788137, 45.06180869731349], [5.462201202621575, 45.05829707220545], [5.4607435974550125, 45.05478544709741], [5.459285992288452, 45.05127382198936], [5.457828387121891, 45.04776219688132], [5.456370781955332, 45.04425057177328], [5.45491317678877, 45.04073894666524], [5.453455571622207, 45.037227321557204], [5.453455571622207, 45.037227321557204], [5.455080385207223, 45.03371750488557], [5.456705198792234, 45.03020768821394], [5.458330012377248, 45.026697871542304], [5.45995482596226, 45.023188054870666], [5.461579639547272, 45.019678238199035], [5.463204453132285, 45.0161684215274], [5.464829266717297, 45.01265860485576], [5.466454080302311, 45.00914878818413], [5.4680788938873235, 45.00563897151249], [5.469703707472334, 45.00212915484086], [5.469703707472334, 45.00212915484086], [5.468429411617972, 44.99911856698935], [5.46715511576361, 44.99610797913785], [5.465880819909248, 44.99309739128635], [5.464606524054888, 44.99008680343484], [5.4633322282005246, 44.98707621558333], [5.462057932346161, 44.98406562773183], [5.460783636491801, 44.981055039880324], [5.459509340637439, 44.97804445202882], [5.458235044783077, 44.97503386417731], [5.456960748928713, 44.9720232763258], [5.456960748928713, 44.9720232763258], [5.461308800209883, 44.96976825885179], [5.465656851491055, 44.96751324137779], [5.470004902772224, 44.965258223903774], [5.474352954053396, 44.96300320642976], [5.478701005334564, 44.960748188955755], [5.483049056615732, 44.95849317148174], [5.487397107896905, 44.95623815400773], [5.491745159178075, 44.95398313653373], [5.496093210459245, 44.95172811905971], [5.500441261740416, 44.949473101585696], [5.500441261740416, 44.949473101585696], [5.508418815836583, 44.948848032711645], [5.516396369932751, 44.94822296383759], [5.52437392402892, 44.94759789496354], [5.532351478125088, 44.946972826089485], [5.540329032221255, 44.946347757215435], [5.548306586317425, 44.94572268834138], [5.55628414041359, 44.945097619467326], [5.564261694509762, 44.944472550593275], [5.5722392486059285, 44.943847481719224], [5.580216802702097, 44.94322241284517], [5.580216802702097, 44.94322241284517], [5.5834841444339265, 44.944602322242055], [5.586751486165753, 44.94598223163894], [5.590018827897579, 44.94736214103583], [5.5932861696294065, 44.94874205043272], [5.596553511361236, 44.9501219598296], [5.59982085309306, 44.95150186922648], [5.603088194824888, 44.95288177862338], [5.606355536556716, 44.95426168802027], [5.609622878288544, 44.95564159741715], [5.61289022002037, 44.95702150681404], [5.61289022002037, 44.95702150681404], [5.6174232732835545, 44.956144535626834], [5.621956326546735, 44.95526756443962], [5.62648937980992, 44.95439059325242], [5.6310224330731025, 44.95351362206521], [5.635555486336285, 44.952636650878006], [5.640088539599468, 44.9517596796908], [5.64462159286265, 44.95088270850359], [5.649154646125833, 44.95000573731638], [5.6536876993890175, 44.94912876612917], [5.6582207526522, 44.94825179494197], [5.6582207526522, 44.94825179494197], [5.658394332666131, 44.94449062809905], [5.658567912680059, 44.94072946125614], [5.658741492693991, 44.93696829441322], [5.65891507270792, 44.933207127570306], [5.659088652721849, 44.929445960727385], [5.659262232735779, 44.92568479388447], [5.659435812749708, 44.921923627041565], [5.659609392763638, 44.918162460198644], [5.659782972777569, 44.91440129335573], [5.659956552791497, 44.91064012651281], [5.659956552791497, 44.91064012651281], [5.6626638181660525, 44.90361931864084], [5.665371083540611, 44.89659851076887], [5.6680783489151665, 44.88957770289689], [5.670785614289722, 44.88255689502491], [5.673492879664279, 44.87553608715294], [5.676200145038836, 44.86851527928097], [5.678907410413391, 44.86149447140899], [5.681614675787944, 44.854473663537014], [5.6843219411625014, 44.84745285566504], [5.687029206537057, 44.84043204779307], [5.687029206537057, 44.84043204779307], [5.696911846352723, 44.84145897615175], [5.706794486168384, 44.842485904510426], [5.716677125984049, 44.84351283286911], [5.72655976579971, 44.844539761227786], [5.736442405615376, 44.84556668958647], [5.746325045431041, 44.84659361794514], [5.7562076852467055, 44.84762054630382], [5.766090325062368, 44.8486474746625], [5.775972964878033, 44.849674403021176], [5.785855604693694, 44.85070133137986], [5.785855604693694, 44.85070133137986], [5.785088216985443, 44.8517426115174], [5.784320829277188, 44.85278389165495], [5.783553441568936, 44.853825171792494], [5.782786053860681, 44.854866451930036], [5.782018666152428, 44.855907732067585], [5.781251278444175, 44.85694901220512], [5.780483890735923, 44.85799029234266], [5.779716503027668, 44.85903157248021], [5.778949115319415, 44.86007285261776], [5.778181727611161, 44.8611141327553], [5.778181727611161, 44.8611141327553], [5.782097244432272, 44.8628883792199], [5.786012761253383, 44.86466262568451], [5.789928278074495, 44.866436872149116], [5.793843794895604, 44.86821111861371], [5.797759311716716, 44.869985365078314], [5.801674828537825, 44.87175961154292], [5.805590345358937, 44.87353385800753], [5.809505862180046, 44.87530810447212], [5.8134213790011575, 44.877082350936725], [5.817336895822267, 44.87885659740133], [5.817336895822267, 44.87885659740133], [5.822272237488999, 44.878280977837164], [5.827207579155729, 44.877705358273], [5.832142920822459, 44.87712973870883], [5.8370782624891895, 44.87655411914467], [5.842013604155921, 44.8759784995805], [5.846948945822653, 44.87540288001633], [5.851884287489385, 44.874827260452165], [5.856819629156117, 44.87425164088799], [5.861754970822847, 44.87367602132383], [5.866690312489579, 44.873100401759665], [5.866690312489579, 44.873100401759665], [5.869833522462221, 44.87336721487192], [5.872976732434864, 44.87363402798416], [5.8761199424075095, 44.8739008410964], [5.879263152380151, 44.874167654208655], [5.8824063623527945, 44.8744344673209], [5.88554957232544, 44.87470128043314], [5.888692782298081, 44.87496809354539], [5.891835992270725, 44.87523490665764], [5.89497920224337, 44.875501719769886], [5.898122412216011, 44.875768532882134], [5.898122412216011, 44.875768532882134], [5.900045596135168, 44.87634586408988], [5.901968780054327, 44.87692319529762], [5.903891963973484, 44.87750052650536], [5.905815147892641, 44.87807785771311], [5.907738331811798, 44.878655188920845], [5.909661515730956, 44.879232520128596], [5.911584699650113, 44.87980985133634], [5.9135078835692685, 44.88038718254408], [5.915431067488427, 44.88096451375183], [5.917354251407584, 44.881541844959564], [5.917354251407584, 44.881541844959564], [5.921711413881141, 44.8799907884617], [5.9260685763547, 44.87843973196382], [5.930425738828257, 44.87688867546595], [5.934782901301814, 44.875337618968075], [5.939140063775371, 44.8737865624702], [5.94349722624893, 44.87223550597233], [5.947854388722487, 44.87068444947445], [5.952211551196045, 44.86913339297657], [5.956568713669602, 44.867582336478705], [5.960925876143159, 44.86603127998083], [5.960925876143159, 44.86603127998083], [5.965475799363283, 44.864303994773266], [5.970025722583408, 44.862576709565694], [5.974575645803535, 44.86084942435813], [5.97912556902366, 44.85912213915056], [5.983675492243783, 44.85739485394299], [5.9882254154639085, 44.85566756873543], [5.992775338684034, 44.853940283527855], [5.997325261904159, 44.85221299832029], [6.001875185124284, 44.85048571311272], [6.006425108344407, 44.84875842790515], [6.006425108344407, 44.84875842790515], [6.007380622653445, 44.845877637029986], [6.008336136962482, 44.842996846154826], [6.009291651271518, 44.840116055279665], [6.010247165580555, 44.8372352644045], [6.011202679889591, 44.834354473529345], [6.01215819419863, 44.83147368265418], [6.013113708507666, 44.82859289177902], [6.014069222816703, 44.82571210090385], [6.01502473712574, 44.82283131002869], [6.015980251434776, 44.81995051915353], [6.015980251434776, 44.81995051915353], [6.018866487472684, 44.81999504886554], [6.021752723510593, 44.82003957857755], [6.024638959548502, 44.82008410828955], [6.027525195586408, 44.820128638001556], [6.030411431624316, 44.82017316771357], [6.033297667662223, 44.82021769742557], [6.036183903700129, 44.820262227137576], [6.039070139738039, 44.82030675684959], [6.041956375775946, 44.820351286561596], [6.044842611813856, 44.8203958162736], [6.044842611813856, 44.8203958162736], [6.047986721905797, 44.821948744821796], [6.051130831997739, 44.82350167336998], [6.05427494208968, 44.825054601918175], [6.057419052181624, 44.82660753046637], [6.060563162273569, 44.82816045901457], [6.0637072723655105, 44.829713387562755], [6.066851382457452, 44.831266316110955], [6.069995492549394, 44.83281924465914], [6.073139602641337, 44.834372173207335], [6.076283712733282, 44.835925101755535], [6.076283712733282, 44.835925101755535], [6.080004588450642, 44.8369013229943], [6.083725464168003, 44.837877544233066], [6.087446339885368, 44.83885376547183], [6.091167215602729, 44.839829986710605], [6.0948880913200885, 44.84080620794937], [6.09860896703745, 44.841782429188136], [6.102329842754813, 44.84275865042691], [6.1060507184721775, 44.843734871665674], [6.109771594189537, 44.84471109290444], [6.1134924699069, 44.84568731414321], [6.1134924699069, 44.84568731414321], [6.115864233944004, 44.844933738810994], [6.118235997981108, 44.84418016347877], [6.120607762018212, 44.84342658814654], [6.122979526055319, 44.84267301281433], [6.125351290092425, 44.8419194374821], [6.127723054129527, 44.841165862149886], [6.130094818166631, 44.84041228681765], [6.132466582203737, 44.83965871148544], [6.134838346240841, 44.83890513615322], [6.137210110277943, 44.838151560821], [6.137210110277943, 44.838151560821], [6.1392585734617455, 44.83637880275327], [6.1413070366455464, 44.83460604468555], [6.143355499829346, 44.83283328661783], [6.1454039630131465, 44.831060528550104], [6.147452426196946, 44.82928777048238], [6.149500889380747, 44.82751501241466], [6.151549352564546, 44.82574225434693], [6.153597815748348, 44.823969496279204], [6.1556462789321476, 44.822196738211474], [6.157694742115947, 44.82042398014376], [6.157694742115947, 44.82042398014376], [6.160515598813751, 44.82020355872828], [6.163336455511557, 44.81998313731282], [6.166157312209364, 44.81976271589735], [6.16897816890717, 44.81954229448188], [6.171799025604976, 44.81932187306641], [6.174619882302784, 44.81910145165094], [6.177440739000589, 44.81888103023546], [6.180261595698395, 44.81866060881999], [6.183082452396201, 44.81844018740452], [6.185903309094007, 44.818219765989056], [6.185903309094007, 44.818219765989056], [6.18801976309131, 44.81888476425081], [6.1901362170886145, 44.819549762512565], [6.192252671085916, 44.82021476077433], [6.1943691250832185, 44.82087975903608], [6.196485579080521, 44.82154475729784], [6.198602033077824, 44.8222097555596], [6.200718487075127, 44.82287475382135], [6.202834941072432, 44.82353975208311], [6.204951395069731, 44.824204750344876], [6.2070678490670375, 44.82486974860663], [6.2070678490670375, 44.82486974860663], [6.2116187495081245, 44.82442753967972], [6.216169649949212, 44.82398533075281], [6.220720550390297, 44.823543121825914], [6.225271450831384, 44.823100912899], [6.229822351272473, 44.822658703972095], [6.23437325171356, 44.82221649504518], [6.238924152154647, 44.821774286118284], [6.243475052595734, 44.82133207719138], [6.248025953036819, 44.820889868264466], [6.252576853477908, 44.82044765933757], [6.252576853477908, 44.82044765933757], [6.256953175675294, 44.820831167737765], [6.2613294978726834, 44.821214676137956], [6.265705820070073, 44.82159818453815], [6.27008214226746, 44.82198169293836], [6.274458464464846, 44.82236520133855], [6.278834786662234, 44.822748709738754], [6.283211108859623, 44.823132218138944], [6.287587431057011, 44.82351572653915], [6.291963753254398, 44.82389923493935], [6.296340075451788, 44.824282743339545], [6.296340075451788, 44.824282743339545], [6.299152414718501, 44.82522351529285], [6.301964753985214, 44.82616428724615], [6.304777093251927, 44.827105059199454], [6.307589432518638, 44.82804583115275], [6.310401771785351, 44.82898660310606], [6.313214111052064, 44.82992737505936], [6.316026450318777, 44.830868147012666], [6.31883878958549, 44.83180891896597], [6.321651128852203, 44.83274969091927], [6.324463468118918, 44.833690462872575], [6.324463468118918, 44.833690462872575], [6.325560683979441, 44.837829057827555], [6.326657899839965, 44.841967652782536], [6.327755115700489, 44.84610624773752], [6.328852331561016, 44.8502448426925], [6.32994954742154, 44.854383437647485], [6.331046763282062, 44.85852203260246], [6.332143979142588, 44.86266062755744], [6.333241195003113, 44.86679922251243], [6.334338410863639, 44.8709378174674], [6.335435626724163, 44.87507641242239], [6.335435626724163, 44.87507641242239], [6.332420794000935, 44.876441901064304], [6.329405961277704, 44.877807389706206], [6.326391128554475, 44.87917287834811], [6.323376295831249, 44.880538366990024], [6.320361463108018, 44.88190385563193], [6.31734663038479, 44.88326934427384], [6.314331797661559, 44.88463483291575], [6.311316964938333, 44.88600032155766], [6.308302132215102, 44.88736581019957], [6.305287299491875, 44.88873129884148], [6.305287299491875, 44.88873129884148], [6.30927148613668, 44.89325412437554], [6.3132556727814855, 44.897776949909606], [6.317239859426291, 44.90229977544367], [6.321224046071098, 44.90682260097773], [6.325208232715903, 44.9113454265118], [6.329192419360709, 44.91586825204587], [6.333176606005514, 44.92039107757993], [6.337160792650321, 44.92491390311399], [6.341144979295127, 44.929436728648064], [6.345129165939932, 44.933959554182124], [6.345129165939932, 44.933959554182124], [6.3492357673485635, 44.93546787434898], [6.353342368757193, 44.93697619451583], [6.3574489701658266, 44.938484514682685], [6.361555571574456, 44.93999283484954], [6.365662172983088, 44.9415011550164], [6.369768774391719, 44.943009475183246], [6.373875375800351, 44.94451779535011], [6.3779819772089805, 44.94602611551696], [6.382088578617612, 44.94753443568381], [6.3861951800262435, 44.94904275585066], [6.3861951800262435, 44.94904275585066], [6.386711534389885, 44.95081615400546], [6.387227888753527, 44.952589552160234], [6.387744243117169, 44.95436295031502], [6.388260597480812, 44.956136348469805], [6.388776951844454, 44.957909746624594], [6.389293306208097, 44.959683144779376], [6.389809660571737, 44.961456542934165], [6.390326014935381, 44.96322994108894], [6.390842369299023, 44.96500333924373], [6.391358723662666, 44.96677673739851], [6.391358723662666, 44.96677673739851], [6.388287305794369, 44.97005648078529], [6.385215887926078, 44.973336224172066], [6.382144470057785, 44.976615967558836], [6.37907305218949, 44.97989571094562], [6.376001634321199, 44.9831754543324], [6.372930216452904, 44.986455197719174], [6.369858798584609, 44.98973494110595], [6.366787380716316, 44.99301468449272], [6.363715962848024, 44.996294427879505], [6.3606445449797295, 44.99957417126628], [6.3606445449797295, 44.99957417126628], [6.361164664069049, 45.00329815564218], [6.3616847831583705, 45.00702214001807], [6.36220490224769, 45.01074612439397], [6.36272502133701, 45.01447010876986], [6.363245140426331, 45.01819409314576], [6.363765259515649, 45.02191807752166], [6.3642853786049685, 45.02564206189755], [6.36480549769429, 45.02936604627345], [6.365325616783609, 45.03309003064934], [6.365845735872929, 45.03681401502524], [6.365845735872929, 45.03681401502524], [6.373152751681005, 45.03539725597913], [6.380459767489082, 45.033980496933005], [6.387766783297161, 45.032563737886896], [6.395073799105239, 45.03114697884078], [6.402380814913316, 45.029730219794665], [6.409687830721392, 45.02831346074855], [6.416994846529468, 45.026896701702434], [6.424301862337545, 45.02547994265631], [6.431608878145624, 45.024063183610195], [6.4389158939537, 45.02264642456408], [6.4389158939537, 45.02264642456408], [6.439683130631719, 45.02632239511647], [6.44045036730974, 45.02999836566887], [6.441217603987759, 45.03367433622125], [6.4419848406657785, 45.037350306773654], [6.442752077343798, 45.04102627732604], [6.4435193140218185, 45.04470224787843], [6.444286550699838, 45.048378218430834], [6.445053787377857, 45.05205418898322], [6.445821024055876, 45.055730159535614], [6.446588260733897, 45.05940613008801], [6.446588260733897, 45.05940613008801], [6.445825807658009, 45.05984813591506], [6.445063354582125, 45.0602901417421], [6.4443009015062405, 45.06073214756914], [6.443538448430354, 45.06117415339619], [6.442775995354468, 45.061616159223234], [6.442013542278582, 45.062058165050274], [6.4412510892027, 45.06250017087733], [6.44048863612681, 45.06294217670437], [6.439726183050924, 45.063384182531415], [6.43896372997504, 45.06382618835846], [6.43896372997504, 45.06382618835846], [6.437504898533332, 45.06365496211642], [6.436046067091624, 45.06348373587441], [6.4345872356499125, 45.06331250963239], [6.433128404208206, 45.06314128339035], [6.4316695727664985, 45.062970057148334], [6.430210741324789, 45.0627988309063], [6.428751909883081, 45.06262760466428], [6.427293078441371, 45.062456378422254], [6.425834246999663, 45.06228515218022], [6.424375415557957, 45.0621139259382], [6.424375415557957, 45.0621139259382], [6.422966870531463, 45.06242117007571], [6.421558325504966, 45.06272841421321], [6.420149780478473, 45.06303565835072], [6.418741235451979, 45.063342902488216], [6.417332690425484, 45.063650146625726], [6.415924145398989, 45.06395739076323], [6.414515600372493, 45.06426463490074], [6.413107055346, 45.06457187903825], [6.411698510319507, 45.06487912317574], [6.410289965293012, 45.06518636731325], [6.410289965293012, 45.06518636731325], [6.409350183245001, 45.06494690386222], [6.408410401196992, 45.0647074404112], [6.4074706191489845, 45.064467976960174], [6.4065308371009735, 45.06422851350915], [6.405591055052966, 45.06398905005812], [6.404651273004955, 45.063749586607095], [6.403711490956946, 45.063510123156064], [6.402771708908936, 45.06327065970504], [6.401831926860927, 45.06303119625402], [6.400892144812918, 45.062791732802985], [6.400892144812918, 45.062791732802985], [6.3977046748131094, 45.06361133826686], [6.394517204813299, 45.06443094373071], [6.3913297348134925, 45.06525054919457], [6.388142264813682, 45.06607015465843], [6.384954794813872, 45.0668897601223], [6.381767324814065, 45.06770936558617], [6.378579854814255, 45.06852897105002], [6.375392384814447, 45.069348576513896], [6.3722049148146365, 45.07016818197775], [6.369017444814828, 45.07098778744162], [6.369017444814828, 45.07098778744162], [6.369983867811355, 45.072201511007535], [6.370950290807885, 45.073415234573446], [6.371916713804412, 45.074628958139364], [6.372883136800942, 45.075842681705275], [6.373849559797469, 45.07705640527119], [6.374815982793997, 45.07827012883711], [6.375782405790524, 45.07948385240302], [6.376748828787052, 45.080697575968934], [6.377715251783581, 45.08191129953485], [6.378681674780108, 45.08312502310077], [6.378681674780108, 45.08312502310077], [6.377499452401308, 45.085397949685856], [6.376317230022508, 45.08767087627096], [6.375135007643712, 45.08994380285605], [6.373952785264914, 45.09221672944115], [6.372770562886112, 45.094489656026234], [6.371588340507314, 45.09676258261133], [6.370406118128514, 45.099035509196426], [6.369223895749716, 45.101308435781526], [6.36804167337092, 45.10358136236661], [6.366859450992118, 45.10585428895171], [6.366859450992118, 45.10585428895171], [6.363995274287397, 45.10764817387092], [6.361131097582673, 45.10944205879013], [6.3582669208779485, 45.11123594370934], [6.3554027441732295, 45.11302982862855], [6.352538567468503, 45.11482371354776], [6.3496743907637825, 45.11661759846697], [6.34681021405906, 45.11841148338618], [6.3439460373543355, 45.12020536830539], [6.341081860649613, 45.121999253224594], [6.33821768394489, 45.12379313814381], [6.33821768394489, 45.12379313814381], [6.33809349148925, 45.12346833776325], [6.33796929903361, 45.12314353738268], [6.337845106577971, 45.12281873700213], [6.337720914122327, 45.12249393662155], [6.337596721666687, 45.122169136241], [6.33747252921105, 45.12184433586044], [6.337348336755408, 45.12151953547987], [6.337224144299766, 45.12119473509931], [6.337099951844126, 45.12086993471874], [6.336975759388485, 45.12054513433818], [6.336975759388485, 45.12054513433818], [6.3353921285790715, 45.1197756405832], [6.33380849776966, 45.11900614682822], [6.332224866960246, 45.11823665307325], [6.330641236150832, 45.11746715931826], [6.3290576053414185, 45.11669766556328], [6.327473974532003, 45.11592817180829], [6.325890343722591, 45.11515867805332], [6.324306712913179, 45.11438918429833], [6.322723082103764, 45.11361969054336], [6.321139451294348, 45.11285019678837], [6.321139451294348, 45.11285019678837], [6.318765571921393, 45.112507770626515], [6.316391692548436, 45.11216534446466], [6.314017813175477, 45.1118229183028], [6.31164393380252, 45.11148049214095], [6.309270054429563, 45.111138065979084], [6.306896175056606, 45.110795639817226], [6.30452229568365, 45.110453213655376], [6.30214841631069, 45.11011078749351], [6.2997745369377345, 45.10976836133165], [6.297400657564777, 45.10942593516979], [6.297400657564777, 45.10942593516979], [6.2957455289824225, 45.11005788715539], [6.2940904004000675, 45.110689839140974], [6.292435271817714, 45.11132179112656], [6.290780143235359, 45.111953743112146], [6.289125014653006, 45.112585695097735], [6.287469886070651, 45.11321764708332], [6.285814757488296, 45.11384959906891], [6.284159628905945, 45.114481551054496], [6.282504500323588, 45.115113503040085], [6.280849371741235, 45.115745455025674], [6.280849371741235, 45.115745455025674], [6.279220171613165, 45.11694152117034], [6.277590971485095, 45.118137587315005], [6.275961771357025, 45.11933365345967], [6.274332571228955, 45.120529719604335], [6.272703371100889, 45.12172578574901], [6.271074170972817, 45.122921851893665], [6.269444970844749, 45.12411791803834], [6.267815770716677, 45.125313984183], [6.266186570588607, 45.12651005032767], [6.264557370460539, 45.12770611647233], [6.264557370460539, 45.12770611647233], [6.2648305157520365, 45.12835561402597], [6.265103661043531, 45.12900511157962], [6.265376806335027, 45.12965460913326], [6.265649951626523, 45.1303041066869], [6.265923096918021, 45.13095360424054], [6.266196242209519, 45.131603101794184], [6.266469387501013, 45.13225259934782], [6.266742532792511, 45.13290209690146], [6.267015678084007, 45.133551594455106], [6.267288823375505, 45.134201092008745], [6.267288823375505, 45.134201092008745], [6.267413787629414, 45.13488479064769], [6.26753875188332, 45.13556848928664], [6.267663716137227, 45.136252187925585], [6.267788680391133, 45.13693588656454], [6.26791364464504, 45.13761958520348], [6.268038608898948, 45.13830328384243], [6.268163573152854, 45.13898698248138], [6.268288537406761, 45.13967068112032], [6.268413501660669, 45.14035437975927], [6.268538465914576, 45.141038078398225], [6.268538465914576, 45.141038078398225], [6.267501554687852, 45.14178985381969], [6.266464643461127, 45.142541629241144], [6.265427732234402, 45.14329340466261], [6.26439082100768, 45.14404518008407], [6.263353909780955, 45.144796955505534], [6.26231699855423, 45.145548730927004], [6.261280087327506, 45.14630050634847], [6.260243176100783, 45.14705228176993], [6.259206264874058, 45.14780405719139], [6.258169353647334, 45.14855583261285], [6.258169353647334, 45.14855583261285], [6.257230198314678, 45.148641084011395], [6.256291042982021, 45.14872633540992], [6.255351887649363, 45.148811586808456], [6.254412732316707, 45.148896838206994], [6.253473576984051, 45.14898208960553], [6.252534421651395, 45.14906734100406], [6.2515952663187395, 45.1491525924026], [6.250656110986082, 45.14923784380113], [6.249716955653426, 45.14932309519967], [6.24877780032077, 45.1494083465982], [6.24877780032077, 45.1494083465982], [6.246502310334357, 45.14880959704291], [6.24422682034794, 45.14821084748761], [6.241951330361525, 45.14761209793232], [6.239675840375108, 45.14701334837702], [6.237400350388695, 45.14641459882173], [6.235124860402282, 45.14581584926643], [6.232849370415865, 45.14521709971113], [6.230573880429452, 45.14461835015584], [6.228298390443035, 45.14401960060054], [6.226022900456622, 45.14342085104524], [6.226022900456622, 45.14342085104524], [6.224591706057765, 45.144821957453985], [6.223160511658907, 45.146223063862735], [6.221729317260053, 45.14762417027148], [6.220298122861196, 45.14902527668022], [6.21886692846234, 45.15042638308896], [6.217435734063484, 45.151827489497705], [6.216004539664626, 45.15322859590646], [6.214573345265771, 45.1546297023152], [6.213142150866915, 45.15603080872394], [6.211710956468059, 45.15743191513269], [6.211710956468059, 45.15743191513269], [6.209042667813133, 45.15825165016571], [6.206374379158211, 45.15907138519874], [6.203706090503285, 45.15989112023176], [6.201037801848363, 45.160710855264796], [6.198369513193439, 45.16153059029781], [6.1957012245385155, 45.16235032533084], [6.193032935883593, 45.16317006036386], [6.190364647228668, 45.163989795396894], [6.187696358573744, 45.16480953042991], [6.18502806991882, 45.16562926546294], [6.18502806991882, 45.16562926546294], [6.183814700447892, 45.164552213758455], [6.182601330976961, 45.16347516205396], [6.181387961506029, 45.162398110349464], [6.180174592035101, 45.16132105864497], [6.178961222564171, 45.16024400694049], [6.177747853093242, 45.159166955235996], [6.176534483622314, 45.158089903531504], [6.175321114151382, 45.15701285182702], [6.1741077446804535, 45.15593580012253], [6.172894375209523, 45.154858748418036], [6.172894375209523, 45.154858748418036], [6.1724739921309055, 45.154773157727156], [6.172053609052286, 45.15468756703629], [6.17163322597367, 45.15460197634541], [6.171212842895052, 45.15451638565454], [6.170792459816434, 45.15443079496366], [6.1703720767378165, 45.15434520427279], [6.169951693659197, 45.154259613581914], [6.169531310580581, 45.15417402289104], [6.169110927501963, 45.15408843220017], [6.168690544423345, 45.154002841509296], [6.168690544423345, 45.154002841509296], [6.168319293450965, 45.153797648622586], [6.167948042478589, 45.15359245573587], [6.1675767915062085, 45.153387262849165], [6.16720554053383, 45.153182069962455], [6.16683428956145, 45.152976877075744], [6.16646303858907, 45.152771684189034], [6.166091787616693, 45.15256649130233], [6.165720536644313, 45.15236129841562], [6.165349285671935, 45.1521561055289], [6.164978034699555, 45.15195091264219], [6.164978034699555, 45.15195091264219], [6.163248221818069, 45.152292314668706], [6.161518408936585, 45.15263371669522], [6.159788596055099, 45.15297511872172], [6.158058783173612, 45.15331652074823], [6.156328970292124, 45.15365792277474], [6.154599157410642, 45.153999324801255], [6.1528693445291545, 45.154340726827755], [6.151139531647667, 45.15468212885427], [6.149409718766183, 45.155023530880776], [6.147679905884699, 45.1553649329073], [6.147679905884699, 45.1553649329073], [6.148001846732907, 45.15563848023318], [6.148323787581116, 45.15591202755907], [6.148645728429328, 45.156185574884965], [6.148967669277539, 45.156459122210855], [6.149289610125749, 45.15673266953675], [6.149611550973956, 45.15700621686264], [6.149933491822168, 45.15727976418853], [6.150255432670379, 45.15755331151443], [6.150577373518589, 45.157826858840316], [6.150899314366798, 45.15810040616621], [6.150899314366798, 45.15810040616621], [6.150826398276951, 45.15876699108166], [6.150753482187103, 45.15943357599712], [6.150680566097254, 45.16010016091258], [6.150607650007403, 45.16076674582803], [6.1505347339175565, 45.161433330743485], [6.150461817827708, 45.16209991565894], [6.150388901737859, 45.16276650057439], [6.15031598564801, 45.16343308548985], [6.150243069558162, 45.1640996704053], [6.150170153468313, 45.16476625532075], [6.150170153468313, 45.16476625532075], [6.151607404384437, 45.16654414938341], [6.15304465530056, 45.16832204344606], [6.1544819062166845, 45.17009993750871], [6.155919157132805, 45.17187783157136], [6.15735640804893, 45.173655725634], [6.1587936589650525, 45.175433619696655], [6.160230909881177, 45.17721151375931], [6.1616681607973, 45.17898940782196], [6.163105411713422, 45.18076730188461], [6.164542662629547, 45.18254519594725], [6.164542662629547, 45.18254519594725], [6.1646675939484386, 45.18321183023837], [6.164792525267329, 45.18387846452949], [6.16491745658622, 45.18454509882061], [6.165042387905109, 45.18521173311173], [6.165167319224002, 45.18587836740285], [6.165292250542894, 45.186545001693965], [6.165417181861784, 45.18721163598508], [6.165542113180676, 45.1878782702762], [6.165667044499566, 45.18854490456731], [6.165791975818458, 45.18921153885843], [6.165791975818458, 45.18921153885843], [6.165522709744099, 45.19061293524309], [6.165253443669739, 45.192014331627725], [6.164984177595381, 45.19341572801238], [6.1647149115210205, 45.19481712439702], [6.16444564544666, 45.19621852078167], [6.1641763793723, 45.19761991716632], [6.16390711329794, 45.19902131355097], [6.1636378472235815, 45.200422709935616], [6.163368581149223, 45.20182410632027], [6.163099315074863, 45.20322550270491], [6.163099315074863, 45.20322550270491], [6.161148358893634, 45.20428475506027], [6.159197402712405, 45.205344007415626], [6.157246446531177, 45.20640325977099], [6.155295490349946, 45.20746251212634], [6.153344534168719, 45.208521764481695], [6.151393577987493, 45.209581016837056], [6.149442621806262, 45.21064026919241], [6.147491665625033, 45.211699521547764], [6.145540709443804, 45.212758773903126], [6.143589753262576, 45.21381802625848], [6.143589753262576, 45.21381802625848], [6.143614910975295, 45.21484353371544], [6.1436400686880095, 45.21586904117238], [6.143665226400724, 45.21689454862934], [6.143690384113441, 45.2179200560863], [6.143715541826159, 45.21894556354325], [6.143740699538874, 45.2199710710002], [6.143765857251589, 45.220996578457154], [6.143791014964309, 45.222022085914105], [6.143816172677024, 45.223047593371064], [6.143841330389739, 45.22407310082801], [6.143841330389739, 45.22407310082801], [6.14273030862981, 45.224790619688115], [6.141619286869879, 45.225508138548214], [6.140508265109952, 45.22622565740832], [6.139397243350022, 45.22694317626842], [6.138286221590093, 45.22766069512853], [6.137175199830164, 45.22837821398863], [6.136064178070235, 45.229095732848734], [6.134953156310305, 45.22981325170883], [6.133842134550374, 45.23053077056893], [6.132731112790445, 45.23124828942904], [6.132731112790445, 45.23124828942904], [6.132584798872747, 45.23229087312579], [6.132438484955051, 45.23333345682254], [6.132292171037351, 45.23437604051929], [6.132145857119655, 45.23541862421604], [6.131999543201957, 45.23646120791279], [6.1318532292842605, 45.23750379160955], [6.131706915366564, 45.2385463753063], [6.131560601448864, 45.23958895900304], [6.13141428753117, 45.24063154269979], [6.131267973613472, 45.24167412639654], [6.131267973613472, 45.24167412639654], [6.1311203071433376, 45.242015923270415], [6.130972640673205, 45.242357720144284], [6.130824974203069, 45.24269951701816], [6.130677307732935, 45.24304131389203], [6.1305296412628, 45.2433831107659], [6.130381974792668, 45.24372490763977], [6.1302343083225335, 45.24406670451365], [6.130086641852397, 45.24440850138752], [6.129938975382263, 45.24475029826139], [6.129791308912129, 45.24509209513526], [6.129791308912129, 45.24509209513526], [6.13122849385266, 45.246835805808836], [6.132665678793192, 45.24857951648241], [6.13410286373372, 45.25032322715597], [6.135540048674251, 45.25206693782954], [6.136977233614781, 45.253810648503105], [6.138414418555314, 45.25555435917668], [6.13985160349584, 45.25729806985024], [6.141288788436372, 45.259041780523816], [6.142725973376901, 45.26078549119738], [6.144163158317433, 45.26252920187095], [6.144163158317433, 45.26252920187095], [6.143522159638255, 45.26343487392815], [6.142881160959078, 45.26434054598535], [6.142240162279899, 45.265246218042556], [6.141599163600722, 45.266151890099756], [6.140958164921546, 45.26705756215696], [6.140317166242367, 45.26796323421416], [6.1396761675631915, 45.26886890627136], [6.139035168884012, 45.269774578328565], [6.138394170204833, 45.270680250385766], [6.137753171525656, 45.271585922442966], [6.137753171525656, 45.271585922442966], [6.137608144079243, 45.27329505488009], [6.137463116632828, 45.27500418731721], [6.137318089186412, 45.276713319754336], [6.137173061739999, 45.27842245219146], [6.137028034293586, 45.280131584628585], [6.136883006847171, 45.28184071706571], [6.136737979400756, 45.28354984950283], [6.136592951954341, 45.28525898193996], [6.136447924507927, 45.28696811437708], [6.136302897061514, 45.28867724681421], [6.136302897061514, 45.28867724681421], [6.1373178715156715, 45.289429534313214], [6.138332845969828, 45.29018182181222], [6.1393478204239855, 45.29093410931122], [6.140362794878143, 45.29168639681024], [6.141377769332301, 45.292438684309246], [6.142392743786459, 45.293190971808265], [6.143407718240619, 45.29394325930727], [6.144422692694777, 45.294695546806274], [6.145437667148933, 45.295447834305286], [6.1464526416030925, 45.2962001218043], [6.1464526416030925, 45.2962001218043], [6.146354417208311, 45.29654193101715], [6.1462561928135315, 45.296883740229994], [6.146157968418754, 45.29722554944285], [6.146059744023974, 45.297567358655705], [6.145961519629193, 45.29790916786856], [6.145863295234415, 45.29825097708141], [6.145765070839635, 45.298592786294265], [6.145666846444856, 45.29893459550711], [6.145568622050076, 45.29927640471997], [6.145470397655295, 45.29961821393282], [6.145470397655295, 45.29961821393282], [6.146633249638096, 45.300097071355864], [6.147796101620894, 45.300575928778905], [6.148958953603692, 45.301054786201945], [6.150121805586492, 45.301533643624985], [6.151284657569288, 45.302012501048026], [6.152447509552088, 45.30249135847107], [6.153610361534886, 45.30297021589411], [6.154773213517686, 45.303449073317154], [6.15593606550048, 45.303927930740194], [6.157098917483282, 45.304406788163234], [6.157098917483282, 45.304406788163234], [6.157595020667232, 45.30527861532132], [6.158091123851181, 45.30615044247941], [6.158587227035129, 45.30702226963749], [6.1590833302190795, 45.30789409679557], [6.159579433403026, 45.30876592395366], [6.160075536586975, 45.30963775111175], [6.160571639770927, 45.31050957826984], [6.1610677429548755, 45.311381405427916], [6.161563846138826, 45.312253232586], [6.162059949322774, 45.31312505974409], [6.162059949322774, 45.31312505974409], [6.162250057894852, 45.313173182683656], [6.162440166466931, 45.31322130562323], [6.162630275039007, 45.313269428562805], [6.162820383611084, 45.31331755150237], [6.163010492183163, 45.313365674441954], [6.163200600755239, 45.313413797381514], [6.163390709327318, 45.31346192032109], [6.163580817899394, 45.31351004326067], [6.1637709264714715, 45.31355816620024], [6.163961035043547, 45.313606289139805]]]}}]}