{"type": "FeatureCollection", "features": [{"type": "Feature", "properties": {"diocese": "Bazas", "province": "IV_Auch", "source": "21_Bazas.txt"}, "geometry": {"type": "Polygon", "coordinates": [[[-0.016649378447166407, 44.793865230595074], [-0.023909021102773376, 44.79098025646703], [-0.031168663758378568, 44.78809528233899], [-0.038428306413985536, 44.78521030821095], [-0.045687949069591616, 44.78232533408291], [-0.05294759172519947, 44.779440359954876], [-0.060207234380804664, 44.77655538582684], [-0.06746687703641074, 44.773670411698795], [-0.0747265196920186, 44.77078543757076], [-0.08198616234762457, 44.76790046344273], [-0.08924580500323054, 44.765015489314685], [-0.08924580500323054, 44.765015489314685], [-0.092874730475908, 44.76363548967938], [-0.09650365594858612, 44.762255490044076], [-0.10013258142126347, 44.760875490408765], [-0.10376150689394081, 44.75949549077347], [-0.10739043236661816, 44.75811549113816], [-0.11101935783929617, 44.756735491502866], [-0.11464828331197441, 44.75535549186756], [-0.11827720878465176, 44.75397549223225], [-0.12190613425732988, 44.75259549259695], [-0.12553505973000711, 44.75121549296165], [-0.12553505973000711, 44.75121549296165], [-0.12861344651252615, 44.75409788708594], [-0.1316918332950453, 44.75698028121023], [-0.13477022007756423, 44.75986267533453], [-0.13784860686008338, 44.76274506945882], [-0.1409269936426032, 44.76562746358312], [-0.14400538042512057, 44.768509857707414], [-0.14708376720764038, 44.77139225183171], [-0.15016215399016053, 44.774274645956], [-0.1532405407726778, 44.77715704008029], [-0.15631892755519772, 44.78003943420459], [-0.15631892755519772, 44.78003943420459], [-0.1592261249868363, 44.77715554629177], [-0.16213332241847478, 44.77427165837896], [-0.16504051985011237, 44.77138777046615], [-0.16794771728175095, 44.76850388255334], [-0.17085491471339043, 44.76561999464052], [-0.1737621121450279, 44.76273610672771], [-0.1766693095766665, 44.7598522188149], [-0.17957650700830496, 44.75696833090208], [-0.18248370443994366, 44.75408444298926], [-0.18539090187158203, 44.75120055507645], [-0.18539090187158203, 44.75120055507645], [-0.1857643962221478, 44.74580807585542], [-0.18613789057271346, 44.7404155966344], [-0.18651138492327912, 44.73502311741337], [-0.18688487927384478, 44.72963063819234], [-0.18725837362441045, 44.72423815897132], [-0.187631867974976, 44.7188456797503], [-0.18800536232554266, 44.71345320052927], [-0.18837885667610732, 44.70806072130824], [-0.18875235102667298, 44.70266824208721], [-0.18912584537723964, 44.69727576286619], [-0.18912584537723964, 44.69727576286619], [-0.18804214177209944, 44.69439287094005], [-0.18695843816696, 44.69150997901392], [-0.18587473456182058, 44.68862708708779], [-0.18479103095668026, 44.685744195161654], [-0.18370732735154083, 44.682861303235526], [-0.1826236237464025, 44.67997841130938], [-0.1815399201412623, 44.67709551938325], [-0.18045621653612376, 44.67421262745712], [-0.17937251293098355, 44.67132973553098], [-0.17828880932584323, 44.668446843604855], [-0.17828880932584323, 44.668446843604855], [-0.17704596768485603, 44.655156220953515], [-0.17580312604386772, 44.64186559830218], [-0.1745602844028793, 44.62857497565086], [-0.1733174427618912, 44.61528435299952], [-0.172074601120903, 44.60199373034818], [-0.1708317594799148, 44.58870310769684], [-0.1695889178389266, 44.575412485045504], [-0.1683460761979374, 44.56212186239417], [-0.1671032345569492, 44.54883123974284], [-0.16586039291596177, 44.535540617091506], [-0.16586039291596177, 44.535540617091506], [-0.16804044193869505, 44.53315790215808], [-0.1702204909614281, 44.530775187224656], [-0.17240053998416116, 44.52839247229124], [-0.17458058900689433, 44.52600975735782], [-0.1767606380296276, 44.5236270424244], [-0.17894068705236055, 44.521244327490976], [-0.1811207360750937, 44.51886161255756], [-0.18330078509782877, 44.51647889762413], [-0.18548083412056082, 44.51409618269072], [-0.18766088314329488, 44.51171346775729], [-0.18766088314329488, 44.51171346775729], [-0.19165444589939595, 44.51033337712152], [-0.19564800865549792, 44.50895328648574], [-0.19964157141159977, 44.507573195849965], [-0.20363513416770185, 44.50619310521419], [-0.2076286969238038, 44.50481301457842], [-0.21162225967990578, 44.50343292394264], [-0.21561582243600763, 44.50205283330686], [-0.2196093851921086, 44.50067274267109], [-0.22360294794821145, 44.49929265203532], [-0.22759651070431342, 44.49791256139954], [-0.22759651070431342, 44.49791256139954], [-0.2328553318883232, 44.49740921830158], [-0.23811415307233097, 44.49690587520363], [-0.24337297425634064, 44.49640253210568], [-0.24863179544034952, 44.495899189007716], [-0.2538906166243592, 44.49539584590976], [-0.2591494378083671, 44.49489250281181], [-0.26440825899237674, 44.494389159713855], [-0.2696670801763865, 44.493885816615894], [-0.2749259013603953, 44.49338247351794], [-0.2801847225444041, 44.49287913041998], [-0.2801847225444041, 44.49287913041998], [-0.2965510718891742, 44.4699294160738], [-0.3129174212339445, 44.44697970172761], [-0.32928377057871483, 44.42402998738141], [-0.34565011992348427, 44.40108027303522], [-0.3620164692682545, 44.37813055868903], [-0.3783828186130247, 44.35518084434284], [-0.39474916795779413, 44.33223112999664], [-0.41111551730256335, 44.30928141565045], [-0.42748186664733456, 44.28633170130427], [-0.4438482159921039, 44.26338198695807], [-0.4438482159921039, 44.26338198695807], [-0.4449955922934177, 44.260494272149], [-0.44614296859473157, 44.25760655733992], [-0.44729034489604524, 44.254718842530856], [-0.4484377211973609, 44.25183112772177], [-0.4495850974986739, 44.2489434129127], [-0.4507324737999876, 44.24605569810363], [-0.4518798501013024, 44.24316798329455], [-0.4530272264026154, 44.240280268485485], [-0.45417460270393006, 44.2373925536764], [-0.45532197900524385, 44.23450483886733], [-0.45532197900524385, 44.23450483886733], [-0.4631461888214291, 44.23370496426642], [-0.4709703986376126, 44.23290508966552], [-0.47879460845379596, 44.232105215064614], [-0.48661881826998027, 44.23130534046372], [-0.4944430280861654, 44.23050546586281], [-0.5022672379023497, 44.22970559126191], [-0.5100914477185341, 44.228905716661004], [-0.5179156575347166, 44.2281058420601], [-0.5257398673509018, 44.227305967459195], [-0.5335640771670861, 44.226506092858294], [-0.5335640771670861, 44.226506092858294], [-0.5394708344652224, 44.222514735490414], [-0.5453775917633569, 44.218523378122526], [-0.5512843490614923, 44.21453202075464], [-0.5571911063596275, 44.21054066338676], [-0.5630978636577629, 44.20654930601888], [-0.5690046209558993, 44.202557948650984], [-0.5749113782540328, 44.198566591283104], [-0.5808181355521681, 44.194575233915224], [-0.5867248928503036, 44.19058387654733], [-0.5926316501484389, 44.18659251917945], [-0.5926316501484389, 44.18659251917945], [-0.5969921663862231, 44.186414114959554], [-0.6013526826240061, 44.18623571073966], [-0.6057131988617903, 44.186057306519764], [-0.6100737150995734, 44.18587890229986], [-0.6144342313373558, 44.18570049807997], [-0.6187947475751397, 44.18552209386007], [-0.623155263812923, 44.18534368964018], [-0.6275157800507063, 44.18516528542027], [-0.6318762962884902, 44.18498688120038], [-0.6362368125262735, 44.18480847698048], [-0.6362368125262735, 44.18480847698048], [-0.6368826292995698, 44.18241444054996], [-0.6375284460728659, 44.18002040411947], [-0.6381742628461622, 44.17762636768895], [-0.6388200796194594, 44.17523233125844], [-0.6394658963927549, 44.17283829482793], [-0.640111713166051, 44.17044425839743], [-0.6407575299393473, 44.168050221966915], [-0.6414033467126435, 44.165656185536406], [-0.6420491634859399, 44.1632621491059], [-0.642694980259236, 44.160868112675395], [-0.642694980259236, 44.160868112675395], [-0.6404535951309605, 44.1590067447589], [-0.6382122100026848, 44.157145376842394], [-0.6359708248744094, 44.155284008925896], [-0.6337294397461348, 44.15342264100939], [-0.6314880546178592, 44.1515612730929], [-0.6292466694895836, 44.149699905176405], [-0.6270052843613089, 44.1478385372599], [-0.6247638992330334, 44.1459771693434], [-0.622522514104757, 44.1441158014269], [-0.6202811289764824, 44.14225443351041], [-0.6202811289764824, 44.14225443351041], [-0.6180412864409586, 44.14039306520893], [-0.615801443905433, 44.13853169690746], [-0.6135616013699092, 44.13667032860598], [-0.6113217588343854, 44.13480896030451], [-0.6090819162988608, 44.132947592003035], [-0.6068420737633352, 44.13108622370156], [-0.6046022312278114, 44.12922485540008], [-0.6023623886922866, 44.127363487098606], [-0.6001225461567629, 44.12550211879713], [-0.5978827036212382, 44.12364075049566], [-0.5978827036212382, 44.12364075049566], [-0.5901887960702944, 44.12337664194176], [-0.5824948885193525, 44.12311253338786], [-0.5748009809684098, 44.12284842483396], [-0.5671070734174652, 44.122584316280054], [-0.5594131658665235, 44.12232020772615], [-0.5517192583155806, 44.12205609917225], [-0.5440253507646368, 44.121791990618355], [-0.5363314432136932, 44.121527882064456], [-0.5286375356627503, 44.12126377351055], [-0.5209436281118076, 44.12099966495665], [-0.5209436281118076, 44.12099966495665], [-0.5074708618059445, 44.12490425253554], [-0.4939980955000815, 44.12880884011444], [-0.48052532919421753, 44.13271342769334], [-0.4670525628883546, 44.13661801527223], [-0.45357979658249237, 44.14052260285113], [-0.44010703027662756, 44.14442719043002], [-0.42663426397076454, 44.14833177800892], [-0.4131614976649025, 44.15223636558781], [-0.3996887313590385, 44.15614095316671], [-0.38621596505317446, 44.16004554074561], [-0.38621596505317446, 44.16004554074561], [-0.3824987066793899, 44.15915983379526], [-0.37878144830560256, 44.15827412684492], [-0.3750641899318172, 44.157388419894566], [-0.37134693155803067, 44.156502712944224], [-0.3676296731842452, 44.155617005993875], [-0.3639124148104588, 44.15473129904353], [-0.3601951564366732, 44.15384559209319], [-0.3564778980628869, 44.15295988514284], [-0.35276063968910043, 44.1520741781925], [-0.34904338131531487, 44.15118847124216], [-0.34904338131531487, 44.15118847124216], [-0.34148198479958336, 44.148707770350995], [-0.33392058828385185, 44.14622706945984], [-0.326359191768121, 44.143746368568685], [-0.3187977952523904, 44.14126566767754], [-0.31123639873665865, 44.13878496678638], [-0.30367500222092736, 44.13630426589522], [-0.2961136057051956, 44.13382356500407], [-0.288552209189465, 44.13134286411291], [-0.2809908126737335, 44.12886216322176], [-0.27342941615800265, 44.126381462330606], [-0.27342941615800265, 44.126381462330606], [-0.26868178949310195, 44.1278012297859], [-0.26393416282820104, 44.129220997241205], [-0.25918653616330034, 44.13064076469651], [-0.25443890949839965, 44.132060532151804], [-0.24969128283349984, 44.13348029960711], [-0.24494365616859892, 44.13490006706241], [-0.24019602950369723, 44.136319834517714], [-0.2354484028387983, 44.13773960197302], [-0.23070077617389662, 44.13915936942831], [-0.2259531495089967, 44.140579136883616], [-0.2259531495089967, 44.140579136883616], [-0.22070196559101707, 44.13792059814869], [-0.21545078167303844, 44.135262059413755], [-0.2101995977550578, 44.13260352067883], [-0.20494841383707907, 44.12994498194389], [-0.19969722991910044, 44.12728644320896], [-0.1944460460011208, 44.12462790447403], [-0.18919486208314218, 44.1219693657391], [-0.18394367816516244, 44.11931082700416], [-0.1786924942471828, 44.116652288269236], [-0.17344131032920418, 44.1139937495343], [-0.17344131032920418, 44.1139937495343], [-0.1709489295383586, 44.114897031354374], [-0.16845654874751392, 44.11580031317446], [-0.16596416795666924, 44.11670359499454], [-0.16347178716582444, 44.11760687681462], [-0.16097940637497987, 44.11851015863469], [-0.1584870255841353, 44.11941344045477], [-0.1559946447932905, 44.12031672227485], [-0.15350226400244582, 44.12122000409493], [-0.15100988321160025, 44.12212328591501], [-0.14851750242075545, 44.12302656773509], [-0.14851750242075545, 44.12302656773509], [-0.14688010607620827, 44.12603615233561], [-0.14524270973165931, 44.12904573693613], [-0.1436053133871119, 44.13205532153666], [-0.14196791704256295, 44.13506490613718], [-0.14033052069801577, 44.1380744907377], [-0.13869312435346748, 44.141084075338235], [-0.1370557280089193, 44.144093659938754], [-0.13541833166437034, 44.14710324453928], [-0.13378093531982227, 44.1501128291398], [-0.13214353897527398, 44.153122413740334], [-0.13214353897527398, 44.153122413740334], [-0.129966537156182, 44.153122957042406], [-0.1277895353370908, 44.153123500344485], [-0.12561253351799873, 44.15312404364656], [-0.12343553169890775, 44.153124586948636], [-0.12125852987981578, 44.1531251302507], [-0.1190815280607238, 44.15312567355277], [-0.1169045262416335, 44.15312621685485], [-0.11472752442254142, 44.15312676015693], [-0.11255052260345044, 44.15312730345901], [-0.11037352078435836, 44.15312784676108], [-0.11037352078435836, 44.15312784676108], [-0.1058376457028376, 44.15450807273869], [-0.10130177062131684, 44.15588829871629], [-0.09676589553979542, 44.1572685246939], [-0.09223002045827466, 44.15864875067151], [-0.08769414537675413, 44.16002897664911], [-0.08315827029523337, 44.161409202626714], [-0.07862239521371261, 44.16278942860433], [-0.07408652013219119, 44.164169654581926], [-0.06955064505067043, 44.16554988055954], [-0.0650147699691499, 44.16693010653714], [-0.0650147699691499, 44.16693010653714], [-0.06410176127374545, 44.170065578634535], [-0.063188752578342, 44.17320105073192], [-0.06227574388293855, 44.17633652282931], [-0.06136273518753432, 44.1794719949267], [-0.06044972649212976, 44.18260746702409], [-0.059536717796725425, 44.18574293912148], [-0.058623709101321975, 44.188878411218866], [-0.057710700405917637, 44.19201388331626], [-0.05679769171051341, 44.19514935541365], [-0.05588468301510985, 44.198284827511046], [-0.05588468301510985, 44.198284827511046], [-0.053341547212436224, 44.200667633057975], [-0.050798411409760824, 44.203050438604926], [-0.04825527560708631, 44.20543324415186], [-0.04571213980441258, 44.207816049698806], [-0.043169004001739064, 44.21019885524574], [-0.04062586819906355, 44.212581660792694], [-0.03808273239638904, 44.21496446633963], [-0.03553959659371442, 44.217347271886574], [-0.03299646079104157, 44.219730077433525], [-0.03045332498836628, 44.222112882980454], [-0.03045332498836628, 44.222112882980454], [-0.024284303005923213, 44.22349351653333], [-0.01811528102348192, 44.22487415008621], [-0.011946259041039742, 44.22625478363908], [-0.005777237058596452, 44.227635417191955], [0.00039178492384561725, 44.22901605074484], [0.006560806906288685, 44.23039668429771], [0.012729828888730976, 44.23177731785058], [0.018898850871172268, 44.233157951403456], [0.025067872853615336, 44.23453858495633], [0.031236894836057516, 44.2359192185092], [0.031236894836057516, 44.2359192185092], [0.03450016293917524, 44.235167998707084], [0.037763431042292295, 44.23441677890495], [0.04102669914541024, 44.23366555910283], [0.044289967248528184, 44.232914339300706], [0.04755323535164768, 44.23216311949857], [0.05081650345476474, 44.23141189969645], [0.05407977155788268, 44.230660679894335], [0.05734303966100063, 44.2299094600922], [0.06060630776411857, 44.229158240290076], [0.06386957586723563, 44.22840702048796], [0.06386957586723563, 44.22840702048796], [0.06677241890973695, 44.22903480472141], [0.0696752619522365, 44.22966258895486], [0.07257810499473805, 44.230290373188296], [0.07548094803723848, 44.230918157421755], [0.07838379107973825, 44.2315459416552], [0.08128663412223958, 44.23217372588865], [0.08418947716474023, 44.232801510122094], [0.08709232020724156, 44.233429294355545], [0.08999516324974133, 44.23405707858899], [0.09289800629224265, 44.23468486282244], [0.09289800629224265, 44.23468486282244], [0.09308167735656303, 44.236188977055306], [0.09326534842088452, 44.237693091288165], [0.09344901948520401, 44.23919720552103], [0.09363269054952639, 44.24070131975389], [0.09381636161384588, 44.24220543398675], [0.09400003267816737, 44.24370954821961], [0.09418370374248863, 44.24521366245248], [0.09436737480680835, 44.24671777668533], [0.0945510458711305, 44.248221890918195], [0.09473471693545021, 44.24972600515106], [0.09473471693545021, 44.24972600515106], [0.09383487657043155, 44.252609982137436], [0.09293503620541488, 44.25549395912381], [0.09203519584039643, 44.25837793611018], [0.0911353554753771, 44.26126191309656], [0.09023551511035932, 44.26414589008293], [0.08933567474534088, 44.267029867069304], [0.08843583438032332, 44.26991384405568], [0.08753599401530399, 44.27279782104205], [0.08663615365028621, 44.275681798028415], [0.08573631328526776, 44.2785657750148], [0.08573631328526776, 44.2785657750148], [0.08646337267568693, 44.279820076037446], [0.0871904320661061, 44.2810743770601], [0.08791749145652461, 44.28232867808276], [0.08864455084694356, 44.28358297910541], [0.08937161023736295, 44.284837280128066], [0.09009866962778301, 44.28609158115073], [0.09082572901820152, 44.287345882173376], [0.0915527884086198, 44.28860018319604], [0.09227984779903986, 44.28985448421869], [0.09300690718945814, 44.29110878524135], [0.09300690718945814, 44.29110878524135], [0.09699916855957746, 44.29261384996263], [0.1009914299296959, 44.2941189146839], [0.10498369129981433, 44.295623979405185], [0.10897595266993365, 44.29712904412647], [0.11296821404005208, 44.29863410884774], [0.11696047541017052, 44.30013917356903], [0.12095273678028962, 44.3016442382903], [0.12494499815040827, 44.30314930301159], [0.12893725952052737, 44.30465436773286], [0.13292952089064602, 44.306159432454145], [0.13292952089064602, 44.306159432454145], [0.13275140645544914, 44.30753842729456], [0.13257329202025026, 44.30891742213497], [0.13239517758505137, 44.31029641697538], [0.1322170631498527, 44.3116754118158], [0.13203894871465582, 44.313054406656214], [0.13186083427945694, 44.31443340149662], [0.13168271984425828, 44.31581239633704], [0.13150460540906117, 44.31719139117745], [0.1313264909738634, 44.31857038601786], [0.1311483765386645, 44.319949380858276], [0.1311483765386645, 44.319949380858276], [0.13278311126944908, 44.32157992550313], [0.13441784600023565, 44.323210470147984], [0.1360525807310211, 44.32484101479283], [0.13768731546180657, 44.326471559437685], [0.13932205019259092, 44.32810210408253], [0.1409567849233766, 44.329732648727386], [0.14259151965416184, 44.33136319337224], [0.1442262543849464, 44.33299373801709], [0.14586098911573186, 44.33462428266194], [0.14749572384651666, 44.336254827306796], [0.14749572384651666, 44.336254827306796], [0.14732100487845923, 44.33938898877159], [0.14714628591040024, 44.34252315023639], [0.14697156694234215, 44.345657311701196], [0.14679684797428405, 44.348791473165996], [0.14662212900622573, 44.35192563463079], [0.14644741003816764, 44.35505979609559], [0.14627269107010865, 44.35819395756039], [0.14609797210205144, 44.36132811902519], [0.14592325313399224, 44.36446228048998], [0.14574853416593436, 44.36759644195479], [0.14574853416593436, 44.36759644195479], [0.14376425866474007, 44.37298838745388], [0.14177998316354712, 44.378380332952965], [0.13979570766235283, 44.38377227845206], [0.13781143216115876, 44.38916422395114], [0.1358271566599658, 44.394556169450226], [0.13384288115877152, 44.39994811494932], [0.13185860565757745, 44.40534006044841], [0.12987433015638317, 44.4107320059475], [0.12789005465519, 44.41612395144658], [0.12590577915399592, 44.42151589694567], [0.12590577915399592, 44.42151589694567], [0.12754341670531177, 44.424650456016685], [0.12918105425662785, 44.42778501508768], [0.13081869180794437, 44.430919574158686], [0.13245632935926088, 44.4340541332297], [0.1340939669105763, 44.4371886923007], [0.13573160446189192, 44.440323251371716], [0.13736924201320821, 44.44345781044271], [0.1390068795645245, 44.446592369513716], [0.14064451711584103, 44.44972692858473], [0.14228215466715732, 44.452861487655724], [0.14228215466715732, 44.452861487655724], [0.145368767814416, 44.4542413519492], [0.14845538096167443, 44.455621216242676], [0.1515419941089331, 44.45700108053615], [0.15462860725619088, 44.45838094482962], [0.1577152204034502, 44.45976080912309], [0.16080183355070865, 44.46114067341657], [0.16388844669796732, 44.46252053771004], [0.16697505984522665, 44.46390040200351], [0.17006167299248443, 44.46528026629698], [0.17314828613974287, 44.46666013059046], [0.17314828613974287, 44.46666013059046], [0.17641678655180382, 44.46941913426134], [0.17968528696386454, 44.47217813793221], [0.1829537873759246, 44.47493714160309], [0.18622228778798533, 44.47769614527397], [0.18949078820004606, 44.48045514894484], [0.1927592886121059, 44.483214152615716], [0.19602778902416684, 44.485973156286605], [0.19929628943622602, 44.488732159957486], [0.20256478984828763, 44.49149116362836], [0.20583329026034858, 44.494250167299235], [0.20583329026034858, 44.494250167299235], [0.20656697436983706, 44.49813762884115], [0.20730065847932555, 44.502025090383064], [0.20803434258881515, 44.505912551924986], [0.20876802669830452, 44.50980001346691], [0.20950171080779234, 44.51368747500882], [0.21023539491728194, 44.517574936550744], [0.2109690790267713, 44.52146239809266], [0.2117027631362598, 44.525349859634574], [0.21243644724574873, 44.529237321176495], [0.2131701313552381, 44.53312478271841], [0.2131701313552381, 44.53312478271841], [0.20774205290873282, 44.53939287737485], [0.20231397446222754, 44.545660972031285], [0.19688589601572337, 44.55192906668772], [0.1914578175692181, 44.55819716134415], [0.1860297391227137, 44.56446525600059], [0.18060166067620953, 44.57073335065703], [0.17517358222970425, 44.57700144531346], [0.1697455037831992, 44.58326953996989], [0.1643174253366939, 44.58953763462633], [0.15888934689018974, 44.595805729282766], [0.15888934689018974, 44.595805729282766], [0.15890047818667918, 44.601573095995136], [0.1589116094831684, 44.607340462707505], [0.15892274077965807, 44.61310782941988], [0.1589338720761484, 44.61887519613225], [0.15894500337263784, 44.62464256284463], [0.15895613466912728, 44.63040992955699], [0.15896726596561672, 44.63617729626937], [0.15897839726210616, 44.641944662981736], [0.1589895285585956, 44.64771202969411], [0.15900065985508505, 44.653479396406475], [0.15900065985508505, 44.653479396406475], [0.15574271719627375, 44.656989844681824], [0.15248477453746156, 44.66050029295717], [0.1492268318786496, 44.66401074123252], [0.1459688892198383, 44.66752118950786], [0.14271094656102523, 44.671031637783194], [0.13945300390221305, 44.674542086058544], [0.13619506124340175, 44.67805253433389], [0.1329371185845898, 44.681562982609236], [0.1296791759257776, 44.68507343088458], [0.1264212332669663, 44.688583879159914], [0.1264212332669663, 44.688583879159914], [0.12207895240119626, 44.69384916790669], [0.1177366715354271, 44.69911445665346], [0.11339439066965773, 44.70437974540023], [0.10905210980388858, 44.709645034147], [0.10470982893811942, 44.71491032289377], [0.10036754807234938, 44.72017561164054], [0.09602526720658, 44.725440900387305], [0.09168298634080996, 44.73070618913408], [0.08734070547504169, 44.73597147788085], [0.08299842460927254, 44.74123676662763], [0.08299842460927254, 44.74123676662763], [0.08409050465621437, 44.743493141764546], [0.08518258470315554, 44.745749516901476], [0.08627466475009848, 44.748005892038414], [0.08736674479704032, 44.75026226717533], [0.08845882484398215, 44.75251864231226], [0.08955090489092421, 44.75477501744919], [0.09064298493786604, 44.75703139258611], [0.09173506498480899, 44.759287767723045], [0.09282714503174994, 44.76154414285997], [0.09391922507869288, 44.76380051799689], [0.09391922507869288, 44.76380051799689], [0.08938576259899578, 44.76367441219593], [0.08485230011929756, 44.76354830639496], [0.08031883763960201, 44.763422200594], [0.07578537515990491, 44.76329609479303], [0.0712519126802067, 44.76316998899206], [0.06671845020050937, 44.763043883191095], [0.062184987720813156, 44.762917777390136], [0.05765152524111672, 44.76279167158916], [0.05311806276141873, 44.7626655657882], [0.0485846002817214, 44.76253945998723], [0.0485846002817214, 44.76253945998723], [0.04206120240883271, 44.76567203704801], [0.03553780453594335, 44.7688046141088], [0.029014406663055547, 44.77193719116958], [0.022491008790167077, 44.77506976823037], [0.015967610917277386, 44.77820234529115], [0.009444213044388805, 44.78133492235194], [0.002920815171500224, 44.78446749941272], [-0.003602582701388357, 44.7876000764735], [-0.010125980574278826, 44.790732653534285], [-0.016649378447166407, 44.793865230595074]]]}}, {"type": "Feature", "properties": {"diocese": "Bazas", "province": "IV_Auch", "source": "21_Bazas.txt"}, "geometry": {"type": "Polygon", "coordinates": [[[-0.9259216711100191, 44.43253391126003], [-0.925764653658433, 44.42903226044859], [-0.9256076362068495, 44.42553060963715], [-0.9254506187552635, 44.4220289588257], [-0.9252936013036781, 44.41852730801427], [-0.9251365838520929, 44.41502565720283], [-0.9249795664005077, 44.41152400639139], [-0.9248225489489226, 44.40802235557995], [-0.9246655314973364, 44.40452070476851], [-0.9245085140457513, 44.40101905395707], [-0.9243514965941659, 44.397517403145635], [-0.9243514965941659, 44.397517403145635], [-0.9206441633774691, 44.39148925652874], [-0.9169368301607712, 44.38546110991186], [-0.9132294969440736, 44.37943296329497], [-0.9095221637273768, 44.373404816678075], [-0.905814830510679, 44.36737667006119], [-0.9021074972939829, 44.361348523444306], [-0.8984001640772844, 44.355320376827414], [-0.8946928308605875, 44.34929223021053], [-0.8909854976438898, 44.34326408359364], [-0.8872781644271919, 44.337235936976754], [-0.8872781644271919, 44.337235936976754], [-0.8876681899135713, 44.33448831688289], [-0.8880582153999508, 44.33174069678903], [-0.8884482408863301, 44.328993076695184], [-0.8888382663727077, 44.32624545660133], [-0.889228291859087, 44.32349783650747], [-0.8896183173454665, 44.320750216413614], [-0.8900083428318458, 44.31800259631976], [-0.8903983683182243, 44.3152549762259], [-0.8907883938046036, 44.312507356132045], [-0.8911784192909831, 44.30975973603819], [-0.8911784192909831, 44.30975973603819], [-0.8923390819366066, 44.30639027847971], [-0.8934997445822302, 44.303020820921226], [-0.8946604072278537, 44.299651363362756], [-0.8958210698734771, 44.29628190580428], [-0.8969817325191006, 44.29291244824581], [-0.8981423951647252, 44.28954299068732], [-0.8993030578103487, 44.28617353312885], [-0.9004637204559722, 44.28280407557037], [-0.9016243831015958, 44.2794346180119], [-0.9027850457472193, 44.27606516045341], [-0.9027850457472193, 44.27606516045341], [-0.9021522343994979, 44.27172080314795], [-0.9015194230517757, 44.2673764458425], [-0.9008866117040542, 44.26303208853704], [-0.9002538003563318, 44.258687731231575], [-0.8996209890086105, 44.25434337392612], [-0.8989881776608882, 44.249999016620656], [-0.8983553663131669, 44.245654659315186], [-0.8977225549654456, 44.24131030200973], [-0.8970897436177224, 44.236965944704274], [-0.896456932270001, 44.23262158739881], [-0.896456932270001, 44.23262158739881], [-0.8924831842307398, 44.23173594445914], [-0.8885094361914767, 44.230850301519474], [-0.8845356881522155, 44.22996465857982], [-0.8805619401129516, 44.229079015640146], [-0.8765881920736903, 44.22819337270049], [-0.8726144440344283, 44.22730772976082], [-0.868640695995166, 44.22642208682115], [-0.864666947955904, 44.225536443881495], [-0.8606931999166408, 44.22465080094183], [-0.8567194518773789, 44.22376515800216], [-0.8567194518773789, 44.22376515800216], [-0.8505623812722021, 44.22456467123793], [-0.8444053106670273, 44.22536418447368], [-0.8382482400618516, 44.22616369770945], [-0.832091169456676, 44.22696321094521], [-0.8259340988515004, 44.22776272418097], [-0.8197770282463238, 44.22856223741673], [-0.813619957641149, 44.2293617506525], [-0.8074628870359734, 44.230161263888256], [-0.8013058164307977, 44.230960777124025], [-0.795148745825621, 44.23176029035979], [-0.795148745825621, 44.23176029035979], [-0.790405391777069, 44.23176147413192], [-0.785662037728516, 44.231762657904056], [-0.7809186836799638, 44.2317638416762], [-0.7761753296314107, 44.23176502544833], [-0.7714319755828577, 44.231766209220474], [-0.7666886215343046, 44.231767392992616], [-0.7619452674857524, 44.23176857676475], [-0.7572019134371996, 44.23176976053688], [-0.7524585593886475, 44.23177094430903], [-0.7477152053400953, 44.23177212808116], [-0.7477152053400953, 44.23177212808116], [-0.747321584236678, 44.23638271553323], [-0.7469279631332618, 44.24099330298531], [-0.7465343420298446, 44.24560389043738], [-0.7461407209264272, 44.250214477889465], [-0.7457470998230094, 44.254825065341535], [-0.7453534787195921, 44.259435652793606], [-0.7449598576161749, 44.26404624024569], [-0.7445662365127587, 44.268656827697754], [-0.7441726154093423, 44.27326741514984], [-0.7437789943059251, 44.27787800260191], [-0.7437789943059251, 44.27787800260191], [-0.7410825292054933, 44.27965194483465], [-0.7383860641050615, 44.28142588706738], [-0.7356895990046288, 44.283199829300116], [-0.7329931339041971, 44.284973771532854], [-0.7302966688037653, 44.286747713765585], [-0.7276002037033336, 44.28852165599832], [-0.7249037386029017, 44.290295598231054], [-0.722207273502469, 44.29206954046379], [-0.7195108084020373, 44.29384348269653], [-0.7168143433016054, 44.29561742492926], [-0.7168143433016054, 44.29561742492926], [-0.7162880341436051, 44.30253222358345], [-0.7157617249856035, 44.30944702223765], [-0.7152354158276041, 44.31636182089184], [-0.7147091066696027, 44.32327661954604], [-0.7141827975116014, 44.330191418200236], [-0.7136564883535997, 44.337106216854444], [-0.7131301791955994, 44.34402101550863], [-0.7126038700375981, 44.350935814162824], [-0.7120775608795975, 44.357850612817025], [-0.7115512517215971, 44.36476541147122], [-0.7115512517215971, 44.36476541147122], [-0.7049755316388708, 44.368728057675185], [-0.6983998115561444, 44.372690703879165], [-0.6918240914734183, 44.376653350083124], [-0.685248371390691, 44.380615996287105], [-0.6786726513079647, 44.38457864249107], [-0.6720969312252384, 44.388541288695045], [-0.6655212111425122, 44.39250393489902], [-0.658945491059785, 44.396466581102985], [-0.6523697709770596, 44.40042922730696], [-0.6457940508943324, 44.404391873510924], [-0.6457940508943324, 44.404391873510924], [-0.649871063557522, 44.40620897390986], [-0.6539480762207116, 44.40802607430879], [-0.6580250888839, 44.40984317470773], [-0.6621021015470895, 44.41166027510666], [-0.6661791142102791, 44.4134773755056], [-0.6702561268734677, 44.41529447590454], [-0.6743331395366563, 44.41711157630347], [-0.6784101521998459, 44.4189286767024], [-0.6824871648630355, 44.42074577710134], [-0.686564177526224, 44.42256287750027], [-0.686564177526224, 44.42256287750027], [-0.693451047663372, 44.42469228696529], [-0.70033791780052, 44.426821696430295], [-0.7072247879376679, 44.42895110589531], [-0.7141116580748159, 44.43108051536032], [-0.7209985282119621, 44.433209924825334], [-0.7278853983491101, 44.43533933429035], [-0.7347722684862572, 44.43746874375536], [-0.7416591386234062, 44.439598153220366], [-0.7485460087605532, 44.44172756268538], [-0.755432878897701, 44.44385697215039], [-0.755432878897701, 44.44385697215039], [-0.7724817581189325, 44.44272466606135], [-0.7895306373401649, 44.44159235997232], [-0.8065795165613964, 44.44046005388328], [-0.8236283957826287, 44.439327747794245], [-0.8406772750038601, 44.438195441705204], [-0.8577261542250916, 44.43706313561617], [-0.8747750334463238, 44.43593082952714], [-0.8918239126675555, 44.4347985234381], [-0.9088727918887877, 44.433666217349064], [-0.9259216711100191, 44.43253391126003]]]}}]}