{"type": "FeatureCollection", "features": [{"type": "Feature", "properties": {"diocese": "Couserans", "province": "IV_Auch", "source": "23_Couserans.txt"}, "geometry": {"type": "Polygon", "coordinates": [[[1.0480244526478741, 43.121303331532296], [1.0494243214648278, 43.11571789903061], [1.0508241902817805, 43.11013246652891], [1.052224059098735, 43.10454703402723], [1.0536239279156883, 43.09896160152553], [1.055023796732642, 43.09337616902385], [1.056423665549595, 43.08779073652216], [1.0578235343665487, 43.082205304020476], [1.0592234031835033, 43.07661987151879], [1.060623272000456, 43.0710344390171], [1.0620231408174101, 43.06544900651541], [1.0620231408174101, 43.06544900651541], [1.0583019386929173, 43.064295469204744], [1.0545807365684219, 43.06314193189409], [1.050859534443929, 43.06198839458342], [1.047138332319434, 43.06083485727276], [1.0434171301949409, 43.0596813199621], [1.0396959280704468, 43.05852778265143], [1.0359747259459526, 43.05737424534077], [1.0322535238214594, 43.056220708030104], [1.028532321696964, 43.05506717071944], [1.0248111195724716, 43.05391363340878], [1.0248111195724716, 43.05391363340878], [1.0241637626649318, 43.05072161994356], [1.0235164057573924, 43.04752960647834], [1.022869048849853, 43.04433759301312], [1.0222216919423137, 43.041145579547894], [1.0215743350347757, 43.03795356608267], [1.0209269781272359, 43.034761552617454], [1.0202796212196965, 43.03156953915223], [1.0196322643121571, 43.028377525687006], [1.0189849074046178, 43.02518551222178], [1.0183375504970793, 43.021993498756565], [1.0183375504970793, 43.021993498756565], [1.016028880386517, 43.02181560660434], [1.0137202102759555, 43.02163771445211], [1.0114115401653931, 43.021459822299896], [1.0091028700548315, 43.021281930147666], [1.00679419994427, 43.02110403799545], [1.0044855298337076, 43.020926145843234], [1.002176859723146, 43.020748253691], [0.9998681896125845, 43.02057036153877], [0.9975595195020219, 43.02039246938656], [0.9952508493914605, 43.02021457723434], [0.9952508493914605, 43.02021457723434], [0.9910213119653788, 43.021454788318955], [0.9867917745392949, 43.02269499940357], [0.9825622371132132, 43.02393521048819], [0.9783326996871304, 43.025175421572804], [0.9741031622610485, 43.026415632657425], [0.9698736248349662, 43.027655843742046], [0.9656440874088832, 43.02889605482666], [0.9614145499828013, 43.030136265911274], [0.9571850125567187, 43.0313764769959], [0.9529554751306359, 43.032616688080516], [0.9529554751306359, 43.032616688080516], [0.9516684538649187, 43.03022243693482], [0.9503814325992004, 43.02782818578912], [0.9490944113334829, 43.02543393464343], [0.9478073900677657, 43.02303968349772], [0.9465203688020465, 43.020645432352026], [0.9452333475363293, 43.01825118120633], [0.9439463262706118, 43.01585693006064], [0.9426593050048937, 43.01346267891494], [0.9413722837391765, 43.011068427769246], [0.9400852624734588, 43.00867417662354], [0.9400852624734588, 43.00867417662354], [0.9412363422961498, 43.00707856528474], [0.9423874221188417, 43.00548295394594], [0.9435385019415337, 43.003887342607136], [0.9446895817642256, 43.00229173126834], [0.9458406615869182, 43.00069611992954], [0.9469917414096103, 42.99910050859074], [0.948142821232302, 42.997504897251936], [0.9492939010549939, 42.995909285913136], [0.9504449808776858, 42.994313674574336], [0.9515960607003777, 42.99271806323554], [0.9515960607003777, 42.99271806323554], [0.9554429288659196, 42.99254165259291], [0.9592897970314627, 42.99236524195029], [0.9631366651970037, 42.99218883130767], [0.9669835333625465, 42.99201242066504], [0.9708304015280886, 42.99183601002242], [0.9746772696936308, 42.9916595993798], [0.9785241378591736, 42.99148318873718], [0.982371006024715, 42.991306778094554], [0.9862178741902579, 42.99113036745194], [0.9900647423557998, 42.99095395680931], [0.9900647423557998, 42.99095395680931], [0.9898034691895894, 42.988471358351966], [0.9895421960233797, 42.985988759894624], [0.9892809228571691, 42.983506161437276], [0.9890196496909596, 42.98102356297993], [0.988758376524749, 42.97854096452259], [0.9884971033585384, 42.97605836606524], [0.9882358301923277, 42.9735757676079], [0.987974557026118, 42.97109316915055], [0.9877132838599079, 42.96861057069321], [0.9874520106936981, 42.96612797223587], [0.9874520106936981, 42.96612797223587], [0.982057019104966, 42.961516136619935], [0.9766620275162321, 42.956904301004016], [0.9712670359274993, 42.9522924653881], [0.9658720443387661, 42.94768062977218], [0.960477052750035, 42.94306879415626], [0.9550820611613011, 42.93845695854033], [0.9496870695725681, 42.93384512292442], [0.9442920779838351, 42.92923328730849], [0.9388970863951029, 42.924621451692566], [0.9335020948063693, 42.920009616076655], [0.9335020948063693, 42.920009616076655], [0.9272203690244691, 42.921071999017755], [0.9209386432425692, 42.922134381958855], [0.9146569174606691, 42.92319676489996], [0.9083751916787701, 42.92425914784106], [0.9020934658968702, 42.925321530782156], [0.895811740114969, 42.926383913723264], [0.88953001433307, 42.927446296664364], [0.883248288551169, 42.928508679605464], [0.8769665627692691, 42.929571062546565], [0.870684836987369, 42.930633445487665], [0.870684836987369, 42.930633445487665], [0.8683765115639108, 42.92983489276155], [0.8660681861404544, 42.929036340035424], [0.8637598607169965, 42.928237787309314], [0.8614515352935384, 42.9274392345832], [0.85914320987008, 42.926640681857066], [0.8568348844466231, 42.925842129130956], [0.8545265590231659, 42.92504357640484], [0.8522182335997084, 42.924245023678715], [0.8499099081762505, 42.923446470952605], [0.8476015827527923, 42.92264791822648], [0.8476015827527923, 42.92264791822648], [0.8464428024700075, 42.92025375377856], [0.8452840221872235, 42.91785958933065], [0.8441252419044387, 42.91546542488272], [0.8429664616216539, 42.9130712604348], [0.8418076813388684, 42.910677095986884], [0.8406489010560834, 42.908282931538956], [0.839490120773299, 42.905888767091035], [0.838331340490515, 42.903494602643114], [0.8371725602077302, 42.90110043819519], [0.8360137799249454, 42.89870627374728], [0.8360137799249454, 42.89870627374728], [0.8345162396466164, 42.89291075183493], [0.8330186993682904, 42.88711522992258], [0.8315211590899612, 42.88131970801023], [0.8300236188116332, 42.87552418609789], [0.828526078533306, 42.86972866418554], [0.827028538254978, 42.8639331422732], [0.825530997976649, 42.85813762036085], [0.8240334576983219, 42.8523420984485], [0.822535917419994, 42.84654657653616], [0.8210383771416665, 42.84075105462381], [0.8210383771416665, 42.84075105462381], [0.8237841883837449, 42.84080519829975], [0.8264523975874227, 42.84072596479493], [0.8290284229945062, 42.84048421639199], [0.8314976828467988, 42.84005081537356], [0.8338455953861099, 42.83939662402227], [0.8360575788542417, 42.83849250462075], [0.8381190514930035, 42.83730931945165], [0.8400154315441983, 42.83581793079758], [0.8417321372496338, 42.8339892009412], [0.8432545868511139, 42.831793992165096], [0.8432545868511085, 42.831793992165096], [0.8503177342970551, 42.831008071521815], [0.8569191704256163, 42.829944871397316], [0.8631581660884229, 42.8286201682642], [0.8691339921371131, 42.82704973859501], [0.8749459194233187, 42.82524935886232], [0.8806932187986776, 42.82323480553871], [0.886475161114822, 42.82102185509673], [0.8923910172233867, 42.81862628400897], [0.8985400579760057, 42.81606386874799], [0.9050215542243156, 42.81335038578634], [0.9050215542243119, 42.813350385786336], [0.9116528401111799, 42.81261277250703], [0.9177638040513685, 42.81033471347742], [0.9234704661223907, 42.806993090777546], [0.9288888464017631, 42.8030647864875], [0.934134964967003, 42.799026682687334], [0.9393248418956246, 42.79535566145714], [0.9445744972651444, 42.792528604876935], [0.9499999511530792, 42.79102239502682], [0.9557172236369431, 42.79131391398687], [0.9618423347942537, 42.79388004383712], [0.961842334794252, 42.79388004383712], [0.9671929330170141, 42.79879492831085], [0.9726251190408666, 42.801320848571805], [0.9781093265666154, 42.801878685896185], [0.9836159892950698, 42.80088932156017], [0.9891155409270338, 42.79877363683994], [0.9945784151633139, 42.79595251301166], [0.999975045704721, 42.79284683135154], [1.0052758662520578, 42.78987747313573], [1.0104513105061335, 42.78746531964045], [1.0154718121677524, 42.786031252141846], [1.0154718121677524, 42.786031252141846], [1.022593030236433, 42.787384219852065], [1.0292677726274837, 42.787886687899814], [1.0355993569026785, 42.78768373551937], [1.0416911006237881, 42.78692044194502], [1.0476463213525853, 42.785741886411024], [1.053568336650843, 42.78429314815164], [1.0595604640803313, 42.78271930640117], [1.0657260212028232, 42.781165440393885], [1.0721683255800918, 42.77977662936405], [1.078990694773907, 42.778697952545926], [1.0789906947739012, 42.77869795254592], [1.0866209174229602, 42.781703403697996], [1.093620511317705, 42.78305597679714], [1.1001007863735075, 42.783008376549496], [1.1061730525057416, 42.781813307661245], [1.1119486196297785, 42.77972347483855], [1.1175387976609907, 42.77699158278754], [1.1230548965147493, 42.77387033621439], [1.1286082261064299, 42.77061243982526], [1.1343100963514035, 42.76747059832632], [1.1402718171650421, 42.764697516423695], [1.1402718171650377, 42.764697516423695], [1.1468535055689322, 42.761472930083336], [1.151084134750585, 42.75768937899429], [1.153520745562452, 42.75347201815139], [1.1547203788569944, 42.74894600254944], [1.155240075486668, 42.74423648718324], [1.155636876303932, 42.73946862704762], [1.1564678221612454, 42.734767577137376], [1.1582899539110643, 42.73025849244733], [1.1616603124058482, 42.72606652797228], [1.1671359384980553, 42.72231683870707], [1.167135938498053, 42.722316838707066], [1.1722290114292488, 42.717790526975975], [1.1774255410949004, 42.71449091768007], [1.1827236963805374, 42.71229827776717], [1.1881216461716861, 42.711092874185105], [1.1936175593538754, 42.7107549738817], [1.1992096048126322, 42.71116484380478], [1.2048959514334832, 42.71220275090217], [1.2106747681019567, 42.71374896212169], [1.216544223703579, 42.71568374441117], [1.2225024871238808, 42.71788736471845], [1.222502487123879, 42.71788736471844], [1.2289317036124854, 42.71908251804776], [1.2349241067143133, 42.72007172048588], [1.2406041675115982, 42.72080851589734], [1.2460963570865737, 42.721246448146616], [1.2515251465214772, 42.72133906109827], [1.2570150068985417, 42.72103989861682], [1.2626904093000024, 42.72030250456679], [1.268675824808097, 42.719080422812695], [1.2750957245050616, 42.71732719721907], [1.282074579473127, 42.71499637165044], [1.2820745794731288, 42.71499637165044], [1.2881768228184711, 42.71564227519184], [1.2947035506238427, 42.715793710883474], [1.3015186154742953, 42.71560947108871], [1.3084858699548838, 42.71524834817096], [1.3154691666506624, 42.714869134493576], [1.3223323581466833, 42.71463062241994], [1.3289392970280014, 42.714691604313415], [1.3351538358796673, 42.71521087253741], [1.3408398272867381, 42.71634721945527], [1.3458611238342661, 42.71825943743039], [1.3458611238342701, 42.71825943743038], [1.3495793960920723, 42.71849122893861], [1.3528772204391237, 42.718558261048805], [1.3557873722283191, 42.71847296281079], [1.3583426268125516, 42.71824776327442], [1.3605757595447163, 42.71789509148952], [1.3625195457777073, 42.71742737650591], [1.3642067608644197, 42.716857047373445], [1.3656701801577453, 42.71619653314195], [1.366942579010582, 42.715458262861254], [1.3680567327758206, 42.7146546655812], [1.3680567327758197, 42.7146546655812], [1.3708602784165778, 42.717470160880985], [1.3736638240573353, 42.72028565618077], [1.3764673696980938, 42.72310115148056], [1.379270915338851, 42.725916646780355], [1.3820744609796085, 42.72873214208015], [1.384878006620366, 42.731547637379926], [1.3876815522611232, 42.73436313267972], [1.3904850979018817, 42.7371786279795], [1.3932886435426388, 42.73999412327929], [1.3960921891833973, 42.74280961857908], [1.3960921891833973, 42.74280961857908], [1.3978950830072296, 42.74671123908027], [1.399697976831063, 42.750612859581466], [1.401500870654897, 42.754514480082655], [1.4033037644787298, 42.75841610058385], [1.405106658302563, 42.76231772108504], [1.4069095521263963, 42.766219341586236], [1.4087124459502287, 42.77012096208742], [1.410515339774062, 42.77402258258861], [1.4123182335978957, 42.77792420308981], [1.414121127421729, 42.78182582359099], [1.414121127421729, 42.78182582359099], [1.411947029734248, 42.78492847492648], [1.4097729320467671, 42.78803112626196], [1.4075988343592853, 42.791133777597445], [1.4054247366718045, 42.79423642893293], [1.4032506389843236, 42.79733908026841], [1.4010765412968436, 42.80044173160389], [1.3989024436093627, 42.80354438293938], [1.3967283459218804, 42.80664703427486], [1.3945542482343996, 42.80974968561034], [1.39238015054692, 42.812852336945824], [1.39238015054692, 42.812852336945824], [1.3941779107306904, 42.81409410692253], [1.3959756709144617, 42.81533587689925], [1.3977734310982322, 42.816577646875956], [1.399571191282004, 42.81781941685267], [1.4013689514657757, 42.81906118682937], [1.4031667116495474, 42.82030295680608], [1.4049644718333187, 42.8215447267828], [1.4067622320170883, 42.822786496759505], [1.40855999220086, 42.82402826673623], [1.4103577523846313, 42.82527003671293], [1.4103577523846313, 42.82527003671293], [1.4130528563758507, 42.82633465995085], [1.4157479603670704, 42.82739928318877], [1.4184430643582893, 42.828463906426684], [1.4211381683495068, 42.8295285296646], [1.423833272340726, 42.830593152902516], [1.4265283763319463, 42.83165777614043], [1.4292234803231647, 42.83272239937834], [1.431918584314384, 42.83378702261626], [1.4346136883056033, 42.83485164585417], [1.4373087922968226, 42.83591626909209], [1.4373087922968226, 42.83591626909209], [1.4375697212287784, 42.83822051229857], [1.4378306501607345, 42.84052475550505], [1.4380915790926907, 42.842828998711525], [1.4383525080246469, 42.845133241918], [1.4386134369566026, 42.847437485124466], [1.4388743658885579, 42.84974172833095], [1.4391352948205145, 42.852045971537414], [1.4393962237524698, 42.85435021474389], [1.439657152684426, 42.85665445795037], [1.4399180816163821, 42.85895870115684], [1.4399180816163821, 42.85895870115684], [1.4417194353059726, 42.86206234462332], [1.443520788995563, 42.8651659880898], [1.445322142685154, 42.86826963155628], [1.4471234963747444, 42.871373275022755], [1.4489248500643335, 42.874476918489236], [1.450726203753923, 42.87758056195571], [1.452527557443513, 42.88068420542219], [1.4543289111331044, 42.88378784888867], [1.4561302648226948, 42.886891492355154], [1.4579316185122848, 42.88999513582162], [1.4579316185122848, 42.88999513582162], [1.4566505866692405, 42.89070413477686], [1.4553695548261962, 42.891413133732094], [1.4540885229831528, 42.892122132687334], [1.4528074911401094, 42.89283113164257], [1.4515264592970643, 42.8935401305978], [1.4502454274540204, 42.894249129553046], [1.4489643956109766, 42.894958128508286], [1.4476833637679323, 42.89566712746351], [1.446402331924888, 42.896376126418744], [1.4451213000818446, 42.89708512537399], [1.4451213000818446, 42.89708512537399], [1.4405032752979667, 42.89637465422444], [1.435885250514091, 42.895664183074885], [1.4312672257302155, 42.89495371192533], [1.4266492009463376, 42.89424324077578], [1.422031176162461, 42.893532769626226], [1.4174131513785846, 42.89282229847667], [1.4127951265947076, 42.89211182732712], [1.4081771018108316, 42.89140135617756], [1.4035590770269537, 42.89069088502801], [1.398941052243078, 42.889980413878455], [1.398941052243078, 42.889980413878455], [1.4004850686064345, 42.892640703146625], [1.4020290849697896, 42.89530099241478], [1.4035731013331456, 42.89796128168295], [1.405117117696502, 42.90062157095112], [1.4066611340598576, 42.90328186021929], [1.4082051504232136, 42.90594214948745], [1.4097491667865696, 42.908602438755615], [1.4112931831499265, 42.911262728023786], [1.412837199513282, 42.91392301729195], [1.4143812158766385, 42.91658330656011], [1.4143812158766385, 42.91658330656011], [1.4173384487111176, 42.92057387313841], [1.4202956815455985, 42.924564439716704], [1.423252914380078, 42.92855500629499], [1.4262101472145576, 42.93254557287327], [1.4291673800490399, 42.93653613945157], [1.4321246128835186, 42.940526706029864], [1.4350818457179995, 42.94451727260815], [1.4380390785524781, 42.94850783918644], [1.440996311386959, 42.95249840576473], [1.443953544221439, 42.95648897234302], [1.443953544221439, 42.95648897234302], [1.4497259001052307, 42.9572883895677], [1.4554982559890215, 42.95808780679238], [1.4612706118728123, 42.95888722401706], [1.4670429677566048, 42.95968664124173], [1.4728153236403965, 42.96048605846641], [1.4785876795241877, 42.961285475691085], [1.484360035407978, 42.96208489291576], [1.4901323912917706, 42.96288431014044], [1.4959047471755622, 42.963683727365115], [1.501677103059353, 42.96448314458979], [1.501677103059353, 42.96448314458979], [1.5029603594938314, 42.964926754820965], [1.5042436159283108, 42.96537036505212], [1.5055268723627893, 42.96581397528328], [1.5068101287972686, 42.96625758551445], [1.508093385231748, 42.9667011957456], [1.5093766416662273, 42.96714480597677], [1.5106598981007058, 42.96758841620794], [1.5119431545351842, 42.96803202643909], [1.5132264109696636, 42.968475636670256], [1.514509667404142, 42.96891924690142], [1.514509667404142, 42.96891924690142], [1.5132327425153722, 42.9717561481536], [1.511955817626602, 42.9745930494058], [1.510678892737832, 42.977429950657985], [1.5094019678490622, 42.98026685191018], [1.5081250429602924, 42.98310375316237], [1.5068481180715203, 42.98594065441456], [1.5055711931827505, 42.98877755566675], [1.5042942682939802, 42.99161445691894], [1.5030173434052103, 42.99445135817113], [1.5017404185164405, 42.997288259423314], [1.5017404185164405, 42.997288259423314], [1.4867443365973476, 43.00065373952751], [1.4717482546782552, 43.004019219631694], [1.456752172759162, 43.00738469973588], [1.441756090840069, 43.01075017984007], [1.4267600089209767, 43.01411565994425], [1.4117639270018816, 43.01748114004844], [1.3967678450827896, 43.02084662015263], [1.3817717631636963, 43.02421210025681], [1.3667756812446035, 43.027577580361], [1.3517795993255102, 43.030943060465184], [1.3517795993255102, 43.030943060465184], [1.3453638223741549, 43.02899087403432], [1.3389480454228013, 43.02703868760346], [1.3325322684714451, 43.02508650117259], [1.326116491520092, 43.02313431474172], [1.3197007145687367, 43.021182128310855], [1.3132849376173805, 43.01922994187999], [1.306869160666027, 43.01727775544912], [1.3004533837146712, 43.01532556901826], [1.2940376067633168, 43.01337338258739], [1.2876218298119624, 43.011421196156526], [1.2876218298119624, 43.011421196156526], [1.263662092095554, 43.0224094096941], [1.2397023543791446, 43.03339762323167], [1.215742616662736, 43.04438583676925], [1.1917828789463258, 43.055374050306824], [1.1678231412299178, 43.06636226384441], [1.1438634035135093, 43.077350477381984], [1.1199036657970995, 43.08833869091956], [1.0959439280806915, 43.099326904457136], [1.0719841903642822, 43.110315117994716], [1.0480244526478741, 43.121303331532296]]]}}]}