{"type": "FeatureCollection", "features": [{"type": "Feature", "properties": {"diocese": "Tarbes", "province": "IV_Auch", "source": "29_Tarbes.txt"}, "geometry": {"type": "Polygon", "coordinates": [[[-0.049760266420053045, 43.6089759507244], [-0.04994621583059966, 43.60709472495624], [-0.050132165241146054, 43.60521349918809], [-0.05031811465169067, 43.60333227341993], [-0.05050406406223629, 43.60145104765177], [-0.05069001347278279, 43.59956982188362], [-0.05087596288332841, 43.59768859611546], [-0.05106191229387491, 43.5958073703473], [-0.05124786170442053, 43.59392614457914], [-0.05143381111496592, 43.59204491881099], [-0.051619760525512426, 43.59016369304284], [-0.051619760525512426, 43.59016369304284], [-0.05398188687762839, 43.587905961773075], [-0.05634401322974503, 43.585648230503324], [-0.05870613958186188, 43.58339049923357], [-0.06106826593397774, 43.58113276796382], [-0.06343039228609437, 43.57887503669407], [-0.06579251863821034, 43.576617305424314], [-0.06815464499032797, 43.57435957415456], [-0.07051677134244383, 43.572101842884805], [-0.07287889769455969, 43.569844111615055], [-0.07524102404667643, 43.567586380345304], [-0.07524102404667643, 43.567586380345304], [-0.07306765879593202, 43.56570683724593], [-0.0708942935451875, 43.563827294146556], [-0.06872092829444187, 43.5619477510472], [-0.06654756304369747, 43.56006820794782], [-0.06437419779295395, 43.55818866484845], [-0.06220083254220843, 43.55630912174908], [-0.06002746729146402, 43.55442957864971], [-0.0578541020407195, 43.55255003555034], [-0.05568073678997498, 43.550670492450976], [-0.053507371539229576, 43.548790949351606], [-0.053507371539229576, 43.548790949351606], [-0.05719608831747458, 43.5460532259276], [-0.060884805095719585, 43.5433155025036], [-0.06457352187396459, 43.5405777790796], [-0.0682622386522086, 43.53784005565561], [-0.07195095543045371, 43.53510233223161], [-0.0756396722086986, 43.53236460880761], [-0.07932838898694283, 43.52962688538361], [-0.08301710576518773, 43.52688916195961], [-0.08670582254343184, 43.52415143853562], [-0.09039453932167762, 43.52141371511161], [-0.09039453932167762, 43.52141371511161], [-0.08219365571842319, 43.51324380266222], [-0.07399277211517075, 43.505073890212806], [-0.0657918885119172, 43.49690397776341], [-0.05759100490866276, 43.488734065314006], [-0.049390121305410095, 43.48056415286461], [-0.041189237702155546, 43.4723942404152], [-0.032988354098902106, 43.464224327965795], [-0.024787470495649444, 43.45605441551639], [-0.016586586892395894, 43.447884503066994], [-0.008385703289141455, 43.43971459061759], [-0.008385703289141455, 43.43971459061759], [-0.010561880336273033, 43.439338030422576], [-0.012738057383403834, 43.438961470227554], [-0.0149142344305363, 43.43858491003254], [-0.0170904114776671, 43.43820834983752], [-0.019266588524798678, 43.4378317896425], [-0.021442765571930367, 43.43745522944748], [-0.023618942619060945, 43.437078669252465], [-0.025795119666193633, 43.436702109057435], [-0.027971296713324323, 43.43632554886242], [-0.0301474737604559, 43.4359489886674], [-0.0301474737604559, 43.4359489886674], [-0.030880432243982958, 43.43243748971196], [-0.03161339072750924, 43.42892599075651], [-0.032346349211037295, 43.42541449180106], [-0.033079307694563465, 43.421902992845624], [-0.03381226617809052, 43.41839149389018], [-0.03454522466161769, 43.41487999493472], [-0.03527818314514386, 43.41136849597928], [-0.03601114162867092, 43.407856997023835], [-0.0367441001121972, 43.40434549806838], [-0.03747705859572514, 43.40083399911294], [-0.03747705859572514, 43.40083399911294], [-0.04209464318625822, 43.39714640243866], [-0.04671222777679318, 43.39345880576438], [-0.051329812367326255, 43.3897712090901], [-0.05594739695786033, 43.386083612415824], [-0.06056498154839418, 43.382396015741556], [-0.06518256613892914, 43.37870841906727], [-0.0698001507294631, 43.375020822393], [-0.07441773531999707, 43.371333225718715], [-0.07903531991053103, 43.36764562904444], [-0.08365290450106422, 43.36395803237016], [-0.08365290450106422, 43.36395803237016], [-0.08620970041294773, 43.36330577716285], [-0.08876649632483113, 43.36265352195555], [-0.09132329223671654, 43.362001266748244], [-0.09388008814859905, 43.361349011540945], [-0.09643688406048256, 43.36069675633363], [-0.09899367997236597, 43.36004450112633], [-0.10155047588424859, 43.35939224591904], [-0.104107271796133, 43.358739990711726], [-0.10666406770801662, 43.35808773550442], [-0.10922086361989902, 43.35743548029711], [-0.10922086361989902, 43.35743548029711], [-0.10921422587151552, 43.35286984132027], [-0.10920758812313047, 43.3483042023434], [-0.10920095037474697, 43.34373856336655], [-0.10919431262636259, 43.33917292438969], [-0.10918767487797831, 43.33460728541283], [-0.10918103712959393, 43.33004164643598], [-0.10917439938120965, 43.32547600745912], [-0.10916776163282615, 43.32091036848227], [-0.10916112388444099, 43.3163447295054], [-0.10915448613605672, 43.311779090528546], [-0.10915448613605672, 43.311779090528546], [-0.1127989015072447, 43.30797638835007], [-0.1164433168784309, 43.304173686171595], [-0.120087732249618, 43.30037098399312], [-0.12373214762080498, 43.29656828181465], [-0.12737656299199307, 43.292765579636175], [-0.13102097836317939, 43.288962877457685], [-0.13466539373436648, 43.28516017527921], [-0.13830980910555446, 43.281357473100734], [-0.14195422447674155, 43.277554770922265], [-0.14559863984792865, 43.27375206874379], [-0.14559863984792865, 43.27375206874379], [-0.14516071104717554, 43.26689838447898], [-0.14472278224642354, 43.26004470021417], [-0.14428485344567044, 43.25319101594936], [-0.14384692464491833, 43.24633733168455], [-0.14340899584416522, 43.239483647419746], [-0.142971067043413, 43.232629963154935], [-0.1425331382426609, 43.22577627889013], [-0.1420952094419078, 43.21892259462532], [-0.14165728064115568, 43.212068910360514], [-0.14121935184040257, 43.2052152260957], [-0.14121935184040257, 43.2052152260957], [-0.1363247385685652, 43.20433834514099], [-0.1314301252967287, 43.20346146418627], [-0.12653551202489122, 43.202584583231555], [-0.12164089875305373, 43.20170770227685], [-0.11674628548121635, 43.200830821322135], [-0.11185167220937986, 43.19995394036742], [-0.10695705893754337, 43.1990770594127], [-0.10206244566570577, 43.19820017845799], [-0.09716783239386828, 43.19732329750329], [-0.09227321912203179, 43.19644641654857], [-0.09227321912203179, 43.19644641654857], [-0.09318742805176217, 43.1926849782323], [-0.09410163698149265, 43.188923539916026], [-0.09501584591122392, 43.18516210159976], [-0.09593005484095429, 43.18140066328348], [-0.09684426377068578, 43.1776392249672], [-0.09775847270041704, 43.17387778665094], [-0.09867268163014753, 43.17011634833466], [-0.09958689055987868, 43.1663549100184], [-0.10050109948961017, 43.16259347170212], [-0.10141530841934054, 43.15883203338585], [-0.10141530841934054, 43.15883203338585], [-0.10413631734488338, 43.15795325184322], [-0.10685732627042699, 43.15707447030061], [-0.10957833519597082, 43.15619568875797], [-0.11229934412151454, 43.155316907215344], [-0.11502035304705738, 43.15443812567272], [-0.11774136197260088, 43.153559344130095], [-0.12046237089814471, 43.15268056258747], [-0.12318337982368832, 43.151801781044846], [-0.12590438874923215, 43.15092299950222], [-0.12862539767477488, 43.150044217959596], [-0.12862539767477488, 43.150044217959596], [-0.12754832089992485, 43.14452707164575], [-0.1264712441250747, 43.1390099253319], [-0.1253941673502228, 43.133492779018056], [-0.12431709057537355, 43.12797563270421], [-0.12324001380052263, 43.122458486390364], [-0.12216293702567071, 43.11694134007651], [-0.12108586025082058, 43.111424193762666], [-0.12000878347597066, 43.10590704744882], [-0.11893170670111963, 43.10038990113497], [-0.1178546299262686, 43.094872754821125], [-0.1178546299262686, 43.094872754821125], [-0.1227514283034078, 43.094621583934185], [-0.12764822668054532, 43.09437041304724], [-0.13254502505768373, 43.094119242160296], [-0.13744182343482114, 43.093868071273356], [-0.14233862181195944, 43.09361690038641], [-0.14723542018909885, 43.09336572949947], [-0.15213221856623627, 43.09311455861252], [-0.15702901694337468, 43.09286338772558], [-0.1619258153205121, 43.09261221683864], [-0.16682261369765128, 43.0923610459517], [-0.16682261369765128, 43.0923610459517], [-0.17245091118453793, 43.08935041067107], [-0.17807920867142524, 43.08633977539044], [-0.18370750615831177, 43.08332914010981], [-0.1893358036451992, 43.08031850482918], [-0.1949641011320865, 43.077307869548555], [-0.20059239861897316, 43.074297234267924], [-0.20622069610586047, 43.0712865989873], [-0.211848993592747, 43.068275963706675], [-0.21747729107963443, 43.065265328426044], [-0.22310558856652085, 43.06225469314543], [-0.22310558856652085, 43.06225469314543], [-0.22075508004130762, 43.058492975718366], [-0.2184045715160935, 43.0547312582913], [-0.21605406299087926, 43.050969540864244], [-0.21370355446566602, 43.04720782343718], [-0.2113530459404519, 43.04344610601012], [-0.20900253741523855, 43.03968438858307], [-0.20665202889002443, 43.03592267115601], [-0.20430152036481042, 43.03216095372895], [-0.20195101183959718, 43.02839923630189], [-0.19960050331438206, 43.02463751887483], [-0.19960050331438206, 43.02463751887483], [-0.2054059460813975, 43.02350801874687], [-0.21121138884841062, 43.02237851861889], [-0.2170168316154263, 43.021249018490934], [-0.22282227438244007, 43.02011951836296], [-0.22862771714945473, 43.018990018234994], [-0.2344331599164684, 43.017860518107035], [-0.24023860268348307, 43.01673101797907], [-0.24604404545049785, 43.0156015178511], [-0.25184948821751174, 43.014472017723136], [-0.2576549309845264, 43.01334251759517], [-0.2576549309845264, 43.01334251759517], [-0.26019976146267254, 43.01008166384293], [-0.2627445919408188, 43.00682081009069], [-0.2652894224189639, 43.00355995633846], [-0.26783425289711094, 43.00029910258622], [-0.27037908337525796, 42.997038248833974], [-0.2729239138534041, 42.993777395081736], [-0.27546874433154944, 42.990516541329484], [-0.27801357480969635, 42.98725568757726], [-0.28055840528784337, 42.983994833825015], [-0.2831032357659896, 42.98073398007277], [-0.2831032357659896, 42.98073398007277], [-0.2854675394182353, 42.97734814226992], [-0.28783184307048204, 42.97396230446705], [-0.29019614672272764, 42.970576466664205], [-0.29256045037497347, 42.96719062886134], [-0.29492475402722107, 42.963804791058486], [-0.2972890576794669, 42.96041895325562], [-0.2996533613317125, 42.957033115452774], [-0.3020176649839592, 42.95364727764991], [-0.30438196863620504, 42.950261439847054], [-0.30674627228845175, 42.94687560204419], [-0.30674627228845175, 42.94687560204419], [-0.305843679074405, 42.9446186855321], [-0.30494108586035706, 42.94236176902001], [-0.30403849264630933, 42.940104852507915], [-0.3031358994322626, 42.93784793599583], [-0.30223330621821576, 42.935591019483745], [-0.30133071300416714, 42.93333410297165], [-0.3004281197901202, 42.93107718645956], [-0.29952552657607256, 42.92882026994747], [-0.2986229333620256, 42.926563353435384], [-0.2977203401479789, 42.92430643692329], [-0.2977203401479789, 42.92430643692329], [-0.29935613294676044, 42.92292693470288], [-0.30099192574554146, 42.921547432482456], [-0.30262771854432224, 42.920167930262046], [-0.30426351134310314, 42.91878842804162], [-0.3058993041418847, 42.91740892582121], [-0.3075350969406656, 42.9160294236008], [-0.3091708897394474, 42.91464992138038], [-0.3108066825382282, 42.91327041915997], [-0.312442475337009, 42.911890916939555], [-0.31407826813579076, 42.91051141471914], [-0.31407826813579076, 42.91051141471914], [-0.3124048486437798, 42.904166523293114], [-0.31073142915176977, 42.8978216318671], [-0.30905800965975794, 42.891476740441085], [-0.3073845901677478, 42.88513184901506], [-0.3057111706757367, 42.87878695758904], [-0.304037751183726, 42.872442066163025], [-0.30236433169171584, 42.866097174737], [-0.300690912199704, 42.85975228331098], [-0.2990174927076932, 42.85340739188496], [-0.297344073215683, 42.84706250045894], [-0.297344073215683, 42.84706250045894], [-0.2916528951113453, 42.844443860429664], [-0.2861222989564465, 42.84143640544449], [-0.28070942375088204, 42.83818066119187], [-0.27537140849454744, 42.83481715336025], [-0.2700653921873425, 42.831486407638096], [-0.264748513829161, 42.82832894971386], [-0.25937791241990094, 42.82548530527599], [-0.2539107269594605, 42.823096000012946], [-0.2483040964477341, 42.82130155961318], [-0.24251515988462002, 42.82024250976516], [-0.2425151598846218, 42.82024250976516], [-0.23534573943151182, 42.82088149237674], [-0.22951963805893127, 42.81990325418644], [-0.22469628592180357, 42.817653163973986], [-0.2205351131750536, 42.814476590519035], [-0.21669554997360674, 42.81071890260131], [-0.21283702647238667, 42.806725469000455], [-0.20861897282631725, 42.8028416584962], [-0.2037008191903238, 42.79941283986821], [-0.1977419957193307, 42.7967843818962], [-0.1904019325682621, 42.79530165335983], [-0.19040193256826188, 42.795301653359836], [-0.18389290983852347, 42.79012401716752], [-0.17776110389182742, 42.78785448675819], [-0.17194180124241143, 42.78788395683482], [-0.1663702884045175, 42.78960332210041], [-0.1609818518923829, 42.792403477257935], [-0.15571177822024385, 42.795675317010414], [-0.15049535390234348, 42.79880973606081], [-0.1452678654529156, 42.80119762911212], [-0.13996459938620243, 42.802229890867345], [-0.13452084221644123, 42.80129741602947], [-0.13452084221643845, 42.80129741602947], [-0.1377925469220147, 42.79651755182645], [-0.14004341905753948, 42.79179068432267], [-0.14124213157133558, 42.78715916058812], [-0.14135735741172895, 42.78266532769273], [-0.14035776952704138, 42.77835153270651], [-0.13821204086560213, 42.7742601226994], [-0.13488884437573223, 42.77043344474141], [-0.1303568530057555, 42.766913845902465], [-0.12458473970399853, 42.76374367325258], [-0.11754117741878412, 42.760965273861686], [-0.11754117741879133, 42.760965273861686], [-0.11356333658083417, 42.75747716154208], [-0.1103222436221063, 42.753530523757725], [-0.1076203354495684, 42.74926615779909], [-0.1052600489701856, 42.74482486095664], [-0.10304382109092003, 42.740347430520806], [-0.10077408871873617, 42.735974663782045], [-0.09825328876059936, 42.73184735803081], [-0.09528385812347129, 42.72810631055757], [-0.09166823371431754, 42.724892318652756], [-0.0872088524400998, 42.72234617960683], [-0.08720885244010412, 42.72234617960684], [-0.07902315888377154, 42.72350203161551], [-0.0721158251582068, 42.723414214146295], [-0.06636865456556607, 42.72223494107176], [-0.06166345040800092, 42.72011642626448], [-0.05788201598766585, 42.717210883597005], [-0.05490615460671866, 42.71367052694195], [-0.0526176695673084, 42.709647570171846], [-0.050898364171592214, 42.70529422715928], [-0.04963004172172525, 42.70076271177681], [-0.04869450551985999, 42.69620523789702], [-0.048694505519856435, 42.69620523789702], [-0.04197377905484223, 42.69618423762798], [-0.03538073183919688, 42.69547779988631], [-0.028877619806709, 42.69428360805793], [-0.02242669889116733, 42.69279934552877], [-0.015990225026361382, 42.691222695684786], [-0.009530454146078449, 42.6897513419119], [-0.0030096421841101506, 42.68858296759605], [0.0036099549257569974, 42.68791525612318], [0.010366081249734371, 42.68794589087922], [0.017296480854030016, 42.6888725552501], [0.01729648085402824, 42.6888725552501], [0.018415315069723492, 42.695129366843254], [0.020952174927265865, 42.69928086829409], [0.024708694946272036, 42.7016949533573], [0.029486509646357906, 42.702739515787535], [0.03508725354714248, 42.702782449339495], [0.04131256116824078, 42.70219164776784], [0.047964067029270474, 42.70133500482726], [0.0548434056498488, 42.70058041427244], [0.061752211549594094, 42.70029576985803], [0.06849211924812204, 42.700848965338736], [0.06849211924812204, 42.70084896533873], [0.07398290014947184, 42.70463603860096], [0.07946545760867729, 42.70781162232739], [0.08496718700732231, 42.710394599139846], [0.09051548372699059, 42.71240385166012], [0.09613774314926804, 42.71385826251003], [0.10186136065573281, 42.71477671431135], [0.1077137316279746, 42.71517808968589], [0.11372225144757175, 42.71508127125547], [0.11991431549611242, 42.71450514164188], [0.12631731915517674, 42.71346858346693], [0.12631731915518118, 42.71346858346693], [0.1239680995935808, 42.72189849196691], [0.1216188800319824, 42.73032840046691], [0.1192696604703829, 42.738758308966894], [0.11692044090878273, 42.747188217466885], [0.11457122134718412, 42.75561812596687], [0.11222200178558372, 42.76404803446686], [0.10987278222398422, 42.77247794296685], [0.10752356266238405, 42.780907851466836], [0.10517434310078522, 42.78933775996683], [0.10282512353918594, 42.79776766846682], [0.10282512353918594, 42.79776766846682], [0.10155822548374838, 42.79939748896753], [0.10029132742830993, 42.80102730946824], [0.09902442937287304, 42.80265712996894], [0.09775753131743459, 42.80428695046966], [0.0964906332619977, 42.80591677097036], [0.09522373520656102, 42.80754659147108], [0.09395683715112257, 42.809176411971784], [0.09268993909568501, 42.8108062324725], [0.09142304104024812, 42.812436052973204], [0.09015614298481056, 42.814065873473915], [0.09015614298481056, 42.814065873473915], [0.09342788066509389, 42.81770292573507], [0.09669961834537721, 42.821339977996224], [0.09997135602566054, 42.82497703025737], [0.10324309370594387, 42.82861408251852], [0.10651483138622786, 42.832251134779675], [0.10978656906651119, 42.835888187040815], [0.11305830674679473, 42.83952523930198], [0.11633004442707873, 42.84316229156313], [0.11960178210736205, 42.84679934382427], [0.12287351978764538, 42.85043639608543], [0.12287351978764538, 42.85043639608543], [0.12849528357960627, 42.85006178197856], [0.13411704737156716, 42.849687167871686], [0.13973881116352915, 42.84931255376482], [0.14536057495549004, 42.84893793965795], [0.15098233874745182, 42.848563325551076], [0.1566041025394136, 42.8481887114442], [0.1622258663313747, 42.847814097337334], [0.1678476301233358, 42.84743948323047], [0.17346939391529648, 42.84706486912359], [0.17909115770725847, 42.846690255016725], [0.17909115770725847, 42.846690255016725], [0.18271742937134405, 42.84669116000491], [0.18634370103542963, 42.846692064993086], [0.1899699726995161, 42.84669296998128], [0.1935962443636019, 42.84669387496945], [0.19722251602768814, 42.84669477995763], [0.20084878769177394, 42.84669568494582], [0.2044750593558593, 42.846696589934], [0.208101331019946, 42.84669749492218], [0.21172760268403157, 42.84669839991037], [0.21535387434811737, 42.84669930489855], [0.21535387434811737, 42.84669930489855], [0.21953062575500404, 42.84933356082622], [0.22370737716189093, 42.8519678167539], [0.22788412856877782, 42.85460207268158], [0.2320608799756645, 42.85723632860925], [0.23623763138255138, 42.85987058453693], [0.24041438278943827, 42.8625048404646], [0.24459113419632317, 42.86513909639228], [0.24876788560321095, 42.86777335231995], [0.25294463701009784, 42.870407608247625], [0.2571213884169845, 42.87304186417529], [0.2571213884169845, 42.87304186417529], [0.25658381797067875, 42.87630194867011], [0.25604624752437344, 42.87956203316493], [0.25550867707806835, 42.88282211765974], [0.25497110663176326, 42.886082202154554], [0.25443353618545816, 42.88934228664937], [0.25389596573915196, 42.89260237114417], [0.25335839529284687, 42.895862455638984], [0.25282082484654267, 42.8991225401338], [0.2522832544002358, 42.902382624628615], [0.25174568395393093, 42.905642709123434], [0.25174568395393093, 42.905642709123434], [0.2566456285751486, 42.90752401746888], [0.26154557319636473, 42.90940532581433], [0.26644551781758175, 42.91128663415979], [0.27134546243879876, 42.91316794250523], [0.27624540706001666, 42.915049250850686], [0.28114535168123367, 42.91693055919614], [0.2860452963024498, 42.91881186754159], [0.2909452409236677, 42.92069317588704], [0.2958451855448838, 42.92257448423249], [0.3007451301661017, 42.924455792577945], [0.3007451301661017, 42.924455792577945], [0.3036557170542449, 42.929095831594765], [0.3065663039423887, 42.9337358706116], [0.309476890830531, 42.938375909628434], [0.31238747771867503, 42.94301594864527], [0.3152980646068182, 42.9476559876621], [0.318208651494962, 42.95229602667892], [0.3211192383831052, 42.95693606569576], [0.32402982527124724, 42.96157610471259], [0.3269404121593913, 42.96621614372942], [0.32985099904753423, 42.97085618274625], [0.32985099904753423, 42.97085618274625], [0.33202790393740766, 42.971609854089614], [0.3342048088272813, 42.972363525432975], [0.33638171371715475, 42.97311719677634], [0.3385586186070282, 42.973870868119704], [0.3407355234969016, 42.974624539463065], [0.34291242838677505, 42.97537821080643], [0.3450893332766478, 42.976131882149794], [0.34726623816652236, 42.97688555349316], [0.3494431430563958, 42.97763922483652], [0.35162004794626833, 42.978392896179884], [0.35162004794626833, 42.978392896179884], [0.352178914047262, 42.98616655335943], [0.35273778014825585, 42.993940210538995], [0.35329664624924817, 43.00171386771855], [0.3538555123502425, 43.009487524898105], [0.35441437845123547, 43.01726118207766], [0.3549732445522302, 43.02503483925721], [0.3555321106532232, 43.032808496436765], [0.3560909767542162, 43.04058215361632], [0.35664984285520984, 43.048355810795876], [0.3572087089562037, 43.05612946797543], [0.3572087089562037, 43.05612946797543], [0.3641094711496027, 43.06039448569905], [0.3710102333430001, 43.06465950342267], [0.37791099553639906, 43.068924521146286], [0.38481175772979626, 43.0731895388699], [0.3917125199231952, 43.077454556593516], [0.3986132821165942, 43.08171957431714], [0.4055140443099914, 43.08598459204076], [0.41241480650339124, 43.09024960976436], [0.41931556869678865, 43.09451462748798], [0.4262163308901876, 43.0987796452116], [0.4262163308901876, 43.0987796452116], [0.42187767077130034, 43.105925020355876], [0.41753901065241394, 43.113070395500145], [0.41320035053352755, 43.1202157706444], [0.40886169041464115, 43.12736114578867], [0.40452303029575454, 43.134506520932945], [0.40018437017686725, 43.1416518960772], [0.39584571005798086, 43.14879727122147], [0.39150704993909446, 43.15594264636574], [0.38716838982020807, 43.163088021510006], [0.3828297297013217, 43.170233396654275], [0.3828297297013217, 43.170233396654275], [0.37938762153704353, 43.171987648710335], [0.3759455133727645, 43.1737419007664], [0.37250340520848635, 43.17549615282247], [0.3690612970442091, 43.17725040487854], [0.36561918887993095, 43.17900465693461], [0.3621770807156528, 43.18075890899067], [0.35873497255137554, 43.182513161046735], [0.3552928643870974, 43.1842674131028], [0.35185075622282014, 43.186021665158876], [0.348408648058542, 43.18777591721494], [0.348408648058542, 43.18777591721494], [0.34459571127433763, 43.18551886304913], [0.34078277449013417, 43.18326180888332], [0.3369698377059305, 43.18100475471751], [0.3331569009217268, 43.178747700551696], [0.3293439641375233, 43.17649064638589], [0.32553102735331985, 43.174233592220084], [0.32171809056911616, 43.171976538054274], [0.3179051537849127, 43.16971948388847], [0.314092217000709, 43.167462429722654], [0.3102792802165055, 43.165205375556845], [0.3102792802165055, 43.165205375556845], [0.3088345168433688, 43.168339165370426], [0.30738975347023323, 43.17147295518401], [0.3059449900970983, 43.17460674499758], [0.30450022672396226, 43.17774053481116], [0.3030554633508278, 43.180874324624746], [0.30161069997769197, 43.18400811443832], [0.30016593660455704, 43.187141904251895], [0.2987211732314212, 43.19027569406547], [0.2972764098582854, 43.19340948387905], [0.2958316464851498, 43.19654327369263], [0.2958316464851498, 43.19654327369263], [0.29728971834934437, 43.20030490243111], [0.29874779021353826, 43.20406653116959], [0.3002058620777319, 43.20782815990806], [0.3016639339419265, 43.211589788646535], [0.30312200580612014, 43.215351417385], [0.30458007767031336, 43.21911304612348], [0.3060381495345068, 43.222874674861956], [0.3074962213987016, 43.226636303600436], [0.30895429326289525, 43.23039793233891], [0.31041236512709003, 43.23415956107739], [0.31041236512709003, 43.23415956107739], [0.3055437972997872, 43.24933040354509], [0.3006752294724826, 43.264501246012784], [0.2958066616451789, 43.27967208848048], [0.29093809381787605, 43.29484293094818], [0.28606952599057256, 43.31001377341588], [0.28120095816326973, 43.32518461588358], [0.2763323903359669, 43.34035545835128], [0.2714638225086632, 43.35552630081898], [0.2665952546813595, 43.37069714328668], [0.26172668685405576, 43.38586798575437], [0.26172668685405576, 43.38586798575437], [0.25955244579472625, 43.38649450292856], [0.25737820473539585, 43.38712102010274], [0.25520396367606457, 43.38774753727692], [0.2530297226167342, 43.3883740544511], [0.25085548155740356, 43.38900057162528], [0.24868124049807427, 43.389627088799465], [0.246506999438743, 43.39025360597365], [0.2443327583794126, 43.39088012314784], [0.2421585173200811, 43.391506640322014], [0.23998427626075158, 43.3921331574962], [0.23998427626075158, 43.3921331574962], [0.2358087271994107, 43.39012596165585], [0.23163317813806894, 43.38811876581551], [0.22745762907672895, 43.38611156997517], [0.22328208001538719, 43.38410437413483], [0.21910653095404653, 43.38209717829449], [0.21493098189270654, 43.38008998245414], [0.21075543283136478, 43.37808278661381], [0.20657988377002456, 43.37607559077346], [0.20240433470868302, 43.37406839493312], [0.19822878564734214, 43.37206119909277], [0.19822878564734214, 43.37206119909277], [0.19423966851564578, 43.37218523265498], [0.1902505513839463, 43.372309266217165], [0.18626143425224884, 43.37243329977937], [0.1822723171205498, 43.372557333341575], [0.17828319998885345, 43.37268136690378], [0.17429408285715509, 43.37280540046598], [0.17030496572545673, 43.37292943402817], [0.16631584859375836, 43.37305346759037], [0.1623267314620609, 43.37317750115257], [0.15833761433036342, 43.37330153471477], [0.15833761433036342, 43.37330153471477], [0.15635794233580613, 43.38107455836568], [0.1543782703412515, 43.38884758201659], [0.1523985983466951, 43.39662060566749], [0.15041892635213894, 43.40439362931841], [0.14843925435758432, 43.41216665296931], [0.14645958236302703, 43.419939676620224], [0.14447991036847152, 43.42771270027113], [0.14250023837391423, 43.435485723922035], [0.1405205663793596, 43.443258747572955], [0.13854089438480233, 43.45103177122386], [0.13854089438480233, 43.45103177122386], [0.13347823199552966, 43.45930605615382], [0.12841556960625522, 43.46758034108378], [0.12335290721698056, 43.47585462601374], [0.118290244827707, 43.4841289109437], [0.11322758243843345, 43.49240319587366], [0.1081649200491599, 43.500677480803624], [0.10310225765988612, 43.508951765733585], [0.09803959527061168, 43.51722605066354], [0.09297693288133724, 43.5255003355935], [0.08791427049206457, 43.53377462052347], [0.08791427049206457, 43.53377462052347], [0.08428921699498781, 43.53440077562656], [0.08066416349791283, 43.535026930729664], [0.07703911000083696, 43.535653085832756], [0.07341405650376132, 43.536279240935855], [0.06978900300668478, 43.536905396038954], [0.06616394950960891, 43.53753155114206], [0.06253889601253304, 43.53815770624515], [0.05891384251545739, 43.53878386134825], [0.05528878901838152, 43.53941001645134], [0.051663735521305876, 43.540036171554455], [0.051663735521305876, 43.540036171554455], [0.051850070310607954, 43.542920419611434], [0.05203640509991114, 43.54580466766843], [0.052222739889215, 43.54868891572541], [0.0524090746785173, 43.55157316378239], [0.052595409467819376, 43.55445741183937], [0.052781744257122565, 43.55734165989636], [0.05296807904642553, 43.560225907953345], [0.05315441383572872, 43.56311015601033], [0.05334074862502991, 43.56599440406732], [0.05352708341433399, 43.5688786521243], [0.05352708341433399, 43.5688786521243], [0.048093205020719676, 43.57213756936853], [0.0426593266271047, 43.57539648661276], [0.03722544823349061, 43.57865540385699], [0.0317915698398763, 43.581914321101216], [0.0263576914462611, 43.58517323834545], [0.020923813052647233, 43.58843215558968], [0.015489934659032145, 43.59169107283391], [0.010056056265418722, 43.59494999007813], [0.004622177871802746, 43.59820890732236], [-0.0008117005218105655, 43.60146782456658], [-0.0008117005218105655, 43.60146782456658], [-0.005706557111636146, 43.602218637182375], [-0.01060141370145995, 43.60296944979815], [-0.015496270291283754, 43.60372026241393], [-0.020391126881107557, 43.60447107502971], [-0.02528598347093225, 43.6052218876455], [-0.030180840060756053, 43.605972700261276], [-0.03507569665057986, 43.60672351287706], [-0.03997055324040555, 43.60747432549284], [-0.04486540983022924, 43.60822513810862], [-0.049760266420053045, 43.6089759507244]]]}}]}