{
    "type": "FeatureCollection",
    "features": [
        {
            "type": "Feature",
            "properties": {
                "diocese": "Dignen",
                "province": "Ebredunen",
                "date": 1592
            },
            "geometry": {
                "type": "Polygon",
                "coordinates": [
                    [
                        [
                            6.496586887665069,
                            44.27514484109311
                        ],
                        [
                            6.490936792063028,
                            44.27763668418912
                        ],
                        [
                            6.485286696460987,
                            44.28012852728513
                        ],
                        [
                            6.479636600858946,
                            44.28262037038114
                        ],
                        [
                            6.473986505256905,
                            44.28511221347714
                        ],
                        [
                            6.468336409654864,
                            44.28760405657315
                        ],
                        [
                            6.462686314052821,
                            44.29009589966917
                        ],
                        [
                            6.4570362184507815,
                            44.29258774276517
                        ],
                        [
                            6.451386122848739,
                            44.29507958586118
                        ],
                        [
                            6.445736027246699,
                            44.297571428957184
                        ],
                        [
                            6.440085931644656,
                            44.3000632720532
                        ],
                        [
                            6.440085931644656,
                            44.3000632720532
                        ],
                        [
                            6.435722179845554,
                            44.2982002557299
                        ],
                        [
                            6.431358428046451,
                            44.29633723940661
                        ],
                        [
                            6.426994676247347,
                            44.294474223083306
                        ],
                        [
                            6.422630924448242,
                            44.29261120676001
                        ],
                        [
                            6.418267172649141,
                            44.290748190436716
                        ],
                        [
                            6.413903420850039,
                            44.28888517411342
                        ],
                        [
                            6.409539669050936,
                            44.287022157790126
                        ],
                        [
                            6.405175917251832,
                            44.28515914146683
                        ],
                        [
                            6.400812165452727,
                            44.28329612514353
                        ],
                        [
                            6.396448413653625,
                            44.28143310882023
                        ],
                        [
                            6.396448413653625,
                            44.28143310882023
                        ],
                        [
                            6.383374874085938,
                            44.285064003533606
                        ],
                        [
                            6.370301334518251,
                            44.288694898246966
                        ],
                        [
                            6.357227794950566,
                            44.29232579296034
                        ],
                        [
                            6.344154255382877,
                            44.29595668767371
                        ],
                        [
                            6.331080715815192,
                            44.29958758238708
                        ],
                        [
                            6.318007176247505,
                            44.30321847710046
                        ],
                        [
                            6.304933636679815,
                            44.30684937181382
                        ],
                        [
                            6.29186009711213,
                            44.3104802665272
                        ],
                        [
                            6.278786557544443,
                            44.31411116124056
                        ],
                        [
                            6.265713017976758,
                            44.317742055953936
                        ],
                        [
                            6.265713017976758,
                            44.317742055953936
                        ],
                        [
                            6.258785988658893,
                            44.31667632188486
                        ],
                        [
                            6.251858959341028,
                            44.3156105878158
                        ],
                        [
                            6.244931930023164,
                            44.31454485374673
                        ],
                        [
                            6.238004900705304,
                            44.31347911967767
                        ],
                        [
                            6.231077871387441,
                            44.3124133856086
                        ],
                        [
                            6.224150842069577,
                            44.311347651539535
                        ],
                        [
                            6.217223812751715,
                            44.31028191747047
                        ],
                        [
                            6.210296783433851,
                            44.309216183401404
                        ],
                        [
                            6.203369754115986,
                            44.30815044933233
                        ],
                        [
                            6.196442724798121,
                            44.30708471526327
                        ],
                        [
                            6.196442724798121,
                            44.30708471526327
                        ],
                        [
                            6.193768298469694,
                            44.30394563136183
                        ],
                        [
                            6.1910938721412645,
                            44.30080654746039
                        ],
                        [
                            6.188419445812839,
                            44.297667463558945
                        ],
                        [
                            6.185745019484408,
                            44.294528379657514
                        ],
                        [
                            6.183070593155978,
                            44.29138929575607
                        ],
                        [
                            6.180396166827549,
                            44.28825021185463
                        ],
                        [
                            6.177721740499123,
                            44.285111127953186
                        ],
                        [
                            6.175047314170692,
                            44.28197204405175
                        ],
                        [
                            6.172372887842263,
                            44.27883296015031
                        ],
                        [
                            6.169698461513834,
                            44.275693876248866
                        ],
                        [
                            6.169698461513834,
                            44.275693876248866
                        ],
                        [
                            6.1705582226109925,
                            44.27525501223002
                        ],
                        [
                            6.1714179837081495,
                            44.27481614821117
                        ],
                        [
                            6.172277744805308,
                            44.27437728419233
                        ],
                        [
                            6.173137505902465,
                            44.27393842017348
                        ],
                        [
                            6.173997266999622,
                            44.27349955615463
                        ],
                        [
                            6.174857028096783,
                            44.273060692135786
                        ],
                        [
                            6.17571678919394,
                            44.27262182811693
                        ],
                        [
                            6.176576550291097,
                            44.27218296409808
                        ],
                        [
                            6.177436311388256,
                            44.27174410007923
                        ],
                        [
                            6.178296072485413,
                            44.271305236060385
                        ],
                        [
                            6.178296072485413,
                            44.271305236060385
                        ],
                        [
                            6.177103300572286,
                            44.2640954736754
                        ],
                        [
                            6.1759105286591645,
                            44.2568857112904
                        ],
                        [
                            6.174717756746039,
                            44.24967594890541
                        ],
                        [
                            6.173524984832914,
                            44.24246618652042
                        ],
                        [
                            6.172332212919789,
                            44.23525642413543
                        ],
                        [
                            6.171139441006666,
                            44.22804666175044
                        ],
                        [
                            6.169946669093541,
                            44.220836899365445
                        ],
                        [
                            6.168753897180416,
                            44.213627136980456
                        ],
                        [
                            6.167561125267293,
                            44.20641737459546
                        ],
                        [
                            6.1663683533541676,
                            44.19920761221047
                        ],
                        [
                            6.1663683533541676,
                            44.19920761221047
                        ],
                        [
                            6.1631062649252595,
                            44.19977079641091
                        ],
                        [
                            6.15984417649635,
                            44.20033398061136
                        ],
                        [
                            6.156582088067443,
                            44.20089716481179
                        ],
                        [
                            6.153319999638532,
                            44.201460349012244
                        ],
                        [
                            6.150057911209624,
                            44.20202353321269
                        ],
                        [
                            6.146795822780716,
                            44.202586717413126
                        ],
                        [
                            6.1435337343518075,
                            44.20314990161357
                        ],
                        [
                            6.140271645922898,
                            44.20371308581402
                        ],
                        [
                            6.137009557493988,
                            44.204276270014454
                        ],
                        [
                            6.13374746906508,
                            44.2048394542149
                        ],
                        [
                            6.13374746906508,
                            44.2048394542149
                        ],
                        [
                            6.133018480536734,
                            44.20339717150811
                        ],
                        [
                            6.132289492008384,
                            44.201954888801325
                        ],
                        [
                            6.13156050348004,
                            44.20051260609453
                        ],
                        [
                            6.130831514951691,
                            44.199070323387744
                        ],
                        [
                            6.130102526423341,
                            44.197628040680954
                        ],
                        [
                            6.129373537894997,
                            44.196185757974156
                        ],
                        [
                            6.128644549366648,
                            44.19474347526737
                        ],
                        [
                            6.127915560838302,
                            44.19330119256058
                        ],
                        [
                            6.127186572309952,
                            44.19185890985379
                        ],
                        [
                            6.126457583781608,
                            44.190416627147
                        ],
                        [
                            6.126457583781608,
                            44.190416627147
                        ],
                        [
                            6.127723297424181,
                            44.18816084043136
                        ],
                        [
                            6.128989011066757,
                            44.18590505371571
                        ],
                        [
                            6.13025472470933,
                            44.18364926700007
                        ],
                        [
                            6.131520438351906,
                            44.18139348028443
                        ],
                        [
                            6.13278615199448,
                            44.179137693568784
                        ],
                        [
                            6.134051865637055,
                            44.17688190685314
                        ],
                        [
                            6.135317579279629,
                            44.174626120137496
                        ],
                        [
                            6.136583292922204,
                            44.17237033342185
                        ],
                        [
                            6.137849006564778,
                            44.17011454670621
                        ],
                        [
                            6.139114720207354,
                            44.167858759990565
                        ],
                        [
                            6.139114720207354,
                            44.167858759990565
                        ],
                        [
                            6.1367488177479945,
                            44.16365684162422
                        ],
                        [
                            6.134382915288635,
                            44.159454923257854
                        ],
                        [
                            6.132017012829273,
                            44.15525300489151
                        ],
                        [
                            6.1296511103699185,
                            44.151051086525165
                        ],
                        [
                            6.127285207910557,
                            44.14684916815881
                        ],
                        [
                            6.124919305451195,
                            44.142647249792454
                        ],
                        [
                            6.122553402991839,
                            44.138445331426105
                        ],
                        [
                            6.120187500532477,
                            44.13424341305975
                        ],
                        [
                            6.117821598073119,
                            44.1300414946934
                        ],
                        [
                            6.115455695613758,
                            44.125839576327046
                        ],
                        [
                            6.115455695613758,
                            44.125839576327046
                        ],
                        [
                            6.112993946219083,
                            44.119194534726496
                        ],
                        [
                            6.11053219682441,
                            44.11254949312594
                        ],
                        [
                            6.108070447429732,
                            44.10590445152538
                        ],
                        [
                            6.105608698035059,
                            44.09925940992483
                        ],
                        [
                            6.103146948640385,
                            44.09261436832428
                        ],
                        [
                            6.10068519924571,
                            44.08596932672371
                        ],
                        [
                            6.098223449851034,
                            44.07932428512317
                        ],
                        [
                            6.095761700456361,
                            44.07267924352261
                        ],
                        [
                            6.093299951061683,
                            44.06603420192206
                        ],
                        [
                            6.09083820166701,
                            44.0593891603215
                        ],
                        [
                            6.09083820166701,
                            44.0593891603215
                        ],
                        [
                            6.090285263129974,
                            44.05468670289728
                        ],
                        [
                            6.089732324592937,
                            44.049984245473055
                        ],
                        [
                            6.089179386055903,
                            44.045281788048825
                        ],
                        [
                            6.088626447518864,
                            44.040579330624595
                        ],
                        [
                            6.0880735089818305,
                            44.03587687320037
                        ],
                        [
                            6.087520570444797,
                            44.03117441577615
                        ],
                        [
                            6.086967631907758,
                            44.02647195835192
                        ],
                        [
                            6.086414693370722,
                            44.021769500927704
                        ],
                        [
                            6.085861754833687,
                            44.01706704350348
                        ],
                        [
                            6.085308816296651,
                            44.01236458607926
                        ],
                        [
                            6.085308816296651,
                            44.01236458607926
                        ],
                        [
                            6.089388845581414,
                            44.01211456162067
                        ],
                        [
                            6.093468874866176,
                            44.0118645371621
                        ],
                        [
                            6.097548904150939,
                            44.01161451270352
                        ],
                        [
                            6.101628933435698,
                            44.01136448824494
                        ],
                        [
                            6.10570896272046,
                            44.01111446378636
                        ],
                        [
                            6.109788992005223,
                            44.01086443932779
                        ],
                        [
                            6.113869021289984,
                            44.0106144148692
                        ],
                        [
                            6.117949050574747,
                            44.01036439041062
                        ],
                        [
                            6.122029079859509,
                            44.01011436595205
                        ],
                        [
                            6.12610910914427,
                            44.009864341493476
                        ],
                        [
                            6.12610910914427,
                            44.009864341493476
                        ],
                        [
                            6.1261966891160515,
                            44.0079831839885
                        ],
                        [
                            6.126284269087833,
                            44.006102026483525
                        ],
                        [
                            6.126371849059611,
                            44.00422086897856
                        ],
                        [
                            6.126459429031392,
                            44.002339711473596
                        ],
                        [
                            6.126547009003174,
                            44.00045855396861
                        ],
                        [
                            6.126634588974953,
                            43.998577396463645
                        ],
                        [
                            6.126722168946733,
                            43.99669623895868
                        ],
                        [
                            6.1268097489185145,
                            43.99481508145371
                        ],
                        [
                            6.126897328890296,
                            43.99293392394873
                        ],
                        [
                            6.126984908862076,
                            43.991052766443765
                        ],
                        [
                            6.126984908862076,
                            43.991052766443765
                        ],
                        [
                            6.1300663586696995,
                            43.99055254395476
                        ],
                        [
                            6.133147808477323,
                            43.99005232146577
                        ],
                        [
                            6.136229258284949,
                            43.989552098976766
                        ],
                        [
                            6.139310708092575,
                            43.989051876487764
                        ],
                        [
                            6.1423921579002005,
                            43.98855165399877
                        ],
                        [
                            6.1454736077078245,
                            43.98805143150977
                        ],
                        [
                            6.14855505751545,
                            43.987551209020765
                        ],
                        [
                            6.151636507323074,
                            43.98705098653177
                        ],
                        [
                            6.1547179571307,
                            43.98655076404277
                        ],
                        [
                            6.157799406938324,
                            43.986050541553766
                        ],
                        [
                            6.157799406938324,
                            43.986050541553766
                        ],
                        [
                            6.15934306161186,
                            43.986929029270726
                        ],
                        [
                            6.160886716285397,
                            43.98780751698769
                        ],
                        [
                            6.162430370958933,
                            43.98868600470465
                        ],
                        [
                            6.16397402563247,
                            43.98956449242161
                        ],
                        [
                            6.165517680306005,
                            43.99044298013857
                        ],
                        [
                            6.167061334979541,
                            43.99132146785552
                        ],
                        [
                            6.168604989653078,
                            43.99219995557249
                        ],
                        [
                            6.170148644326613,
                            43.99307844328945
                        ],
                        [
                            6.171692299000151,
                            43.993956931006416
                        ],
                        [
                            6.173235953673686,
                            43.99483541872337
                        ],
                        [
                            6.173235953673686,
                            43.99483541872337
                        ],
                        [
                            6.174600653318601,
                            43.997468918169744
                        ],
                        [
                            6.175965352963514,
                            44.00010241761611
                        ],
                        [
                            6.177330052608426,
                            44.00273591706248
                        ],
                        [
                            6.178694752253342,
                            44.00536941650884
                        ],
                        [
                            6.1800594518982574,
                            44.00800291595522
                        ],
                        [
                            6.181424151543171,
                            44.01063641540158
                        ],
                        [
                            6.182788851188082,
                            44.013269914847946
                        ],
                        [
                            6.184153550832997,
                            44.015903414294314
                        ],
                        [
                            6.1855182504779105,
                            44.01853691374069
                        ],
                        [
                            6.1868829501228255,
                            44.021170413187065
                        ],
                        [
                            6.1868829501228255,
                            44.021170413187065
                        ],
                        [
                            6.192504576487108,
                            44.02073279225348
                        ],
                        [
                            6.198126202851395,
                            44.02029517131991
                        ],
                        [
                            6.203747829215677,
                            44.01985755038634
                        ],
                        [
                            6.209369455579962,
                            44.01941992945276
                        ],
                        [
                            6.214991081944246,
                            44.018982308519185
                        ],
                        [
                            6.220612708308529,
                            44.01854468758562
                        ],
                        [
                            6.226234334672814,
                            44.01810706665204
                        ],
                        [
                            6.231855961037098,
                            44.01766944571846
                        ],
                        [
                            6.237477587401383,
                            44.01723182478489
                        ],
                        [
                            6.243099213765667,
                            44.016794203851326
                        ],
                        [
                            6.243099213765667,
                            44.016794203851326
                        ],
                        [
                            6.244181613979167,
                            44.01403524683567
                        ],
                        [
                            6.245264014192664,
                            44.01127628982001
                        ],
                        [
                            6.24634641440616,
                            44.00851733280435
                        ],
                        [
                            6.247428814619662,
                            44.005758375788695
                        ],
                        [
                            6.24851121483316,
                            44.00299941877304
                        ],
                        [
                            6.249593615046658,
                            44.000240461757386
                        ],
                        [
                            6.250676015260156,
                            43.99748150474173
                        ],
                        [
                            6.2517584154736525,
                            43.99472254772608
                        ],
                        [
                            6.252840815687152,
                            43.99196359071042
                        ],
                        [
                            6.253923215900652,
                            43.98920463369476
                        ],
                        [
                            6.253923215900652,
                            43.98920463369476
                        ],
                        [
                            6.258552192251852,
                            43.9915889989677
                        ],
                        [
                            6.2631811686030545,
                            43.993973364240645
                        ],
                        [
                            6.267810144954256,
                            43.996357729513576
                        ],
                        [
                            6.27243912130546,
                            43.99874209478652
                        ],
                        [
                            6.277068097656661,
                            44.00112646005947
                        ],
                        [
                            6.281697074007862,
                            44.0035108253324
                        ],
                        [
                            6.2863260503590634,
                            44.00589519060534
                        ],
                        [
                            6.290955026710266,
                            44.00827955587829
                        ],
                        [
                            6.295584003061469,
                            44.01066392115123
                        ],
                        [
                            6.30021297941267,
                            44.013048286424166
                        ],
                        [
                            6.30021297941267,
                            44.013048286424166
                        ],
                        [
                            6.301224344579657,
                            44.01988204113111
                        ],
                        [
                            6.3022357097466415,
                            44.026715795838065
                        ],
                        [
                            6.303247074913628,
                            44.03354955054502
                        ],
                        [
                            6.3042584400806145,
                            44.04038330525197
                        ],
                        [
                            6.305269805247603,
                            44.047217059958925
                        ],
                        [
                            6.306281170414588,
                            44.05405081466587
                        ],
                        [
                            6.307292535581574,
                            44.060884569372824
                        ],
                        [
                            6.308303900748559,
                            44.06771832407977
                        ],
                        [
                            6.309315265915547,
                            44.07455207878673
                        ],
                        [
                            6.310326631082532,
                            44.08138583349368
                        ],
                        [
                            6.310326631082532,
                            44.08138583349368
                        ],
                        [
                            6.312322816132584,
                            44.0822013726603
                        ],
                        [
                            6.31431900118263,
                            44.08301691182691
                        ],
                        [
                            6.316315186232682,
                            44.08383245099352
                        ],
                        [
                            6.318311371282732,
                            44.08464799016013
                        ],
                        [
                            6.320307556332784,
                            44.085463529326745
                        ],
                        [
                            6.3223037413828305,
                            44.086279068493354
                        ],
                        [
                            6.3242999264328805,
                            44.08709460765998
                        ],
                        [
                            6.326296111482931,
                            44.08791014682659
                        ],
                        [
                            6.328292296532979,
                            44.088725685993204
                        ],
                        [
                            6.330288481583029,
                            44.08954122515981
                        ],
                        [
                            6.330288481583029,
                            44.08954122515981
                        ],
                        [
                            6.333825452877733,
                            44.08966708227209
                        ],
                        [
                            6.337362424172438,
                            44.08979293938437
                        ],
                        [
                            6.34089939546714,
                            44.089918796496654
                        ],
                        [
                            6.344436366761846,
                            44.09004465360893
                        ],
                        [
                            6.347973338056548,
                            44.0901705107212
                        ],
                        [
                            6.351510309351248,
                            44.09029636783348
                        ],
                        [
                            6.355047280645955,
                            44.090422224945755
                        ],
                        [
                            6.358584251940657,
                            44.090548082058035
                        ],
                        [
                            6.362121223235363,
                            44.09067393917031
                        ],
                        [
                            6.365658194530065,
                            44.09079979628258
                        ],
                        [
                            6.365658194530065,
                            44.09079979628258
                        ],
                        [
                            6.368833315978534,
                            44.09161562966972
                        ],
                        [
                            6.3720084374270005,
                            44.09243146305684
                        ],
                        [
                            6.37518355887547,
                            44.09324729644397
                        ],
                        [
                            6.378358680323938,
                            44.09406312983109
                        ],
                        [
                            6.381533801772408,
                            44.09487896321822
                        ],
                        [
                            6.384708923220877,
                            44.09569479660535
                        ],
                        [
                            6.387884044669345,
                            44.09651062999248
                        ],
                        [
                            6.391059166117813,
                            44.0973264633796
                        ],
                        [
                            6.394234287566281,
                            44.098142296766724
                        ],
                        [
                            6.397409409014751,
                            44.098958130153854
                        ],
                        [
                            6.397409409014751,
                            44.098958130153854
                        ],
                        [
                            6.399137330967186,
                            44.101653742558845
                        ],
                        [
                            6.400865252919619,
                            44.10434935496383
                        ],
                        [
                            6.402593174872054,
                            44.10704496736882
                        ],
                        [
                            6.404321096824489,
                            44.1097405797738
                        ],
                        [
                            6.406049018776924,
                            44.11243619217879
                        ],
                        [
                            6.407776940729359,
                            44.115131804583775
                        ],
                        [
                            6.4095048626817945,
                            44.11782741698877
                        ],
                        [
                            6.41123278463423,
                            44.12052302939375
                        ],
                        [
                            6.412960706586665,
                            44.12321864179874
                        ],
                        [
                            6.414688628539098,
                            44.12591425420373
                        ],
                        [
                            6.414688628539098,
                            44.12591425420373
                        ],
                        [
                            6.418134995224156,
                            44.12635413818523
                        ],
                        [
                            6.4215813619092135,
                            44.12679402216672
                        ],
                        [
                            6.425027728594269,
                            44.12723390614821
                        ],
                        [
                            6.428474095279329,
                            44.1276737901297
                        ],
                        [
                            6.431920461964385,
                            44.1281136741112
                        ],
                        [
                            6.4353668286494425,
                            44.12855355809269
                        ],
                        [
                            6.4388131953345,
                            44.12899344207419
                        ],
                        [
                            6.442259562019554,
                            44.12943332605568
                        ],
                        [
                            6.445705928704614,
                            44.12987321003718
                        ],
                        [
                            6.44915229538967,
                            44.13031309401867
                        ],
                        [
                            6.44915229538967,
                            44.13031309401867
                        ],
                        [
                            6.452237254254355,
                            44.13163099028142
                        ],
                        [
                            6.455322213119038,
                            44.13294888654416
                        ],
                        [
                            6.458407171983724,
                            44.134266782806904
                        ],
                        [
                            6.461492130848409,
                            44.13558467906965
                        ],
                        [
                            6.464577089713096,
                            44.13690257533239
                        ],
                        [
                            6.467662048577777,
                            44.13822047159514
                        ],
                        [
                            6.470747007442462,
                            44.13953836785788
                        ],
                        [
                            6.47383196630715,
                            44.140856264120636
                        ],
                        [
                            6.4769169251718335,
                            44.14217416038337
                        ],
                        [
                            6.480001884036517,
                            44.14349205664612
                        ],
                        [
                            6.480001884036517,
                            44.14349205664612
                        ],
                        [
                            6.482091941546507,
                            44.14568671322478
                        ],
                        [
                            6.484181999056492,
                            44.147881369803436
                        ],
                        [
                            6.486272056566481,
                            44.1500760263821
                        ],
                        [
                            6.488362114076471,
                            44.152270682960754
                        ],
                        [
                            6.490452171586458,
                            44.15446533953941
                        ],
                        [
                            6.492542229096445,
                            44.15665999611807
                        ],
                        [
                            6.494632286606434,
                            44.15885465269673
                        ],
                        [
                            6.496722344116423,
                            44.1610493092754
                        ],
                        [
                            6.4988124016264095,
                            44.16324396585405
                        ],
                        [
                            6.500902459136398,
                            44.16543862243272
                        ],
                        [
                            6.500902459136398,
                            44.16543862243272
                        ],
                        [
                            6.500726296616024,
                            44.16782074933969
                        ],
                        [
                            6.500550134095654,
                            44.170202876246684
                        ],
                        [
                            6.50037397157528,
                            44.17258500315367
                        ],
                        [
                            6.50019780905491,
                            44.17496713006065
                        ],
                        [
                            6.50002164653454,
                            44.17734925696764
                        ],
                        [
                            6.499845484014166,
                            44.17973138387462
                        ],
                        [
                            6.499669321493792,
                            44.18211351078161
                        ],
                        [
                            6.499493158973422,
                            44.1844956376886
                        ],
                        [
                            6.49931699645305,
                            44.18687776459557
                        ],
                        [
                            6.499140833932676,
                            44.189259891502566
                        ],
                        [
                            6.499140833932676,
                            44.189259891502566
                        ],
                        [
                            6.497424568400284,
                            44.19264471094077
                        ],
                        [
                            6.495708302867888,
                            44.19602953037897
                        ],
                        [
                            6.493992037335492,
                            44.199414349817175
                        ],
                        [
                            6.4922757718030955,
                            44.20279916925538
                        ],
                        [
                            6.490559506270703,
                            44.20618398869358
                        ],
                        [
                            6.4888432407383085,
                            44.209568808131785
                        ],
                        [
                            6.487126975205912,
                            44.21295362756999
                        ],
                        [
                            6.485410709673518,
                            44.21633844700819
                        ],
                        [
                            6.483694444141122,
                            44.219723266446394
                        ],
                        [
                            6.481978178608728,
                            44.223108085884604
                        ],
                        [
                            6.481978178608728,
                            44.223108085884604
                        ],
                        [
                            6.483439049514361,
                            44.22831176140544
                        ],
                        [
                            6.484899920419995,
                            44.233515436926304
                        ],
                        [
                            6.48636079132563,
                            44.23871911244715
                        ],
                        [
                            6.487821662231264,
                            44.243922787968
                        ],
                        [
                            6.4892825331368975,
                            44.24912646348885
                        ],
                        [
                            6.490743404042531,
                            44.2543301390097
                        ],
                        [
                            6.492204274948168,
                            44.25953381453056
                        ],
                        [
                            6.493665145853802,
                            44.26473749005141
                        ],
                        [
                            6.495126016759432,
                            44.26994116557226
                        ],
                        [
                            6.496586887665069,
                            44.27514484109311
                        ]
                    ]
                ]
            }
        }
    ]
}