{
"type": "FeatureCollection",
"name": "Glandaten",
"features": [
{ "type": "Feature", "properties": { "diocese": "Glandaten", "province": "Ebredunen", "date": 1592 }, "geometry": { "type": "Polygon", "coordinates": [ [ [ 6.698382259178953, 44.1065449019247 ], [ 6.683937715160302, 44.095917208190322 ], [ 6.642258758372519, 44.107164918945486 ], [ 6.567500897605645, 44.018134138954835 ], [ 6.581262037214806, 43.987478014013668 ], [ 6.618293738879939, 43.949296497851158 ], [ 6.632794291917643, 43.919784520425971 ], [ 6.636537939799778, 43.890724350439243 ], [ 6.614597180028865, 43.871449078164702 ], [ 6.626368920663546, 43.854539977048923 ], [ 6.649015661071718, 43.857624814897108 ], [ 6.711546793849524, 43.82900615315743 ], [ 6.755808653563837, 43.804922024422176 ], [ 6.748590841313159, 43.789908045668128 ], [ 6.925419092025919, 43.815894312697552 ], [ 7.095771738189146, 43.823138217563589 ], [ 7.190846225029712, 43.807639088483057 ], [ 7.187844620984712, 43.813038465348683 ], [ 7.202511839779628, 43.844354557627476 ], [ 7.13348059356179, 43.916902032739387 ], [ 7.001471651041795, 43.941676023987362 ], [ 6.987427149562965, 43.998674307394616 ], [ 6.965499754176345, 44.021371594140732 ], [ 6.974814788610417, 44.100065506286633 ], [ 6.951665392043509, 44.128888757995348 ], [ 6.883450458536887, 44.159768029606077 ], [ 6.835079977293733, 44.173177939966898 ], [ 6.788841951843386, 44.225236994659639 ], [ 6.777379955469087, 44.277186618842265 ], [ 6.765943306278434, 44.279445204038602 ], [ 6.759809287873831, 44.263328329641745 ], [ 6.746131223457204, 44.259491364500107 ], [ 6.740076867629424, 44.254164424392194 ], [ 6.731018792614754, 44.25347480890639 ], [ 6.727064216372964, 44.251785746585703 ], [ 6.725739645617803, 44.226391402309581 ], [ 6.723281449657773, 44.224397556190524 ], [ 6.694929497857048, 44.233915996103171 ], [ 6.676986238974088, 44.181092896604234 ], [ 6.651616858953926, 44.153053047136318 ], [ 6.673479986011857, 44.151253672118983 ], [ 6.698382259178953, 44.1065449019247 ] ] ] } }
]
}
