{
    "type": "FeatureCollection",
    "features": [
        {
            "type": "Feature",
            "properties": {
                "diocese": "Tornacen",
                "province": "Cameracen",
                "date": 1592
            },
            "geometry": {
                "type": "Polygon",
                "coordinates": [
                    [
                        [
                            2.9336483641170683,
                            50.70010198879938
                        ],
                        [
                            2.9420083300781137,
                            50.68868792171009
                        ],
                        [
                            2.9482732391483597,
                            50.67460678965335
                        ],
                        [
                            2.959263170132634,
                            50.63825466415073
                        ],
                        [
                            2.9426202325720805,
                            50.61713954022018
                        ],
                        [
                            2.948219324486067,
                            50.59105925398032
                        ],
                        [
                            2.9633147862817353,
                            50.57399996930673
                        ],
                        [
                            2.9451488026543924,
                            50.55428262847205
                        ],
                        [
                            2.894691246952003,
                            50.54511133595201
                        ],
                        [
                            2.8724419046627325,
                            50.490765220426645
                        ],
                        [
                            2.88321300962724,
                            50.475602237809184
                        ],
                        [
                            2.9414470817556664,
                            50.44256101414532
                        ],
                        [
                            3.050029383192924,
                            50.438946556654294
                        ],
                        [
                            3.1011495822325683,
                            50.4245182378561
                        ],
                        [
                            3.126095753050149,
                            50.439421445781655
                        ],
                        [
                            3.168049571578247,
                            50.438084517467466
                        ],
                        [
                            3.1857947441076018,
                            50.4255715674056
                        ],
                        [
                            3.216116336606386,
                            50.44355587706358
                        ],
                        [
                            3.241331957000302,
                            50.440994717449705
                        ],
                        [
                            3.260045668140395,
                            50.41898916429335
                        ],
                        [
                            3.304199904245015,
                            50.40358490959774
                        ],
                        [
                            3.3293158018102886,
                            50.38869332994371
                        ],
                        [
                            3.3378921306028437,
                            50.38053004524533
                        ],
                        [
                            3.3678364159691614,
                            50.3851198947293
                        ],
                        [
                            3.3712788862024383,
                            50.40427657936647
                        ],
                        [
                            3.4228681995780588,
                            50.41010745549956
                        ],
                        [
                            3.4519421857656227,
                            50.38139159862423
                        ],
                        [
                            3.4848119839205727,
                            50.383552361258566
                        ],
                        [
                            3.5082896329180038,
                            50.40169610309855
                        ],
                        [
                            3.4706815390842314,
                            50.44271705302997
                        ],
                        [
                            3.4832314586198683,
                            50.491334530144165
                        ],
                        [
                            3.4391582528864304,
                            50.58608635070134
                        ],
                        [
                            3.423605845231105,
                            50.59416479872334
                        ],
                        [
                            3.4433998186223542,
                            50.60044707774674
                        ],
                        [
                            3.4122950032563106,
                            50.60762579847398
                        ],
                        [
                            3.4122950032563106,
                            50.623773916144415
                        ],
                        [
                            3.3854317536631866,
                            50.620185924636175
                        ],
                        [
                            3.3670516355233606,
                            50.63722644627165
                        ],
                        [
                            3.3500853726166118,
                            50.65963877608289
                        ],
                        [
                            3.3642239250389365,
                            50.673081042323204
                        ],
                        [
                            3.3486715173836106,
                            50.70084953149496
                        ],
                        [
                            3.3656377802719377,
                            50.70890827274662
                        ],
                        [
                            3.3727070564738377,
                            50.727706616235764
                        ],
                        [
                            3.402398016588382,
                            50.73039147835692
                        ],
                        [
                            3.4122950032563106,
                            50.74828662712716
                        ],
                        [
                            3.4335028318990335,
                            50.75186483632427
                        ],
                        [
                            3.5282311331377256,
                            50.80550515757522
                        ],
                        [
                            3.5126787254824,
                            50.81801238034729
                        ],
                        [
                            3.5098510149979507,
                            50.82873019160156
                        ],
                        [
                            3.4942986073056796,
                            50.85997642300548
                        ],
                        [
                            3.4745046339144814,
                            50.86265369775182
                        ],
                        [
                            3.4575383710261804,
                            50.869792345501345
                        ],
                        [
                            3.4292612661815824,
                            50.86265369775182
                        ],
                        [
                            3.413708858507784,
                            50.851943676422245
                        ],
                        [
                            3.396742595600985,
                            50.8546214123583
                        ],
                        [
                            3.395328740349511,
                            50.89655253972801
                        ],
                        [
                            3.3698793459708902,
                            50.90725231403251
                        ],
                        [
                            3.3500853726166118,
                            50.90546918907411
                        ],
                        [
                            3.3246359782564894,
                            50.91438413090234
                        ],
                        [
                            3.2921173076574446,
                            50.90903537069132
                        ],
                        [
                            3.3034281496137665,
                            50.92686218106719
                        ],
                        [
                            3.2878757419584663,
                            50.929535613606326
                        ],
                        [
                            3.283634176204045,
                            50.94735457071484
                        ],
                        [
                            3.2332929633985033,
                            50.94890940794018
                        ],
                        [
                            3.230613895732118,
                            50.95140945630429
                        ],
                        [
                            3.2278667747768224,
                            50.94735529343651
                        ],
                        [
                            3.2209636164261215,
                            50.94252709354106
                        ],
                        [
                            3.2211654761250705,
                            50.938475343989644
                        ],
                        [
                            3.2032374894894313,
                            50.93763994838878
                        ],
                        [
                            3.2020819963538303,
                            50.93491074791073
                        ],
                        [
                            3.1944060702682715,
                            50.9362815842719
                        ],
                        [
                            3.191523740421753,
                            50.91855034892894
                        ],
                        [
                            3.1720397219446443,
                            50.91867088549736
                        ],
                        [
                            3.1572733514845357,
                            50.88083561894748
                        ],
                        [
                            3.1431822694747296,
                            50.87941251661809
                        ],
                        [
                            3.138746153436534,
                            50.87751084377975
                        ],
                        [
                            3.1479040729314316,
                            50.85997642300548
                        ],
                        [
                            3.1351793757420827,
                            50.844802295679145
                        ],
                        [
                            3.105488415682982,
                            50.84033837754187
                        ],
                        [
                            3.1097299814004327,
                            50.81265255209991
                        ],
                        [
                            3.092763718493633,
                            50.806398641695836
                        ],
                        [
                            3.0588311926801364,
                            50.803718138077336
                        ],
                        [
                            2.996621562003467,
                            50.85283627214532
                        ],
                        [
                            2.9655167466744197,
                            50.84837312271712
                        ],
                        [
                            3.0008631277393905,
                            50.81443922986288
                        ],
                        [
                            2.969758312410343,
                            50.80550515757522
                        ],
                        [
                            2.9556197599880187,
                            50.82069206381804
                        ],
                        [
                            2.9329980761308185,
                            50.82158525746832
                        ],
                        [
                            2.9188595236900214,
                            50.810865805990524
                        ],
                        [
                            2.992379996304489,
                            50.76706917418273
                        ],
                        [
                            2.9725860228763454,
                            50.75097030966773
                        ],
                        [
                            2.94855048376762,
                            50.753653838343645
                        ],
                        [
                            2.9372396418297457,
                            50.74828662712716
                        ],
                        [
                            2.92695078244744,
                            50.70984860254587
                        ],
                        [
                            2.9336483641170683,
                            50.70010198879938
                        ]
                    ]
                ]
            }
        }
    ]
}