{"type": "FeatureCollection", "features": [{"type": "Feature", "properties": {"diocese": "Aix", "province": "I_Aix", "source": "1_Aix.txt"}, "geometry": {"type": "Polygon", "coordinates": [[[6.194598068330105, 43.35132809523512], [6.19289209937725, 43.356809807359355], [6.191186130424397, 43.362291519483584], [6.189480161471543, 43.367773231607806], [6.187774192518688, 43.373254943732036], [6.186068223565833, 43.37873665585627], [6.184362254612978, 43.3842183679805], [6.182656285660125, 43.38970008010473], [6.180950316707271, 43.39518179222896], [6.179244347754416, 43.40066350435319], [6.177538378801563, 43.40614521647742], [6.177538378801563, 43.40614521647742], [6.172642515719787, 43.40639503733296], [6.167746652638012, 43.406644858188486], [6.162850789556236, 43.40689467904403], [6.15795492647446, 43.40714449989956], [6.153059063392686, 43.4073943207551], [6.1481632003109095, 43.40764414161063], [6.143267337229133, 43.40789396246617], [6.138371474147361, 43.4081437833217], [6.133475611065585, 43.408393604177235], [6.1285797479838084, 43.40864342503278], [6.1285797479838084, 43.40864342503278], [6.125505508032244, 43.41365798754888], [6.122431268080682, 43.41867255006498], [6.119357028129119, 43.423687112581085], [6.116282788177555, 43.42870167509718], [6.113208548225995, 43.43371623761328], [6.110134308274429, 43.438730800129385], [6.107060068322868, 43.44374536264549], [6.1039858283713055, 43.44875992516159], [6.100911588419743, 43.4537744876777], [6.097837348468179, 43.4587890501938], [6.097837348468179, 43.4587890501938], [6.098390942812131, 43.4630525385839], [6.098944537156083, 43.46731602697401], [6.099498131500031, 43.471579515364105], [6.100051725843985, 43.475843003754214], [6.100605320187938, 43.480106492144316], [6.1011589145318865, 43.48436998053442], [6.101712508875838, 43.48863346892452], [6.10226610321979, 43.49289695731463], [6.102819697563744, 43.497160445704736], [6.103373291907694, 43.50142393409484], [6.103373291907694, 43.50142393409484], [6.1002893721226865, 43.50142316445836], [6.097205452337679, 43.50142239482187], [6.094121532552675, 43.501421625185394], [6.091037612767668, 43.50142085554891], [6.087953692982662, 43.50142008591243], [6.084869773197655, 43.50141931627594], [6.081785853412647, 43.50141854663947], [6.078701933627643, 43.50141777700299], [6.075618013842636, 43.50141700736651], [6.0725340940576285, 43.501416237730034], [6.0725340940576285, 43.501416237730034], [6.0625660410574795, 43.504171883335474], [6.052597988057329, 43.50692752894091], [6.042629935057176, 43.50968317454636], [6.0326618820570275, 43.51243882015181], [6.022693829056879, 43.51519446575725], [6.012725776056726, 43.51795011136269], [6.002757723056577, 43.520705756968134], [5.992789670056425, 43.52346140257358], [5.982821617056276, 43.52621704817902], [5.972853564056125, 43.52897269378447], [5.972853564056125, 43.52897269378447], [5.972496995149648, 43.53235785255449], [5.972140426243168, 43.53574301132452], [5.971783857336687, 43.53912817009455], [5.971427288430208, 43.54251332886457], [5.971070719523727, 43.54589848763461], [5.970714150617251, 43.54928364640463], [5.970357581710768, 43.552668805174655], [5.970001012804289, 43.556053963944684], [5.969644443897812, 43.559439122714714], [5.9692878749913305, 43.562824281484744], [5.9692878749913305, 43.562824281484744], [5.964764501561593, 43.568716584824536], [5.96024112813185, 43.57460888816432], [5.955717754702112, 43.58050119150412], [5.951194381272375, 43.586393494843904], [5.9466710078426335, 43.592285798183696], [5.942147634412894, 43.59817810152348], [5.937624260983155, 43.60407040486327], [5.933100887553417, 43.609962708203064], [5.928577514123674, 43.61585501154285], [5.924054140693935, 43.62174731488265], [5.924054140693935, 43.62174731488265], [5.927687731165685, 43.62475739766209], [5.931321321637437, 43.627767480441534], [5.934954912109188, 43.630777563220974], [5.938588502580938, 43.63378764600042], [5.942222093052688, 43.63679772877986], [5.945855683524439, 43.6398078115593], [5.949489273996189, 43.64281789433874], [5.9531228644679395, 43.64582797711819], [5.95675645493969, 43.64883805989763], [5.960390045411442, 43.651848142677075], [5.960390045411442, 43.651848142677075], [5.957130688837587, 43.654605517227466], [5.953871332263729, 43.657362891777865], [5.950611975689872, 43.66012026632826], [5.9473526191160175, 43.66287764087867], [5.9440932625421645, 43.66563501542906], [5.940833905968308, 43.668392389979466], [5.93757454939445, 43.671149764529865], [5.934315192820595, 43.67390713908026], [5.93105583624674, 43.676664513630655], [5.9277964796728835, 43.67942188818106], [5.9277964796728835, 43.67942188818106], [5.924711160000877, 43.6779170498001], [5.92162584032887, 43.676412211419155], [5.918540520656862, 43.6749073730382], [5.915455200984852, 43.67340253465726], [5.912369881312847, 43.6718976962763], [5.9092845616408365, 43.670392857895344], [5.90619924196883, 43.66888801951439], [5.903113922296821, 43.66738318113344], [5.900028602624815, 43.66587834275249], [5.896943282952806, 43.66437350437153], [5.896943282952806, 43.66437350437153], [5.891879355037689, 43.672020783891796], [5.886815427122578, 43.679668063412045], [5.881751499207461, 43.68731534293231], [5.876687571292345, 43.69496262245256], [5.871623643377232, 43.70260990197282], [5.866559715462117, 43.71025718149307], [5.8614957875470015, 43.717904461013326], [5.8564318596318845, 43.72555174053358], [5.851367931716771, 43.73319902005384], [5.846304003801656, 43.740846299574095], [5.846304003801656, 43.740846299574095], [5.844493539499208, 43.74260095883032], [5.84268307519676, 43.74435561808655], [5.840872610894314, 43.74611027734279], [5.839062146591866, 43.747864936599015], [5.837251682289418, 43.749619595855236], [5.83544121798697, 43.75137425511148], [5.833630753684524, 43.75312891436771], [5.831820289382076, 43.754883573623935], [5.830009825079632, 43.75663823288017], [5.828199360777182, 43.7583928921364], [5.828199360777182, 43.7583928921364], [5.823845424536509, 43.75763977135151], [5.819491488295835, 43.75688665056662], [5.815137552055159, 43.756133529781735], [5.8107836158144845, 43.75538040899685], [5.80642967957381, 43.754627288211964], [5.802075743333138, 43.753874167427085], [5.797721807092461, 43.7531210466422], [5.793367870851789, 43.752367925857314], [5.7890139346111145, 43.75161480507243], [5.784659998370442, 43.75086168428754], [5.784659998370442, 43.75086168428754], [5.784847664077436, 43.75361986439847], [5.7850353297844315, 43.756378044509404], [5.785222995491425, 43.75913622462033], [5.785410661198421, 43.761894404731244], [5.785598326905417, 43.764652584842175], [5.785785992612411, 43.767410764953105], [5.785973658319406, 43.770168945064036], [5.7861613240264, 43.77292712517496], [5.786348989733398, 43.77568530528588], [5.786536655440392, 43.778443485396814], [5.786536655440392, 43.778443485396814], [5.782730938528976, 43.779947697888524], [5.778925221617564, 43.781451910380234], [5.775119504706145, 43.782956122871944], [5.771313787794732, 43.78446033536366], [5.767508070883316, 43.78596454785537], [5.763702353971899, 43.78746876034708], [5.759896637060484, 43.78897297283879], [5.756090920149068, 43.7904771853305], [5.752285203237653, 43.79198139782222], [5.748479486326238, 43.79348561031393], [5.748479486326238, 43.79348561031393], [5.746499636305209, 43.80113360481672], [5.744519786284183, 43.80878159931952], [5.742539936263153, 43.81642959382233], [5.740560086242125, 43.824077588325125], [5.738580236221097, 43.83172558282792], [5.736600386200067, 43.83937357733072], [5.7346205361790386, 43.847021571833515], [5.732640686158012, 43.85466956633632], [5.730660836136982, 43.86231756083912], [5.728680986115954, 43.86996555534192], [5.728680986115954, 43.86996555534192], [5.726325854145761, 43.87134406156974], [5.723970722175569, 43.872722567797545], [5.721615590205376, 43.87410107402536], [5.719260458235183, 43.87547958025316], [5.716905326264989, 43.87685808648097], [5.7145501942947945, 43.87823659270878], [5.712195062324604, 43.8796150989366], [5.709839930354409, 43.880993605164406], [5.707484798384218, 43.88237211139222], [5.705129666414024, 43.88375061762004], [5.705129666414024, 43.88375061762004], [5.70568030414462, 43.8872609772068], [5.7062309418752175, 43.890771336793556], [5.706781579605812, 43.89428169638032], [5.707332217336409, 43.89779205596708], [5.707882855067005, 43.90130241555384], [5.7084334927975995, 43.904812775140606], [5.708984130528197, 43.90832313472736], [5.709534768258791, 43.91183349431412], [5.710085405989389, 43.91534385390088], [5.710636043719983, 43.91885421348764], [5.710636043719983, 43.91885421348764], [5.705561667635447, 43.921047082078985], [5.700487291550912, 43.92323995067033], [5.6954129154663775, 43.92543281926167], [5.690338539381843, 43.927625687853016], [5.685264163297306, 43.92981855644435], [5.680189787212774, 43.932011425035704], [5.675115411128237, 43.93420429362705], [5.670041035043701, 43.93639716221839], [5.664966658959168, 43.93859003080973], [5.659892282874631, 43.94078289940108], [5.659892282874631, 43.94078289940108], [5.659165040703362, 43.93946668540833], [5.658437798532093, 43.93815047141557], [5.657710556360822, 43.936834257422824], [5.656983314189553, 43.93551804343006], [5.656256072018284, 43.93420182943731], [5.6555288298470145, 43.93288561544456], [5.654801587675744, 43.9315694014518], [5.654074345504474, 43.93025318745906], [5.6533471033332034, 43.9289369734663], [5.652619861161934, 43.92762075947355], [5.652619861161934, 43.92762075947355], [5.647170291207148, 43.92272904412854], [5.641720721252359, 43.91783732878351], [5.6362711512975725, 43.91294561343849], [5.630821581342785, 43.90805389809347], [5.625372011387995, 43.90316218274845], [5.619922441433209, 43.898270467403435], [5.614472871478421, 43.89337875205842], [5.609023301523635, 43.8884870367134], [5.603573731568849, 43.88359532136838], [5.598124161614059, 43.87870360602336], [5.598124161614059, 43.87870360602336], [5.598660765016511, 43.87494247508475], [5.599197368418965, 43.871181344146144], [5.5997339718214185, 43.86742021320753], [5.600270575223874, 43.86365908226892], [5.600807178626326, 43.85989795133031], [5.6013437820287795, 43.8561368203917], [5.601880385431233, 43.85237568945309], [5.602416988833685, 43.84861455851448], [5.60295359223614, 43.84485342757587], [5.603490195638594, 43.84109229663726], [5.603490195638594, 43.84109229663726], [5.592243796771509, 43.840337455739316], [5.5809973979044205, 43.83958261484138], [5.5697509990373355, 43.83882777394344], [5.558504600170249, 43.8380729330455], [5.54725820130316, 43.83731809214756], [5.536011802436075, 43.83656325124963], [5.52476540356899, 43.83580841035168], [5.513519004701903, 43.83505356945374], [5.502272605834817, 43.83429872855581], [5.491026206967732, 43.833543887657875], [5.491026206967732, 43.833543887657875], [5.482317365436872, 43.83153556046928], [5.473608523906012, 43.82952723328068], [5.464899682375156, 43.82751890609209], [5.456190840844297, 43.82551057890349], [5.447481999313439, 43.82350225171489], [5.438773157782581, 43.8214939245263], [5.4300643162517215, 43.819485597337696], [5.421355474720864, 43.817477270149105], [5.412646633190006, 43.81546894296051], [5.403937791659148, 43.813460615771916], [5.403937791659148, 43.813460615771916], [5.394597422329822, 43.81320729675348], [5.385257053000496, 43.812953977735056], [5.37591668367117, 43.81270065871662], [5.366576314341845, 43.81244733969819], [5.357235945012517, 43.81219402067976], [5.347895575683189, 43.811940701661335], [5.338555206353865, 43.81168738264291], [5.329214837024537, 43.811434063624475], [5.319874467695211, 43.81118074460604], [5.310534098365887, 43.81092742558761], [5.310534098365887, 43.81092742558761], [5.301560159130194, 43.81239824325164], [5.292586219894499, 43.81386906091567], [5.283612280658808, 43.81533987857971], [5.274638341423117, 43.816810696243735], [5.265664402187424, 43.81828151390777], [5.256690462951731, 43.8197523315718], [5.247716523716038, 43.82122314923583], [5.238742584480345, 43.82269396689986], [5.229768645244652, 43.82416478456389], [5.2207947060089595, 43.825635602227926], [5.2207947060089595, 43.825635602227926], [5.220424333803994, 43.821090215106196], [5.220053961599032, 43.81654482798448], [5.219683589394066, 43.81199944086275], [5.219313217189102, 43.807454053741026], [5.218942844984138, 43.802908666619295], [5.218572472779174, 43.79836327949758], [5.218202100574212, 43.79381789237585], [5.217831728369246, 43.789272505254125], [5.217461356164282, 43.7847271181324], [5.217090983959318, 43.78018173101068], [5.217090983959318, 43.78018173101068], [5.2142290393122845, 43.77751684674968], [5.211367094665249, 43.774851962488675], [5.208505150018217, 43.77218707822767], [5.205643205371183, 43.769522193966665], [5.202781260724148, 43.766857309705664], [5.199919316077114, 43.764192425444655], [5.197057371430082, 43.76152754118365], [5.194195426783045, 43.758862656922645], [5.191333482136013, 43.75619777266164], [5.188471537488979, 43.75353288840065], [5.188471537488979, 43.75353288840065], [5.183530229562859, 43.75343550423579], [5.17858892163674, 43.753338120070914], [5.173647613710623, 43.75324073590605], [5.1687063057845, 43.75314335174119], [5.163764997858381, 43.75304596757632], [5.158823689932262, 43.75294858341145], [5.1538823820061435, 43.752851199246585], [5.148941074080021, 43.75275381508172], [5.143999766153902, 43.75265643091685], [5.139058458227783, 43.75255904675198], [5.139058458227783, 43.75255904675198], [5.137861602823488, 43.748848785609454], [5.136664747419193, 43.74513852446692], [5.135467892014898, 43.74142826332438], [5.134271036610604, 43.73771800218185], [5.133074181206309, 43.73400774103931], [5.131877325802016, 43.730297479896784], [5.130680470397721, 43.72658721875425], [5.129483614993427, 43.72287695761172], [5.128286759589134, 43.71916669646918], [5.127089904184839, 43.71545643532665], [5.127089904184839, 43.71545643532665], [5.1277190902782515, 43.70925014983011], [5.128348276371664, 43.70304386433356], [5.128977462465079, 43.69683757883701], [5.129606648558493, 43.69063129334045], [5.130235834651906, 43.684425007843906], [5.130865020745322, 43.67821872234737], [5.131494206838733, 43.672012436850814], [5.132123392932147, 43.66580615135427], [5.132752579025562, 43.659599865857714], [5.133381765118976, 43.65339358036116], [5.133381765118976, 43.65339358036116], [5.130813738306479, 43.65091040622032], [5.128245711493982, 43.64842723207946], [5.125677684681484, 43.64594405793861], [5.123109657868989, 43.64346088379776], [5.120541631056492, 43.6409777096569], [5.117973604243996, 43.63849453551605], [5.115405577431501, 43.6360113613752], [5.112837550619004, 43.63352818723435], [5.110269523806506, 43.63104501309349], [5.107701496994009, 43.62856183895264], [5.107701496994009, 43.62856183895264], [5.103211565705404, 43.62776274177544], [5.098721634416796, 43.62696364459824], [5.094231703128191, 43.62616454742105], [5.089741771839586, 43.62536545024384], [5.085251840550978, 43.62456635306664], [5.080761909262373, 43.623767255889454], [5.076271977973766, 43.622968158712254], [5.0717820466851595, 43.622169061535054], [5.067292115396553, 43.621369964357854], [5.0628021841079445, 43.62057086718065], [5.0628021841079445, 43.62057086718065], [5.0635661059335675, 43.617733837901184], [5.064330027759189, 43.61489680862171], [5.065093949584812, 43.61205977934223], [5.065857871410433, 43.60922275006276], [5.066621793236054, 43.60638572078329], [5.0673857150616755, 43.60354869150382], [5.068149636887297, 43.60071166222434], [5.068913558712918, 43.597874632944865], [5.069677480538539, 43.595037603665396], [5.07044140236416, 43.59220057438592], [5.07044140236416, 43.59220057438592], [5.07607391215503, 43.58776990069973], [5.081706421945897, 43.58333922701353], [5.087338931736763, 43.578908553327345], [5.092971441527631, 43.57447787964116], [5.0986039513185, 43.570047205954964], [5.10423646110937, 43.56561653226877], [5.109868970900237, 43.561185858582576], [5.115501480691105, 43.55675518489639], [5.121133990481972, 43.5523245112102], [5.126766500272842, 43.54789383752401], [5.126766500272842, 43.54789383752401], [5.132020603608687, 43.545944563479395], [5.137274706944533, 43.54399528943479], [5.142528810280378, 43.54204601539018], [5.147782913616226, 43.540096741345565], [5.153037016952071, 43.53814746730095], [5.15829112028792, 43.53619819325634], [5.163545223623766, 43.53424891921172], [5.1687993269596095, 43.532299645167114], [5.174053430295459, 43.53035037112251], [5.179307533631304, 43.5284010970779], [5.179307533631304, 43.5284010970779], [5.183672312116196, 43.53079606162872], [5.188037090601087, 43.53319102617954], [5.192401869085979, 43.53558599073037], [5.19676664757087, 43.5379809552812], [5.20113142605576, 43.540375919832016], [5.205496204540649, 43.54277088438284], [5.209860983025543, 43.545165848933664], [5.214225761510434, 43.54756081348449], [5.218590539995326, 43.54995577803531], [5.222955318480215, 43.55235074258613], [5.222955318480215, 43.55235074258613], [5.229748981085818, 43.55075653943493], [5.236542643691418, 43.54916233628371], [5.243336306297019, 43.54756813313249], [5.250129968902616, 43.54597392998127], [5.256923631508219, 43.54437972683005], [5.263717294113819, 43.542785523678845], [5.27051095671942, 43.54119132052762], [5.277304619325017, 43.53959711737641], [5.2840982819306195, 43.53800291422519], [5.290891944536222, 43.536408711073975], [5.290891944536222, 43.536408711073975], [5.2937070674799696, 43.53321750702694], [5.296522190423721, 43.530026302979905], [5.29933731336747, 43.52683509893287], [5.302152436311221, 43.523643894885836], [5.304967559254971, 43.520452690838795], [5.307782682198722, 43.51726148679177], [5.310597805142473, 43.514070282744726], [5.313412928086223, 43.51087907869769], [5.3162280510299755, 43.50768787465066], [5.319043173973723, 43.50449667060362], [5.319043173973723, 43.50449667060362], [5.31891083405281, 43.502368736304284], [5.318778494131896, 43.50024080200496], [5.318646154210983, 43.49811286770562], [5.318513814290069, 43.49598493340629], [5.318381474369156, 43.49385699910695], [5.318249134448241, 43.491729064807615], [5.3181167945273256, 43.489601130508284], [5.317984454606414, 43.48747319620895], [5.317852114685499, 43.48534526190962], [5.3177197747645835, 43.483217327610284], [5.3177197747645835, 43.483217327610284], [5.318487974658778, 43.482596858665694], [5.319256174552972, 43.4819763897211], [5.320024374447165, 43.4813559207765], [5.320792574341359, 43.4807354518319], [5.321560774235552, 43.4801149828873], [5.322328974129745, 43.4794945139427], [5.323097174023937, 43.47887404499811], [5.323865373918132, 43.478253576053504], [5.324633573812324, 43.47763310710891], [5.325401773706519, 43.477012638164304], [5.325401773706519, 43.477012638164304], [5.330521654758613, 43.471960136709804], [5.335641535810707, 43.46690763525531], [5.340761416862801, 43.4618551338008], [5.345881297914893, 43.45680263234631], [5.351001178966987, 43.4517501308918], [5.356121060019083, 43.4466976294373], [5.361240941071173, 43.44164512798281], [5.366360822123266, 43.4365926265283], [5.3714807031753615, 43.43154012507381], [5.376600584227456, 43.4264876236193], [5.376600584227456, 43.4264876236193], [5.381085381770438, 43.4246268155786], [5.385570179313422, 43.422766007537895], [5.390054976856405, 43.42090519949719], [5.394539774399391, 43.41904439145648], [5.399024571942373, 43.41718358341577], [5.4035093694853575, 43.415322775375074], [5.407994167028338, 43.413461967334364], [5.412478964571324, 43.41160115929366], [5.416963762114307, 43.40974035125296], [5.421448559657291, 43.407879543212246], [5.421448559657291, 43.407879543212246], [5.427222690075478, 43.40956559552536], [5.432996820493669, 43.41125164783846], [5.438770950911858, 43.41293770015157], [5.444545081330046, 43.41462375246468], [5.4503192117482335, 43.416309804777775], [5.456093342166422, 43.417995857090894], [5.461867472584613, 43.41968190940399], [5.4676416030028, 43.4213679617171], [5.473415733420989, 43.42305401403021], [5.479189863839178, 43.42474006634331], [5.479189863839178, 43.42474006634331], [5.482396188448417, 43.424918182518105], [5.485602513057653, 43.4250962986929], [5.488808837666895, 43.42527441486771], [5.492015162276132, 43.4254525310425], [5.495221486885372, 43.4256306472173], [5.498427811494608, 43.4258087633921], [5.501634136103847, 43.42598687956689], [5.504840460713089, 43.426164995741686], [5.508046785322325, 43.42634311191649], [5.5112531099315625, 43.42652122809128], [5.5112531099315625, 43.42652122809128], [5.513301744229661, 43.424837128061476], [5.51535037852776, 43.42315302803168], [5.517399012825857, 43.42146892800187], [5.519447647123952, 43.41978482797207], [5.521496281422051, 43.41810072794227], [5.52354491572015, 43.41641662791247], [5.5255935500182485, 43.41473252788266], [5.5276421843163455, 43.413048427852864], [5.529690818614444, 43.41136432782306], [5.531739452912543, 43.40968022779325], [5.531739452912543, 43.40968022779325], [5.5387959129971325, 43.41136660013015], [5.545852373081722, 43.41305297246705], [5.55290883316631, 43.41473934480394], [5.559965293250899, 43.41642571714083], [5.567021753335489, 43.418112089477724], [5.574078213420078, 43.41979846181462], [5.581134673504668, 43.421484834151514], [5.588191133589255, 43.42317120648841], [5.595247593673847, 43.4248575788253], [5.602304053758434, 43.426543951162195], [5.602304053758434, 43.426543951162195], [5.6123017742641075, 43.42477317694582], [5.622299494769784, 43.42300240272945], [5.632297215275459, 43.42123162851308], [5.642294935781132, 43.4194608542967], [5.652292656286809, 43.417690080080334], [5.662290376792482, 43.41591930586396], [5.672288097298157, 43.41414853164759], [5.68228581780383, 43.41237775743121], [5.692283538309507, 43.410606983214834], [5.70228125881518, 43.40883620899846], [5.70228125881518, 43.40883620899846], [5.70818276652296, 43.410078948430915], [5.714084274230737, 43.41132168786337], [5.719985781938517, 43.41256442729583], [5.725887289646293, 43.41380716672828], [5.731788797354069, 43.415049906160746], [5.737690305061848, 43.4162926455932], [5.743591812769626, 43.41753538502566], [5.749493320477404, 43.418778124458115], [5.755394828185182, 43.420020863890564], [5.761296335892958, 43.42126360332302], [5.761296335892958, 43.42126360332302], [5.769121167091601, 43.42241821944666], [5.776945998290245, 43.423572835570305], [5.784770829488886, 43.42472745169394], [5.792595660687526, 43.425882067817575], [5.800420491886166, 43.427036683941225], [5.808245323084812, 43.42819130006487], [5.816070154283452, 43.429345916188495], [5.823894985482092, 43.43050053231214], [5.831719816680735, 43.43165514843578], [5.839544647879375, 43.432809764559416], [5.839544647879375, 43.432809764559416], [5.842364299218877, 43.43192383359835], [5.845183950558383, 43.43103790263727], [5.848003601897883, 43.430151971676196], [5.850823253237383, 43.42926604071512], [5.853642904576885, 43.42838010975405], [5.856462555916389, 43.42749417879298], [5.859282207255889, 43.4266082478319], [5.8621018585953895, 43.425722316870825], [5.864921509934893, 43.42483638590975], [5.867741161274395, 43.42395045494868], [5.867741161274395, 43.42395045494868], [5.8636318219314365, 43.42102355148166], [5.859522482588476, 43.418096648014654], [5.855413143245515, 43.415169744547626], [5.851303803902555, 43.41224284108061], [5.847194464559596, 43.4093159376136], [5.843085125216636, 43.40638903414658], [5.838975785873677, 43.40346213067957], [5.834866446530713, 43.40053522721254], [5.830757107187754, 43.39760832374553], [5.826647767844795, 43.394681420278516], [5.826647767844795, 43.394681420278516], [5.826385062267223, 43.391489448115166], [5.826122356689652, 43.3882974759518], [5.8258596511120775, 43.385105503788445], [5.825596945534507, 43.381913531625095], [5.825334239956934, 43.378721559461745], [5.82507153437936, 43.375529587298395], [5.824808828801787, 43.37233761513504], [5.824546123224216, 43.36914564297169], [5.824283417646644, 43.36595367080833], [5.824020712069071, 43.36276169864498], [5.824020712069071, 43.36276169864498], [5.829021258625824, 43.362319656627115], [5.834021805182582, 43.36187761460925], [5.8390223517393345, 43.36143557259138], [5.844022898296087, 43.36099353057352], [5.8490234448528415, 43.36055148855566], [5.854023991409598, 43.3601094465378], [5.85902453796635, 43.35966740451993], [5.864025084523105, 43.359225362502066], [5.869025631079859, 43.35878332048421], [5.874026177636615, 43.35834127846635], [5.874026177636615, 43.35834127846635], [5.878001123475961, 43.358076241792126], [5.881976069315309, 43.357811205117905], [5.885951015154658, 43.3575461684437], [5.889925960994006, 43.35728113176948], [5.893900906833354, 43.35701609509526], [5.897875852672701, 43.35675105842105], [5.901850798512051, 43.35648602174683], [5.9058257443514, 43.35622098507261], [5.909800690190748, 43.355955948398396], [5.913775636030097, 43.35569091172418], [5.913775636030097, 43.35569091172418], [5.916465777495549, 43.35418434247554], [5.919155918961005, 43.352677773226894], [5.921846060426461, 43.35117120397825], [5.9245362018919145, 43.349664634729606], [5.92722634335737, 43.34815806548096], [5.929916484822829, 43.34665149623232], [5.9326066262882815, 43.34514492698368], [5.935296767753737, 43.34363835773503], [5.937986909219191, 43.34213178848639], [5.9406770506846485, 43.340625219237744], [5.9406770506846485, 43.340625219237744], [5.9441412102471105, 43.341512718414094], [5.9476053698095726, 43.342400217590445], [5.951069529372038, 43.34328771676678], [5.9545336889345, 43.34417521594313], [5.957997848496964, 43.34506271511948], [5.961462008059426, 43.34595021429583], [5.964926167621892, 43.34683771347217], [5.968390327184354, 43.34772521264852], [5.9718544867468175, 43.34861271182487], [5.975318646309281, 43.34950021100122], [5.975318646309281, 43.34950021100122], [5.978649518266801, 43.347727772977024], [5.9819803902243205, 43.34595533495283], [5.985311262181845, 43.34418289692863], [5.988642134139365, 43.342410458904446], [5.9919730060968845, 43.34063802088025], [5.995303878054406, 43.33886558285605], [5.998634750011927, 43.33709314483186], [6.001965621969449, 43.335320706807664], [6.005296493926972, 43.33354826878348], [6.0086273658844895, 43.331775830759284], [6.0086273658844895, 43.331775830759284], [6.010679343572351, 43.331865000855004], [6.01273132126021, 43.33195417095073], [6.014783298948069, 43.33204334104646], [6.016835276635929, 43.332132511142184], [6.018887254323786, 43.332221681237904], [6.0209392320116475, 43.33231085133363], [6.022991209699507, 43.33240002142935], [6.025043187387366, 43.33248919152508], [6.027095165075227, 43.332578361620804], [6.029147142763085, 43.332667531716524], [6.029147142763085, 43.332667531716524], [6.0313229833420365, 43.330451515461576], [6.033498823920985, 43.32823549920662], [6.035674664499934, 43.326019482951665], [6.037850505078884, 43.323803466696724], [6.040026345657838, 43.321587450441776], [6.042202186236786, 43.31937143418682], [6.044378026815735, 43.317155417931865], [6.0465538673946835, 43.31493940167692], [6.048729707973635, 43.31272338542197], [6.050905548552587, 43.31050736916702], [6.050905548552587, 43.31050736916702], [6.054628477747084, 43.31254754155426], [6.058351406941583, 43.314587713941506], [6.062074336136082, 43.316627886328746], [6.065797265330582, 43.31866805871599], [6.069520194525079, 43.32070823110325], [6.073243123719578, 43.322748403490486], [6.076966052914077, 43.32478857587773], [6.080688982108578, 43.32682874826497], [6.084411911303077, 43.328868920652226], [6.088134840497574, 43.330909093039466], [6.088134840497574, 43.330909093039466], [6.093776551781968, 43.33046715634008], [6.099418263066362, 43.33002521964068], [6.105059974350755, 43.329583282941286], [6.1107016856351475, 43.329141346241904], [6.116343396919541, 43.3286994095425], [6.121985108203935, 43.32825747284311], [6.127626819488329, 43.327815536143724], [6.133268530772723, 43.327373599444336], [6.138910242057118, 43.32693166274494], [6.1445519533415105, 43.32648972604555], [6.1445519533415105, 43.32648972604555], [6.149556564840367, 43.32897356296451], [6.154561176339229, 43.33145739988346], [6.159565787838087, 43.33394123680242], [6.164570399336947, 43.33642507372138], [6.1695750108358105, 43.33890891064034], [6.174579622334667, 43.34139274755929], [6.179584233833529, 43.34387658447825], [6.184588845332387, 43.34636042139721], [6.189593456831247, 43.34884425831616], [6.194598068330105, 43.35132809523512]]]}}, {"type": "Feature", "properties": {"diocese": "Aix", "province": "I_Aix", "source": "1_Aix.txt"}, "geometry": {"type": "Polygon", "coordinates": [[[5.161685295782183, 43.70039211604872], [5.168225401503129, 43.70030509023082], [5.174765507224079, 43.70021806441294], [5.181305612945025, 43.700131038595046], [5.187845718665972, 43.700044012777155], [5.19438582438692, 43.699956986959265], [5.200925930107866, 43.699869961141374], [5.207466035828816, 43.69978293532349], [5.214006141549762, 43.69969590950559], [5.220546247270709, 43.6996088836877], [5.227086352991657, 43.69952185786982], [5.227086352991657, 43.69952185786982], [5.227083101608873, 43.697837245762464], [5.22707985022609, 43.696152633655124], [5.227076598843306, 43.69446802154777], [5.2270733474605215, 43.69278340944042], [5.227070096077737, 43.691098797333076], [5.227066844694953, 43.68941418522573], [5.22706359331217, 43.687729573118375], [5.227060341929388, 43.686044961011035], [5.227057090546603, 43.68436034890368], [5.227053839163819, 43.682675736796334], [5.227053839163819, 43.682675736796334], [5.222692996518903, 43.682320016504534], [5.218332153873989, 43.68196429621275], [5.213971311229072, 43.68160857592096], [5.209610468584156, 43.68125285562917], [5.205249625939242, 43.68089713533738], [5.200888783294326, 43.68054141504559], [5.196527940649412, 43.680185694753796], [5.192167098004495, 43.679829974462], [5.187806255359581, 43.679474254170216], [5.183445412714667, 43.67911853387842], [5.183445412714667, 43.67911853387842], [5.181266491972789, 43.67973865075737], [5.179087571230916, 43.68035876763632], [5.17690865048904, 43.68097888451526], [5.174729729747165, 43.681599001394204], [5.172550809005289, 43.68221911827315], [5.170371888263414, 43.682839235152095], [5.16819296752154, 43.68345935203106], [5.166014046779663, 43.68407946891], [5.163835126037789, 43.68469958578895], [5.161656205295916, 43.68531970266789], [5.161656205295916, 43.68531970266789], [5.161659114344543, 43.68682694400597], [5.161662023393168, 43.688334185344054], [5.161664932441795, 43.689841426682136], [5.161667841490422, 43.691348668020225], [5.1616707505390504, 43.69285590935831], [5.161673659587677, 43.69436315069638], [5.161676568636304, 43.69587039203447], [5.161679477684929, 43.697377633372554], [5.161682386733556, 43.69888487471064], [5.161685295782183, 43.70039211604872]]]}}, {"type": "Feature", "properties": {"diocese": "Aix", "province": "I_Aix", "source": "1_Aix.txt"}, "geometry": {"type": "Polygon", "coordinates": [[[5.338547554212749, 43.64369185602305], [5.339060565186628, 43.6436919840523], [5.339573576160507, 43.64369211208155], [5.3400865871343886, 43.64369224011081], [5.34059959810827, 43.64369236814007], [5.341112609082153, 43.64369249616933], [5.341625620056032, 43.64369262419859], [5.342138631029913, 43.64369275222784], [5.342651642003794, 43.643692880257106], [5.343164652977675, 43.64369300828636], [5.343677663951556, 43.643693136315626], [5.343677663951556, 43.643693136315626], [5.345597301718501, 43.641654372112015], [5.3475169394854465, 43.63961560790841], [5.349436577252391, 43.6375768437048], [5.351356215019337, 43.63553807950118], [5.353275852786281, 43.63349931529758], [5.355195490553228, 43.631460551093966], [5.357115128320173, 43.62942178689036], [5.3590347660871185, 43.62738302268675], [5.360954403854063, 43.62534425848314], [5.362874041621009, 43.623305494279535], [5.362874041621009, 43.623305494279535], [5.360308197387781, 43.62277290596495], [5.357742353154549, 43.62224031765036], [5.355176508921318, 43.621707729335775], [5.35261066468809, 43.62117514102118], [5.3500448204548565, 43.62064255270659], [5.347478976221627, 43.62010996439201], [5.344913131988399, 43.619577376077416], [5.342347287755167, 43.61904478776283], [5.3397814435219395, 43.61851219944824], [5.33721559928871, 43.617979611133656], [5.33721559928871, 43.617979611133656], [5.332596066013517, 43.61647116295728], [5.327976532738328, 43.614962714780916], [5.323356999463135, 43.61345426660454], [5.318737466187942, 43.611945818428175], [5.314117932912753, 43.6104373702518], [5.30949839963756, 43.608928922075435], [5.304878866362371, 43.60742047389906], [5.300259333087176, 43.605912025722695], [5.295639799811987, 43.60440357754632], [5.291020266536796, 43.60289512936996], [5.291020266536796, 43.60289512936996], [5.287044807248991, 43.602894137236994], [5.283069347961188, 43.60289314510402], [5.279093888673383, 43.60289215297105], [5.275118429385582, 43.60289116083808], [5.271142970097779, 43.60289016870511], [5.267167510809976, 43.602889176572134], [5.263192051522173, 43.60288818443917], [5.25921659223437, 43.6028871923062], [5.255241132946567, 43.602886200173224], [5.251265673658763, 43.602885208040256], [5.251265673658763, 43.602885208040256], [5.251139836397858, 43.604126443262196], [5.2510139991369496, 43.605367678484136], [5.250888161876041, 43.60660891370608], [5.2507623246151365, 43.60785014892802], [5.250636487354228, 43.60909138414996], [5.25051065009332, 43.6103326193719], [5.250384812832413, 43.611573854593836], [5.250258975571507, 43.61281508981579], [5.2501331383105985, 43.61405632503772], [5.250007301049694, 43.61529756025966], [5.250007301049694, 43.61529756025966], [5.251807775435596, 43.61795791353061], [5.2536082498215, 43.620618266801564], [5.255408724207403, 43.62327862007251], [5.2572091985933085, 43.625938973343466], [5.259009672979214, 43.62859932661441], [5.2608101473651185, 43.63125967988537], [5.262610621751021, 43.633920033156315], [5.264411096136927, 43.63658038642726], [5.266211570522829, 43.63924073969821], [5.268012044908733, 43.641901092969164], [5.268012044908733, 43.641901092969164], [5.270705095422816, 43.6419017650586], [5.273398145936897, 43.64190243714804], [5.276091196450977, 43.641903109237475], [5.278784246965062, 43.64190378132692], [5.281477297479142, 43.641904453416366], [5.284170347993227, 43.641905125505794], [5.286863398507309, 43.64190579759524], [5.289556449021392, 43.64190646968468], [5.2922494995354725, 43.64190714177412], [5.294942550049555, 43.641907813863554], [5.294942550049555, 43.641907813863554], [5.299303050465873, 43.642086218079505], [5.303663550882192, 43.64226462229545], [5.3080240512985135, 43.6424430265114], [5.312384551714834, 43.64262143072735], [5.316745052131152, 43.642799834943304], [5.32110555254747, 43.64297823915925], [5.3254660529637885, 43.6431566433752], [5.32982655338011, 43.64333504759115], [5.334187053796427, 43.643513451807095], [5.338547554212749, 43.64369185602305]]]}}, {"type": "Feature", "properties": {"diocese": "Aix", "province": "I_Aix", "source": "1_Aix.txt"}, "geometry": {"type": "Polygon", "coordinates": [[[7.047637438173409, 43.52441258852348], [7.046306629315369, 43.52413239029273], [7.04497582045733, 43.52385219206197], [7.04364501159929, 43.523571993831226], [7.042314202741249, 43.52329179560048], [7.040983393883211, 43.52301159736973], [7.039652585025172, 43.52273139913898], [7.03832177616713, 43.52245120090823], [7.0369909673090945, 43.52217100267748], [7.035660158451051, 43.521890804446734], [7.034329349593014, 43.52161060621599], [7.034329349593014, 43.52161060621599], [7.0344062408105525, 43.52144610766956], [7.034483132028093, 43.52128160912314], [7.034560023245634, 43.521117110576725], [7.034636914463174, 43.52095261203031], [7.034713805680713, 43.52078811348389], [7.034790696898254, 43.52062361493747], [7.034867588115793, 43.520459116391045], [7.034944479333333, 43.520294617844634], [7.035021370550872, 43.52013011929821], [7.035098261768415, 43.51996562075179], [7.035098261768415, 43.51996562075179], [7.035257174145654, 43.51983532604755], [7.035416086522895, 43.5197050313433], [7.035574998900136, 43.51957473663906], [7.035733911277379, 43.51944444193481], [7.035892823654619, 43.51931414723057], [7.03605173603186, 43.519183852526325], [7.036210648409101, 43.51905355782208], [7.036369560786341, 43.51892326311784], [7.0365284731635835, 43.5187929684136], [7.036687385540825, 43.51866267370935], [7.036687385540825, 43.51866267370935], [7.037597007368058, 43.51844073614324], [7.038506629195295, 43.518218798577124], [7.03941625102253, 43.51799686101101], [7.040325872849767, 43.5177749234449], [7.041235494677, 43.51755298587878], [7.042145116504237, 43.51733104831266], [7.04305473833147, 43.51710911074655], [7.043964360158705, 43.51688717318044], [7.044873981985942, 43.516665235614326], [7.045783603813177, 43.516443298048216], [7.045783603813177, 43.516443298048216], [7.047696361082663, 43.51641385811655], [7.049609118352148, 43.516384418184884], [7.051521875621633, 43.51635497825323], [7.053434632891118, 43.51632553832157], [7.055347390160602, 43.51629609838991], [7.057260147430089, 43.51626665845824], [7.059172904699574, 43.516237218526584], [7.061085661969058, 43.516207778594925], [7.062998419238543, 43.51617833866326], [7.064911176508028, 43.5161488987316], [7.064911176508028, 43.5161488987316], [7.0653001090533145, 43.51596528067751], [7.065689041598603, 43.515781662623425], [7.066077974143887, 43.51559804456934], [7.066466906689172, 43.51541442651526], [7.06685583923446, 43.515230808461176], [7.067244771779745, 43.51504719040709], [7.067633704325033, 43.514863572353], [7.068022636870316, 43.51467995429892], [7.0684115694156056, 43.51449633624483], [7.06880050196089, 43.51431271819075], [7.06880050196089, 43.51431271819075], [7.068870358834321, 43.51447933170932], [7.068940215707748, 43.51464594522788], [7.069010072581177, 43.51481255874645], [7.069079929454606, 43.51497917226503], [7.069149786328035, 43.515145785783595], [7.069219643201466, 43.515312399302154], [7.069289500074893, 43.51547901282073], [7.069359356948322, 43.51564562633929], [7.069429213821747, 43.515812239857866], [7.069499070695178, 43.51597885337643], [7.069499070695178, 43.51597885337643], [7.0696769725876525, 43.516096433882815], [7.069854874480129, 43.516214014389185], [7.070032776372601, 43.51633159489556], [7.0702106782650755, 43.51644917540193], [7.070388580157548, 43.516566755908315], [7.070566482050021, 43.516684336414684], [7.070744383942495, 43.51680191692106], [7.070922285834969, 43.516919497427445], [7.071100187727444, 43.517037077933814], [7.071278089619916, 43.51715465844019], [7.071278089619916, 43.51715465844019], [7.070720966445279, 43.517456809802816], [7.07016384327064, 43.51775896116545], [7.069606720096003, 43.51806111252807], [7.069049596921367, 43.518363263890706], [7.06849247374673, 43.51866541525333], [7.0679353505720925, 43.518967566615956], [7.067378227397455, 43.51926971797859], [7.066821104222818, 43.51957186934121], [7.066263981048181, 43.519874020703845], [7.065706857873543, 43.52017617206647], [7.065706857873543, 43.52017617206647], [7.06389991590353, 43.520599813712174], [7.062092973933515, 43.52102345535788], [7.0602860319635, 43.52144709700357], [7.058479089993488, 43.52187073864928], [7.056672148023475, 43.52229438029498], [7.054865206053464, 43.522718021940676], [7.053058264083447, 43.52314166358638], [7.051251322113435, 43.52356530523208], [7.049444380143422, 43.52398894687777], [7.047637438173409, 43.52441258852348]]]}}]}