{
  "type": "FeatureCollection",
  "features": [
    {
      "type": "Feature",
      "properties": {
        "diocese": "Cephaluden",
        "province": "Messanen",
        "start": 1592,
        "end": 1789
      },
      "geometry": {
        "type": "MultiPolygon",
        "coordinates": [
          [
            [
              [
                14.284414277896579,
                37.825409556412566
              ],
              [
                14.287649182853958,
                37.7435979712752
              ],
              [
                14.273900836785094,
                37.71481457467148
              ],
              [
                14.243169239689982,
                37.69369964094181
              ],
              [
                14.142887186011194,
                37.678339547744535
              ],
              [
                14.152591900883337,
                37.610461094471674
              ],
              [
                14.13560864985709,
                37.60533567531139
              ],
              [
                14.070101824470145,
                37.6296782705084
              ],
              [
                14.026430607545512,
                37.63224018532554
              ],
              [
                14.00540372532254,
                37.604694973082886
              ],
              [
                13.965776139594633,
                37.598287647288956
              ],
              [
                13.931000911302794,
                37.600209902968835
              ],
              [
                13.895416956771617,
                37.61366430208907
              ],
              [
                13.863067907197815,
                37.598287647288956
              ],
              [
                13.821014142751872,
                37.61750796910597
              ],
              [
                13.841232298735495,
                37.67321880981926
              ],
              [
                13.813735606597763,
                37.69049988385063
              ],
              [
                13.808883249161694,
                37.73272555856699
              ],
              [
                13.79028254565676,
                37.737202627768376
              ],
              [
                13.79028254565676,
                37.715454327245936
              ],
              [
                13.770873115912476,
                37.71993244059245
              ],
              [
                13.758742222322303,
                37.700738620517946
              ],
              [
                13.7352891613813,
                37.702658226233126
              ],
              [
                13.651990358728758,
                37.774287928132196
              ],
              [
                13.65684271616483,
                37.791545433033086
              ],
              [
                13.702131385568151,
                37.78771078017511
              ],
              [
                13.70051393308946,
                37.8298810153877
              ],
              [
                13.755507317364925,
                37.84776414161561
              ],
              [
                13.759550948561646,
                37.88734706116953
              ],
              [
                13.831527583863357,
                37.85287280987527
              ],
              [
                13.8323363101027,
                37.87458070075331
              ],
              [
                13.79189999813545,
                37.97664960559471
              ],
              [
                13.864685359676505,
                37.99131036124835
              ],
              [
                13.91078275531917,
                38.01488890822934
              ],
              [
                13.950410341047078,
                38.02826795379475
              ],
              [
                14.028856786263546,
                38.03845987267935
              ],
              [
                14.078997813102939,
                38.0174374861866
              ],
              [
                14.134799923617745,
                38.01616320828558
              ],
              [
                14.155018079601371,
                38.025082688319976
              ],
              [
                14.192660426136163,
                38.01519781597439
              ],
              [
                14.214633720974955,
                37.922349153185536
              ],
              [
                14.262299661955058,
                37.936970314836394
              ],
              [
                14.274657498505459,
                37.90772508400806
              ],
              [
                14.303786684659965,
                37.911207268942086
              ],
              [
                14.296725063774023,
                37.88891843767049
              ],
              [
                14.270243985451746,
                37.8805583858255
              ],
              [
                14.296779566443478,
                37.83538242802908
              ],
              [
                14.284414277896579,
                37.825409556412566
              ]
            ]
          ]
        ]
      }
    },
    {
      "type": "Feature",
      "properties": {
        "diocese": "Liparen",
        "province": "Messanen",
        "start": 1592,
        "end": 1789
      },
      "geometry": {
        "type": "MultiPolygon",
        "coordinates": [
          [
            [
              [
                14.337868003351305,
                38.54824344592915
              ],
              [
                14.337868003351305,
                38.53172726899033
              ],
              [
                14.360793669769645,
                38.521815742523565
              ],
              [
                14.368636660912765,
                38.53078337290531
              ],
              [
                14.366223432868729,
                38.552489849846744
              ],
              [
                14.346314301505432,
                38.55343346110372
              ],
              [
                14.337868003351305,
                38.54824344592915
              ]
            ]
          ]
        ]
      }
    },
    {
      "type": "Feature",
      "properties": {
        "diocese": "Liparen",
        "province": "Messanen",
        "start": 1592,
        "end": 1789
      },
      "geometry": {
        "type": "MultiPolygon",
        "coordinates": [
          [
            [
              [
                14.532132860896214,
                38.578906283225116
              ],
              [
                14.545405615138412,
                38.56381236750311
              ],
              [
                14.565314746501713,
                38.554377059975735
              ],
              [
                14.591256947975099,
                38.55484885476735
              ],
              [
                14.593066869008124,
                38.560038393118646
              ],
              [
                14.58341395683198,
                38.56239715033231
              ],
              [
                14.580397421776938,
                38.583150875666526
              ],
              [
                14.550232071226485,
                38.588338370205
              ],
              [
                14.532132860896214,
                38.578906283225116
              ]
            ]
          ]
        ]
      }
    },
    {
      "type": "Feature",
      "properties": {
        "diocese": "Liparen",
        "province": "Messanen",
        "start": 1592,
        "end": 1789
      },
      "geometry": {
        "type": "MultiPolygon",
        "coordinates": [
          [
            [
              [
                14.80362101585028,
                38.57937791699512
              ],
              [
                14.798794559762209,
                38.5609819052934
              ],
              [
                14.833786366400734,
                38.535974648134406
              ],
              [
                14.856108725808067,
                38.532671152692544
              ],
              [
                14.876017857171368,
                38.538334194861804
              ],
              [
                14.87963769923742,
                38.56239715033231
              ],
              [
                14.872398015105313,
                38.58362248156419
              ],
              [
                14.845249199609908,
                38.577491363333955
              ],
              [
                14.828959910312662,
                38.58456568406859
              ],
              [
                14.812067314004409,
                38.584094084364885
              ],
              [
                14.80362101585028,
                38.57937791699512
              ]
            ]
          ]
        ]
      }
    },
    {
      "type": "Feature",
      "properties": {
        "diocese": "Liparen",
        "province": "Messanen",
        "start": 1592,
        "end": 1789
      },
      "geometry": {
        "type": "MultiPolygon",
        "coordinates": [
          [
            [
              [
                14.920059268975026,
                38.52134373102193
              ],
              [
                14.895323681523653,
                38.48498955067798
              ],
              [
                14.919455961964013,
                38.461845519107534
              ],
              [
                14.949018005503463,
                38.44294692480691
              ],
              [
                14.967117215833731,
                38.44294692480691
              ],
              [
                14.964100680778685,
                38.46704176471776
              ],
              [
                14.97496020697685,
                38.476488524831375
              ],
              [
                14.976166820998868,
                38.491600766497385
              ],
              [
                14.968927136866759,
                38.492545176385704
              ],
              [
                14.96229075974566,
                38.51898362708231
              ],
              [
                14.920059268975026,
                38.52134373102193
              ]
            ]
          ]
        ]
      }
    },
    {
      "type": "Feature",
      "properties": {
        "diocese": "Liparen",
        "province": "Messanen",
        "start": 1592,
        "end": 1789
      },
      "geometry": {
        "type": "MultiPolygon",
        "coordinates": [
          [
            [
              [
                14.959274224690615,
                38.42876973088481
              ],
              [
                14.94419154941539,
                38.409862475337455
              ],
              [
                14.945398163437407,
                38.3933145676087
              ],
              [
                14.96229075974566,
                38.377708785118806
              ],
              [
                14.996075952362165,
                38.361153518359195
              ],
              [
                15.012365241659408,
                38.37250610937753
              ],
              [
                14.999695794428222,
                38.398988562726174
              ],
              [
                14.971943671921803,
                38.41458975315115
              ],
              [
                14.959274224690615,
                38.42876973088481
              ]
            ]
          ]
        ]
      }
    },
    {
      "type": "Feature",
      "properties": {
        "diocese": "Messanen",
        "province": "Messanen",
        "start": 1592,
        "end": 1789
      },
      "geometry": {
        "type": "MultiPolygon",
        "coordinates": [
          [
            [
              [
                15.05599561543446,
                38.134558173536604
              ],
              [
                15.079208441203262,
                38.123443553242126
              ],
              [
                15.105449026854949,
                38.12503145975358
              ],
              [
                15.15692094486403,
                38.13852727063709
              ],
              [
                15.216466889227476,
                38.18931264457248
              ],
              [
                15.23766120840769,
                38.20914107135479
              ],
              [
                15.23766120840769,
                38.26463193439117
              ],
              [
                15.255827767705009,
                38.26542435417834
              ],
              [
                15.255827767705009,
                38.22103553538461
              ],
              [
                15.26491104735367,
                38.20993409610788
              ],
              [
                15.32445699171712,
                38.212313118524605
              ],
              [
                15.417308294792328,
                38.238477232275756
              ],
              [
                15.442539627149722,
                38.25036690009318
              ],
              [
                15.481900505627253,
                38.26621676532113
              ],
              [
                15.493002291864507,
                38.28443983561649
              ],
              [
                15.516215117633308,
                38.29869817863298
              ],
              [
                15.54649271646218,
                38.30424233322864
              ],
              [
                15.609066420708512,
                38.272555743257755
              ],
              [
                15.622186713534358,
                38.27097105064199
              ],
              [
                15.656501325540413,
                38.27017869136687
              ],
              [
                15.656501325540413,
                38.2606697057911
              ],
              [
                15.62824223330013,
                38.25432969054259
              ],
              [
                15.591909114705484,
                38.23926993729628
              ],
              [
                15.572733302113866,
                38.22024263160213
              ],
              [
                15.565668529053797,
                38.17106572325106
              ],
              [
                15.537409436813519,
                38.144877376966825
              ],
              [
                15.504104078101758,
                38.078968150952306
              ],
              [
                15.363817870194652,
                37.93423622270085
              ],
              [
                15.263901794059379,
                37.805966112894936
              ],
              [
                15.208683736535345,
                37.74556337554892
              ],
              [
                15.226361019190577,
                37.70114909525438
              ],
              [
                15.203484535754395,
                37.68140086764149
              ],
              [
                15.205108810434826,
                37.654972325439175
              ],
              [
                15.18271210182285,
                37.63660522342965
              ],
              [
                15.176313042219425,
                37.57260159458076
              ],
              [
                15.118721505788622,
                37.52440414743305
              ],
              [
                15.086726207771505,
                37.57703926557338
              ],
              [
                15.075527853465514,
                37.62456914242782
              ],
              [
                15.104699720916338,
                37.673170887382774
              ],
              [
                15.078703717011587,
                37.70114909525438
              ],
              [
                15.013193787171613,
                37.72993916558947
              ],
              [
                14.998636024984952,
                37.753785319414824
              ],
              [
                14.932086254988787,
                37.808848774727636
              ],
              [
                14.847335779407377,
                37.86989799952567
              ],
              [
                14.821322478502486,
                37.92479691284831
              ],
              [
                14.82123146004896,
                37.9291038946205
              ],
              [
                14.83517365632706,
                37.9446278580593
              ],
              [
                14.86165473464934,
                37.936970314836394
              ],
              [
                14.87489527381048,
                37.92443806858478
              ],
              [
                14.897845541689792,
                37.92443806858478
              ],
              [
                14.925906933400551,
                37.949642985036235
              ],
              [
                14.924792687176016,
                37.95095063937069
              ],
              [
                14.935894473413269,
                37.97561735325655
              ],
              [
                14.962135059064957,
                37.98357259010234
              ],
              [
                15.002505190836782,
                38.073406822373535
              ],
              [
                15.023699510016996,
                38.07420132377628
              ],
              [
                15.05599561543446,
                38.134558173536604
              ]
            ]
          ]
        ]
      }
    },
    {
      "type": "Feature",
      "properties": {
        "diocese": "Pacten",
        "province": "Messanen",
        "start": 1592,
        "end": 1789
      },
      "geometry": {
        "type": "MultiPolygon",
        "coordinates": [
          [
            [
              [
                14.897845541689792,
                37.92443806858478
              ],
              [
                14.87489527381048,
                37.92443806858478
              ],
              [
                14.86165473464934,
                37.936970314836394
              ],
              [
                14.83517365632706,
                37.9446278580593
              ],
              [
                14.820167711944435,
                37.92791946238663
              ],
              [
                14.798100146675868,
                37.95715666219055
              ],
              [
                14.764557447467643,
                37.90842153417939
              ],
              [
                14.770736365742842,
                37.89170491070752
              ],
              [
                14.73278015348091,
                37.857563349944165
              ],
              [
                14.731014748259426,
                37.836652544987196
              ],
              [
                14.757495826581707,
                37.826892140161014
              ],
              [
                14.762792042246163,
                37.84919973953902
              ],
              [
                14.793686633622155,
                37.84292640909314
              ],
              [
                14.799865551897357,
                37.802485479600364
              ],
              [
                14.753965016138734,
                37.81294646498867
              ],
              [
                14.68952772555452,
                37.79272055627392
              ],
              [
                14.63038665063476,
                37.791325461857625
              ],
              [
                14.569480170493515,
                37.82828656275968
              ],
              [
                14.57389368354723,
                37.87498449067663
              ],
              [
                14.504160177298555,
                37.84850272917731
              ],
              [
                14.497098556412615,
                37.804577795230756
              ],
              [
                14.478561801587018,
                37.80876224866467
              ],
              [
                14.452963425875476,
                37.84850272917731
              ],
              [
                14.40088397184166,
                37.85686641865032
              ],
              [
                14.374402893519383,
                37.83944099491632
              ],
              [
                14.298490468995508,
                37.83246967245352
              ],
              [
                14.270243985451746,
                37.8805583858255
              ],
              [
                14.296725063774023,
                37.88891843767049
              ],
              [
                14.303786684659965,
                37.911207268942086
              ],
              [
                14.274657498505459,
                37.90772508400806
              ],
              [
                14.262299661955058,
                37.936970314836394
              ],
              [
                14.214633720974955,
                37.922349153185536
              ],
              [
                14.192566155706386,
                38.0155961578439
              ],
              [
                14.219929936639412,
                38.0155961578439
              ],
              [
                14.318792629042592,
                38.0114234519016
              ],
              [
                14.347039112586357,
                38.021159396254596
              ],
              [
                14.369106677854923,
                38.014205282256356
              ],
              [
                14.437957481492854,
                38.03923700434653
              ],
              [
                14.469734775479589,
                38.028808159498176
              ],
              [
                14.53152395823158,
                38.04410329043566
              ],
              [
                14.54829530783569,
                38.06148024350068
              ],
              [
                14.592430438372823,
                38.06148024350068
              ],
              [
                14.65686772895704,
                38.080937532940915
              ],
              [
                14.683348807279321,
                38.10664101192074
              ],
              [
                14.736310963923883,
                38.146220571601404
              ],
              [
                14.733662856091655,
                38.16149115281738
              ],
              [
                14.747786097863537,
                38.167737287160826
              ],
              [
                14.763674744856905,
                38.16357325706007
              ],
              [
                14.765440150078392,
                38.1531621412558
              ],
              [
                14.820167711944435,
                38.15038559266643
              ],
              [
                14.855475816374144,
                38.170513175087876
              ],
              [
                14.881074192085679,
                38.17120713055177
              ],
              [
                14.92344391740133,
                38.19271647255524
              ],
              [
                14.981702289710345,
                38.15177388017337
              ],
              [
                15.047022282905305,
                38.14899727873524
              ],
              [
                15.057979483138812,
                38.133608270389615
              ],
              [
                15.05599561543446,
                38.134558173536604
              ],
              [
                15.023699510016996,
                38.07420132377628
              ],
              [
                15.002505190836782,
                38.073406822373535
              ],
              [
                14.962135059064957,
                37.98357259010234
              ],
              [
                14.935894473413269,
                37.97561735325655
              ],
              [
                14.924792687176016,
                37.95095063937069
              ],
              [
                14.925906933400551,
                37.949642985036235
              ],
              [
                14.897845541689792,
                37.92443806858478
              ]
            ]
          ]
        ]
      }
    }
  ]
}