{
    "type": "FeatureCollection",
    "name": "Messanen",
    "features": [
        {
            "type": "Feature",
            "properties": {
                "diocese": "Messanen",
                "province": "Messanen",
                "date": 1592
            },
            "geometry": {
                "type": "MultiPolygon",
                "coordinates": [
                    [
                        [
                            [
                                15.05599561543446,
                                38.134558173536604
                            ],
                            [
                                15.079208441203262,
                                38.123443553242126
                            ],
                            [
                                15.105449026854949,
                                38.125031459753579
                            ],
                            [
                                15.15692094486403,
                                38.138527270637091
                            ],
                            [
                                15.216466889227476,
                                38.189312644572482
                            ],
                            [
                                15.23766120840769,
                                38.209141071354793
                            ],
                            [
                                15.23766120840769,
                                38.264631934391168
                            ],
                            [
                                15.255827767705009,
                                38.265424354178343
                            ],
                            [
                                15.255827767705009,
                                38.221035535384608
                            ],
                            [
                                15.264911047353671,
                                38.209934096107879
                            ],
                            [
                                15.324456991717121,
                                38.212313118524605
                            ],
                            [
                                15.417308294792328,
                                38.238477232275756
                            ],
                            [
                                15.442539627149722,
                                38.250366900093177
                            ],
                            [
                                15.481900505627253,
                                38.266216765321133
                            ],
                            [
                                15.493002291864507,
                                38.284439835616489
                            ],
                            [
                                15.516215117633308,
                                38.298698178632982
                            ],
                            [
                                15.546492716462179,
                                38.304242333228643
                            ],
                            [
                                15.609066420708512,
                                38.272555743257755
                            ],
                            [
                                15.622186713534358,
                                38.27097105064199
                            ],
                            [
                                15.656501325540413,
                                38.270178691366873
                            ],
                            [
                                15.656501325540413,
                                38.260669705791102
                            ],
                            [
                                15.62824223330013,
                                38.25432969054259
                            ],
                            [
                                15.591909114705484,
                                38.239269937296278
                            ],
                            [
                                15.572733302113866,
                                38.220242631602133
                            ],
                            [
                                15.565668529053797,
                                38.171065723251061
                            ],
                            [
                                15.537409436813519,
                                38.144877376966825
                            ],
                            [
                                15.504104078101758,
                                38.078968150952306
                            ],
                            [
                                15.363817870194652,
                                37.934236222700846
                            ],
                            [
                                15.263901794059379,
                                37.805966112894936
                            ],
                            [
                                15.208683736535345,
                                37.745563375548919
                            ],
                            [
                                15.226361019190577,
                                37.70114909525438
                            ],
                            [
                                15.203484535754395,
                                37.681400867641493
                            ],
                            [
                                15.205108810434826,
                                37.654972325439175
                            ],
                            [
                                15.182712101822849,
                                37.636605223429648
                            ],
                            [
                                15.176313042219425,
                                37.57260159458076
                            ],
                            [
                                15.118721505788622,
                                37.524404147433053
                            ],
                            [
                                15.086726207771505,
                                37.577039265573383
                            ],
                            [
                                15.075527853465514,
                                37.624569142427823
                            ],
                            [
                                15.104699720916338,
                                37.673170887382774
                            ],
                            [
                                15.078703717011587,
                                37.70114909525438
                            ],
                            [
                                15.013193787171613,
                                37.729939165589471
                            ],
                            [
                                14.998636024984952,
                                37.753785319414824
                            ],
                            [
                                14.932086254988787,
                                37.808848774727636
                            ],
                            [
                                14.847335779407377,
                                37.869897999525669
                            ],
                            [
                                14.821322478502486,
                                37.924796912848308
                            ],
                            [
                                14.82123146004896,
                                37.929103894620503
                            ],
                            [
                                14.83517365632706,
                                37.944627858059299
                            ],
                            [
                                14.86165473464934,
                                37.936970314836394
                            ],
                            [
                                14.87489527381048,
                                37.924438068584777
                            ],
                            [
                                14.897845541689792,
                                37.924438068584777
                            ],
                            [
                                14.925906933400551,
                                37.949642985036235
                            ],
                            [
                                14.924792687176016,
                                37.950950639370689
                            ],
                            [
                                14.935894473413269,
                                37.975617353256553
                            ],
                            [
                                14.962135059064957,
                                37.983572590102341
                            ],
                            [
                                15.002505190836782,
                                38.073406822373535
                            ],
                            [
                                15.023699510016996,
                                38.074201323776279
                            ],
                            [
                                15.05599561543446,
                                38.134558173536604
                            ]
                        ]
                    ]
                ]
            }
        }
    ]
}