{
    "type": "FeatureCollection",
    "name": "Pacten",
    "features": [
        {
            "type": "Feature",
            "properties": {
                "diocese": "Pacten",
                "province": "Messanen",
                "date": 1592
            },
            "geometry": {
                "type": "MultiPolygon",
                "coordinates": [
                    [
                        [
                            [
                                14.897845541689792,
                                37.924438068584777
                            ],
                            [
                                14.87489527381048,
                                37.924438068584777
                            ],
                            [
                                14.86165473464934,
                                37.936970314836394
                            ],
                            [
                                14.83517365632706,
                                37.944627858059299
                            ],
                            [
                                14.820167711944435,
                                37.927919462386633
                            ],
                            [
                                14.798100146675868,
                                37.957156662190549
                            ],
                            [
                                14.764557447467643,
                                37.908421534179389
                            ],
                            [
                                14.770736365742842,
                                37.891704910707517
                            ],
                            [
                                14.73278015348091,
                                37.857563349944165
                            ],
                            [
                                14.731014748259426,
                                37.836652544987196
                            ],
                            [
                                14.757495826581707,
                                37.826892140161014
                            ],
                            [
                                14.762792042246163,
                                37.849199739539017
                            ],
                            [
                                14.793686633622155,
                                37.842926409093138
                            ],
                            [
                                14.799865551897357,
                                37.802485479600364
                            ],
                            [
                                14.753965016138734,
                                37.81294646498867
                            ],
                            [
                                14.68952772555452,
                                37.79272055627392
                            ],
                            [
                                14.63038665063476,
                                37.791325461857625
                            ],
                            [
                                14.569480170493515,
                                37.828286562759679
                            ],
                            [
                                14.573893683547229,
                                37.874984490676631
                            ],
                            [
                                14.504160177298555,
                                37.848502729177312
                            ],
                            [
                                14.497098556412615,
                                37.804577795230756
                            ],
                            [
                                14.478561801587018,
                                37.808762248664671
                            ],
                            [
                                14.452963425875476,
                                37.848502729177312
                            ],
                            [
                                14.40088397184166,
                                37.85686641865032
                            ],
                            [
                                14.374402893519383,
                                37.839440994916323
                            ],
                            [
                                14.298490468995508,
                                37.83246967245352
                            ],
                            [
                                14.270243985451746,
                                37.880558385825502
                            ],
                            [
                                14.296725063774023,
                                37.88891843767049
                            ],
                            [
                                14.303786684659965,
                                37.911207268942086
                            ],
                            [
                                14.274657498505459,
                                37.907725084008057
                            ],
                            [
                                14.262299661955058,
                                37.936970314836394
                            ],
                            [
                                14.214633720974955,
                                37.922349153185536
                            ],
                            [
                                14.192566155706386,
                                38.015596157843902
                            ],
                            [
                                14.219929936639412,
                                38.015596157843902
                            ],
                            [
                                14.318792629042592,
                                38.011423451901599
                            ],
                            [
                                14.347039112586357,
                                38.021159396254596
                            ],
                            [
                                14.369106677854923,
                                38.014205282256356
                            ],
                            [
                                14.437957481492854,
                                38.039237004346532
                            ],
                            [
                                14.469734775479589,
                                38.028808159498176
                            ],
                            [
                                14.531523958231579,
                                38.044103290435658
                            ],
                            [
                                14.548295307835691,
                                38.061480243500682
                            ],
                            [
                                14.592430438372823,
                                38.061480243500682
                            ],
                            [
                                14.656867728957041,
                                38.080937532940915
                            ],
                            [
                                14.683348807279321,
                                38.106641011920743
                            ],
                            [
                                14.736310963923883,
                                38.146220571601404
                            ],
                            [
                                14.733662856091655,
                                38.161491152817383
                            ],
                            [
                                14.747786097863537,
                                38.167737287160826
                            ],
                            [
                                14.763674744856905,
                                38.163573257060072
                            ],
                            [
                                14.765440150078392,
                                38.153162141255798
                            ],
                            [
                                14.820167711944435,
                                38.150385592666431
                            ],
                            [
                                14.855475816374144,
                                38.170513175087876
                            ],
                            [
                                14.881074192085679,
                                38.171207130551771
                            ],
                            [
                                14.923443917401331,
                                38.19271647255524
                            ],
                            [
                                14.981702289710345,
                                38.151773880173373
                            ],
                            [
                                15.047022282905305,
                                38.148997278735237
                            ],
                            [
                                15.057979483138812,
                                38.133608270389615
                            ],
                            [
                                15.05599561543446,
                                38.134558173536604
                            ],
                            [
                                15.023699510016996,
                                38.074201323776279
                            ],
                            [
                                15.002505190836782,
                                38.073406822373535
                            ],
                            [
                                14.962135059064957,
                                37.983572590102341
                            ],
                            [
                                14.935894473413269,
                                37.975617353256553
                            ],
                            [
                                14.924792687176016,
                                37.950950639370689
                            ],
                            [
                                14.925906933400551,
                                37.949642985036235
                            ],
                            [
                                14.897845541689792,
                                37.924438068584777
                            ]
                        ]
                    ]
                ]
            }
        }
    ]
}