{"type": "FeatureCollection", "features": [{"type": "Feature", "properties": {"diocese": "LI\u00c8GE", "province": "XXI_Cologne"}, "geometry": {"type": "Polygon", "coordinates": [[[4.554870174862206, 49.964995544419565], [4.560072482397464, 49.961006997763754], [4.565274789932722, 49.957018451107956], [4.570477097467981, 49.953029904452144], [4.575679405003239, 49.94904135779635], [4.580881712538497, 49.94505281114055], [4.586084020073759, 49.94106426448474], [4.5912863276090174, 49.93707571782894], [4.5964886351442775, 49.933087171173135], [4.601690942679534, 49.92909862451733], [4.606893250214794, 49.925110077861525], [4.606893250214794, 49.925110077861525], [4.61778967027991, 49.92307354847354], [4.628686090345024, 49.92103701908557], [4.639582510410142, 49.91900048969758], [4.650478930475259, 49.916963960309594], [4.661375350540373, 49.914927430921615], [4.672271770605489, 49.91289090153364], [4.683168190670607, 49.910854372145664], [4.6940646107357225, 49.90881784275768], [4.704961030800838, 49.9067813133697], [4.715857450865954, 49.90474478398171], [4.715857450865954, 49.90474478398171], [4.717786237304706, 49.907405158336104], [4.719715023743458, 49.91006553269049], [4.721643810182213, 49.91272590704487], [4.723572596620963, 49.91538628139926], [4.725501383059715, 49.91804665575364], [4.727430169498469, 49.920707030108034], [4.729358955937222, 49.92336740446242], [4.731287742375976, 49.9260277788168], [4.733216528814728, 49.92868815317119], [4.7351453152534795, 49.93134852752558], [4.7351453152534795, 49.93134852752558], [4.748064634186868, 49.9318773224485], [4.760983953120256, 49.93240611737143], [4.773903272053644, 49.93293491229435], [4.786822590987031, 49.93346370721728], [4.799741909920419, 49.9339925021402], [4.8126612288538055, 49.93452129706313], [4.825580547787192, 49.93505009198604], [4.83849986672058, 49.93557888690897], [4.851419185653969, 49.9361076818319], [4.864338504587357, 49.93663647675483], [4.864338504587357, 49.93663647675483], [4.864297161101284, 49.93666412105888], [4.864258054160947, 49.9366947292093], [4.864220565291502, 49.936727556127686], [4.864184076018104, 49.93676185673562], [4.86414796786592, 49.93679688595471], [4.864111622360102, 49.936831898706544], [4.864074421025817, 49.93686614991272], [4.864035745388218, 49.93689889449483], [4.863994976972471, 49.93692938737448], [4.863951497303727, 49.93695688347324], [4.863951497303736, 49.93695688347324], [4.8636707191437, 49.94223013681008], [4.862429215586516, 49.94570616056703], [4.860340997726988, 49.94772765810779], [4.8575200766599185, 49.948637332796075], [4.854080463480118, 49.94877788799557], [4.85013616928239, 49.948492027069996], [4.845801205161541, 49.948122453383036], [4.84118958221238, 49.948011870298394], [4.836415311529706, 49.94850298117977], [4.831592404208328, 49.94993848939088], [4.831592404208324, 49.94993848939088], [4.8240379243922415, 49.95158528201532], [4.818030782498962, 49.9545647079222], [4.81357764219309, 49.958571649850136], [4.8106851671392175, 49.96330099053773], [4.809360021001938, 49.96844761272362], [4.809608867445851, 49.97370639914641], [4.811438370135548, 49.97877223254472], [4.814855192735628, 49.98333999565717], [4.819865998910682, 49.987104571222375], [4.8264774523253156, 49.98976084197894], [4.826477452325317, 49.98976084197894], [4.83187355920616, 49.994191451687804], [4.835195025414171, 49.99922130496902], [4.836995565036739, 50.00469521087414], [4.837828892161264, 50.010457978454674], [4.838248720875134, 50.016354416762155], [4.838808765265746, 50.0222293348481], [4.840062739420491, 50.02792754176402], [4.842564357426767, 50.03329384656148], [4.8468673333719625, 50.03817305829195], [4.853525381343475, 50.04240998600699], [4.8535253813434664, 50.04240998600699], [4.853352443797368, 50.04510185718863], [4.852261204383916, 50.04815564057901], [4.8506397572992235, 50.05145913326997], [4.848876196739386, 50.054900132353325], [4.847358616900513, 50.05836643492092], [4.846475111978707, 50.06174583806457], [4.846613776170068, 50.0649261388761], [4.848162703670706, 50.067795134447344], [4.8515099886767175, 50.07024062187014], [4.857043725384209, 50.07215039823632], [4.857043725384205, 50.07215039823632], [4.859845857059858, 50.07482760191545], [4.861501433883053, 50.078338072409736], [4.862398894545841, 50.08235707973562], [4.86292667774028, 50.08655989390956], [4.863473222158415, 50.09062178494799], [4.864426966492301, 50.09421802286738], [4.866176349433987, 50.09702387768418], [4.869109809675528, 50.098714619414835], [4.873615785908973, 50.09896551807579], [4.8800827168263705, 50.0974518436835], [4.880082716826374, 50.0974518436835], [4.883755640472451, 50.093625796493214], [4.886477681700976, 50.092957286746525], [4.888379996253731, 50.094739193394105], [4.889593739872499, 50.09826439538664], [4.890250068299064, 50.102825771674794], [4.890480137275212, 50.107716201209236], [4.890415102542718, 50.11222856294066], [4.890186119843378, 50.115655735819715], [4.889924344918965, 50.117290598797084], [4.889760933511264, 50.11642603082344], [4.889760933511264, 50.11642603082344], [4.888577043221007, 50.11988782521214], [4.889512952249104, 50.12304848424709], [4.891940818268084, 50.12596320566181], [4.89523279895049, 50.12868718718979], [4.898761051968844, 50.13127562656454], [4.901897734995686, 50.133783721519556], [4.904015005703538, 50.13626666978834], [4.904485021764943, 50.13877966910439], [4.902679940852426, 50.1413779172012], [4.897971920638524, 50.144116611812294], [4.897971920638522, 50.144116611812294], [4.896949949058525, 50.14825569218263], [4.894569965538487, 50.15108432717205], [4.891065959487088, 50.15279164969963], [4.886671920313017, 50.15356679268448], [4.881621837424952, 50.15359888904569], [4.876149700231579, 50.153077071702356], [4.870489498141584, 50.15219047357358], [4.864875220563643, 50.15112822757847], [4.859540856906449, 50.15007946663611], [4.854720396578681, 50.1492333236656], [4.85472039657868, 50.1492333236656], [4.85044362643619, 50.14928278849471], [4.847573517493332, 50.150988559723615], [4.845689948459173, 50.1538563744983], [4.844372798042775, 50.15739196996467], [4.8432019449532095, 50.16110108326869], [4.8417572678995455, 50.164489451556285], [4.839618645590848, 50.16706281197341], [4.836365956736186, 50.16832690166599], [4.831579080044621, 50.16778745777998], [4.8248378942252295, 50.16495021746132], [4.824837894225238, 50.16495021746132], [4.821847376991132, 50.16025466553778], [4.818157412191869, 50.156081311636704], [4.813848461087153, 50.1523734175477], [4.809000984936684, 50.149074245060376], [4.803695445000166, 50.14612705596431], [4.7980123025372965, 50.14347511204911], [4.792032018807774, 50.14106167510436], [4.785835055071308, 50.13883000691968], [4.779501872587597, 50.13672336928465], [4.773112932616337, 50.13468502398888], [4.773112932616339, 50.13468502398888], [4.770552788526942, 50.13103887834794], [4.768172552294622, 50.127298717653005], [4.765818926149867, 50.12356428474701], [4.763338612323164, 50.1199353224729], [4.760578313045004, 50.11651157367358], [4.757384730545876, 50.113392781191976], [4.753604567056264, 50.11067868787102], [4.749084524806664, 50.10846903655364], [4.743671306027553, 50.106863570082766], [4.73721161294943, 50.105962031301324], [4.737211612949432, 50.10596203130132], [4.730166183880405, 50.103691334865026], [4.723476812526872, 50.10074629142468], [4.717291521788793, 50.09721570136561], [4.711758334566126, 50.09318836507314], [4.707025273758838, 50.088753082932605], [4.703240362266882, 50.083998655329324], [4.7005516229902184, 50.07901388264862], [4.699107078828815, 50.073887565275825], [4.699054752682626, 50.06870850359626], [4.700542667451613, 50.06356549799525], [4.700542667451609, 50.06356549799525], [4.7041888049347325, 50.05849813182467], [4.705972990559411, 50.053204212260155], [4.706218680620697, 50.04773090841371], [4.705249331413633, 50.042125389397334], [4.703388399233269, 50.03643482432303], [4.700959340374654, 50.030706382302775], [4.69828561113283, 50.02498723244859], [4.69569066780285, 50.01932454387246], [4.693497966679763, 50.013765485686385], [4.69203096405861, 50.008357227002364], [4.692030964058613, 50.008357227002364], [4.690319014339206, 50.00296818053946], [4.686771434742427, 49.998758350502165], [4.6817079956337455, 49.995552179024905], [4.675448467378635, 49.993174108242066], [4.668312620342556, 49.99144858028807], [4.660620224890991, 49.99020003729733], [4.652691051389404, 49.98925292140424], [4.6448448702032685, 49.98843167474322], [4.63740145169805, 49.98756073944867], [4.630680566239224, 49.986464557655005], [4.630680566239221, 49.986464557655005], [4.624025222680693, 49.98653606740342], [4.617688904253718, 49.98603851969493], [4.6116386827635765, 49.98503965305273], [4.605841630015551, 49.98360720600003], [4.600264817814923, 49.98180891705998], [4.5948753179669755, 49.97971252475581], [4.589640202276991, 49.97738576761067], [4.584526542550249, 49.97489638414778], [4.579501410592032, 49.97231211289032], [4.5745318782076225, 49.96970069236148], [4.574531878207628, 49.96970069236148], [4.572225330409582, 49.96969487606281], [4.570012293470482, 49.96956185565107], [4.567886059015448, 49.96931060824818], [4.565839918669607, 49.96895011097603], [4.563867164058083, 49.96848934095653], [4.5619610868060025, 49.967937275311584], [4.5601149785384845, 49.967302891163115], [4.558322130880654, 49.96659516563302], [4.55657583545764, 49.9658230758432], [4.554869383894561, 49.964995598915564], [4.554869383894559, 49.964995598915564], [4.554869462991325, 49.96499559346596], [4.55486954208809, 49.96499558801636], [4.554869621184853, 49.96499558256676], [4.554869700281618, 49.964995577117165], [4.554869779378382, 49.96499557166756], [4.554869858475149, 49.96499556621796], [4.5548699375719135, 49.96499556076836], [4.554870016668676, 49.964995555318765], [4.554870095765439, 49.96499554986916], [4.554870174862206, 49.964995544419565]]]}}]}