{"type": "FeatureCollection", "features": [{"type": "Feature", "properties": {"diocese": "Saint-Malo", "province": "XVII_Tours", "source": "123_Saint-Malo.txt"}, "geometry": {"type": "Polygon", "coordinates": [[[-1.851653711191467, 48.703835519751486], [-1.8538750507629416, 48.70356686924016], [-1.856574525989814, 48.70274685527359], [-1.8596574975528648, 48.701521860670404], [-1.8630293261328752, 48.70003826824921], [-1.866595372410627, 48.698442460828666], [-1.8702609970669002, 48.696880821227396], [-1.873931560782476, 48.69549973226405], [-1.8775124242381362, 48.694445576757246], [-1.8809089481146601, 48.69386473752562], [-1.8840264930928303, 48.693903597387816], [-1.8840264930928325, 48.693903597387816], [-1.888330964525705, 48.69219464123117], [-1.8928045165212415, 48.691126489557846], [-1.8974123121807842, 48.69061255150734], [-1.9021195146056766, 48.69056623621914], [-1.9068912868972616, 48.69090095283274], [-1.9116927921568816, 48.69153011048761], [-1.9164891934858794, 48.69236711832326], [-1.9212456539855978, 48.69332538547918], [-1.9259273367573801, 48.694318321094855], [-1.9304994049025688, 48.69525933430977], [-1.9304994049025663, 48.69525933430976], [-1.9376321907472949, 48.69436058821127], [-1.9418125177714995, 48.69307913141647], [-1.943730532822899, 48.691526508639136], [-1.944076382749212, 48.689814264593025], [-1.9435402143981564, 48.6880539439919], [-1.9428121746174496, 48.686357091549525], [-1.9425824102548106, 48.68483525197967], [-1.943541068157957, 48.6835999699961], [-1.9463782951746074, 48.682762790312566], [-1.951784238152479, 48.68243525764284], [-1.9517842381524768, 48.68243525764284], [-1.9557323268456117, 48.68342469514373], [-1.9609027038862872, 48.684183136110455], [-1.9668047964033435, 48.68464203738258], [-1.9729480315256225, 48.684732855799666], [-1.978841836381967, 48.68438704820125], [-1.9839956381012165, 48.683536071426914], [-1.9879188638122143, 48.682111382316215], [-1.9901209406437994, 48.680044437708695], [-1.9901112957248157, 48.677266694443915], [-1.987399356184103, 48.67370960936144], [-1.9873993561841026, 48.67370960936144], [-1.987661492861178, 48.66891333684262], [-1.989607161970257, 48.665043599447664], [-1.9929564436395775, 48.66195883695374], [-1.9974294179973737, 48.65951748913805], [-2.0027461651718816, 48.65757799577778], [-2.008626765291339, 48.6559987966501], [-2.0147912984839813, 48.654638331532226], [-2.0209598448780435, 48.65335504020132], [-2.026852484601764, 48.652007362434574], [-2.0321892977833773, 48.65045373800917], [-2.032189297783379, 48.65045373800917], [-2.0304027060217558, 48.647180615606736], [-2.029070646086626, 48.64424184049755], [-2.028064863781559, 48.64155835442863], [-2.027257104910123, 48.63905109914703], [-2.026519115275886, 48.63664101639976], [-2.0257226406824165, 48.63424904793385], [-2.024739426933283, 48.63179613549632], [-2.023441219832053, 48.62920322083421], [-2.021699765182296, 48.62639124569456], [-2.019386808787579, 48.62328115182438], [-2.0193868087875795, 48.62328115182438], [-2.0169411365554533, 48.62046194514161], [-2.015049722957026, 48.61750226235036], [-2.0135544713717413, 48.6144561679488], [-2.0122972851790397, 48.6113777264351], [-2.011120067758363, 48.60832100230743], [-2.0098647224891524, 48.605340060063945], [-2.0083731527508504, 48.60248896420281], [-2.0064872619228984, 48.59982177922222], [-2.0040489533847374, 48.59739256962032], [-2.0009001305158103, 48.595255399895265], [-2.000900130515811, 48.595255399895265], [-1.9991549701176279, 48.59263846615976], [-1.996235314439439, 48.59117018766299], [-1.992432651299449, 48.59052687400695], [-1.9880384685158665, 48.59038483479365], [-1.9833442539068955, 48.59042037962512], [-1.9786414952907438, 48.59030981810336], [-1.9742216804856163, 48.58972945983039], [-1.97037629730972, 48.58835561440822], [-1.9673968335812602, 48.58586459143886], [-1.9655747771184438, 48.58193270052435], [-1.9655747771184426, 48.58193270052434], [-1.9608697231702552, 48.57856789579286], [-1.9582428342258218, 48.575729980626086], [-1.9574161340474352, 48.573468985501776], [-1.9581116463973884, 48.57183494089765], [-1.960051395037973, 48.57087787729147], [-1.9629574037314843, 48.57064782516094], [-1.9665516962402143, 48.571194814983826], [-1.970556296326455, 48.57256887723784], [-1.9746932277525002, 48.57482004240075], [-1.9786845142806426, 48.577998340950266], [-1.9786845142806426, 48.577998340950266], [-1.9820777116173407, 48.576989349134216], [-1.9837645503452206, 48.57516108973546], [-1.9840655095276178, 48.572675566434654], [-1.983301068227869, 48.56969478291248], [-1.9817917055093082, 48.566380742849596], [-1.979857900435272, 48.56289544992668], [-1.9778201320690958, 48.5594009078244], [-1.9759988794741132, 48.556059120223416], [-1.9747146217136629, 48.55303209080441], [-1.9742878378510775, 48.55048182324804], [-1.9742878378510793, 48.55048182324804], [-1.9666529903591572, 48.55118694640477], [-1.9624760935980727, 48.5502905823541], [-1.960903291100519, 48.54818644884407], [-1.96108072639919, 48.54526826362271], [-1.9621545430267764, 48.54192974443804], [-1.963270884515973, 48.53856460903811], [-1.9635758943994723, 48.53556657517096], [-1.9622157162099658, 48.533329360584595], [-1.9583364934801482, 48.53224668302708], [-1.9510843697427105, 48.53271226024642], [-1.951084369742711, 48.53271226024642], [-1.9461310912052041, 48.53016515956145], [-1.9442440545430126, 48.5279591855717], [-1.944849249730812, 48.526017686750826], [-1.9473726667432776, 48.52426401157245], [-1.951240295555084, 48.5226215085102], [-1.9558781261409073, 48.52101352603774], [-1.9607121484754226, 48.51936341262869], [-1.9651683525333057, 48.51759451675669], [-1.9686727282892311, 48.51563018689536], [-1.9706512657178747, 48.51339377151836], [-1.970651265717876, 48.51339377151836], [-1.975173814204452, 48.50995222953023], [-1.978589137445394, 48.50862964831632], [-1.9809703096900217, 48.5090620591076], [-1.9823904051876582, 48.51088549313499], [-1.982922498187621, 48.51373598162947], [-1.9826396629392322, 48.51724955582196], [-1.981614973691812, 48.52106224694343], [-1.979921504694681, 48.52481008622481], [-1.9776323301971594, 48.528129104897054], [-1.9748205244485681, 48.530655334191096], [-1.974820524448565, 48.5306553341911], [-1.977332650641861, 48.533153135993835], [-1.9799215026833124, 48.5355901069209], [-1.9825628121721, 48.53798880388175], [-1.985232310707403, 48.5403717837859], [-1.9879057298884013, 48.5427616035428], [-1.9905588013142768, 48.54518082006196], [-1.9931672565842082, 48.54765199025286], [-1.9957068272973761, 48.550197671024975], [-1.9981532450529607, 48.55284041928779], [-2.0004822414501424, 48.55560279195078], [-2.0004822414501406, 48.55560279195078], [-2.005077977319274, 48.55823755430636], [-2.0072662630526716, 48.56118261161207], [-2.007688052714564, 48.564312806964665], [-2.006984300369183, 48.56750298346088], [-2.005795960080755, 48.57062798419745], [-2.004763985913512, 48.57356265227114], [-2.0045293319316806, 48.576181830778665], [-2.0057329521994935, 48.578360362816795], [-2.0090158007811802, 48.57997309148226], [-2.015018831740968, 48.5808948598718], [-2.0150188317409707, 48.5808948598718], [-2.0173792063587404, 48.58367079900321], [-2.0195448588006575, 48.586578591689495], [-2.0215172824557635, 48.58959380864314], [-2.023297970713103, 48.59269202057668], [-2.0248884169617183, 48.59584879820261], [-2.026290114590654, 48.59903971223345], [-2.027504556988953, 48.602240333381694], [-2.0285332375456604, 48.60542623235986], [-2.0293776496498177, 48.60857297988047], [-2.030039286690468, 48.61165614665602], [-2.0300392866904673, 48.61165614665602], [-2.028262615879174, 48.616357193584285], [-2.029089380057491, 48.61963700650218], [-2.031857793415175, 48.62185467171423], [-2.0359060701419773, 48.62336927552497], [-2.040572424427652, 48.62453990423896], [-2.0451950704619546, 48.6257256441607], [-2.049112222434636, 48.62728558159477], [-2.051662094535451, 48.62957880284569], [-2.0521829009541532, 48.63296439421801], [-2.050012855880495, 48.637801442016254], [-2.0500128558804933, 48.63780144201626], [-2.0552679302160133, 48.639129248977966], [-2.060665795387408, 48.63952600306146], [-2.0661702363396426, 48.639242903665405], [-2.071745038017681, 48.638531150188435], [-2.0773539853664866, 48.637641942029205], [-2.082960863331026, 48.63682647858637], [-2.0885294568562625, 48.63633595925856], [-2.094023550887159, 48.63642158344446], [-2.099406930368681, 48.63733455054269], [-2.1046433802457925, 48.639326059951905], [-2.1046433802457933, 48.639326059951905], [-2.1075641301147874, 48.63897718175481], [-2.111033821125787, 48.63836096131819], [-2.114951515834113, 48.637525452728894], [-2.119216276795087, 48.63651871007379], [-2.1237271665640307, 48.635388787439744], [-2.1283832476962665, 48.63418373891361], [-2.133083582747115, 48.63295161858227], [-2.1377272342718974, 48.63174048053257], [-2.1422132648259358, 48.63059837885137], [-2.1464407369645517, 48.62957336762555], [-2.1464407369645517, 48.62957336762555], [-2.148577633735806, 48.62754450556023], [-2.149008943022865, 48.62525716964453], [-2.148046203189333, 48.62276802368405], [-2.1460009525988157, 48.620133731484415], [-2.1431847296149185, 48.61741095685124], [-2.139909072601247, 48.61465636359012], [-2.136485519921407, 48.61192661550668], [-2.1332256099390023, 48.609278376406536], [-2.13044088101764, 48.60676831009528], [-2.128442871520924, 48.60445308037855], [-2.1284428715209254, 48.60445308037854], [-2.1320450221924627, 48.60585549291974], [-2.135634067668086, 48.60765964496232], [-2.139192827357676, 48.609612190153506], [-2.142704120671112, 48.61145978214055], [-2.1461507670182725, 48.612949074570686], [-2.149515585809038, 48.613826721091144], [-2.1527813964532863, 48.613839375349166], [-2.1559310183608975, 48.61273369099201], [-2.1589472709417494, 48.61025632166688], [-2.1618129736057248, 48.60615392102103], [-2.1618129736057234, 48.60615392102103], [-2.1671777834809935, 48.603185749599476], [-2.1698717923898214, 48.60031416468025], [-2.170493171113324, 48.597529515425684], [-2.1696400904326176, 48.59482215099813], [-2.1679107211288198, 48.59218242055989], [-2.165903233983047, 48.5896006732733], [-2.1642157997764153, 48.5870672583007], [-2.163446589290044, 48.58457252480442], [-2.164193773305047, 48.58210682194679], [-2.1670555226025425, 48.57966049889013], [-2.1670555226025434, 48.579660498890135], [-2.172343751728583, 48.5764901350858], [-2.1769258069986437, 48.57522710832066], [-2.180802682896765, 48.575576993840635], [-2.18397537390699, 48.57724536689169], [-2.186444874513363, 48.57993780271975], [-2.1882121791999256, 48.58335987657077], [-2.1892782824507213, 48.5872171636907], [-2.189644178749793, 48.59121523932548], [-2.1893108625811815, 48.59505967872106], [-2.1882793284289317, 48.59845605712339], [-2.1882793284289326, 48.59845605712339], [-2.1914036895196345, 48.60305794458173], [-2.1935726393299158, 48.605018144478066], [-2.1949873866325866, 48.60479422099319], [-2.195849140200451, 48.60284373830789], [-2.196359108806319, 48.59962426060292], [-2.1967185012229953, 48.5955933520591], [-2.1971285262232882, 48.59120857685717], [-2.1977903925800053, 48.58692749917795], [-2.198905309065953, 48.58320768320219], [-2.2006744844539385, 48.580506693110685], [-2.2006744844539408, 48.580506693110685], [-2.202800580555571, 48.578394705958985], [-2.2046310633675654, 48.576768158515755], [-2.2061944381692804, 48.57558938431038], [-2.2075192102400725, 48.57482071687226], [-2.2086338848593017, 48.57442448973073], [-2.2095669673063227, 48.574363036415214], [-2.210346962860493, 48.57459869045507], [-2.2110023768011713, 48.575093785379686], [-2.2115617144077144, 48.575810654718445], [-2.212053480959479, 48.57671163200072], [-2.2120534809594754, 48.57671163200072], [-2.2121299243578996, 48.575530148056124], [-2.2122063677563233, 48.574348664111525], [-2.2122828111547466, 48.57316718016694], [-2.2123592545531703, 48.57198569622235], [-2.2124356979515936, 48.57080421227774], [-2.2125121413500173, 48.56962272833315], [-2.2125885847484414, 48.56844124438855], [-2.2126650281468656, 48.56725976044395], [-2.212741471545289, 48.56607827649937], [-2.212817914943712, 48.56489679255477], [-2.212817914943712, 48.56489679255477], [-2.2160942503311207, 48.558877568275314], [-2.2193705857185293, 48.55285834399588], [-2.2226469211059374, 48.54683911971643], [-2.2259232564933455, 48.54081989543698], [-2.2291995918807537, 48.534800671157534], [-2.232475927268162, 48.52878144687808], [-2.23575226265557, 48.52276222259864], [-2.239028598042978, 48.51674299831919], [-2.242304933430387, 48.51072377403974], [-2.245581268817795, 48.50470454976029], [-2.245581268817795, 48.50470454976029], [-2.248399731343719, 48.50056659176471], [-2.251218193869643, 48.49642863376913], [-2.2540366563955665, 48.49229067577354], [-2.2568551189214903, 48.48815271777795], [-2.259673581447414, 48.48401475978237], [-2.2624920439733387, 48.47987680178678], [-2.2653105064992625, 48.4757388437912], [-2.2681289690251853, 48.47160088579561], [-2.2709474315511096, 48.46746292780002], [-2.2737658940770338, 48.46332496980444], [-2.2737658940770338, 48.46332496980444], [-2.2782125271517524, 48.46175676301841], [-2.2826591602264727, 48.46018855623238], [-2.287105793301192, 48.45862034944635], [-2.291552426375911, 48.45705214266032], [-2.295999059450631, 48.455483935874284], [-2.30044569252535, 48.45391572908826], [-2.304892325600069, 48.452347522302226], [-2.309338958674788, 48.4507793155162], [-2.3137855917495074, 48.44921110873017], [-2.318232224824227, 48.447642901944135], [-2.318232224824227, 48.447642901944135], [-2.320239363292079, 48.441184948642466], [-2.3222465017599316, 48.434726995340796], [-2.3242536402277842, 48.428269042039126], [-2.3262607786956364, 48.42181108873747], [-2.3282679171634886, 48.4153531354358], [-2.3302750556313407, 48.40889518213413], [-2.332282194099193, 48.40243722883246], [-2.334289332567046, 48.39597927553079], [-2.336296471034898, 48.38952132222912], [-2.3383036095027503, 48.383063368927466], [-2.3383036095027503, 48.383063368927466], [-2.336768289079365, 48.37961550300874], [-2.335232968655981, 48.37616763709002], [-2.333697648232596, 48.372719771171305], [-2.332162327809212, 48.36927190525258], [-2.330627007385826, 48.365824039333866], [-2.329091686962442, 48.362376173415136], [-2.3275563665390573, 48.35892830749641], [-2.326021046115672, 48.3554804415777], [-2.324485725692288, 48.352032575658974], [-2.3229504052689025, 48.34858470974026], [-2.3229504052689025, 48.34858470974026], [-2.3217770909283506, 48.34570078459522], [-2.3206037765877987, 48.34281685945019], [-2.3194304622472464, 48.33993293430515], [-2.318257147906695, 48.337049009160125], [-2.317083833566142, 48.33416508401509], [-2.31591051922559, 48.331281158870055], [-2.314737204885038, 48.32839723372502], [-2.3135638905444855, 48.32551330857999], [-2.312390576203933, 48.32262938343496], [-2.3112172618633813, 48.31974545828992], [-2.3112172618633813, 48.31974545828992], [-2.3124908152410697, 48.31792701164169], [-2.3137643686187586, 48.31610856499346], [-2.3150379219964465, 48.31429011834524], [-2.3163114753741345, 48.31247167169701], [-2.3175850287518234, 48.31065322504879], [-2.3188585821295113, 48.30883477840056], [-2.3201321355072, 48.30701633175233], [-2.321405688884888, 48.30519788510411], [-2.322679242262576, 48.30337943845588], [-2.3239527956402655, 48.30156099180765], [-2.3239527956402655, 48.30156099180765], [-2.328127489389801, 48.29999285288799], [-2.332302183139338, 48.298424713968316], [-2.336476876888874, 48.29685657504866], [-2.3406515706384106, 48.29528843612899], [-2.344826264387946, 48.293720297209326], [-2.3490009581374824, 48.29215215828966], [-2.3531756518870184, 48.29058401936999], [-2.357350345636555, 48.28901588045033], [-2.361525039386091, 48.287447741530656], [-2.3656997331356275, 48.285879602611], [-2.3656997331356275, 48.285879602611], [-2.3700644061852136, 48.2795471128229], [-2.3744290792348, 48.2732146230348], [-2.3787937522843863, 48.2668821332467], [-2.383158425333973, 48.2605496434586], [-2.387523098383559, 48.25421715367051], [-2.391887771433145, 48.24788466388242], [-2.396252444482731, 48.24155217409431], [-2.4006171175323177, 48.235219684306216], [-2.4049817905819038, 48.228887194518116], [-2.4093464636314907, 48.22255470473003], [-2.4093464636314907, 48.22255470473003], [-2.408894029962573, 48.22161370837318], [-2.4084415962936556, 48.220672712016324], [-2.4079891626247383, 48.219731715659485], [-2.4075367289558214, 48.21879071930264], [-2.4070842952869045, 48.217849722945786], [-2.4066318616179867, 48.21690872658893], [-2.406179427949069, 48.21596773023209], [-2.405726994280152, 48.21502673387525], [-2.405274560611235, 48.214085737518396], [-2.404822126942318, 48.21314474116154], [-2.404822126942318, 48.21314474116154], [-2.401648562741644, 48.213145533170085], [-2.39847499854097, 48.213146325178606], [-2.395301434340296, 48.21314711718715], [-2.3921278701396225, 48.21314790919567], [-2.3889543059389493, 48.21314870120421], [-2.3857807417382757, 48.21314949321273], [-2.3826071775376017, 48.213150285221275], [-2.3794336133369276, 48.21315107722981], [-2.376260049136254, 48.21315186923834], [-2.3730864849355804, 48.21315266124687], [-2.3730864849355804, 48.21315266124687], [-2.3715465342595685, 48.21290308033509], [-2.3700065835835566, 48.21265349942331], [-2.3684666329075443, 48.21240391851154], [-2.3669266822315325, 48.21215433759976], [-2.3653867315555206, 48.211904756687986], [-2.3638467808795083, 48.211655175776215], [-2.3623068302034964, 48.21140559486443], [-2.360766879527484, 48.21115601395265], [-2.3592269288514727, 48.21090643304088], [-2.35768697817546, 48.210656852129105], [-2.35768697817546, 48.210656852129105], [-2.3579613300707987, 48.20940268049412], [-2.358235681966138, 48.20814850885914], [-2.358510033861476, 48.20689433722418], [-2.358784385756815, 48.205640165589195], [-2.3590587376521532, 48.20438599395422], [-2.3593330895474924, 48.203131822319236], [-2.3596074414428303, 48.20187765068426], [-2.3598817933381695, 48.200623479049284], [-2.3601561452335083, 48.1993693074143], [-2.3604304971288466, 48.19811513577932], [-2.3604304971288466, 48.19811513577932], [-2.3628792117425093, 48.19742444714906], [-2.365327926356172, 48.196733758518796], [-2.3677766409698346, 48.19604306988854], [-2.370225355583498, 48.19535238125828], [-2.3726740701971605, 48.19466169262802], [-2.3751227848108227, 48.19397100399776], [-2.3775714994244854, 48.193280315367495], [-2.380020214038148, 48.19258962673723], [-2.382468928651811, 48.191898938106974], [-2.3849176432654735, 48.19120824947671], [-2.3849176432654735, 48.19120824947671], [-2.388452729055893, 48.192022424643255], [-2.3919878148463125, 48.19283659980979], [-2.3955229006367325, 48.193650774976334], [-2.3990579864271515, 48.19446495014288], [-2.402593072217571, 48.19527912530942], [-2.4061281580079914, 48.19609330047596], [-2.409663243798411, 48.196907475642504], [-2.413198329588831, 48.19772165080904], [-2.41673341537925, 48.19853582597558], [-2.42026850116967, 48.199350001142136], [-2.42026850116967, 48.199350001142136], [-2.4297059850924843, 48.19602544867265], [-2.4391434690152978, 48.19270089620318], [-2.4485809529381126, 48.189376343733706], [-2.4580184368609266, 48.18605179126424], [-2.467455920783741, 48.18272723879477], [-2.4768934047065545, 48.17940268632528], [-2.4863308886293685, 48.17607813385581], [-2.495768372552183, 48.172753581386345], [-2.505205856474997, 48.16942902891687], [-2.5146433403978112, 48.1661044764474], [-2.5146433403978112, 48.1661044764474], [-2.517910026449396, 48.164285532384284], [-2.5211767125009814, 48.162466588321166], [-2.524443398552566, 48.160647644258056], [-2.5277100846041503, 48.15882870019494], [-2.5309767706557356, 48.157009756131814], [-2.5342434567073204, 48.15519081206871], [-2.5375101427589044, 48.15337186800559], [-2.5407768288104897, 48.151552923942475], [-2.5440435148620737, 48.149733979879365], [-2.547310200913659, 48.14791503581624], [-2.547310200913659, 48.14791503581624], [-2.547768444551637, 48.14584576089046], [-2.548226688189615, 48.14377648596468], [-2.5486849318275926, 48.14170721103889], [-2.549143175465571, 48.13963793611311], [-2.5496014191035483, 48.13756866118732], [-2.5500596627415266, 48.13549938626154], [-2.550517906379505, 48.13343011133576], [-2.5509761500174823, 48.13136083640998], [-2.5514343936554607, 48.129291561484195], [-2.551892637293438, 48.12722228655841], [-2.551892637293438, 48.12722228655841], [-2.5491758937174347, 48.125091847317094], [-2.5464591501414313, 48.12296140807577], [-2.5437424065654266, 48.12083096883446], [-2.541025662989423, 48.11870052959314], [-2.5383089194134185, 48.11657009035183], [-2.5355921758374147, 48.11443965111051], [-2.532875432261411, 48.112309211869196], [-2.5301586886854066, 48.110178772627876], [-2.527441945109403, 48.108048333386556], [-2.524725201533399, 48.10591789414524], [-2.524725201533399, 48.10591789414524], [-2.524456900845557, 48.104036803619074], [-2.5241886001577156, 48.10215571309292], [-2.523920299469874, 48.10027462256675], [-2.5236519987820323, 48.098393532040596], [-2.5233836980941913, 48.096512441514434], [-2.523115397406349, 48.09463135098827], [-2.5228470967185075, 48.09275026046211], [-2.5225787960306665, 48.09086916993595], [-2.522310495342824, 48.08898807940979], [-2.522042194654983, 48.087106988883626], [-2.522042194654983, 48.087106988883626], [-2.525222655363563, 48.083532966194355], [-2.528403116072144, 48.0799589435051], [-2.531583576780724, 48.076384920815826], [-2.534764037489305, 48.07281089812656], [-2.537944498197885, 48.0692368754373], [-2.5411249589064653, 48.065662852748034], [-2.5443054196150463, 48.06208883005877], [-2.5474858803236264, 48.0585148073695], [-2.550666341032207, 48.054940784680234], [-2.5538468017407876, 48.05136676199097], [-2.5538468017407876, 48.05136676199097], [-2.5580239159606553, 48.04854452477006], [-2.5622010301805225, 48.04572228754915], [-2.5663781444003906, 48.04290005032824], [-2.5705552586202582, 48.040077813107324], [-2.574732372840126, 48.03725557588642], [-2.5789094870599936, 48.0344333386655], [-2.5830866012798612, 48.03161110144459], [-2.5872637154997298, 48.028788864223685], [-2.5914408297195966, 48.025966627002774], [-2.595617943939465, 48.023144389781855], [-2.595617943939465, 48.023144389781855], [-2.6007892158920476, 48.02157600215179], [-2.60596048784463, 48.02000761452172], [-2.6111317597972126, 48.018439226891644], [-2.616303031749795, 48.01687083926157], [-2.6214743037023767, 48.015302451631506], [-2.6266455756549596, 48.01373406400143], [-2.631816847607542, 48.01216567637135], [-2.6369881195601246, 48.010597288741295], [-2.642159391512707, 48.009028901111215], [-2.64733066346529, 48.00746051348114], [-2.64733066346529, 48.00746051348114], [-2.6486045717874513, 48.00545406366429], [-2.6498784801096136, 48.003447613847435], [-2.6511523884317745, 48.00144116403057], [-2.6524262967539367, 47.99943471421372], [-2.6537002050760985, 47.99742826439686], [-2.6549741133982603, 47.99542181458], [-2.6562480217204216, 47.993415364763145], [-2.6575219300425834, 47.991408914946284], [-2.658795838364745, 47.98940246512943], [-2.660069746686907, 47.98739601531257], [-2.660069746686907, 47.98739601531257], [-2.6594377551254826, 47.985828009449044], [-2.6588057635640583, 47.98426000358552], [-2.658173772002634, 47.982691997721986], [-2.6575417804412087, 47.98112399185847], [-2.6569097888797857, 47.979555985994935], [-2.656277797318361, 47.97798798013141], [-2.6556458057569365, 47.976419974267884], [-2.655013814195512, 47.97485196840435], [-2.654381822634088, 47.973283962540826], [-2.6537498310726635, 47.97171595667729], [-2.6537498310726635, 47.97171595667729], [-2.652574578706984, 47.96983616448452], [-2.6513993263413047, 47.967956372291745], [-2.6502240739756253, 47.96607658009897], [-2.6490488216099455, 47.96419678790619], [-2.6478735692442665, 47.962316995713415], [-2.646698316878587, 47.960437203520634], [-2.6455230645129078, 47.95855741132785], [-2.6443478121472284, 47.95667761913508], [-2.643172559781549, 47.954797826942304], [-2.6419973074158696, 47.95291803474952], [-2.6419973074158696, 47.95291803474952], [-2.6384644008890135, 47.95097473575222], [-2.634931494362157, 47.949031436754915], [-2.6313985878353012, 47.9470881377576], [-2.627865681308445, 47.9451448387603], [-2.624332774781589, 47.943201539763], [-2.6207998682547324, 47.9412582407657], [-2.6172669617278768, 47.93931494176838], [-2.6137340552010206, 47.937371642771076], [-2.6102011486741645, 47.93542834377378], [-2.6066682421473084, 47.93348504477647], [-2.6066682421473084, 47.93348504477647], [-2.6025889365145183, 47.93286008049842], [-2.598509630881729, 47.93223511622037], [-2.5944303252489394, 47.93161015194232], [-2.5903510196161497, 47.93098518766428], [-2.58627171398336, 47.930360223386224], [-2.58219240835057, 47.929735259108185], [-2.57811310271778, 47.92911029483013], [-2.574033797084991, 47.928485330552085], [-2.5699544914522017, 47.92786036627403], [-2.5658751858194115, 47.927235401995986], [-2.5658751858194115, 47.927235401995986], [-2.563247663700647, 47.92610693991431], [-2.5606201415818832, 47.924978477832646], [-2.5579926194631186, 47.92385001575097], [-2.5553650973443545, 47.922721553669305], [-2.552737575225591, 47.92159309158763], [-2.550110053106826, 47.920464629505965], [-2.547482530988062, 47.91933616742429], [-2.5448550088692983, 47.91820770534262], [-2.5422274867505337, 47.91707924326095], [-2.539599964631769, 47.915950781179276], [-2.539599964631769, 47.915950781179276], [-2.53661128965187, 47.91382040433301], [-2.533622614671972, 47.911690027486735], [-2.5306339396920725, 47.90955965064047], [-2.5276452647121737, 47.90742927379421], [-2.5246565897322744, 47.90529889694794], [-2.521667914752376, 47.903168520101666], [-2.5186792397724767, 47.9010381432554], [-2.5156905647925774, 47.89890776640913], [-2.5127018898126785, 47.896777389562864], [-2.5097132148327796, 47.8946470127166], [-2.5097132148327796, 47.8946470127166], [-2.5064511264566516, 47.89408380116944], [-2.503189038080523, 47.89352058962229], [-2.4999269497043946, 47.89295737807513], [-2.4966648613282674, 47.89239416652797], [-2.4934027729521384, 47.891830954980826], [-2.4901406845760103, 47.891267743433666], [-2.4868785961998823, 47.89070453188651], [-2.4836165078237533, 47.89014132033935], [-2.4803544194476257, 47.88957810879221], [-2.477092331071497, 47.88901489724505], [-2.477092331071497, 47.88901489724505], [-2.4742855148855503, 47.88631938284392], [-2.4714786986996033, 47.88362386844278], [-2.4686718825136573, 47.88092835404164], [-2.4658650663277095, 47.87823283964052], [-2.463058250141762, 47.87553732523938], [-2.4602514339558152, 47.87284181083824], [-2.4574446177698688, 47.870146296437106], [-2.454637801583921, 47.867450782035974], [-2.451830985397974, 47.86475526763484], [-2.449024169212027, 47.86205975323371], [-2.449024169212027, 47.86205975323371], [-2.4477597806665194, 47.859928951536325], [-2.4464953921210117, 47.857798149838956], [-2.445231003575504, 47.85566734814157], [-2.4439666150299963, 47.853536546444204], [-2.4427022264844886, 47.85140574474682], [-2.441437837938981, 47.849274943049444], [-2.440173449393474, 47.84714414135207], [-2.438909060847966, 47.84501333965469], [-2.4376446723024583, 47.84288253795731], [-2.436380283756951, 47.84075173625994], [-2.436380283756951, 47.84075173625994], [-2.4330253778431388, 47.840250504555925], [-2.429670471929326, 47.839749272851925], [-2.4263155660155147, 47.83924804114792], [-2.422960660101702, 47.83874680944392], [-2.4196057541878906, 47.838245577739904], [-2.416250848274078, 47.837744346035905], [-2.412895942360265, 47.837243114331905], [-2.409541036446454, 47.83674188262789], [-2.4061861305326415, 47.8362406509239], [-2.4028312246188297, 47.835739419219884], [-2.4028312246188297, 47.835739419219884], [-2.3921299562441494, 47.83662017594287], [-2.381428687869469, 47.83750093266585], [-2.3707274194947887, 47.83838168938883], [-2.360026151120109, 47.83926244611182], [-2.349324882745429, 47.8401432028348], [-2.338623614370749, 47.84102395955778], [-2.327922345996069, 47.84190471628076], [-2.317221077621389, 47.842785473003744], [-2.3065198092467085, 47.84366622972673], [-2.2958185408720286, 47.84454698644972], [-2.2958185408720286, 47.84454698644972], [-2.289292209522647, 47.843733557791474], [-2.2827658781732665, 47.842920129133226], [-2.276239546823885, 47.84210670047498], [-2.2697132154745034, 47.84129327181674], [-2.2631868841251217, 47.84047984315849], [-2.256660552775741, 47.83966641450025], [-2.25013422142636, 47.838852985841996], [-2.2436078900769783, 47.838039557183755], [-2.237081558727598, 47.83722612852551], [-2.2305552273782165, 47.83641269986726], [-2.2305552273782165, 47.83641269986726], [-2.22729062946049, 47.836350485924804], [-2.2240260315427633, 47.83628827198234], [-2.220761433625037, 47.836226058039884], [-2.2174968357073106, 47.83616384409743], [-2.2142322377895844, 47.83610163015496], [-2.2109676398718574, 47.8360394162125], [-2.2077030419541313, 47.83597720227004], [-2.2044384440364055, 47.83591498832758], [-2.201173846118678, 47.835852774385124], [-2.1979092482009523, 47.83579056044266], [-2.1979092482009523, 47.83579056044266], [-2.191923057834715, 47.836106114802035], [-2.1859368674684765, 47.836421669161396], [-2.1799506771022394, 47.83673722352077], [-2.1739644867360015, 47.83705277788014], [-2.167978296369764, 47.837368332239514], [-2.161992106003526, 47.83768388659888], [-2.156005915637289, 47.83799944095826], [-2.150019725271051, 47.83831499531763], [-2.144033534904813, 47.838630549677006], [-2.1380473445385757, 47.838946104036374], [-2.1380473445385757, 47.838946104036374], [-2.1343316201690965, 47.83806894528102], [-2.1306158957996173, 47.83719178652567], [-2.1269001714301377, 47.83631462777031], [-2.123184447060659, 47.83543746901495], [-2.11946872269118, 47.8345603102596], [-2.115752998321701, 47.833683151504246], [-2.1120372739522213, 47.832805992748895], [-2.108321549582742, 47.83192883399354], [-2.1046058252132633, 47.831051675238186], [-2.1008901008437837, 47.83017451648283], [-2.1008901008437837, 47.83017451648283], [-2.098354579401476, 47.8286080576631], [-2.0958190579591673, 47.82704159884336], [-2.093283536516859, 47.82547514002362], [-2.0907480150745505, 47.82390868120388], [-2.088212493632242, 47.82234222238415], [-2.085676972189934, 47.820775763564406], [-2.0831414507476254, 47.81920930474467], [-2.080605929305317, 47.81764284592493], [-2.078070407863008, 47.8160763871052], [-2.0755348864206997, 47.81450992828546], [-2.0755348864206997, 47.81450992828546], [-2.0737269088513415, 47.81143814751102], [-2.0719189312819823, 47.808366366736585], [-2.070110953712623, 47.805294585962145], [-2.068302976143265, 47.802222805187704], [-2.066494998573906, 47.79915102441327], [-2.0646870210045467, 47.796079243638836], [-2.062879043435188, 47.7930074628644], [-2.0610710658658293, 47.78993568208997], [-2.0592630882964706, 47.786863901315535], [-2.057455110727112, 47.783792120541094], [-2.057455110727112, 47.783792120541094], [-2.055284982818483, 47.78103449056605], [-2.053114854909854, 47.778276860591006], [-2.050944727001225, 47.77551923061598], [-2.048774599092596, 47.77276160064094], [-2.0466044711839677, 47.7700039706659], [-2.0444343432753387, 47.76724634069086], [-2.042264215366709, 47.76448871071581], [-2.0400940874580797, 47.76173108074078], [-2.0379239595494516, 47.758973450765744], [-2.0357538316408226, 47.7562158207907], [-2.0357538316408226, 47.7562158207907], [-2.032856070798533, 47.754210406604464], [-2.029958309956244, 47.752204992418235], [-2.027060549113955, 47.750199578232], [-2.024162788271666, 47.74819416404576], [-2.0212650274293766, 47.74618874985954], [-2.018367266587087, 47.7441833356733], [-2.0154695057447984, 47.74217792148706], [-2.01257174490251, 47.74017250730083], [-2.0096739840602202, 47.7381670931146], [-2.006776223217931, 47.73616167892836], [-2.006776223217931, 47.73616167892836], [-2.0013348726091698, 47.735975028346175], [-1.9958935220004075, 47.735788377764], [-1.9904521713916459, 47.735601727181816], [-1.9850108207828843, 47.73541507659963], [-1.979569470174122, 47.73522842601745], [-1.9741281195653604, 47.73504177543526], [-1.9686867689565983, 47.73485512485308], [-1.9632454183478367, 47.7346684742709], [-1.9578040677390751, 47.73448182368871], [-1.9523627171303128, 47.73429517310653], [-1.9523627171303128, 47.73429517310653], [-1.9478285288979806, 47.73479730712607], [-1.9432943406656484, 47.73529944114562], [-1.9387601524333162, 47.73580157516517], [-1.9342259642009838, 47.73630370918472], [-1.929691775968652, 47.73680584320426], [-1.9251575877363198, 47.73730797722381], [-1.9206233995039879, 47.73781011124334], [-1.9160892112716554, 47.73831224526289], [-1.9115550230393232, 47.73881437928244], [-1.9070208348069912, 47.73931651330198], [-1.9070208348069912, 47.73931651330198], [-1.9015761779290288, 47.74163806440863], [-1.8961315210510676, 47.74395961551527], [-1.8906868641731058, 47.74628116662192], [-1.8852422072951438, 47.748602717728566], [-1.879797550417182, 47.75092426883522], [-1.8743528935392197, 47.753245819941874], [-1.868908236661258, 47.75556737104852], [-1.863463579783296, 47.75788892215516], [-1.858018922905334, 47.76021047326181], [-1.8525742660273719, 47.762532024368454], [-1.8525742660273719, 47.762532024368454], [-1.8530961117348188, 47.76433613629576], [-1.8536179574422638, 47.76614024822307], [-1.8541398031497098, 47.76794436015037], [-1.854661648857156, 47.769748472077666], [-1.855183494564602, 47.77155258400497], [-1.855705340272048, 47.77335669593227], [-1.8562271859794939, 47.775160807859585], [-1.85674903168694, 47.776964919786884], [-1.857270877394386, 47.77876903171419], [-1.857792723101832, 47.78057314364149], [-1.857792723101832, 47.78057314364149], [-1.8568924700979716, 47.78190331481157], [-1.8559922170941123, 47.783233485981654], [-1.8550919640902517, 47.784563657151736], [-1.8541917110863912, 47.78589382832182], [-1.853291458082531, 47.7872239994919], [-1.8523912050786715, 47.78855417066198], [-1.8514909520748113, 47.789884341832064], [-1.8505906990709518, 47.79121451300214], [-1.8496904460670913, 47.79254468417222], [-1.8487901930632318, 47.793874855342295], [-1.8487901930632318, 47.793874855342295], [-1.844684105071387, 47.79511716310999], [-1.840578017079542, 47.7963594708777], [-1.836471929087698, 47.797601778645394], [-1.8323658410958543, 47.79884408641309], [-1.8282597531040095, 47.800086394180774], [-1.8241536651121646, 47.80132870194847], [-1.8200475771203197, 47.80257100971617], [-1.815941489128476, 47.803813317483865], [-1.8118354011366318, 47.80505562525156], [-1.8077293131447871, 47.80629793301926], [-1.8077293131447871, 47.80629793301926], [-1.8059312132542646, 47.8085149629055], [-1.804133113363742, 47.81073199279173], [-1.8023350134732194, 47.81294902267796], [-1.800536913582696, 47.8151660525642], [-1.7987388136921736, 47.817383082450434], [-1.796940713801652, 47.81960011233667], [-1.7951426139111295, 47.82181714222291], [-1.7933445140206061, 47.82403417210915], [-1.7915464141300845, 47.82625120199538], [-1.789748314239561, 47.82846823188162], [-1.789748314239561, 47.82846823188162], [-1.7901258496594736, 47.832191986765594], [-1.7905033850793866, 47.83591574164957], [-1.790880920499299, 47.83963949653356], [-1.7912584559192115, 47.84336325141754], [-1.7916359913391244, 47.847087006301514], [-1.7920135267590378, 47.8508107611855], [-1.7923910621789505, 47.85453451606948], [-1.7927685975988632, 47.858258270953456], [-1.7931461330187757, 47.861982025837435], [-1.7935236684386884, 47.86570578072141], [-1.7935236684386884, 47.86570578072141], [-1.791337763210168, 47.86872087310172], [-1.7891518579816472, 47.87173596548201], [-1.7869659527531268, 47.87475105786232], [-1.7847800475246058, 47.87776615024262], [-1.7825941422960854, 47.88078124262292], [-1.7804082370675647, 47.88379633500322], [-1.7782223318390442, 47.88681142738353], [-1.7760364266105226, 47.88982651976382], [-1.7738505213820022, 47.892841612144124], [-1.7716646161534815, 47.89585670452443], [-1.7716646161534815, 47.89585670452443], [-1.7717878944311976, 47.898427903292024], [-1.7719111727089125, 47.90099910205963], [-1.7720344509866286, 47.90357030082723], [-1.7721577292643447, 47.90614149959483], [-1.7722810075420594, 47.908712698362436], [-1.7724042858197755, 47.91128389713005], [-1.7725275640974905, 47.913855095897645], [-1.7726508423752065, 47.91642629466525], [-1.7727741206529226, 47.918997493432855], [-1.7728973989306376, 47.92156869220045], [-1.7728973989306376, 47.92156869220045], [-1.770970200069409, 47.92343110044696], [-1.7690430012081784, 47.92529350869348], [-1.7671158023469493, 47.92715591693999], [-1.7651886034857207, 47.9290183251865], [-1.763261404624491, 47.93088073343301], [-1.7613342057632615, 47.93274314167952], [-1.7594070069020324, 47.93460554992603], [-1.7574798080408027, 47.93646795817255], [-1.7555526091795732, 47.93833036641906], [-1.7536254103183444, 47.94019277466557], [-1.7536254103183444, 47.94019277466557], [-1.7540072238384967, 47.941699952806644], [-1.7543890373586495, 47.94320713094773], [-1.7547708508788025, 47.94471430908881], [-1.7551526643989555, 47.946221487229884], [-1.7555344779191073, 47.94772866537097], [-1.7559162914392603, 47.949235843512035], [-1.7562981049594133, 47.95074302165312], [-1.756679918479566, 47.9522501997942], [-1.7570617319997193, 47.953757377935275], [-1.757443545519872, 47.95526455607636], [-1.757443545519872, 47.95526455607636], [-1.7605161770308273, 47.95792368225504], [-1.7635888085417835, 47.96058280843374], [-1.766661440052739, 47.963241934612434], [-1.769734071563695, 47.96590106079113], [-1.7728067030746513, 47.968560186969825], [-1.7758793345856074, 47.971219313148524], [-1.7789519660965627, 47.97387843932721], [-1.782024597607518, 47.97653756550591], [-1.7850972291184741, 47.979196691684606], [-1.7881698606294303, 47.9818558178633], [-1.7881698606294303, 47.9818558178633], [-1.7891889422647291, 47.984603053478196], [-1.7902080239000293, 47.987350289093094], [-1.7912271055353282, 47.99009752470799], [-1.7922461871706283, 47.992844760322875], [-1.7932652688059283, 47.99559199593778], [-1.7942843504412274, 47.99833923155267], [-1.7953034320765273, 48.00108646716757], [-1.7963225137118273, 48.003833702782465], [-1.7973415953471263, 48.00658093839736], [-1.7983606769824263, 48.00932817401225], [-1.7983606769824263, 48.00932817401225], [-1.8016920148606732, 48.01083461605716], [-1.8050233527389203, 48.012341058102066], [-1.8083546906171675, 48.01384750014697], [-1.8116860284954144, 48.01535394219189], [-1.8150173663736617, 48.01686038423679], [-1.8183487042519089, 48.01836682628169], [-1.821680042130156, 48.0198732683266], [-1.8250113800084031, 48.021379710371505], [-1.82834271788665, 48.02288615241641], [-1.8316740557648972, 48.02439259446132], [-1.8316740557648972, 48.02439259446132], [-1.8333380990231842, 48.0259881160681], [-1.835002142281473, 48.02758363767488], [-1.83666618553976, 48.02917915928167], [-1.838330228798048, 48.03077468088845], [-1.8399942720563356, 48.032370202495244], [-1.8416583153146235, 48.033965724102025], [-1.8433223585729117, 48.035561245708806], [-1.8449864018311986, 48.037156767315594], [-1.8466504450894865, 48.038752288922375], [-1.8483144883477742, 48.04034781052917], [-1.8483144883477742, 48.04034781052917], [-1.8529296039985752, 48.04114462447244], [-1.8575447196493762, 48.041941438415705], [-1.8621598353001771, 48.04273825235897], [-1.866774950950978, 48.04353506630224], [-1.871390066601779, 48.0443318802455], [-1.8760051822525794, 48.045128694188776], [-1.8806202979033808, 48.04592550813204], [-1.8852354135541813, 48.04672232207531], [-1.8898505292049823, 48.04751913601857], [-1.8944656448557833, 48.04831594996184], [-1.8944656448557833, 48.04831594996184], [-1.8972838560104204, 48.04991118352945], [-1.9001020671650564, 48.05150641709706], [-1.9029202783196932, 48.05310165066467], [-1.90573848947433, 48.05469688423228], [-1.9085567006289665, 48.056292117799885], [-1.9113749117836039, 48.0578873513675], [-1.9141931229382403, 48.0594825849351], [-1.9170113340928772, 48.06107781850271], [-1.9198295452475131, 48.062673052070316], [-1.9226477564021502, 48.06426828563792], [-1.9226477564021502, 48.06426828563792], [-1.9237981516515328, 48.066218589291175], [-1.924948546900916, 48.06816889294443], [-1.9260989421502992, 48.07011919659767], [-1.9272493373996815, 48.072069500250926], [-1.9283997326490647, 48.07401980390417], [-1.9295501278984475, 48.075970107557424], [-1.9307005231478307, 48.07792041121067], [-1.931850918397214, 48.07987071486393], [-1.9330013136465967, 48.081821018517175], [-1.9341517088959799, 48.08377132217043], [-1.9341517088959799, 48.08377132217043], [-1.9324801361757804, 48.08607697847521], [-1.9308085634555805, 48.08838263477999], [-1.9291369907353808, 48.090688291084774], [-1.9274654180151813, 48.09299394738956], [-1.9257938452949814, 48.095299603694336], [-1.924122272574782, 48.09760525999912], [-1.9224506998545825, 48.0999109163039], [-1.920779127134383, 48.102216572608675], [-1.9191075544141833, 48.10452222891346], [-1.9174359816939845, 48.10682788521824], [-1.9174359816939845, 48.10682788521824], [-1.9135824395957959, 48.11010938417495], [-1.9097288974976072, 48.11339088313166], [-1.9058753553994194, 48.11667238208836], [-1.902021813301231, 48.11995388104507], [-1.898168271203043, 48.123235380001766], [-1.894314729104854, 48.12651687895848], [-1.8904611870066659, 48.12979837791518], [-1.8866076449084779, 48.133079876871896], [-1.8827541028102897, 48.1363613758286], [-1.8789005607121012, 48.1396428747853], [-1.8789005607121012, 48.1396428747853], [-1.8764572315234758, 48.143146208255786], [-1.8740139023348499, 48.14664954172627], [-1.871570573146225, 48.15015287519676], [-1.8691272439575988, 48.153656208667236], [-1.8666839147689736, 48.15715954213772], [-1.8642405855803486, 48.1606628756082], [-1.8617972563917222, 48.164166209078694], [-1.8593539272030972, 48.16766954254917], [-1.8569105980144718, 48.171172876019654], [-1.8544672688258457, 48.174676209490144], [-1.8544672688258457, 48.174676209490144], [-1.8568346722773852, 48.177689099005626], [-1.8592020757289243, 48.180701988521115], [-1.8615694791804624, 48.18371487803661], [-1.8639368826320015, 48.18672776755209], [-1.8663042860835402, 48.18974065706758], [-1.8686716895350801, 48.19275354658307], [-1.871039092986619, 48.19576643609856], [-1.8734064964381574, 48.19877932561405], [-1.8757738998896962, 48.201792215129544], [-1.8781413033412357, 48.204805104645025], [-1.8781413033412357, 48.204805104645025], [-1.8814084339838368, 48.20595690885555], [-1.8846755646264388, 48.20710871306606], [-1.8879426952690412, 48.20826051727658], [-1.8912098259116428, 48.20941232148709], [-1.8944769565542445, 48.21056412569761], [-1.8977440871968465, 48.21171592990813], [-1.9010112178394485, 48.21286773411864], [-1.9042783484820502, 48.21401953832916], [-1.9075454791246522, 48.21517134253968], [-1.910812609767254, 48.2163231467502], [-1.910812609767254, 48.2163231467502], [-1.9109393950541471, 48.217077287818455], [-1.9110661803410398, 48.21783142888671], [-1.9111929656279332, 48.21858556995497], [-1.9113197509148263, 48.219339711023224], [-1.9114465362017194, 48.22009385209148], [-1.9115733214886128, 48.22084799315974], [-1.911700106775506, 48.22160213422799], [-1.9118268920623989, 48.22235627529625], [-1.9119536773492922, 48.2231104163645], [-1.912080462636185, 48.22386455743276], [-1.912080462636185, 48.22386455743276], [-1.9110534322561643, 48.224440587532605], [-1.9100264018761435, 48.225016617632456], [-1.9089993714961213, 48.225592647732306], [-1.9079723411161007, 48.226168677832156], [-1.9069453107360799, 48.22674470793201], [-1.9059182803560586, 48.227320738031864], [-1.904891249976038, 48.227896768131714], [-1.9038642195960167, 48.228472798231564], [-1.9028371892159954, 48.229048828331415], [-1.9018101588359742, 48.229624858431265], [-1.9018101588359742, 48.229624858431265], [-1.897901139307096, 48.228827868271566], [-1.8939921197782168, 48.228030878111866], [-1.890083100249338, 48.22723388795217], [-1.886174080720459, 48.226436897792475], [-1.8822650611915808, 48.225639907632775], [-1.8783560416627023, 48.224842917473076], [-1.8744470221338227, 48.224045927313384], [-1.8705380026049443, 48.223248937153684], [-1.8666289830760654, 48.222451946993985], [-1.8627199635471865, 48.22165495683429], [-1.8627199635471865, 48.22165495683429], [-1.8594513669343096, 48.220459354517956], [-1.856182770321432, 48.219263752201634], [-1.852914173708555, 48.2180681498853], [-1.8496455770956775, 48.216872547568975], [-1.8463769804828003, 48.215676945252646], [-1.8431083838699238, 48.21448134293632], [-1.839839787257046, 48.21328574061999], [-1.8365711906441686, 48.21209013830366], [-1.833302594031292, 48.21089453598733], [-1.8300339974184143, 48.209698933671], [-1.8300339974184143, 48.209698933671], [-1.8288748748331405, 48.21227045248016], [-1.8277157522478678, 48.214841971289324], [-1.826556629662594, 48.21741349009848], [-1.825397507077321, 48.219985008907635], [-1.8242383844920473, 48.22255652771679], [-1.8230792619067742, 48.22512804652596], [-1.8219201393215012, 48.227699565335115], [-1.8207610167362265, 48.23027108414427], [-1.8196018941509537, 48.23284260295343], [-1.81844277156568, 48.23541412176259], [-1.81844277156568, 48.23541412176259], [-1.8208755676780524, 48.23736410537429], [-1.823308363790424, 48.239314088985985], [-1.8257411599027964, 48.24126407259768], [-1.8281739560151686, 48.243214056209375], [-1.83060675212754, 48.24516403982107], [-1.8330395482399116, 48.247114023432765], [-1.8354723443522842, 48.24906400704445], [-1.8379051404646558, 48.25101399065615], [-1.8403379365770283, 48.25296397426784], [-1.8427707326893998, 48.25491395787954], [-1.8427707326893998, 48.25491395787954], [-1.8423822532423373, 48.25686464011173], [-1.8419937737952756, 48.25881532234394], [-1.8416052943482133, 48.26076600457613], [-1.8412168149011507, 48.262716686808325], [-1.8408283354540884, 48.264667369040524], [-1.8404398560070268, 48.26661805127272], [-1.8400513765599642, 48.268568733504914], [-1.839662897112903, 48.27051941573711], [-1.8392744176658407, 48.272470097969304], [-1.8388859382187788, 48.2744207802015], [-1.8388859382187788, 48.2744207802015], [-1.8368322097287175, 48.27539658537974], [-1.834778481238657, 48.27637239055797], [-1.8327247527485968, 48.277348195736195], [-1.8306710242585362, 48.278324000914424], [-1.828617295768476, 48.27929980609266], [-1.8265635672784155, 48.28027561127089], [-1.8245098387883543, 48.28125141644912], [-1.822456110298294, 48.282227221627345], [-1.8204023818082333, 48.28320302680558], [-1.818348653318173, 48.28417883198381], [-1.818348653318173, 48.28417883198381], [-1.8166753614387006, 48.2873711233632], [-1.815002069559227, 48.29056341474259], [-1.8133287776797558, 48.293755706121985], [-1.8116554858002825, 48.29694799750137], [-1.8099821939208098, 48.30014028888076], [-1.8083089020413379, 48.30333258026014], [-1.8066356101618652, 48.30652487163953], [-1.8049623182823928, 48.309717163018924], [-1.8032890264029195, 48.31290945439832], [-1.8016157345234483, 48.31610174577771], [-1.8016157345234483, 48.31610174577771], [-1.795077195138004, 48.31601471409958], [-1.78853865575256, 48.31592768242144], [-1.7820001163671157, 48.31584065074332], [-1.7754615769816715, 48.31575361906518], [-1.7689230375962277, 48.31566658738705], [-1.7623844982107835, 48.315579555708915], [-1.7558459588253403, 48.31549252403079], [-1.749307419439897, 48.31540549235265], [-1.742768880054452, 48.31531846067452], [-1.736230340669008, 48.315231428996384], [-1.736230340669008, 48.315231428996384], [-1.7316109469179677, 48.316651191796026], [-1.7269915531669255, 48.318070954595655], [-1.7223721594158852, 48.31949071739529], [-1.717752765664844, 48.320910480194925], [-1.7131333719138027, 48.32233024299456], [-1.7085139781627623, 48.323750005794196], [-1.703894584411721, 48.325169768593824], [-1.6992751906606807, 48.326589531393466], [-1.6946557969096396, 48.328009294193095], [-1.6900364031585982, 48.32942905699274], [-1.6900364031585982, 48.32942905699274], [-1.6881093754222223, 48.33120280173198], [-1.6861823476858486, 48.33297654647122], [-1.6842553199494719, 48.334750291210476], [-1.682328292213097, 48.33652403594972], [-1.6804012644767212, 48.338297780688976], [-1.6784742367403467, 48.340071525428215], [-1.6765472090039708, 48.34184527016747], [-1.674620181267596, 48.34361901490672], [-1.6726931535312202, 48.34539275964597], [-1.6707661257948454, 48.34716650438522], [-1.6707661257948454, 48.34716650438522], [-1.6697850782990495, 48.35033405473151], [-1.6688040308032535, 48.3535016050778], [-1.6678229833074583, 48.3566691554241], [-1.6668419358116613, 48.35983670577039], [-1.6658608883158652, 48.36300425611669], [-1.6648798408200691, 48.36617180646298], [-1.6638987933242728, 48.36933935680928], [-1.6629177458284778, 48.37250690715557], [-1.6619366983326809, 48.37567445750186], [-1.6609556508368857, 48.37884200784816], [-1.6609556508368857, 48.37884200784816], [-1.6646705378061313, 48.38015714059047], [-1.668385424775376, 48.38147227333278], [-1.6721003117446216, 48.3827874060751], [-1.6758151987138672, 48.384102538817416], [-1.6795300856831128, 48.38541767155973], [-1.6832449726523586, 48.38673280430205], [-1.686959859621603, 48.38804793704437], [-1.690674746590849, 48.38936306978668], [-1.6943896335600945, 48.390678202528996], [-1.6981045205293401, 48.39199333527131], [-1.6981045205293401, 48.39199333527131], [-1.7013716585179526, 48.3907394832648], [-1.7046387965065655, 48.38948563125828], [-1.7079059344951788, 48.388231779251775], [-1.7111730724837917, 48.38697792724526], [-1.7144402104724044, 48.385724075238755], [-1.717707348461017, 48.38447022323224], [-1.7209744864496297, 48.383216371225735], [-1.724241624438243, 48.38196251921922], [-1.7275087624268568, 48.38070866721271], [-1.7307759004154692, 48.379454815206195], [-1.7307759004154692, 48.379454815206195], [-1.7318556409680823, 48.38359180034921], [-1.7329353815206952, 48.38772878549222], [-1.7340151220733082, 48.391865770635235], [-1.735094862625921, 48.39600275577825], [-1.7361746031785348, 48.40013974092126], [-1.7372543437311476, 48.40427672606427], [-1.7383340842837598, 48.40841371120728], [-1.7394138248363735, 48.412550696350294], [-1.7404935653889866, 48.41668768149331], [-1.7415733059415994, 48.420824666636314], [-1.7415733059415994, 48.420824666636314], [-1.7446562883516925, 48.421325966202744], [-1.747739270761786, 48.42182726576917], [-1.7508222531718785, 48.42232856533558], [-1.7539052355819724, 48.422829864902006], [-1.7569882179920648, 48.42333116446842], [-1.760071200402158, 48.42383246403485], [-1.7631541828122512, 48.424333763601275], [-1.7662371652223445, 48.42483506316769], [-1.7693201476324378, 48.425336362734114], [-1.7724031300425305, 48.42583766230053], [-1.7724031300425305, 48.42583766230053], [-1.7755737913171128, 48.42734093941158], [-1.778744452591695, 48.42884421652262], [-1.7819151138662763, 48.43034749363367], [-1.7850857751408582, 48.43185077074471], [-1.7882564364154399, 48.43335404785576], [-1.7914270976900217, 48.4348573249668], [-1.7945977589646034, 48.43636060207785], [-1.7977684202391853, 48.43786387918889], [-1.8009390815137671, 48.43936715629994], [-1.8041097427883488, 48.44087043341098], [-1.8041097427883488, 48.44087043341098], [-1.8056516194618795, 48.44011801441595], [-1.8071934961354092, 48.439365595420924], [-1.8087353728089397, 48.438613176425896], [-1.8102772494824695, 48.437860757430876], [-1.8118191261560002, 48.43710833843585], [-1.8133610028295306, 48.436355919440814], [-1.8149028795030604, 48.435603500445794], [-1.816444756176591, 48.43485108145076], [-1.8179866328501217, 48.43409866245574], [-1.819528509523651, 48.43334624346071], [-1.819528509523651, 48.43334624346071], [-1.8201669230585098, 48.431590983990525], [-1.8208053365933692, 48.42983572452032], [-1.8214437501282275, 48.428080465050144], [-1.822082163663087, 48.42632520557994], [-1.8227205771979456, 48.424569946109756], [-1.823358990732804, 48.42281468663957], [-1.8239974042676634, 48.421059427169375], [-1.8246358178025222, 48.41930416769918], [-1.8252742313373813, 48.417548908228994], [-1.8259126448722398, 48.4157936487588], [-1.8259126448722398, 48.4157936487588], [-1.8251950241507207, 48.412157570221986], [-1.8244774034292013, 48.40852149168517], [-1.8237597827076821, 48.40488541314836], [-1.823042161986164, 48.401249334611535], [-1.8223245412646447, 48.39761325607472], [-1.8216069205431258, 48.393977177537906], [-1.8208892998216064, 48.390341099001084], [-1.820171679100087, 48.38670502046428], [-1.819454058378569, 48.38306894192746], [-1.8187364376570498, 48.37943286339063], [-1.8187364376570498, 48.37943286339063], [-1.820281227225842, 48.37717530875233], [-1.8218260167946352, 48.37491775411401], [-1.8233708063634275, 48.37266019947569], [-1.8249155959322205, 48.37040264483738], [-1.8264603855010129, 48.36814509019906], [-1.8280051750698052, 48.36588753556073], [-1.8295499646385982, 48.363629980922425], [-1.8310947542073905, 48.361372426284106], [-1.8326395437761838, 48.35911487164579], [-1.8341843333449759, 48.356857317007474], [-1.8341843333449759, 48.356857317007474], [-1.839989988890133, 48.3564168223542], [-1.8457956444352899, 48.355976327700915], [-1.851601299980446, 48.35553583304765], [-1.8574069555256032, 48.355095338394364], [-1.86321261107076, 48.35465484374109], [-1.869018266615917, 48.35421434908781], [-1.874823922161074, 48.35377385443453], [-1.8806295777062303, 48.35333335978126], [-1.8864352332513872, 48.35289286512798], [-1.8922408887965443, 48.3524523704747], [-1.8922408887965443, 48.3524523704747], [-1.8971365906973339, 48.35276520910154], [-1.9020322925981237, 48.35307804772839], [-1.9069279944989133, 48.35339088635524], [-1.911823696399704, 48.35370372498208], [-1.9167193983004935, 48.35401656360893], [-1.9216151002012831, 48.35432940223578], [-1.9265108021020736, 48.35464224086262], [-1.9314065040028636, 48.354955079489464], [-1.936302205903653, 48.35526791811632], [-1.9411979078044428, 48.35558075674315], [-1.9411979078044428, 48.35558075674315], [-1.9426510290543653, 48.35438824760855], [-1.9441041503042875, 48.35319573847395], [-1.9455572715542102, 48.35200322933934], [-1.9470103928041322, 48.35081072020474], [-1.9484635140540538, 48.349618211070144], [-1.949916635303976, 48.34842570193553], [-1.9513697565538983, 48.347233192800935], [-1.9528228778038206, 48.346040683666324], [-1.954275999053743, 48.34484817453173], [-1.9557291203036653, 48.34365566539713], [-1.9557291203036653, 48.34365566539713], [-1.9552832182184545, 48.339330513521226], [-1.9548373161332444, 48.33500536164533], [-1.954391414048033, 48.33068020976944], [-1.953945511962823, 48.326355057893544], [-1.9534996098776125, 48.32202990601765], [-1.9530537077924024, 48.31770475414176], [-1.9526078057071912, 48.313379602265854], [-1.952161903621981, 48.309054450389965], [-1.9517160015367705, 48.30472929851407], [-1.9512700994515602, 48.30040414663817], [-1.9512700994515602, 48.30040414663817], [-1.9521777747919262, 48.30002790301597], [-1.9530854501322918, 48.29965165939378], [-1.9539931254726586, 48.29927541577158], [-1.9549008008130249, 48.29889917214939], [-1.9558084761533907, 48.29852292852719], [-1.9567161514937566, 48.29814668490499], [-1.9576238268341233, 48.2977704412828], [-1.9585315021744896, 48.2973941976606], [-1.959439177514855, 48.2970179540384], [-1.9603468528552213, 48.2966417104162], [-1.9603468528552213, 48.2966417104162], [-1.9628849143578606, 48.29689210875632], [-1.9654229758604989, 48.29714250709642], [-1.9679610373631375, 48.29739290543653], [-1.9704990988657767, 48.29764330377664], [-1.9730371603684154, 48.297893702116745], [-1.975575221871055, 48.29814410045686], [-1.9781132833736932, 48.298394498796966], [-1.9806513448763319, 48.29864489713707], [-1.9831894063789712, 48.29889529547717], [-1.9857274678816097, 48.29914569381729], [-1.9857274678816097, 48.29914569381729], [-1.9878099110734566, 48.30090027972794], [-1.989892354265303, 48.30265486563859], [-1.9919747974571498, 48.30440945154924], [-1.9940572406489965, 48.3061640374599], [-1.996139683840843, 48.30791862337054], [-1.9982221270326899, 48.30967320928119], [-2.000304570224537, 48.31142779519185], [-2.0023870134163833, 48.3131823811025], [-2.00446945660823, 48.314936967013146], [-2.0065518998000766, 48.3166915529238], [-2.0065518998000766, 48.3166915529238], [-2.0099973954152013, 48.31669069305088], [-2.0134428910303264, 48.316689833177946], [-2.016888386645451, 48.316688973305034], [-2.020333882260576, 48.31668811343211], [-2.0237793778757003, 48.31668725355919], [-2.027224873490826, 48.31668639368627], [-2.0306703691059504, 48.316685533813335], [-2.0341158647210746, 48.316684673940415], [-2.0375613603362, 48.316683814067495], [-2.0410068559513252, 48.31668295419457], [-2.0410068559513252, 48.31668295419457], [-2.0413680146753093, 48.31768593000959], [-2.0417291733992933, 48.318688905824615], [-2.042090332123278, 48.319691881639635], [-2.042451490847262, 48.320694857454654], [-2.042812649571247, 48.321697833269674], [-2.043173808295231, 48.3227008090847], [-2.043534967019216, 48.32370378489972], [-2.0438961257432, 48.32470676071474], [-2.044257284467184, 48.32570973652975], [-2.044618443191169, 48.32671271234478], [-2.044618443191169, 48.32671271234478], [-2.042799212655771, 48.329471337921525], [-2.040979982120373, 48.332229963498264], [-2.0391607515849755, 48.334988589075], [-2.0373415210495773, 48.337747214651756], [-2.035522290514179, 48.340505840228495], [-2.033703059978782, 48.34326446580524], [-2.031883829443383, 48.34602309138199], [-2.0300645989079857, 48.348781716958726], [-2.0282453683725876, 48.35154034253547], [-2.0264261378371895, 48.35429896811221], [-2.0264261378371895, 48.35429896811221], [-2.029417956971061, 48.35480029042973], [-2.032409776104932, 48.35530161274726], [-2.0354015952388025, 48.35580293506479], [-2.038393414372674, 48.35630425738232], [-2.0413852335065448, 48.35680557969984], [-2.0443770526404155, 48.35730690201737], [-2.047368871774287, 48.357808224334896], [-2.0503606909081578, 48.35830954665242], [-2.0533525100420293, 48.35881086896995], [-2.0563443291759, 48.35931219128748], [-2.0563443291759, 48.35931219128748], [-2.0623312757818364, 48.35780556224262], [-2.0683182223877736, 48.356298933197756], [-2.0743051689937104, 48.3547923041529], [-2.0802921155996468, 48.35328567510804], [-2.086279062205584, 48.351779046063186], [-2.092266008811521, 48.350272417018324], [-2.0982529554174567, 48.34876578797346], [-2.1042399020233935, 48.34725915892861], [-2.1102268486293307, 48.34575252988375], [-2.1162137952352675, 48.34424590083889], [-2.1162137952352675, 48.34424590083889], [-2.1185685327178834, 48.345812404775856], [-2.120923270200498, 48.34737890871283], [-2.1232780076831137, 48.34894541264981], [-2.1256327451657286, 48.350511916586775], [-2.127987482648344, 48.352078420523746], [-2.1303422201309594, 48.35364492446072], [-2.1326969576135744, 48.35521142839769], [-2.13505169509619, 48.356777932334666], [-2.137406432578805, 48.358344436271636], [-2.139761170061421, 48.3599109402086], [-2.139761170061421, 48.3599109402086], [-2.1396680482105097, 48.36172909226319], [-2.1395749263595993, 48.36354724431778], [-2.139481804508688, 48.365365396372354], [-2.1393886826577773, 48.36718354842694], [-2.1392955608068656, 48.36900170048152], [-2.139202438955955, 48.3708198525361], [-2.139109317105044, 48.372638004590684], [-2.1390161952541327, 48.374456156645266], [-2.1389230734032223, 48.37627430869985], [-2.138829951552311, 48.37809246075444], [-2.138829951552311, 48.37809246075444], [-2.132480765535837, 48.37916013990214], [-2.126131579519363, 48.38022781904985], [-2.1197823935028905, 48.381295498197545], [-2.113433207486416, 48.382363177345255], [-2.1070840214699427, 48.38343085649296], [-2.10073483545347, 48.38449853564067], [-2.0943856494369957, 48.38556621478837], [-2.088036463420522, 48.38663389393607], [-2.0816872774040487, 48.38770157308378], [-2.0753380913875747, 48.388769252231484], [-2.0753380913875747, 48.388769252231484], [-2.0736098113608126, 48.39083884411309], [-2.0718815313340504, 48.3929084359947], [-2.0701532513072882, 48.39497802787631], [-2.0684249712805256, 48.39704761975792], [-2.066696691253764, 48.39911721163952], [-2.0649684112270013, 48.40118680352113], [-2.0632401312002386, 48.403256395402735], [-2.061511851173476, 48.40532598728434], [-2.0597835711467134, 48.40739557916595], [-2.0580552911199526, 48.40946517104756], [-2.0580552911199526, 48.40946517104756], [-2.0565999947338995, 48.41178466550011], [-2.0551446983478465, 48.41410415995266], [-2.0536894019617944, 48.4164236544052], [-2.0522341055757423, 48.41874314885774], [-2.0507788091896892, 48.42106264331029], [-2.0493235128036367, 48.423382137762836], [-2.0478682164175837, 48.425701632215386], [-2.0464129200315315, 48.428021126667936], [-2.044957623645479, 48.43034062112048], [-2.043502327259427, 48.43266011557302], [-2.043502327259427, 48.43266011557302], [-2.0496648155786117, 48.43466471499962], [-2.0558273038977966, 48.43666931442621], [-2.0619897922169814, 48.43867391385281], [-2.0681522805361663, 48.44067851327941], [-2.0743147688553507, 48.44268311270601], [-2.080477257174535, 48.444687712132605], [-2.086639745493721, 48.446692311559204], [-2.0928022338129058, 48.448696910985795], [-2.0989647221320906, 48.45070151041239], [-2.1051272104512755, 48.452706109838985], [-2.1051272104512755, 48.452706109838985], [-2.105667805429886, 48.454399118391464], [-2.106208400408496, 48.45609212694394], [-2.1067489953871066, 48.45778513549643], [-2.107289590365717, 48.45947814404891], [-2.1078301853443264, 48.461171152601395], [-2.1083707803229377, 48.462864161153874], [-2.1089113753015476, 48.46455716970635], [-2.1094519702801575, 48.46625017825883], [-2.1099925652587674, 48.46794318681132], [-2.110533160237378, 48.4696361953638], [-2.110533160237378, 48.4696361953638], [-2.1084471715963335, 48.47051373549875], [-2.106361182955289, 48.47139127563369], [-2.104275194314244, 48.47226881576864], [-2.1021892056731994, 48.47314635590359], [-2.100103217032155, 48.474023896038545], [-2.09801722839111, 48.4749014361735], [-2.0959312397500662, 48.47577897630843], [-2.0938452511090215, 48.476656516443384], [-2.091759262467977, 48.47753405657833], [-2.089673273826932, 48.47841159671328], [-2.089673273826932, 48.47841159671328], [-2.0807827889762605, 48.4801069589272], [-2.0718923041255883, 48.481802321141124], [-2.0630018192749153, 48.48349768335505], [-2.0541113344242445, 48.48519304556898], [-2.045220849573572, 48.4868884077829], [-2.0363303647229003, 48.48858376999682], [-2.0274398798722286, 48.490279132210745], [-2.018549395021556, 48.49197449442466], [-2.0096589101708844, 48.4936698566386], [-2.0007684253202123, 48.49536521885252], [-2.0007684253202123, 48.49536521885252], [-1.9929677011344704, 48.496809277351204], [-1.9851669769487283, 48.49825333584988], [-1.9773662527629865, 48.499697394348566], [-1.9695655285772449, 48.50114145284724], [-1.9617648043915028, 48.502585511345934], [-1.953964080205761, 48.50402956984462], [-1.9461633560200193, 48.50547362834329], [-1.9383626318342777, 48.50691768684198], [-1.9305619076485356, 48.50836174534066], [-1.9227611834627933, 48.50980580383935], [-1.9227611834627933, 48.50980580383935], [-1.9208475297116137, 48.514257596446484], [-1.9189338759604337, 48.51870938905362], [-1.9170202222092538, 48.523161181660754], [-1.9151065684580744, 48.52761297426789], [-1.9131929147068947, 48.53206476687503], [-1.9112792609557145, 48.536516559482166], [-1.9093656072045344, 48.54096835208931], [-1.907451953453355, 48.54542014469644], [-1.905538299702175, 48.54987193730358], [-1.9036246459509951, 48.55432372991071], [-1.9036246459509951, 48.55432372991071], [-1.8989968818828413, 48.55607998498064], [-1.8943691178146878, 48.557836240050555], [-1.889741353746534, 48.55959249512048], [-1.8851135896783802, 48.5613487501904], [-1.8804858256102268, 48.56310500526032], [-1.875858061542073, 48.56486126033024], [-1.8712302974739192, 48.56661751540016], [-1.8666025334057654, 48.568373770470075], [-1.8619747693376116, 48.57013002554], [-1.857347005269458, 48.57188628060992], [-1.857347005269458, 48.57188628060992], [-1.8548926126273648, 48.575518879213995], [-1.8524382199852714, 48.579151477818066], [-1.8499838273431772, 48.582784076422136], [-1.847529434701084, 48.58641667502621], [-1.8450750420589905, 48.590049273630285], [-1.8426206494168973, 48.593681872234356], [-1.8401662567748032, 48.59731447083843], [-1.83771186413271, 48.6009470694425], [-1.835257471490617, 48.604579668046576], [-1.8328030788485226, 48.60821226665064], [-1.8328030788485226, 48.60821226665064], [-1.8378961245460457, 48.61006937952793], [-1.8424394210634236, 48.6124742879242], [-1.8465023347073397, 48.61533797874649], [-1.8501542317844797, 48.618571438901796], [-1.8534644786015269, 48.62208565529715], [-1.8565024414651663, 48.62579161483953], [-1.859337486682082, 48.629600304435954], [-1.8620389805589581, 48.63342271099345], [-1.8646762894024789, 48.63716982141901], [-1.8673187795193287, 48.64075262261966], [-1.8673187795193322, 48.64075262261966], [-1.8689623799825834, 48.64359631208091], [-1.8697785425028446, 48.64684731953896], [-1.8698309074544612, 48.650373753597805], [-1.8691831152117773, 48.65404372286143], [-1.8678988061491373, 48.65772533593386], [-1.8660416206408863, 48.66128670141907], [-1.8636751990613696, 48.66459592792109], [-1.8608631817849308, 48.66752112404391], [-1.8576692091859144, 48.66993039839152], [-1.8541569216386662, 48.67169185956794], [-1.8541569216386644, 48.67169185956794], [-1.848972429928047, 48.6732538028021], [-1.845239747059303, 48.67530191822955], [-1.8428027867883763, 48.6777502050909], [-1.8415054628712098, 48.68051266262674], [-1.841191689063746, 48.683503290077695], [-1.8417053791219287, 48.68663608668436], [-1.8428904468017004, 48.68982505168738], [-1.8445908058590041, 48.69298418432732], [-1.8466503700497834, 48.69602748384482], [-1.8489130531299816, 48.69886894948047], [-1.8489130531299842, 48.69886894948047], [-1.8487999831448576, 48.699868898010095], [-1.8487825374700761, 48.70074257478397], [-1.8488571183052003, 48.701495390751965], [-1.8490201278497886, 48.702132756863946], [-1.8492679683034041, 48.702660084069755], [-1.849597041865605, 48.70308278331926], [-1.8500037507359517, 48.70340626556233], [-1.8504844971140035, 48.703635941748814], [-1.8510356831993218, 48.70377722282858], [-1.8516537111914657, 48.703835519751486], [-1.851653711191467, 48.703835519751486]]]}}]}